{
"type": "FeatureCollection",
"name": "loop_05000m_004",
"crs": { "type": "name", "properties": { "name": "urn:ogc:def:crs:OGC:1.3:CRS84" } },
"features": [
{ "type": "Feature", "properties": { "route_id": "loop_05000m_004", "budget_km": 5.0, "mode": "loop", "rank": 4, "distance_m": 846.70260149495914, "ascent_m": 50.907400434875399, "descent_m": 50.907400434875399, "gain_density_m_per_km": 60.124299069108837, "source_confidence": 0.65 }, "geometry": { "type": "LineString", "coordinates": [ [ 103.663819380035562, 1.351282523445758 ], [ 103.6634709, 1.3516015 ], [ 103.6631974, 1.3517188 ], [ 103.6628815, 1.3518099 ], [ 103.662774, 1.3518099 ], [ 103.6623636, 1.3518034 ], [ 103.6622203, 1.3517643 ], [ 103.6620542, 1.3516536 ], [ 103.6619337, 1.3515104 ], [ 103.6618621, 1.3513606 ], [ 103.6618523, 1.3512043 ], [ 103.6618132, 1.3508332 ], [ 103.661595, 1.3500941 ], [ 103.661537507301375, 1.349730841526815 ], [ 103.6617297, 1.3496647 ], [ 103.6625981, 1.3495601 ], [ 103.662826700000011, 1.3495681 ], [ 103.6630606, 1.3496253 ], [ 103.6633667, 1.3498792 ], [ 103.66372320264027, 1.350441280604174 ], [ 103.6637054, 1.3505434 ], [ 103.6636728, 1.3507681 ], [ 103.6637347, 1.3509569 ], [ 103.6638488, 1.351077 ], [ 103.66396647988276, 1.351200960457731 ], [ 103.663819380035562, 1.351282523445758 ] ] } }
]
}
