<?xml version="1.0" encoding="UTF-8"?>
<gpx xmlns="http://www.topografix.com/GPX/1/1" xmlns:xsi="http://www.w3.org/2001/XMLSchema-instance" xsi:schemaLocation="http://www.topografix.com/GPX/1/1 http://www.topografix.com/GPX/1/1/gpx.xsd" version="1.1" creator="gpx.py -- https://github.com/tkrajina/gpxpy">
  <trk>
    <name>loop_10000m_001</name>
    <trkseg>
      <trkpt lat="1.345619464370859" lon="103.83659149908173">
        <ele>20.0</ele>
      </trkpt>
      <trkpt lat="1.3457084048396577" lon="103.83657868513377">
        <ele>20.0</ele>
      </trkpt>
      <trkpt lat="1.3457679248070358" lon="103.83651103294704">
        <ele>20.0</ele>
      </trkpt>
      <trkpt lat="1.3458241633241426" lon="103.83644071359548">
        <ele>20.0</ele>
      </trkpt>
      <trkpt lat="1.3458755723328946" lon="103.8363670649704">
        <ele>20.0</ele>
      </trkpt>
      <trkpt lat="1.3459187216754533" lon="103.83628809611967">
        <ele>20.0</ele>
      </trkpt>
      <trkpt lat="1.3459503428625936" lon="103.83620452832356">
        <ele>20.0</ele>
      </trkpt>
      <trkpt lat="1.3459741365530415" lon="103.83611783789222">
        <ele>20.0</ele>
      </trkpt>
      <trkpt lat="1.346006367152514" lon="103.83603398176086">
        <ele>20.0</ele>
      </trkpt>
      <trkpt lat="1.3460404030060609" lon="103.83595073208645">
        <ele>20.0</ele>
      </trkpt>
      <trkpt lat="1.3460740322888154" lon="103.83586732636181">
        <ele>20.0</ele>
      </trkpt>
      <trkpt lat="1.3461051633486185" lon="103.83578296177413">
        <ele>20.0</ele>
      </trkpt>
      <trkpt lat="1.3461362944054809" lon="103.8356985971843">
        <ele>20.0</ele>
      </trkpt>
      <trkpt lat="1.3461807344131689" lon="103.83562108075687">
        <ele>20.0</ele>
      </trkpt>
      <trkpt lat="1.3462321170795115" lon="103.83554713669483">
        <ele>20.0</ele>
      </trkpt>
      <trkpt lat="1.3462834997435809" lon="103.83547319262968">
        <ele>20.0</ele>
      </trkpt>
      <trkpt lat="1.3463348824053767" lon="103.83539924856143">
        <ele>20.0</ele>
      </trkpt>
      <trkpt lat="1.3463902346712746" lon="103.8353282655024">
        <ele>20.0</ele>
      </trkpt>
      <trkpt lat="1.346447358477658" lon="103.8352586038707">
        <ele>20.0</ele>
      </trkpt>
      <trkpt lat="1.3465044822820158" lon="103.83518894223576">
        <ele>20.0</ele>
      </trkpt>
      <trkpt lat="1.3465616060843486" lon="103.83511928059758">
        <ele>20.0</ele>
      </trkpt>
      <trkpt lat="1.3466187298846555" lon="103.83504961895616">
        <ele>20.0</ele>
      </trkpt>
      <trkpt lat="1.3466765310580733" lon="103.83498052561707">
        <ele>20.0</ele>
      </trkpt>
      <trkpt lat="1.346736081400215" lon="103.83491289979749">
        <ele>20.0</ele>
      </trkpt>
      <trkpt lat="1.346795631740443" lon="103.83484527397464">
        <ele>20.0</ele>
      </trkpt>
      <trkpt lat="1.3468551820787578" lon="103.8347776481485">
        <ele>20.0</ele>
      </trkpt>
      <trkpt lat="1.3469265632173777" lon="103.83472254295812">
        <ele>20.0</ele>
      </trkpt>
      <trkpt lat="1.347008406397194" lon="103.83468706031583">
        <ele>20.0</ele>
      </trkpt>
      <trkpt lat="1.3470945848714553" lon="103.83465981325826">
        <ele>20.0</ele>
      </trkpt>
      <trkpt lat="1.3471703675942457" lon="103.83461136065846">
        <ele>20.0</ele>
      </trkpt>
      <trkpt lat="1.3472450867609975" lon="103.83456073858682">
        <ele>20.0</ele>
      </trkpt>
      <trkpt lat="1.3473021388598871" lon="103.83449190938511">
        <ele>20.0</ele>
      </trkpt>
      <trkpt lat="1.347355729886059" lon="103.83441953527755">
        <ele>20.0</ele>
      </trkpt>
      <trkpt lat="1.34739756006271" lon="103.83433986875329">
        <ele>20.0</ele>
      </trkpt>
      <trkpt lat="1.3474393902367263" lon="103.83426020222632">
        <ele>20.0</ele>
      </trkpt>
      <trkpt lat="1.347501836635722" lon="103.83419526185091">
        <ele>20.0</ele>
      </trkpt>
      <trkpt lat="1.34756451663135" lon="103.83413048833133">
        <ele>20.0</ele>
      </trkpt>
      <trkpt lat="1.3476280418858753" lon="103.83406658274768">
        <ele>20.0</ele>
      </trkpt>
      <trkpt lat="1.3476952606328463" lon="103.83400646975224">
        <ele>20.0</ele>
      </trkpt>
      <trkpt lat="1.347762479378288" lon="103.83394635675353">
        <ele>20.0</ele>
      </trkpt>
      <trkpt lat="1.3478286954658605" lon="103.83388541500962">
        <ele>20.0</ele>
      </trkpt>
      <trkpt lat="1.3478759514196865" lon="103.83380880183556">
        <ele>20.0</ele>
      </trkpt>
      <trkpt lat="1.3479232073710696" lon="103.83373218865854">
        <ele>20.0</ele>
      </trkpt>
      <trkpt lat="1.3479734087772375" lon="103.83365775509235">
        <ele>20.0</ele>
      </trkpt>
      <trkpt lat="1.3480337499508623" lon="103.83359082486781">
        <ele>20.0</ele>
      </trkpt>
      <trkpt lat="1.348094091122607" lon="103.83352389463998">
        <ele>20.0</ele>
      </trkpt>
      <trkpt lat="1.3481544322924708" lon="103.83345696440887">
        <ele>20.0</ele>
      </trkpt>
      <trkpt lat="1.348214773460453" lon="103.83339003417444">
        <ele>20.0</ele>
      </trkpt>
      <trkpt lat="1.3482780928279834" lon="103.83332643551107">
        <ele>20.0</ele>
      </trkpt>
      <trkpt lat="1.3483521053583178" lon="103.83327479878609">
        <ele>20.0</ele>
      </trkpt>
      <trkpt lat="1.3484261178875045" lon="103.83322316205799">
        <ele>20.0</ele>
      </trkpt>
      <trkpt lat="1.3485001304155442" lon="103.83317152532678">
        <ele>20.0</ele>
      </trkpt>
      <trkpt lat="1.3485741429424356" lon="103.83311988859244">
        <ele>20.0</ele>
      </trkpt>
      <trkpt lat="1.3486525940688152" lon="103.83307544449812">
        <ele>20.0</ele>
      </trkpt>
      <trkpt lat="1.3487324796629725" lon="103.8330333249221">
        <ele>20.0</ele>
      </trkpt>
      <trkpt lat="1.3488123652563426" lon="103.83299120534333">
        <ele>20.0</ele>
      </trkpt>
      <trkpt lat="1.3488922508489258" lon="103.83294908576183">
        <ele>20.0</ele>
      </trkpt>
      <trkpt lat="1.3489697118631947" lon="103.83290299989733">
        <ele>20.0</ele>
      </trkpt>
      <trkpt lat="1.3490441586082205" lon="103.83285198309558">
        <ele>20.0</ele>
      </trkpt>
      <trkpt lat="1.3491186053521227" lon="103.8328009662907">
        <ele>20.0</ele>
      </trkpt>
      <trkpt lat="1.3491740911467918" lon="103.8327319992413">
        <ele>20.0</ele>
      </trkpt>
      <trkpt lat="1.3492217813086989" lon="103.83265565210172">
        <ele>20.0</ele>
      </trkpt>
      <trkpt lat="1.3492684470450658" lon="103.83257882036747">
        <ele>20.0</ele>
      </trkpt>
      <trkpt lat="1.3492980276991975" lon="103.83249390672827">
        <ele>20.0</ele>
      </trkpt>
      <trkpt lat="1.3493276083503385" lon="103.83240899308703">
        <ele>20.0</ele>
      </trkpt>
      <trkpt lat="1.3493501621358042" lon="103.8323220029154">
        <ele>20.0</ele>
      </trkpt>
      <trkpt lat="1.3493720943639038" lon="103.83223482906492">
        <ele>20.0</ele>
      </trkpt>
      <trkpt lat="1.349394026588855" lon="103.83214765521288">
        <ele>20.0</ele>
      </trkpt>
      <trkpt lat="1.3494384277676608" lon="103.83207093693932">
        <ele>20.0</ele>
      </trkpt>
      <trkpt lat="1.349491783985078" lon="103.831998385752">
        <ele>20.0</ele>
      </trkpt>
      <trkpt lat="1.3495479079316945" lon="103.83192828282702">
        <ele>20.0</ele>
      </trkpt>
      <trkpt lat="1.3496142643412252" lon="103.83186723127938">
        <ele>20.0</ele>
      </trkpt>
      <trkpt lat="1.3496806207491734" lon="103.83180617972842">
        <ele>20.0</ele>
      </trkpt>
      <trkpt lat="1.3497503172829588" lon="103.83174938683366">
        <ele>20.0</ele>
      </trkpt>
      <trkpt lat="1.3498261139335883" lon="103.83170037158092">
        <ele>20.0</ele>
      </trkpt>
      <trkpt lat="1.3499019105831729" lon="103.83165135632512">
        <ele>20.0</ele>
      </trkpt>
      <trkpt lat="1.349977707231712" lon="103.83160234106631">
        <ele>20.0</ele>
      </trkpt>
      <trkpt lat="1.3500535038792056" lon="103.83155332580446">
        <ele>20.0</ele>
      </trkpt>
      <trkpt lat="1.3501293005256532" lon="103.83150431053956">
        <ele>20.0</ele>
      </trkpt>
      <trkpt lat="1.3502040882362816" lon="103.83145381831658">
        <ele>20.0</ele>
      </trkpt>
      <trkpt lat="1.3502779200751813" lon="103.83140192681479">
        <ele>20.0</ele>
      </trkpt>
      <trkpt lat="1.3503517519129171" lon="103.83135003530988">
        <ele>20.0</ele>
      </trkpt>
      <trkpt lat="1.350425583749489" lon="103.83129814380183">
        <ele>20.0</ele>
      </trkpt>
      <trkpt lat="1.3505001358493993" lon="103.83124728898979">
        <ele>20.0</ele>
      </trkpt>
      <trkpt lat="1.3505751455083619" lon="103.83119709275527">
        <ele>20.0</ele>
      </trkpt>
      <trkpt lat="1.35065015516623" lon="103.83114689651767">
        <ele>20.0</ele>
      </trkpt>
      <trkpt lat="1.350725164823003" lon="103.83109670027697">
        <ele>20.0</ele>
      </trkpt>
      <trkpt lat="1.3508000933460067" lon="103.8310463931007">
        <ele>20.0</ele>
      </trkpt>
      <trkpt lat="1.3508713103625714" lon="103.83099101119016">
        <ele>20.0</ele>
      </trkpt>
      <trkpt lat="1.3509425273778182" lon="103.83093562927638">
        <ele>20.0</ele>
      </trkpt>
      <trkpt lat="1.3510137443917474" lon="103.83088024735937">
        <ele>20.0</ele>
      </trkpt>
      <trkpt lat="1.351084961404358" lon="103.83082486543914">
        <ele>20.000000000000004</ele>
      </trkpt>
      <trkpt lat="1.3511498514522498" lon="103.83076298110932">
        <ele>20.0</ele>
      </trkpt>
      <trkpt lat="1.3512079644062795" lon="103.83069413175947">
        <ele>20.0</ele>
      </trkpt>
      <trkpt lat="1.3512660773583116" lon="103.83062528240633">
        <ele>20.0</ele>
      </trkpt>
      <trkpt lat="1.3513223815996562" lon="103.83055503682579">
        <ele>20.0</ele>
      </trkpt>
      <trkpt lat="1.3513751608899252" lon="103.83048207017433">
        <ele>20.0</ele>
      </trkpt>
      <trkpt lat="1.351427940177958" lon="103.83040910351971">
        <ele>20.0</ele>
      </trkpt>
      <trkpt lat="1.351479994332328" lon="103.83033563804611">
        <ele>20.0</ele>
      </trkpt>
      <trkpt lat="1.3515301568053704" lon="103.83026087128876">
        <ele>20.0</ele>
      </trkpt>
      <trkpt lat="1.351580319276069" lon="103.83018610452834">
        <ele>20.0</ele>
      </trkpt>
      <trkpt lat="1.3516304817444231" lon="103.83011133776485">
        <ele>20.0</ele>
      </trkpt>
      <trkpt lat="1.351665471342013" lon="103.83002864137707">
        <ele>20.0</ele>
      </trkpt>
      <trkpt lat="1.351681642382737" lon="103.82994572461655">
        <ele>20.0</ele>
      </trkpt>
      <trkpt lat="1.3516431356826821" lon="103.82986442049173">
        <ele>20.0</ele>
      </trkpt>
      <trkpt lat="1.3515707651713775" lon="103.82981676205931">
        <ele>20.0</ele>
      </trkpt>
      <trkpt lat="1.351486187908219" lon="103.82979192753234">
        <ele>20.0</ele>
      </trkpt>
      <trkpt lat="1.3513958183272885" lon="103.82979538214768">
        <ele>20.0</ele>
      </trkpt>
      <trkpt lat="1.3513054356751142" lon="103.8297971867169">
        <ele>20.0</ele>
      </trkpt>
      <trkpt lat="1.351215022560832" lon="103.82979514589547">
        <ele>20.0</ele>
      </trkpt>
      <trkpt lat="1.3511246094464802" lon="103.82979310507416">
        <ele>20.0</ele>
      </trkpt>
      <trkpt lat="1.3510341963320602" lon="103.82979106425302">
        <ele>20.0</ele>
      </trkpt>
      <trkpt lat="1.3509469211751453" lon="103.82976875604025">
        <ele>20.0</ele>
      </trkpt>
      <trkpt lat="1.3508600710656822" lon="103.82974370253733">
        <ele>20.0</ele>
      </trkpt>
      <trkpt lat="1.3507775446296988" lon="103.82970941126578">
        <ele>20.0</ele>
      </trkpt>
      <trkpt lat="1.3507022978290952" lon="103.82965956664785">
        <ele>20.0</ele>
      </trkpt>
      <trkpt lat="1.3506270510274245" lon="103.82960972203297">
        <ele>20.0</ele>
      </trkpt>
      <trkpt lat="1.3505634787263687" lon="103.82954752249995">
        <ele>20.0</ele>
      </trkpt>
      <trkpt lat="1.3505086714824512" lon="103.82947604706122">
        <ele>20.0</ele>
      </trkpt>
      <trkpt lat="1.3504787490806232" lon="103.82939515419768">
        <ele>20.0</ele>
      </trkpt>
      <trkpt lat="1.3504718124671578" lon="103.8293055625854">
        <ele>20.0</ele>
      </trkpt>
      <trkpt lat="1.3504774958132857" lon="103.82921679156938">
        <ele>20.0</ele>
      </trkpt>
      <trkpt lat="1.350496125006438" lon="103.8291288623386">
        <ele>20.0</ele>
      </trkpt>
      <trkpt lat="1.3505670063228432" lon="103.82907357450853">
        <ele>20.0</ele>
      </trkpt>
      <trkpt lat="1.350644725079736" lon="103.8290281808405">
        <ele>20.0</ele>
      </trkpt>
      <trkpt lat="1.3507249032650195" lon="103.82898661370223">
        <ele>20.0</ele>
      </trkpt>
      <trkpt lat="1.3508098624796703" lon="103.82895702477533">
        <ele>20.0</ele>
      </trkpt>
      <trkpt lat="1.3508969205403296" lon="103.8289326942178">
        <ele>20.0</ele>
      </trkpt>
      <trkpt lat="1.3509841979199377" lon="103.82890931181495">
        <ele>20.0</ele>
      </trkpt>
      <trkpt lat="1.3510732116140363" lon="103.82889343581017">
        <ele>20.0</ele>
      </trkpt>
      <trkpt lat="1.3511622253079614" lon="103.82887755980421">
        <ele>20.0</ele>
      </trkpt>
      <trkpt lat="1.351251244058748" lon="103.82886171259067">
        <ele>20.0</ele>
      </trkpt>
      <trkpt lat="1.351340408548437" lon="103.82884669517922">
        <ele>20.0</ele>
      </trkpt>
      <trkpt lat="1.3514295730379624" lon="103.8288316777667">
        <ele>20.0</ele>
      </trkpt>
      <trkpt lat="1.3515187375273254" lon="103.82881666035306">
        <ele>20.0</ele>
      </trkpt>
      <trkpt lat="1.3516079020165255" lon="103.82880164293832">
        <ele>20.0</ele>
      </trkpt>
      <trkpt lat="1.3516966315550476" lon="103.82878448828495">
        <ele>20.0</ele>
      </trkpt>
      <trkpt lat="1.3517846634294735" lon="103.82876390548533">
        <ele>20.0</ele>
      </trkpt>
      <trkpt lat="1.351872695303655" lon="103.82874332268419">
        <ele>20.0</ele>
      </trkpt>
      <trkpt lat="1.3519547107078562" lon="103.82870728733229">
        <ele>20.0</ele>
      </trkpt>
      <trkpt lat="1.352032208213832" lon="103.82866180556788">
        <ele>20.0</ele>
      </trkpt>
      <trkpt lat="1.3520891076514663" lon="103.82859196273672">
        <ele>20.0</ele>
      </trkpt>
      <trkpt lat="1.3521460070870406" lon="103.8285221199023">
        <ele>20.0</ele>
      </trkpt>
      <trkpt lat="1.3521889797800684" lon="103.82844310799335">
        <ele>20.0</ele>
      </trkpt>
      <trkpt lat="1.352231535586308" lon="103.8283638216139">
        <ele>20.0</ele>
      </trkpt>
      <trkpt lat="1.3522740913899163" lon="103.8282845352317">
        <ele>20.0</ele>
      </trkpt>
      <trkpt lat="1.3523167679209684" lon="103.82820532878372">
        <ele>20.0</ele>
      </trkpt>
      <trkpt lat="1.352374033106581" lon="103.828135781673">
        <ele>20.0</ele>
      </trkpt>
      <trkpt lat="1.3524312982901487" lon="103.82806623455902">
        <ele>20.0</ele>
      </trkpt>
      <trkpt lat="1.3524885634716706" lon="103.82799668744177">
        <ele>20.0</ele>
      </trkpt>
      <trkpt lat="1.3525470410869096" lon="103.82792815145584">
        <ele>20.0</ele>
      </trkpt>
      <trkpt lat="1.352606050146236" lon="103.82786005867649">
        <ele>20.0</ele>
      </trkpt>
      <trkpt lat="1.3526650592035976" lon="103.82779196589385">
        <ele>20.0</ele>
      </trkpt>
      <trkpt lat="1.352724057437225" lon="103.82772386421577">
        <ele>20.0</ele>
      </trkpt>
      <trkpt lat="1.352780295522399" lon="103.8276534945432">
        <ele>20.0</ele>
      </trkpt>
      <trkpt lat="1.3528365336054795" lon="103.82758312486739">
        <ele>20.0</ele>
      </trkpt>
      <trkpt lat="1.3528927716864665" lon="103.82751275518834">
        <ele>20.0</ele>
      </trkpt>
      <trkpt lat="1.352948557041631" lon="103.82744203201297">
        <ele>20.0</ele>
      </trkpt>
      <trkpt lat="1.353004077015395" lon="103.8273711016225">
        <ele>20.0</ele>
      </trkpt>
      <trkpt lat="1.3530595969870318" lon="103.82730017122881">
        <ele>20.0</ele>
      </trkpt>
      <trkpt lat="1.3531123855916525" lon="103.82722787907143">
        <ele>20.0</ele>
      </trkpt>
      <trkpt lat="1.3531364327492237" lon="103.82714125745935">
        <ele>20.0</ele>
      </trkpt>
      <trkpt lat="1.3531604799036698" lon="103.82705463584558">
        <ele>20.0</ele>
      </trkpt>
      <trkpt lat="1.3531553688306512" lon="103.82696650651054">
        <ele>20.0</ele>
      </trkpt>
      <trkpt lat="1.353140501194243" lon="103.82687787268198">
        <ele>20.0</ele>
      </trkpt>
      <trkpt lat="1.3531256335545792" lon="103.82678923885452">
        <ele>20.0</ele>
      </trkpt>
      <trkpt lat="1.3531097121295619" lon="103.82670078650543">
        <ele>20.0</ele>
      </trkpt>
      <trkpt lat="1.3530936908557059" lon="103.82661235135245">
        <ele>20.0</ele>
      </trkpt>
      <trkpt lat="1.3530776695786093" lon="103.82652391620064">
        <ele>20.0</ele>
      </trkpt>
      <trkpt lat="1.3530616482982727" lon="103.82643548105001">
        <ele>20.0</ele>
      </trkpt>
      <trkpt lat="1.3530151233183227" lon="103.82635866874682">
        <ele>20.0</ele>
      </trkpt>
      <trkpt lat="1.3529675731831283" lon="103.82628223577198">
        <ele>20.0</ele>
      </trkpt>
      <trkpt lat="1.3529210449658486" lon="103.8262051839708">
        <ele>20.0</ele>
      </trkpt>
      <trkpt lat="1.3528794733119578" lon="103.82612597666807">
        <ele>20.0</ele>
      </trkpt>
      <trkpt lat="1.3528540702608214" lon="103.82603973798676">
        <ele>20.0</ele>
      </trkpt>
      <trkpt lat="1.3528286672066052" lon="103.82595349930729">
        <ele>20.0</ele>
      </trkpt>
      <trkpt lat="1.3528032641493093" lon="103.8258672606296">
        <ele>20.0</ele>
      </trkpt>
      <trkpt lat="1.3527776855623819" lon="103.82578107320626">
        <ele>20.0</ele>
      </trkpt>
      <trkpt lat="1.3527520907144643" lon="103.82569489053193">
        <ele>20.0</ele>
      </trkpt>
      <trkpt lat="1.3527264958634715" lon="103.82560870785943">
        <ele>20.0</ele>
      </trkpt>
      <trkpt lat="1.3527009010094042" lon="103.82552252518876">
        <ele>20.0</ele>
      </trkpt>
      <trkpt lat="1.3526753061522616" lon="103.8254363425199">
        <ele>20.0</ele>
      </trkpt>
      <trkpt lat="1.3526573615739903" lon="103.82534828226729">
        <ele>20.203377602975493</ele>
      </trkpt>
      <trkpt lat="1.3526396258938433" lon="103.82526017074595">
        <ele>20.90430839344454</ele>
      </trkpt>
      <trkpt lat="1.3526062792912952" lon="103.82517776049578">
        <ele>22.075796297959005</ele>
      </trkpt>
      <trkpt lat="1.352562360422011" lon="103.82509921134881">
        <ele>23.514158253542774</ele>
      </trkpt>
      <trkpt lat="1.3525183595531765" lon="103.82502070774763">
        <ele>24.92396791059217</ele>
      </trkpt>
      <trkpt lat="1.3524740229292356" lon="103.82494239063372">
        <ele>26.33222134255533</ele>
      </trkpt>
      <trkpt lat="1.3524296863027538" lon="103.82486407352269">
        <ele>27.75960626447294</ele>
      </trkpt>
      <trkpt lat="1.3523926738649101" lon="103.82478280882069">
        <ele>28.725579191389187</ele>
      </trkpt>
      <trkpt lat="1.3523696590785401" lon="103.82469591081623">
        <ele>29.250946350474205</ele>
      </trkpt>
      <trkpt lat="1.3523595534275825" lon="103.82460682987477">
        <ele>29.329004765507324</ele>
      </trkpt>
      <trkpt lat="1.352352340895794" lon="103.82451725970621">
        <ele>29.68534108858596</ele>
      </trkpt>
      <trkpt lat="1.3523451283606829" lon="103.8244276895382">
        <ele>30.308237077652237</ele>
      </trkpt>
      <trkpt lat="1.3523379158222482" lon="103.82433811937072">
        <ele>31.175049236901305</ele>
      </trkpt>
      <trkpt lat="1.3523283704561087" lon="103.82424876755785">
        <ele>32.04119966511625</ele>
      </trkpt>
      <trkpt lat="1.352318620670417" lon="103.82415943487922">
        <ele>32.89760037718494</ele>
      </trkpt>
      <trkpt lat="1.352308870881421" lon="103.82407010220132">
        <ele>33.890663563703946</ele>
      </trkpt>
      <trkpt lat="1.3522991210891209" lon="103.82398076952414">
        <ele>35.037914885434326</ele>
      </trkpt>
      <trkpt lat="1.3522893712935167" lon="103.8238914368477">
        <ele>36.33935434237597</ele>
      </trkpt>
      <trkpt lat="1.3522796214946082" lon="103.823802104172">
        <ele>37.63569245564366</ele>
      </trkpt>
      <trkpt lat="1.3522620235322111" lon="103.82371444020804">
        <ele>38.855907674851665</ele>
      </trkpt>
      <trkpt lat="1.3522341238328501" lon="103.82362896664654">
        <ele>39.63672968787909</ele>
      </trkpt>
      <trkpt lat="1.3522062241304686" lon="103.823543493087">
        <ele>40.0</ele>
      </trkpt>
      <trkpt lat="1.3521797967717042" lon="103.82345757838833">
        <ele>40.0</ele>
      </trkpt>
      <trkpt lat="1.3521554877733282" lon="103.82337102899234">
        <ele>40.0</ele>
      </trkpt>
      <trkpt lat="1.3521311787718548" lon="103.82328447959809">
        <ele>40.0</ele>
      </trkpt>
      <trkpt lat="1.3521068697672853" lon="103.82319793020558">
        <ele>40.0</ele>
      </trkpt>
      <trkpt lat="1.3520985615301186" lon="103.82310854484815">
        <ele>40.0</ele>
      </trkpt>
      <trkpt lat="1.3520912522894124" lon="103.82301898242922">
        <ele>40.0</ele>
      </trkpt>
      <trkpt lat="1.3520834182674784" lon="103.8229294894673">
        <ele>40.0</ele>
      </trkpt>
      <trkpt lat="1.3520668763739312" lon="103.8228411490275">
        <ele>40.0</ele>
      </trkpt>
      <trkpt lat="1.3520503344771557" lon="103.8227528085889">
        <ele>40.0</ele>
      </trkpt>
      <trkpt lat="1.352033792577153" lon="103.82266446815153">
        <ele>40.0</ele>
      </trkpt>
      <trkpt lat="1.3520133135155918" lon="103.82257699353558">
        <ele>40.0</ele>
      </trkpt>
      <trkpt lat="1.3519907912414761" lon="103.82248996824319">
        <ele>40.0</ele>
      </trkpt>
      <trkpt lat="1.3519682689642305" lon="103.82240294295245">
        <ele>40.0</ele>
      </trkpt>
      <trkpt lat="1.351945746683855" lon="103.82231591766335">
        <ele>40.0</ele>
      </trkpt>
      <trkpt lat="1.3519232244003492" lon="103.82222889237585">
        <ele>40.0</ele>
      </trkpt>
      <trkpt lat="1.3519015641315457" lon="103.82214174835491">
        <ele>40.0</ele>
      </trkpt>
      <trkpt lat="1.3518994105637983" lon="103.82205191746456">
        <ele>40.0</ele>
      </trkpt>
      <trkpt lat="1.3518972569927075" lon="103.82196208657442">
        <ele>40.0</ele>
      </trkpt>
      <trkpt lat="1.3518951034182742" lon="103.82187225568447">
        <ele>40.0</ele>
      </trkpt>
      <trkpt lat="1.3518929498404977" lon="103.82178242479469">
        <ele>40.0</ele>
      </trkpt>
      <trkpt lat="1.3518907962593787" lon="103.82169259390511">
        <ele>40.0</ele>
      </trkpt>
      <trkpt lat="1.3518886426749164" lon="103.8216027630157">
        <ele>40.0</ele>
      </trkpt>
      <trkpt lat="1.351896419049307" lon="103.82151375958983">
        <ele>40.0</ele>
      </trkpt>
      <trkpt lat="1.351913601755319" lon="103.82142553999256">
        <ele>40.0</ele>
      </trkpt>
      <trkpt lat="1.3519324481593222" lon="103.82133793343446">
        <ele>40.0</ele>
      </trkpt>
      <trkpt lat="1.3519773143738685" lon="103.82125991465128">
        <ele>40.0</ele>
      </trkpt>
      <trkpt lat="1.3520202594363764" lon="103.82118096507557">
        <ele>40.0</ele>
      </trkpt>
      <trkpt lat="1.3520544988584562" lon="103.82109779764876">
        <ele>40.0</ele>
      </trkpt>
      <trkpt lat="1.3520838563154098" lon="103.82101311129944">
        <ele>40.0</ele>
      </trkpt>
      <trkpt lat="1.3521034726801708" lon="103.82092539421285">
        <ele>40.0</ele>
      </trkpt>
      <trkpt lat="1.352099161561612" lon="103.82083598793882">
        <ele>40.0</ele>
      </trkpt>
      <trkpt lat="1.352092224630368" lon="103.82074639629343">
        <ele>40.0</ele>
      </trkpt>
      <trkpt lat="1.352121480088545" lon="103.82066249333985">
        <ele>40.0</ele>
      </trkpt>
      <trkpt lat="1.3521801270421903" lon="103.82060862694688">
        <ele>40.0</ele>
      </trkpt>
      <trkpt lat="1.3522688068231326" lon="103.82059100245368">
        <ele>40.0</ele>
      </trkpt>
      <trkpt lat="1.352357624053897" lon="103.82060305158464">
        <ele>40.570250799099234</ele>
      </trkpt>
      <trkpt lat="1.3524467744458948" lon="103.820617071472">
        <ele>41.825921887360856</ele>
      </trkpt>
      <trkpt lat="1.3525371638922832" lon="103.82061996783563">
        <ele>43.76701326478544</ele>
      </trkpt>
      <trkpt lat="1.3526275533386023" lon="103.82062286419942">
        <ele>45.80554033232723</ele>
      </trkpt>
      <trkpt lat="1.3527023057482606" lon="103.82057907587097">
        <ele>47.77464431197114</ele>
      </trkpt>
      <trkpt lat="1.3527648577502347" lon="103.82051619898128">
        <ele>49.05117892378686</ele>
      </trkpt>
      <trkpt lat="1.3528084379189242" lon="103.82043746381568">
        <ele>49.45457447539527</ele>
      </trkpt>
      <trkpt lat="1.352831935668229" lon="103.8203529742422">
        <ele>48.87979267744182</ele>
      </trkpt>
      <trkpt lat="1.3528351816395752" lon="103.82026326844476">
        <ele>47.94918090941081</ele>
      </trkpt>
      <trkpt lat="1.3528302552473304" lon="103.82017354545756">
        <ele>46.905078925139485</ele>
      </trkpt>
      <trkpt lat="1.3528253288517502" lon="103.82008382247076">
        <ele>45.90421430193379</ele>
      </trkpt>
      <trkpt lat="1.3528204024528347" lon="103.81999409948438">
        <ele>44.8049200796948</ele>
      </trkpt>
      <trkpt lat="1.3528154760505844" lon="103.81990437649837">
        <ele>43.62327015871802</ele>
      </trkpt>
      <trkpt lat="1.3528206326167285" lon="103.81981471388211">
        <ele>42.82754537246566</ele>
      </trkpt>
      <trkpt lat="1.3528718256716594" lon="103.81974630329056">
        <ele>42.71510784966938</ele>
      </trkpt>
      <trkpt lat="1.3529380861173357" lon="103.81968517927544">
        <ele>43.30113754886265</ele>
      </trkpt>
      <trkpt lat="1.3530098548571399" lon="103.81963050495901">
        <ele>44.11735363658395</ele>
      </trkpt>
      <trkpt lat="1.353081623595628" lon="103.81957583063937">
        <ele>44.860770749841414</ele>
      </trkpt>
      <trkpt lat="1.3531540191890927" lon="103.8195220679706">
        <ele>45.48085977606761</ele>
      </trkpt>
      <trkpt lat="1.3532313730118997" lon="103.81947551618781">
        <ele>45.97762071526194</ele>
      </trkpt>
      <trkpt lat="1.3533087268337276" lon="103.81942896440205">
        <ele>46.49914266222933</ele>
      </trkpt>
      <trkpt lat="1.3533860806545766" lon="103.81938241261334">
        <ele>47.02066460919673</ele>
      </trkpt>
      <trkpt lat="1.353463434474446" lon="103.81933586082165">
        <ele>47.54233934669199</ele>
      </trkpt>
      <trkpt lat="1.3535407882933355" lon="103.819289309027">
        <ele>48.077660072067964</ele>
      </trkpt>
      <trkpt lat="1.3536181421112454" lon="103.81924275722939">
        <ele>48.47605944388295</ele>
      </trkpt>
      <trkpt lat="1.3536854480633909" lon="103.81918382250922">
        <ele>48.66078951140408</ele>
      </trkpt>
      <trkpt lat="1.3537476425613533" lon="103.81911858846682">
        <ele>47.57830899913336</ele>
      </trkpt>
      <trkpt lat="1.3537921708905987" lon="103.819042039364">
        <ele>44.95347274771843</ele>
      </trkpt>
      <trkpt lat="1.353826289372734" lon="103.81895882282569">
        <ele>42.08068705529241</ele>
      </trkpt>
      <trkpt lat="1.353859321043126" lon="103.8188751885305">
        <ele>40.28762530578824</ele>
      </trkpt>
      <trkpt lat="1.353890452747987" lon="103.81879082391319">
        <ele>40.0</ele>
      </trkpt>
      <trkpt lat="1.3539215844498624" lon="103.81870645929376">
        <ele>40.0</ele>
      </trkpt>
      <trkpt lat="1.3539527161487523" lon="103.81862209467221">
        <ele>40.0</ele>
      </trkpt>
      <trkpt lat="1.3539838478446564" lon="103.81853773004853">
        <ele>40.0</ele>
      </trkpt>
      <trkpt lat="1.354014979537574" lon="103.81845336542274">
        <ele>40.0</ele>
      </trkpt>
      <trkpt lat="1.3540474123365904" lon="103.81837023007867">
        <ele>40.0</ele>
      </trkpt>
      <trkpt lat="1.354130647786128" lon="103.81833509292206">
        <ele>40.0</ele>
      </trkpt>
      <trkpt lat="1.3542174216541012" lon="103.81830997006206">
        <ele>40.0</ele>
      </trkpt>
      <trkpt lat="1.3543047594100628" lon="103.8182882664164">
        <ele>40.0</ele>
      </trkpt>
      <trkpt lat="1.3543949691232515" lon="103.81829462512641">
        <ele>40.00000000000001</ele>
      </trkpt>
      <trkpt lat="1.3544852007593415" lon="103.81830036471516">
        <ele>40.0</ele>
      </trkpt>
      <trkpt lat="1.3545756371856916" lon="103.81830032086874">
        <ele>40.0</ele>
      </trkpt>
      <trkpt lat="1.354666073611974" lon="103.81830027702229">
        <ele>40.0</ele>
      </trkpt>
      <trkpt lat="1.3547559229005175" lon="103.81830615415521">
        <ele>40.0</ele>
      </trkpt>
      <trkpt lat="1.3548446117828319" lon="103.81832373338354">
        <ele>40.0</ele>
      </trkpt>
      <trkpt lat="1.3549329703248048" lon="103.81833399392725">
        <ele>40.0</ele>
      </trkpt>
      <trkpt lat="1.355019719423789" lon="103.81830859726938">
        <ele>40.0</ele>
      </trkpt>
      <trkpt lat="1.355109845878316" lon="103.8183064223839">
        <ele>40.0</ele>
      </trkpt>
      <trkpt lat="1.355200282304243" lon="103.81830637862431">
        <ele>40.0</ele>
      </trkpt>
      <trkpt lat="1.355290718729916" lon="103.81830633448486">
        <ele>40.0</ele>
      </trkpt>
      <trkpt lat="1.355380912150276" lon="103.81830895586091">
        <ele>40.0</ele>
      </trkpt>
      <trkpt lat="1.355469868601125" lon="103.81832514550902">
        <ele>40.0</ele>
      </trkpt>
      <trkpt lat="1.355558825051813" lon="103.8183413351583">
        <ele>40.0</ele>
      </trkpt>
      <trkpt lat="1.3556477815023393" lon="103.81835752480872">
        <ele>40.0</ele>
      </trkpt>
      <trkpt lat="1.355737442212291" lon="103.81835817765139">
        <ele>40.0</ele>
      </trkpt>
      <trkpt lat="1.3558275032469553" lon="103.81834999884923">
        <ele>40.0</ele>
      </trkpt>
      <trkpt lat="1.3559175642815178" lon="103.81834182004643">
        <ele>40.0</ele>
      </trkpt>
      <trkpt lat="1.356007625315978" lon="103.818333641243">
        <ele>40.0</ele>
      </trkpt>
      <trkpt lat="1.3560979597111127" lon="103.81833138624852">
        <ele>40.0</ele>
      </trkpt>
      <trkpt lat="1.356188396136204" lon="103.8183313422751">
        <ele>40.0</ele>
      </trkpt>
      <trkpt lat="1.356278832561228" lon="103.81833129830164">
        <ele>40.0</ele>
      </trkpt>
      <trkpt lat="1.3563692689861844" lon="103.81833125432817">
        <ele>40.0</ele>
      </trkpt>
      <trkpt lat="1.3564597054110723" lon="103.81833121035463">
        <ele>40.0</ele>
      </trkpt>
      <trkpt lat="1.356550141837439" lon="103.818331169667">
        <ele>40.0</ele>
      </trkpt>
      <trkpt lat="1.3566405782640247" lon="103.81833112958732">
        <ele>40.0</ele>
      </trkpt>
      <trkpt lat="1.356731014690542" lon="103.81833108950761">
        <ele>40.0</ele>
      </trkpt>
      <trkpt lat="1.3568214511169916" lon="103.81833104942785">
        <ele>40.0</ele>
      </trkpt>
      <trkpt lat="1.3569118875433734" lon="103.81833100934806">
        <ele>40.0</ele>
      </trkpt>
      <trkpt lat="1.3570023239696871" lon="103.8183309692682">
        <ele>40.0</ele>
      </trkpt>
      <trkpt lat="1.3570372015012844" lon="103.81833095381108">
        <ele>40.0</ele>
      </trkpt>
      <trkpt lat="1.3569467650749967" lon="103.81833099389094">
        <ele>40.0</ele>
      </trkpt>
      <trkpt lat="1.3568563286486415" lon="103.81833103397076">
        <ele>40.0</ele>
      </trkpt>
      <trkpt lat="1.3567658922222177" lon="103.81833107405053">
        <ele>40.0</ele>
      </trkpt>
      <trkpt lat="1.356675455795727" lon="103.81833111413027">
        <ele>40.0</ele>
      </trkpt>
      <trkpt lat="1.3565850193691678" lon="103.81833115420997">
        <ele>40.0</ele>
      </trkpt>
      <trkpt lat="1.3564945829425405" lon="103.81833119428961">
        <ele>40.0</ele>
      </trkpt>
      <trkpt lat="1.356404146517258" lon="103.81833123736942">
        <ele>40.0</ele>
      </trkpt>
      <trkpt lat="1.356313710092328" lon="103.81833128134294">
        <ele>40.0</ele>
      </trkpt>
      <trkpt lat="1.35622327366733" lon="103.8183313253164">
        <ele>40.0</ele>
      </trkpt>
      <trkpt lat="1.356132837242265" lon="103.81833136928982">
        <ele>40.0</ele>
      </trkpt>
      <trkpt lat="1.3560424008171312" lon="103.81833141326321">
        <ele>40.0</ele>
      </trkpt>
      <trkpt lat="1.3559522970402726" lon="103.81833866582551">
        <ele>40.0</ele>
      </trkpt>
      <trkpt lat="1.3558622360057495" lon="103.81834684462855">
        <ele>40.0</ele>
      </trkpt>
      <trkpt lat="1.355772174971125" lon="103.81835502343094">
        <ele>40.0</ele>
      </trkpt>
      <trkpt lat="1.355682113936398" lon="103.81836320223272">
        <ele>40.0</ele>
      </trkpt>
      <trkpt lat="1.35559313181894" lon="103.81834757882642">
        <ele>40.0</ele>
      </trkpt>
      <trkpt lat="1.3555041753683141" lon="103.8183313891767">
        <ele>40.0</ele>
      </trkpt>
      <trkpt lat="1.3554152189175275" lon="103.81831519952814">
        <ele>40.0</ele>
      </trkpt>
      <trkpt lat="1.3553255962612658" lon="103.81830631746213">
        <ele>40.0</ele>
      </trkpt>
      <trkpt lat="1.3552351598356196" lon="103.81830636160159">
        <ele>40.0</ele>
      </trkpt>
      <trkpt lat="1.3551447234098197" lon="103.81830640556686">
        <ele>40.0</ele>
      </trkpt>
      <trkpt lat="1.3550542869837756" lon="103.81830644917291">
        <ele>40.0</ele>
      </trkpt>
      <trkpt lat="1.3549664258091656" lon="103.8183241995031">
        <ele>40.0</ele>
      </trkpt>
      <trkpt lat="1.3548788153600693" lon="103.81833051295398">
        <ele>40.0</ele>
      </trkpt>
      <trkpt lat="1.3547901264778244" lon="103.81831293372517">
        <ele>40.0</ele>
      </trkpt>
      <trkpt lat="1.3547009511435593" lon="103.81830026011254">
        <ele>40.0</ele>
      </trkpt>
      <trkpt lat="1.354610514717303" lon="103.818300303959">
        <ele>40.0</ele>
      </trkpt>
      <trkpt lat="1.3545200782909792" lon="103.81830034780545">
        <ele>40.0</ele>
      </trkpt>
      <trkpt lat="1.354429759221115" lon="103.81829707741394">
        <ele>40.0</ele>
      </trkpt>
      <trkpt lat="1.3543395495079564" lon="103.81829071870376">
        <ele>40.0</ele>
      </trkpt>
      <trkpt lat="1.3542510028507893" lon="103.81830060998146">
        <ele>40.0</ele>
      </trkpt>
      <trkpt lat="1.354163927783183" lon="103.81832488039801">
        <ele>40.0</ele>
      </trkpt>
      <trkpt lat="1.35407951275395" lon="103.81835667915328">
        <ele>40.0</ele>
      </trkpt>
      <trkpt lat="1.3540269857233123" lon="103.81842082952902">
        <ele>40.0</ele>
      </trkpt>
      <trkpt lat="1.3539958540315462" lon="103.81850519415563">
        <ele>40.0</ele>
      </trkpt>
      <trkpt lat="1.353964722336794" lon="103.81858955878013">
        <ele>40.0</ele>
      </trkpt>
      <trkpt lat="1.3539335906390555" lon="103.8186739234025">
        <ele>40.0</ele>
      </trkpt>
      <trkpt lat="1.3539024589383313" lon="103.81875828802274">
        <ele>40.0</ele>
      </trkpt>
      <trkpt lat="1.3538713272346221" lon="103.81884265264087">
        <ele>40.0</ele>
      </trkpt>
      <trkpt lat="1.3538394474376594" lon="103.81892672970106">
        <ele>41.21247813622985</ele>
      </trkpt>
      <trkpt lat="1.3538053289566456" lon="103.81900994624026">
        <ele>43.930392716175625</ele>
      </trkpt>
      <trkpt lat="1.353771210472724" lon="103.81909316277715">
        <ele>46.82755295858201</ele>
      </trkpt>
      <trkpt lat="1.3537094338695204" lon="103.81915866447906">
        <ele>48.5519109295357</ele>
      </trkpt>
      <trkpt lat="1.3536472393704324" lon="103.81922389851943">
        <ele>48.59435769655266</ele>
      </trkpt>
      <trkpt lat="1.3535706204124296" lon="103.81927135595403">
        <ele>48.27830267715069</ele>
      </trkpt>
      <trkpt lat="1.3534932665939177" lon="103.81931790774982">
        <ele>47.74873114398207</ele>
      </trkpt>
      <trkpt lat="1.3534159127744263" lon="103.81936445954264">
        <ele>47.22179372204499</ele>
      </trkpt>
      <trkpt lat="1.353338558953955" lon="103.8194110113325">
        <ele>46.70027177507697</ele>
      </trkpt>
      <trkpt lat="1.3532612051325048" lon="103.8194575631194">
        <ele>46.178749828109154</ele>
      </trkpt>
      <trkpt lat="1.3531838513100753" lon="103.81950411490334">
        <ele>45.702975925995986</ele>
      </trkpt>
      <trkpt lat="1.3531093017836755" lon="103.81955474504954">
        <ele>45.130449363589356</ele>
      </trkpt>
      <trkpt lat="1.3530375330456945" lon="103.81960941937044">
        <ele>44.434594714151444</ele>
      </trkpt>
      <trkpt lat="1.3529657643063975" lon="103.8196640936881">
        <ele>43.614408465859476</ele>
      </trkpt>
      <trkpt lat="1.3528972691176" lon="103.81972260102738">
        <ele>42.8468506113959</ele>
      </trkpt>
      <trkpt lat="1.3528312950008865" lon="103.81978406030622">
        <ele>42.685742187887946</ele>
      </trkpt>
      <trkpt lat="1.352816937769912" lon="103.81986979423782">
        <ele>43.23162791900115</ele>
      </trkpt>
      <trkpt lat="1.3528185025467736" lon="103.81995949709668">
        <ele>44.35719765525955</ele>
      </trkpt>
      <trkpt lat="1.3528234289469752" lon="103.82004922008292">
        <ele>45.49242948381461</ele>
      </trkpt>
      <trkpt lat="1.3528283553438416" lon="103.82013894306957">
        <ele>46.49844856746372</ele>
      </trkpt>
      <trkpt lat="1.3528332817373727" lon="103.8202286660566">
        <ele>47.53116276416764</ele>
      </trkpt>
      <trkpt lat="1.3528339830049714" lon="103.82031838015676">
        <ele>48.56644051498091</ele>
      </trkpt>
      <trkpt lat="1.3528252449590747" lon="103.82040709896815">
        <ele>49.32390799341018</ele>
      </trkpt>
      <trkpt lat="1.352781664791393" lon="103.82048583413484">
        <ele>49.310592837123416</ele>
      </trkpt>
      <trkpt lat="1.3527295396162333" lon="103.82055742665543">
        <ele>48.31277519554803</ele>
      </trkpt>
      <trkpt lat="1.3526589229872783" lon="103.82061356244144">
        <ele>46.585948036271986</ele>
      </trkpt>
      <trkpt lat="1.352572023305696" lon="103.82062108484148">
        <ele>44.55606901980391</ele>
      </trkpt>
      <trkpt lat="1.3524816338593344" lon="103.8206181884778">
        <ele>42.52124250817295</ele>
      </trkpt>
      <trkpt lat="1.3523918856393944" lon="103.82060953554873">
        <ele>41.00123359963689</ele>
      </trkpt>
      <trkpt lat="1.3523030463434202" lon="103.82059272281855">
        <ele>40.166644980263214</ele>
      </trkpt>
      <trkpt lat="1.3522143271094833" lon="103.82060182992018">
        <ele>40.0</ele>
      </trkpt>
      <trkpt lat="1.3521347584424683" lon="103.82063044918462">
        <ele>40.0</ele>
      </trkpt>
      <trkpt lat="1.3521003280555828" lon="103.82071353874758">
        <ele>40.0</ele>
      </trkpt>
      <trkpt lat="1.3520964862789517" lon="103.82080143620367">
        <ele>40.0</ele>
      </trkpt>
      <trkpt lat="1.3521034232081544" lon="103.82089102784938">
        <ele>40.0</ele>
      </trkpt>
      <trkpt lat="1.3520914215238593" lon="103.8209792825031">
        <ele>40.0</ele>
      </trkpt>
      <trkpt lat="1.3520677035648416" lon="103.82106572346436">
        <ele>40.0</ele>
      </trkpt>
      <trkpt lat="1.3520334641438794" lon="103.82114889089206">
        <ele>40.0</ele>
      </trkpt>
      <trkpt lat="1.3519946173879096" lon="103.82122982608236">
        <ele>40.0</ele>
      </trkpt>
      <trkpt lat="1.3519497511743523" lon="103.82130784486665">
        <ele>40.0</ele>
      </trkpt>
      <trkpt lat="1.3519202284025489" lon="103.82139151739848">
        <ele>40.0</ele>
      </trkpt>
      <trkpt lat="1.3519030456977859" lon="103.82147973699622">
        <ele>40.0</ele>
      </trkpt>
      <trkpt lat="1.351887812126939" lon="103.8215681190143">
        <ele>40.0</ele>
      </trkpt>
      <trkpt lat="1.3518899657126906" lon="103.82165794990362">
        <ele>40.0</ele>
      </trkpt>
      <trkpt lat="1.351892119295099" lon="103.82174778079315">
        <ele>40.0</ele>
      </trkpt>
      <trkpt lat="1.3518942728741643" lon="103.82183761168284">
        <ele>40.0</ele>
      </trkpt>
      <trkpt lat="1.3518964264498872" lon="103.82192744257274">
        <ele>40.0</ele>
      </trkpt>
      <trkpt lat="1.3518985800222671" lon="103.8220172734628">
        <ele>40.0</ele>
      </trkpt>
      <trkpt lat="1.3519007335913038" lon="103.82210710435307">
        <ele>40.0</ele>
      </trkpt>
      <trkpt lat="1.3519145385006222" lon="103.82219533037765">
        <ele>40.0</ele>
      </trkpt>
      <trkpt lat="1.3519370607853347" lon="103.82228235566451">
        <ele>40.0</ele>
      </trkpt>
      <trkpt lat="1.351959583066917" lon="103.822369380953">
        <ele>40.0</ele>
      </trkpt>
      <trkpt lat="1.3519821053453702" lon="103.82245640624312">
        <ele>40.0</ele>
      </trkpt>
      <trkpt lat="1.352004627620693" lon="103.82254343153487">
        <ele>40.0</ele>
      </trkpt>
      <trkpt lat="1.352027149892886" lon="103.82263045682825">
        <ele>40.0</ele>
      </trkpt>
      <trkpt lat="1.3520439549614092" lon="103.82271873939204">
        <ele>40.0</ele>
      </trkpt>
      <trkpt lat="1.3520604968594288" lon="103.82280707983017">
        <ele>40.0</ele>
      </trkpt>
      <trkpt lat="1.3520770387542211" lon="103.82289542026952">
        <ele>40.0</ele>
      </trkpt>
      <trkpt lat="1.352088433421347" lon="103.82298444196569">
        <ele>40.0</ele>
      </trkpt>
      <trkpt lat="1.3520957426633344" lon="103.82307400438442">
        <ele>40.0</ele>
      </trkpt>
      <trkpt lat="1.3521030519020003" lon="103.82316356680369">
        <ele>40.0</ele>
      </trkpt>
      <trkpt lat="1.3521218038100522" lon="103.82325110113197">
        <ele>40.0</ele>
      </trkpt>
      <trkpt lat="1.3521461128127197" lon="103.82333765052554">
        <ele>40.0</ele>
      </trkpt>
      <trkpt lat="1.35217042181229" lon="103.82342419992086">
        <ele>40.0</ele>
      </trkpt>
      <trkpt lat="1.3521954643861425" lon="103.8235105295252">
        <ele>40.0</ele>
      </trkpt>
      <trkpt lat="1.3522233640896895" lon="103.82359600308398">
        <ele>39.786705095962255</ele>
      </trkpt>
      <trkpt lat="1.3522512637902149" lon="103.82368147664472">
        <ele>39.17533858958015</ele>
      </trkpt>
      <trkpt lat="1.352275861405744" lon="103.82376765231083">
        <ele>38.12457887701745</ele>
      </trkpt>
      <trkpt lat="1.3522856112059265" lon="103.82385698498625">
        <ele>36.84772086231202</ele>
      </trkpt>
      <trkpt lat="1.352295361002805" lon="103.82394631766242">
        <ele>35.52954124377036</ele>
      </trkpt>
      <trkpt lat="1.3523051107963795" lon="103.8240356503393">
        <ele>34.32282603365183</ele>
      </trkpt>
      <trkpt lat="1.3523148605866497" lon="103.82412498301693">
        <ele>33.27029895874457</ele>
      </trkpt>
      <trkpt lat="1.352324610373616" lon="103.82421431569529">
        <ele>32.37196001904868</ele>
      </trkpt>
      <trkpt lat="1.352334360157278" lon="103.82430364837438">
        <ele>31.509569646897162</ele>
      </trkpt>
      <trkpt lat="1.3523423467879039" lon="103.82439314608617">
        <ele>30.637429558599496</ele>
      </trkpt>
      <trkpt lat="1.3523495593242967" lon="103.82448271625397">
        <ele>29.91998278119729</ele>
      </trkpt>
      <trkpt lat="1.3523567718573661" lon="103.82457228642232">
        <ele>29.45244183406086</ele>
      </trkpt>
      <trkpt lat="1.352363984387114" lon="103.82466185659122">
        <ele>29.29736194093528</ele>
      </trkpt>
      <trkpt lat="1.3523837980287179" lon="103.82474929590958">
        <ele>28.936642399242192</ele>
      </trkpt>
      <trkpt lat="1.3524125875272242" lon="103.82483386990275">
        <ele>28.148996368537244</ele>
      </trkpt>
      <trkpt lat="1.3524569241546858" lon="103.8249121870127">
        <ele>26.87484318197762</ele>
      </trkpt>
      <trkpt lat="1.352501260779607" lon="103.82499050412551">
        <ele>25.4671899206742</ele>
      </trkpt>
      <trkpt lat="1.3525454227578844" lon="103.82506891824237">
        <ele>24.05798043428456</ele>
      </trkpt>
      <trkpt lat="1.3525893416281543" lon="103.82514746738825">
        <ele>22.646003070945227</ele>
      </trkpt>
      <trkpt lat="1.3526327859859888" lon="103.82522618983289">
        <ele>21.293041049296928</ele>
      </trkpt>
      <trkpt lat="1.3526505216673752" lon="103.82531430135373">
        <ele>20.41063614169403</ele>
      </trkpt>
      <trkpt lat="1.3526682573455473" lon="103.82540241287586">
        <ele>20.0</ele>
      </trkpt>
      <trkpt lat="1.3526910301482629" lon="103.82548928815254">
        <ele>20.0</ele>
      </trkpt>
      <trkpt lat="1.3527166250035165" lon="103.82557547082251">
        <ele>20.0</ele>
      </trkpt>
      <trkpt lat="1.3527422198556946" lon="103.82566165349431">
        <ele>20.0</ele>
      </trkpt>
      <trkpt lat="1.3527678147047983" lon="103.82574783616793">
        <ele>20.0</ele>
      </trkpt>
      <trkpt lat="1.3527934095508265" lon="103.82583401884337">
        <ele>20.0</ele>
      </trkpt>
      <trkpt lat="1.3528188703146105" lon="103.82592024067081">
        <ele>20.0</ele>
      </trkpt>
      <trkpt lat="1.3528442733700148" lon="103.8260064793496">
        <ele>20.0</ele>
      </trkpt>
      <trkpt lat="1.3528696764223387" lon="103.8260927180302">
        <ele>20.0</ele>
      </trkpt>
      <trkpt lat="1.3529031009858075" lon="103.82617546832778">
        <ele>20.0</ele>
      </trkpt>
      <trkpt lat="1.3529496292040377" lon="103.82625252012782">
        <ele>20.0</ele>
      </trkpt>
      <trkpt lat="1.352996765837121" lon="103.82632920350048">
        <ele>20.0</ele>
      </trkpt>
      <trkpt lat="1.3530443662518614" lon="103.8264056060292">
        <ele>20.0</ele>
      </trkpt>
      <trkpt lat="1.3530714908440054" lon="103.82648981047687">
        <ele>20.0</ele>
      </trkpt>
      <trkpt lat="1.3530875121223516" lon="103.82657824562823">
        <ele>20.0</ele>
      </trkpt>
      <trkpt lat="1.353103533397457" lon="103.82666668078076">
        <ele>20.0</ele>
      </trkpt>
      <trkpt lat="1.3531195546693222" lon="103.82675511593446">
        <ele>20.0</ele>
      </trkpt>
      <trkpt lat="1.3531347673703986" lon="103.82684369033691">
        <ele>20.0</ele>
      </trkpt>
      <trkpt lat="1.353149635008063" lon="103.82693232416504">
        <ele>20.0</ele>
      </trkpt>
      <trkpt lat="1.3531645026424715" lon="103.82702095799428">
        <ele>20.0</ele>
      </trkpt>
      <trkpt lat="1.353145706727167" lon="103.82710785114092">
        <ele>20.0</ele>
      </trkpt>
      <trkpt lat="1.353121659570801" lon="103.82719447275366">
        <ele>20.0</ele>
      </trkpt>
      <trkpt lat="1.3530810087078795" lon="103.82727281635393">
        <ele>20.0</ele>
      </trkpt>
      <trkpt lat="1.3530254887370623" lon="103.82734374674887">
        <ele>20.0</ele>
      </trkpt>
      <trkpt lat="1.3529699687641188" lon="103.82741467714057">
        <ele>20.0</ele>
      </trkpt>
      <trkpt lat="1.3529144487890485" lon="103.82748560752907">
        <ele>20.0</ele>
      </trkpt>
      <trkpt lat="1.3528582222717616" lon="103.82755598623784">
        <ele>20.0</ele>
      </trkpt>
      <trkpt lat="1.3528019841894883" lon="103.8276263559149">
        <ele>20.0</ele>
      </trkpt>
      <trkpt lat="1.3527457461051215" lon="103.82769672558872">
        <ele>20.0</ele>
      </trkpt>
      <trkpt lat="1.3526878165183225" lon="103.82776570536637">
        <ele>20.0</ele>
      </trkpt>
      <trkpt lat="1.3526288074617192" lon="103.82783379815028">
        <ele>20.0</ele>
      </trkpt>
      <trkpt lat="1.3525697984031504" lon="103.8279018909309">
        <ele>20.0</ele>
      </trkpt>
      <trkpt lat="1.3525107893426171" lon="103.82796998370823">
        <ele>20.0</ele>
      </trkpt>
      <trkpt lat="1.3524533830659664" lon="103.82803941315701">
        <ele>20.0</ele>
      </trkpt>
      <trkpt lat="1.3523961178831876" lon="103.82810896027226">
        <ele>20.0</ele>
      </trkpt>
      <trkpt lat="1.352338852698364" lon="103.82817850738424">
        <ele>20.0</ele>
      </trkpt>
      <trkpt lat="1.3522905033754702" lon="103.82825395780311">
        <ele>20.0</ele>
      </trkpt>
      <trkpt lat="1.3522479475728764" lon="103.82833324418638">
        <ele>20.0</ele>
      </trkpt>
      <trkpt lat="1.3522053917676515" lon="103.82841253056688">
        <ele>20.0</ele>
      </trkpt>
      <trkpt lat="1.352162835959796" lon="103.82849181694462">
        <ele>20.0</ele>
      </trkpt>
      <trkpt lat="1.3521110513744343" lon="103.82856502728903">
        <ele>20.0</ele>
      </trkpt>
      <trkpt lat="1.352054151937594" lon="103.82863487012143">
        <ele>20.0</ele>
      </trkpt>
      <trkpt lat="1.351985198635213" lon="103.82869045700407">
        <ele>20.0</ele>
      </trkpt>
      <trkpt lat="1.3519061443249656" lon="103.82873409755537">
        <ele>20.000000000000004</ele>
      </trkpt>
      <trkpt lat="1.3518186136263435" lon="103.82875596756352">
        <ele>20.0</ele>
      </trkpt>
      <trkpt lat="1.351730581752012" lon="103.82877655036373">
        <ele>20.0</ele>
      </trkpt>
      <trkpt lat="1.3516422890153696" lon="103.82879585135183">
        <ele>20.0</ele>
      </trkpt>
      <trkpt lat="1.3515531245262324" lon="103.82881086876701">
        <ele>20.0</ele>
      </trkpt>
      <trkpt lat="1.3514639600369323" lon="103.82882588618106">
        <ele>20.0</ele>
      </trkpt>
      <trkpt lat="1.351374795547469" lon="103.82884090359401">
        <ele>20.0</ele>
      </trkpt>
      <trkpt lat="1.3512856310578438" lon="103.82885592100588">
        <ele>20.0</ele>
      </trkpt>
      <trkpt lat="1.351196554151398" lon="103.82887143709515">
        <ele>20.0</ele>
      </trkpt>
      <trkpt lat="1.35110754045754" lon="103.82888731310156">
        <ele>20.0</ele>
      </trkpt>
      <trkpt lat="1.3510185267635082" lon="103.8289031891068">
        <ele>20.0</ele>
      </trkpt>
      <trkpt lat="1.350930495178108" lon="103.82892331094308">
        <ele>20.0</ele>
      </trkpt>
      <trkpt lat="1.3508434371175695" lon="103.82894764150129">
        <ele>20.0</ele>
      </trkpt>
      <trkpt lat="1.3507563790567176" lon="103.82897197205776">
        <ele>20.0</ele>
      </trkpt>
      <trkpt lat="1.3506756464386884" lon="103.82901215014127">
        <ele>20.0</ele>
      </trkpt>
      <trkpt lat="1.3505954682529273" lon="103.82905371727786">
        <ele>20.0</ele>
      </trkpt>
      <trkpt lat="1.3505229701308108" lon="103.82910723353254">
        <ele>20.0</ele>
      </trkpt>
      <trkpt lat="1.3504846803111035" lon="103.82918288095794">
        <ele>20.0</ele>
      </trkpt>
      <trkpt lat="1.3504691373057702" lon="103.82927101086324">
        <ele>20.0</ele>
      </trkpt>
      <trkpt lat="1.3504760739205162" lon="103.8293606024753">
        <ele>20.0</ele>
      </trkpt>
      <trkpt lat="1.3504875346296152" lon="103.8294484819871">
        <ele>20.0</ele>
      </trkpt>
      <trkpt lat="1.350542341874355" lon="103.82951995742458">
        <ele>20.0</ele>
      </trkpt>
      <trkpt lat="1.3505980314958377" lon="103.82959049905912">
        <ele>19.999999999999996</ele>
      </trkpt>
      <trkpt lat="1.35067327829792" lon="103.82964034367282">
        <ele>20.0</ele>
      </trkpt>
      <trkpt lat="1.3507485250989353" lon="103.82969018828959">
        <ele>20.0</ele>
      </trkpt>
      <trkpt lat="1.3508265766257779" lon="103.82973404045387">
        <ele>20.0</ele>
      </trkpt>
      <trkpt lat="1.3509134267353637" lon="103.82975909395613">
        <ele>20.0</ele>
      </trkpt>
      <trkpt lat="1.3510002768446323" lon="103.82978414746013">
        <ele>20.0</ele>
      </trkpt>
      <trkpt lat="1.3510897409052913" lon="103.82979231801514">
        <ele>20.0</ele>
      </trkpt>
      <trkpt lat="1.3511801540196693" lon="103.82979435883638">
        <ele>20.0</ele>
      </trkpt>
      <trkpt lat="1.3512705671339786" lon="103.82979639965778">
        <ele>20.0</ele>
      </trkpt>
      <trkpt lat="1.3513609665751105" lon="103.82979671444765">
        <ele>20.0</ele>
      </trkpt>
      <trkpt lat="1.3514513361560692" lon="103.82979325983243">
        <ele>20.0</ele>
      </trkpt>
      <trkpt lat="1.3515392075666788" lon="103.82980200604892">
        <ele>20.0</ele>
      </trkpt>
      <trkpt lat="1.3516210355187375" lon="103.82984026795599">
        <ele>20.0</ele>
      </trkpt>
      <trkpt lat="1.351666791965998" lon="103.8299143690298">
        <ele>20.0</ele>
      </trkpt>
      <trkpt lat="1.3516784237355814" lon="103.82999646578992">
        <ele>20.0</ele>
      </trkpt>
      <trkpt lat="1.3516448385544246" lon="103.83007989615201">
        <ele>20.0</ele>
      </trkpt>
      <trkpt lat="1.3515996648337427" lon="103.83015727012797">
        <ele>20.0</ele>
      </trkpt>
      <trkpt lat="1.351549502363948" lon="103.83023203688957">
        <ele>20.0</ele>
      </trkpt>
      <trkpt lat="1.3514993398918096" lon="103.8303068036481">
        <ele>20.0</ele>
      </trkpt>
      <trkpt lat="1.3514482949322095" lon="103.83038096334454">
        <ele>20.0</ele>
      </trkpt>
      <trkpt lat="1.3513955156450386" lon="103.83045393000036">
        <ele>20.0</ele>
      </trkpt>
      <trkpt lat="1.3513427363556323" lon="103.83052689665303">
        <ele>20.0</ele>
      </trkpt>
      <trkpt lat="1.351288489082836" lon="103.8305987301014">
        <ele>20.0</ele>
      </trkpt>
      <trkpt lat="1.3512303761315743" lon="103.83066757945578">
        <ele>20.0</ele>
      </trkpt>
      <trkpt lat="1.3511722631783145" lon="103.8307364288069">
        <ele>20.0</ele>
      </trkpt>
      <trkpt lat="1.3511124268149042" lon="103.83080350695748">
        <ele>20.0</ele>
      </trkpt>
      <trkpt lat="1.3510412098028017" lon="103.83085888887896">
        <ele>20.0</ele>
      </trkpt>
      <trkpt lat="1.3509699927893812" lon="103.83091427079721">
        <ele>20.0</ele>
      </trkpt>
      <trkpt lat="1.3508987757746427" lon="103.83096965271224">
        <ele>20.0</ele>
      </trkpt>
      <trkpt lat="1.3508275587585865" lon="103.83102503462403">
        <ele>20.0</ele>
      </trkpt>
      <trkpt lat="1.3507540928971846" lon="103.83107734169418">
        <ele>20.0</ele>
      </trkpt>
      <trkpt lat="1.3506790832408342" lon="103.83112753793607">
        <ele>20.0</ele>
      </trkpt>
      <trkpt lat="1.350604073583388" lon="103.83117773417486">
        <ele>20.0</ele>
      </trkpt>
      <trkpt lat="1.3505290639248475" lon="103.83122793041058">
        <ele>20.0</ele>
      </trkpt>
      <trkpt lat="1.3504540575878643" lon="103.8312781314256">
        <ele>20.0</ele>
      </trkpt>
      <trkpt lat="1.350380225751742" lon="103.83133002293486">
        <ele>20.0</ele>
      </trkpt>
      <trkpt lat="1.350306393914455" lon="103.83138191444098">
        <ele>20.0</ele>
      </trkpt>
      <trkpt lat="1.3502325620760036" lon="103.83143380594397">
        <ele>20.0</ele>
      </trkpt>
      <trkpt lat="1.3501585321087146" lon="103.83148540740955">
        <ele>20.0</ele>
      </trkpt>
      <trkpt lat="1.3500827354626703" lon="103.83153442267562">
        <ele>20.0</ele>
      </trkpt>
      <trkpt lat="1.35000693881558" lon="103.83158343793865">
        <ele>20.0</ele>
      </trkpt>
      <trkpt lat="1.3499311421674443" lon="103.83163245319864">
        <ele>20.0</ele>
      </trkpt>
      <trkpt lat="1.349855345518263" lon="103.83168146845559">
        <ele>20.0</ele>
      </trkpt>
      <trkpt lat="1.3497795488680362" lon="103.8317304837095">
        <ele>20.0</ele>
      </trkpt>
      <trkpt lat="1.349706211628559" lon="103.83178263470829">
        <ele>20.0</ele>
      </trkpt>
      <trkpt lat="1.3496398552212214" lon="103.83184368626051">
        <ele>20.0</ele>
      </trkpt>
      <trkpt lat="1.3495734988123005" lon="103.83190473780944">
        <ele>19.999999999999996</ele>
      </trkpt>
      <trkpt lat="1.3495123612367725" lon="103.83197040580511">
        <ele>19.999999999999996</ele>
      </trkpt>
      <trkpt lat="1.349459005020205" lon="103.83204295699363">
        <ele>20.0</ele>
      </trkpt>
      <trkpt lat="1.3494056488014339" lon="103.83211550817902">
        <ele>20.0</ele>
      </trkpt>
      <trkpt lat="1.349380552702364" lon="103.83220120977137">
        <ele>20.0</ele>
      </trkpt>
      <trkpt lat="1.3493586204754784" lon="103.83228838362244">
        <ele>20.0</ele>
      </trkpt>
      <trkpt lat="1.3493366882454447" lon="103.83237555747196">
        <ele>20.0</ele>
      </trkpt>
      <trkpt lat="1.349309435714413" lon="103.83246115910316">
        <ele>20.0</ele>
      </trkpt>
      <trkpt lat="1.3492798550614344" lon="103.83254607274314">
        <ele>20.0</ele>
      </trkpt>
      <trkpt lat="1.3492401734006771" lon="103.8326262082155">
        <ele>20.0</ele>
      </trkpt>
      <trkpt lat="1.3491924832397075" lon="103.83270255535624">
        <ele>20.0</ele>
      </trkpt>
      <trkpt lat="1.3491447930763065" lon="103.83277890249398">
        <ele>20.0</ele>
      </trkpt>
      <trkpt lat="1.3490728695909737" lon="103.83283230805682">
        <ele>20.0</ele>
      </trkpt>
      <trkpt lat="1.3489984228463812" lon="103.8328833248598">
        <ele>20.0</ele>
      </trkpt>
      <trkpt lat="1.3489230593668595" lon="103.83293284200737">
        <ele>20.0</ele>
      </trkpt>
      <trkpt lat="1.34884317377458" lon="103.83297496158994">
        <ele>20.0</ele>
      </trkpt>
      <trkpt lat="1.3487632881815128" lon="103.83301708116977">
        <ele>20.0</ele>
      </trkpt>
      <trkpt lat="1.3486834025876593" lon="103.83305920074685">
        <ele>20.0</ele>
      </trkpt>
      <trkpt lat="1.3486035169930193" lon="103.83310132032118">
        <ele>20.0</ele>
      </trkpt>
      <trkpt lat="1.348528673939035" lon="103.83315161120727">
        <ele>20.0</ele>
      </trkpt>
      <trkpt lat="1.3484546614114379" lon="103.8332032479397">
        <ele>20.0</ele>
      </trkpt>
      <trkpt lat="1.3483806488826935" lon="103.83325488466899">
        <ele>20.0</ele>
      </trkpt>
      <trkpt lat="1.3483066363528016" lon="103.83330652139517">
        <ele>20.0</ele>
      </trkpt>
      <trkpt lat="1.3482380445143234" lon="103.83336422199298">
        <ele>20.0</ele>
      </trkpt>
      <trkpt lat="1.3481777033470663" lon="103.83343115222867">
        <ele>19.999999999999996</ele>
      </trkpt>
      <trkpt lat="1.348117362177928" lon="103.83349808246106">
        <ele>20.0</ele>
      </trkpt>
      <trkpt lat="1.348057021006909" lon="103.83356501269016">
        <ele>20.0</ele>
      </trkpt>
      <trkpt lat="1.3479966798340093" lon="103.83363194291597">
        <ele>20.0</ele>
      </trkpt>
      <trkpt lat="1.3479414320062804" lon="103.83370264217287">
        <ele>20.0</ele>
      </trkpt>
      <trkpt lat="1.3478941760558394" lon="103.83377925535102">
        <ele>20.0</ele>
      </trkpt>
      <trkpt lat="1.3478469201029557" lon="103.83385586852621">
        <ele>20.0</ele>
      </trkpt>
      <trkpt lat="1.3477884028250446" lon="103.83392317369359">
        <ele>20.0</ele>
      </trkpt>
      <trkpt lat="1.347721184080192" lon="103.83398328669358">
        <ele>20.0</ele>
      </trkpt>
      <trkpt lat="1.3476539653338104" lon="103.83404339969027">
        <ele>20.0</ele>
      </trkpt>
      <trkpt lat="1.3475886896728515" lon="103.8341055079042">
        <ele>20.0</ele>
      </trkpt>
      <trkpt lat="1.3475260096779036" lon="103.83417028142505">
        <ele>20.0</ele>
      </trkpt>
      <trkpt lat="1.3474633296811924" lon="103.8342350549426">
        <ele>20.0</ele>
      </trkpt>
      <trkpt lat="1.3474136922044189" lon="103.83430914471988">
        <ele>20.0</ele>
      </trkpt>
      <trkpt lat="1.3473718620287845" lon="103.83438881124518">
        <ele>20.0</ele>
      </trkpt>
      <trkpt lat="1.3473228273068623" lon="103.83446401052878">
        <ele>20.0</ele>
      </trkpt>
      <trkpt lat="1.3472691827641687" lon="103.83453635145186">
        <ele>20.0</ele>
      </trkpt>
      <trkpt lat="1.3471991836390484" lon="103.83459183785173">
        <ele>20.0</ele>
      </trkpt>
      <trkpt lat="1.3471244644716203" lon="103.83464245992148">
        <ele>20.0</ele>
      </trkpt>
      <trkpt lat="1.347041641815565" lon="103.83467655227022">
        <ele>20.0</ele>
      </trkpt>
      <trkpt lat="1.3469554633410796" lon="103.8347037993266">
        <ele>20.0</ele>
      </trkpt>
      <trkpt lat="1.3468825269452525" lon="103.8347562018306">
        <ele>20.0</ele>
      </trkpt>
      <trkpt lat="1.346818597805252" lon="103.83481919353393">
        <ele>20.0</ele>
      </trkpt>
      <trkpt lat="1.3467590474657618" lon="103.83488681935806">
        <ele>20.0</ele>
      </trkpt>
      <trkpt lat="1.3466994971243578" lon="103.8349544451789">
        <ele>20.0</ele>
      </trkpt>
      <trkpt lat="1.3466407601348929" lon="103.83502275338574">
        <ele>20.0</ele>
      </trkpt>
      <trkpt lat="1.3465836363353672" lon="103.83509241502841">
        <ele>20.0</ele>
      </trkpt>
      <trkpt lat="1.3465265125338155" lon="103.83516207666786">
        <ele>20.0</ele>
      </trkpt>
      <trkpt lat="1.3464693887302384" lon="103.83523173830403">
        <ele>20.0</ele>
      </trkpt>
      <trkpt lat="1.3464122649246362" lon="103.83530139993698">
        <ele>20.0</ele>
      </trkpt>
      <trkpt lat="1.346355141117009" lon="103.83537106156666">
        <ele>20.0</ele>
      </trkpt>
      <trkpt lat="1.3463033158786126" lon="103.83544467550831">
        <ele>20.0</ele>
      </trkpt>
      <trkpt lat="1.34625193321542" lon="103.83551861957466">
        <ele>20.0</ele>
      </trkpt>
      <trkpt lat="1.3462005505499541" lon="103.83559256363789">
        <ele>20.0</ele>
      </trkpt>
      <trkpt lat="1.3461491678822153" lon="103.83566650769804">
        <ele>20.0</ele>
      </trkpt>
      <trkpt lat="1.3461171692902034" lon="103.8357504258951">
        <ele>20.0</ele>
      </trkpt>
      <trkpt lat="1.3460860382315343" lon="103.8358347904836">
        <ele>20.0</ele>
      </trkpt>
      <trkpt lat="1.3460535292046218" lon="103.8359186261826">
        <ele>20.0</ele>
      </trkpt>
      <trkpt lat="1.3460194933521796" lon="103.8360018758579">
        <ele>20.0</ele>
      </trkpt>
      <trkpt lat="1.3459854574968728" lon="103.8360851255309">
        <ele>20.0</ele>
      </trkpt>
      <trkpt lat="1.345959519090115" lon="103.83617109546509">
        <ele>20.0</ele>
      </trkpt>
      <trkpt lat="1.3459353625640669" lon="103.83625764114963">
        <ele>20.0</ele>
      </trkpt>
      <trkpt lat="1.3458922132225037" lon="103.83633661000141">
        <ele>20.0</ele>
      </trkpt>
      <trkpt lat="1.3458453526288543" lon="103.8364131883567">
        <ele>20.0</ele>
      </trkpt>
      <trkpt lat="1.3457904093766193" lon="103.8364845605003">
        <ele>20.0</ele>
      </trkpt>
      <trkpt lat="1.345731359191671" lon="103.83655259452689">
        <ele>20.0</ele>
      </trkpt>
      <trkpt lat="1.345654060885125" lon="103.83658710884181">
        <ele>20.0</ele>
      </trkpt>
      <trkpt lat="1.345619464370859" lon="103.83659149908173">
        <ele>20.0</ele>
      </trkpt>
    </trkseg>
  </trk>
</gpx>