{
"type": "FeatureCollection",
"name": "loop_10000m_001",
"crs": { "type": "name", "properties": { "name": "urn:ogc:def:crs:OGC:1.3:CRS84" } },
"features": [
{ "type": "Feature", "properties": { "route_id": "loop_10000m_001", "budget_km": 10.0, "mode": "loop", "rank": 1, "distance_m": 6147.713160069924, "ascent_m": 50.632779639204891, "descent_m": 50.632779639204884, "gain_density_m_per_km": 8.2360348182915217, "source_confidence": 0.975 }, "geometry": { "type": "LineString", "coordinates": [ [ 103.836591499081734, 1.345619464370859 ], [ 103.83658040465977, 1.34570689201146 ], [ 103.83649188657256, 1.34578476966573 ], [ 103.836390729313479, 1.34586264190653 ], [ 103.836256160829095, 1.345936171425432 ], [ 103.836102558071602, 1.3459783303641 ], [ 103.835879134430215, 1.34606967503752 ], [ 103.835669675304914, 1.346146966757489 ], [ 103.835376431688289, 1.346350737519085 ], [ 103.834999403499822, 1.346659907460137 ], [ 103.834775979817195, 1.346856651187463 ], [ 103.834706159813379, 1.346947997464618 ], [ 103.834657284418853, 1.347102583221784 ], [ 103.834552553504281, 1.34725716810218 ], [ 103.83441989614073, 1.347355540409093 ], [ 103.834259309654186, 1.347439858895862 ], [ 103.834077777701268, 1.347615523614532 ], [ 103.833889263003343, 1.347826321975601 ], [ 103.833672820945679, 1.347959826104784 ], [ 103.833337684172406, 1.348261969769684 ], [ 103.833107276570658, 1.348592220142105 ], [ 103.832925742624653, 1.348936524323862 ], [ 103.832786102350809, 1.349140295692704 ], [ 103.832583623784501, 1.349266773718749 ], [ 103.832402092517455, 1.349330012243573 ], [ 103.832122812879788, 1.349400276715103 ], [ 103.831941280652458, 1.349533780704758 ], [ 103.83176672930459, 1.34972349907427 ], [ 103.831480464792151, 1.350166175315321 ], [ 103.831277985039264, 1.350454265868022 ], [ 103.83104757783876, 1.350798569860973 ], [ 103.830796223284111, 1.351121793074116 ], [ 103.83057978071119, 1.351304483494709 ], [ 103.830356356292654, 1.351466094056605 ], [ 103.830105003579263, 1.351634731471895 ], [ 103.829965364018335, 1.351690943860455 ], [ 103.829846671029031, 1.351634729303781 ], [ 103.829790815588439, 1.351515275343268 ], [ 103.829797799488802, 1.351332582887492 ], [ 103.829790820793818, 1.351023410524094 ], [ 103.82972798457611, 1.35080558340628 ], [ 103.829588347259843, 1.350594783080236 ], [ 103.829441727076784, 1.350482354975562 ], [ 103.829260195767461, 1.350468299948663 ], [ 103.829127538138422, 1.350496405559086 ], [ 103.829057717820348, 1.350587751670106 ], [ 103.828973932799968, 1.350749363252488 ], [ 103.828911092267504, 1.350974215265778 ], [ 103.82886221620835, 1.351248253875195 ], [ 103.828792392562818, 1.351662825248581 ], [ 103.828736533803621, 1.351901731091695 ], [ 103.828666713363575, 1.352028209939089 ], [ 103.828520089984977, 1.352147660816405 ], [ 103.828205899604768, 1.35231629790612 ], [ 103.827975493033804, 1.35250601497221 ], [ 103.827724139038239, 1.352723837804398 ], [ 103.827486749649907, 1.352913554806588 ], [ 103.827235396520067, 1.353110298661122 ], [ 103.827032918418482, 1.353166508910198 ], [ 103.826781567664327, 1.35312434677154 ], [ 103.826432469372605, 1.353061102690185 ], [ 103.826285849127146, 1.352969755130385 ], [ 103.826146210714896, 1.352885433589568 ], [ 103.825859950021879, 1.352801110686314 ], [ 103.825434051738029, 1.352674625827091 ], [ 103.825224593014582, 1.352632464567593 ], [ 103.825036080039453, 1.352527062063393 ], [ 103.824812658844849, 1.352400579591423 ], [ 103.824680001284889, 1.352365445466262 ], [ 103.824330903028212, 1.352337334734121 ], [ 103.823751399664204, 1.352274087585706 ], [ 103.823493067389236, 1.352189764512848 ], [ 103.823192844088453, 1.352105441236704 ], [ 103.822934510683339, 1.352084358498387 ], [ 103.822634286393665, 1.352028140989893 ], [ 103.822145550057769, 1.351901655271888 ], [ 103.821559063882219, 1.351887595041032 ], [ 103.821342622143419, 1.351929751826161 ], [ 103.821196000387133, 1.352014069508026 ], [ 103.821042395987689, 1.352077307315468 ], [ 103.820916720020136, 1.352105412508747 ], [ 103.820735188643283, 1.352091356840528 ], [ 103.820616494402572, 1.352140540979968 ], [ 103.820588564509791, 1.352281073633748 ], [ 103.820616490207541, 1.352428634397869 ], [ 103.820623470017239, 1.352646459642841 ], [ 103.820539684664112, 1.35275185834806 ], [ 103.82040004381227, 1.35282915001031 ], [ 103.820281350652849, 1.352836174473363 ], [ 103.819897342234711, 1.352815089821519 ], [ 103.819792611861374, 1.352822115242615 ], [ 103.819687880898627, 1.352934539806894 ], [ 103.819527292827104, 1.353145337187737 ], [ 103.819227060789515, 1.353644224444299 ], [ 103.819094401403788, 1.353770702640179 ], [ 103.818905886631327, 1.353847993020494 ], [ 103.818371107506152, 1.354045333822542 ], [ 103.818332336579701, 1.354137177209868 ], [ 103.81828773354593, 1.354297199685765 ], [ 103.818300368955065, 1.354476455635616 ], [ 103.818300247907288, 1.354726125315403 ], [ 103.818338318914286, 1.3549181971706 ], [ 103.818306462324216, 1.355027011901447 ], [ 103.818306391328775, 1.355174252367962 ], [ 103.818306297592883, 1.355366305897157 ], [ 103.818363392281782, 1.355680021207205 ], [ 103.818331418270063, 1.356032103619417 ], [ 103.818331203488711, 1.356473825919113 ], [ 103.818330953811085, 1.357037201501284 ], [ 103.818331203488711, 1.356473825919113 ], [ 103.818331418270063, 1.356032103619417 ], [ 103.818363392281782, 1.355680021207205 ], [ 103.818306297592883, 1.355366305897157 ], [ 103.818306391328775, 1.355174252367962 ], [ 103.818306462324216, 1.355027011901447 ], [ 103.818338318914286, 1.3549181971706 ], [ 103.818300247907288, 1.354726125315403 ], [ 103.818300368955065, 1.354476455635616 ], [ 103.81828773354593, 1.354297199685765 ], [ 103.818332336579701, 1.354137177209868 ], [ 103.818371107506152, 1.354045333822542 ], [ 103.818905886631327, 1.353847993020494 ], [ 103.819094401403788, 1.353770702640179 ], [ 103.819227060789515, 1.353644224444299 ], [ 103.819527292827104, 1.353145337187737 ], [ 103.819687880898627, 1.352934539806894 ], [ 103.819792611861374, 1.352822115242615 ], [ 103.819897342234711, 1.352815089821519 ], [ 103.820281350652849, 1.352836174473363 ], [ 103.82040004381227, 1.35282915001031 ], [ 103.820539684664112, 1.35275185834806 ], [ 103.820623470017239, 1.352646459642841 ], [ 103.820616490207541, 1.352428634397869 ], [ 103.820588564509791, 1.352281073633748 ], [ 103.820616494402572, 1.352140540979968 ], [ 103.820735188643283, 1.352091356840528 ], [ 103.820916720020136, 1.352105412508747 ], [ 103.821042395987689, 1.352077307315468 ], [ 103.821196000387133, 1.352014069508026 ], [ 103.821342622143419, 1.351929751826161 ], [ 103.821559063882219, 1.351887595041032 ], [ 103.822145550057769, 1.351901655271888 ], [ 103.822634286393665, 1.352028140989893 ], [ 103.822934510683339, 1.352084358498387 ], [ 103.823192844088453, 1.352105441236704 ], [ 103.823493067389236, 1.352189764512848 ], [ 103.823751399664204, 1.352274087585706 ], [ 103.824330903028212, 1.352337334734121 ], [ 103.824680001284889, 1.352365445466262 ], [ 103.824812658844849, 1.352400579591423 ], [ 103.825036080039453, 1.352527062063393 ], [ 103.825224593014582, 1.352632464567593 ], [ 103.825434051738029, 1.352674625827091 ], [ 103.825859950021879, 1.352801110686314 ], [ 103.826146210714896, 1.352885433589568 ], [ 103.826285849127146, 1.352969755130385 ], [ 103.826432469372605, 1.353061102690185 ], [ 103.826781567664327, 1.35312434677154 ], [ 103.827032918418482, 1.353166508910198 ], [ 103.827235396520067, 1.353110298661122 ], [ 103.827486749649907, 1.352913554806588 ], [ 103.827724139038239, 1.352723837804398 ], [ 103.827975493033804, 1.35250601497221 ], [ 103.828205899604768, 1.35231629790612 ], [ 103.828520089984977, 1.352147660816405 ], [ 103.828666713363575, 1.352028209939089 ], [ 103.828736533803621, 1.351901731091695 ], [ 103.828792392562818, 1.351662825248581 ], [ 103.82886221620835, 1.351248253875195 ], [ 103.828911092267504, 1.350974215265778 ], [ 103.828973932799968, 1.350749363252488 ], [ 103.829057717820348, 1.350587751670106 ], [ 103.829127538138422, 1.350496405559086 ], [ 103.829260195767461, 1.350468299948663 ], [ 103.829441727076784, 1.350482354975562 ], [ 103.829588347259843, 1.350594783080236 ], [ 103.82972798457611, 1.35080558340628 ], [ 103.829790820793818, 1.351023410524094 ], [ 103.829797799488802, 1.351332582887492 ], [ 103.829790815588439, 1.351515275343268 ], [ 103.829846671029031, 1.351634729303781 ], [ 103.829965364018335, 1.351690943860455 ], [ 103.830105003579263, 1.351634731471895 ], [ 103.830356356292654, 1.351466094056605 ], [ 103.83057978071119, 1.351304483494709 ], [ 103.830796223284111, 1.351121793074116 ], [ 103.83104757783876, 1.350798569860973 ], [ 103.831277985039264, 1.350454265868022 ], [ 103.831480464792151, 1.350166175315321 ], [ 103.83176672930459, 1.34972349907427 ], [ 103.831941280652458, 1.349533780704758 ], [ 103.832122812879788, 1.349400276715103 ], [ 103.832402092517455, 1.349330012243573 ], [ 103.832583623784501, 1.349266773718749 ], [ 103.832786102350809, 1.349140295692704 ], [ 103.832925742624653, 1.348936524323862 ], [ 103.833107276570658, 1.348592220142105 ], [ 103.833337684172406, 1.348261969769684 ], [ 103.833672820945679, 1.347959826104784 ], [ 103.833889263003343, 1.347826321975601 ], [ 103.834077777701268, 1.347615523614532 ], [ 103.834259309654186, 1.347439858895862 ], [ 103.83441989614073, 1.347355540409093 ], [ 103.834552553504281, 1.34725716810218 ], [ 103.834657284418853, 1.347102583221784 ], [ 103.834706159813379, 1.346947997464618 ], [ 103.834775979817195, 1.346856651187463 ], [ 103.834999403499822, 1.346659907460137 ], [ 103.835376431688289, 1.346350737519085 ], [ 103.835669675304914, 1.346146966757489 ], [ 103.835879134430215, 1.34606967503752 ], [ 103.836102558071602, 1.3459783303641 ], [ 103.836256160829095, 1.345936171425432 ], [ 103.836390729313479, 1.34586264190653 ], [ 103.83649188657256, 1.34578476966573 ], [ 103.83658040465977, 1.34570689201146 ], [ 103.836591499081734, 1.345619464370859 ] ] } }
]
}
