<?xml version="1.0" encoding="UTF-8"?>
<gpx xmlns="http://www.topografix.com/GPX/1/1" xmlns:xsi="http://www.w3.org/2001/XMLSchema-instance" xsi:schemaLocation="http://www.topografix.com/GPX/1/1 http://www.topografix.com/GPX/1/1/gpx.xsd" version="1.1" creator="gpx.py -- https://github.com/tkrajina/gpxpy">
  <trk>
    <name>loop_05000m_006</name>
    <trkseg>
      <trkpt lat="1.375877938469089" lon="103.84354936714293">
        <ele>21.445157541550003</ele>
      </trkpt>
      <trkpt lat="1.3758369515117699" lon="103.84346927814896">
        <ele>21.965020996080977</ele>
      </trkpt>
      <trkpt lat="1.3758004630183067" lon="103.84338707580189">
        <ele>22.988474683241787</ele>
      </trkpt>
      <trkpt lat="1.375767529346223" lon="103.84330339244826">
        <ele>23.971031716377244</ele>
      </trkpt>
      <trkpt lat="1.3757355560872835" lon="103.84321934179775">
        <ele>24.915817107795807</ele>
      </trkpt>
      <trkpt lat="1.3757072144171965" lon="103.84313401428804">
        <ele>25.8137246531012</ele>
      </trkpt>
      <trkpt lat="1.3756841309668244" lon="103.8430472335594">
        <ele>26.63066171804572</ele>
      </trkpt>
      <trkpt lat="1.375668895045248" lon="103.84295866187395">
        <ele>27.375954189288688</ele>
      </trkpt>
      <trkpt lat="1.3756551874767162" lon="103.84286985994717">
        <ele>27.997018333908304</ele>
      </trkpt>
      <trkpt lat="1.3756498019849852" lon="103.8427801776416">
        <ele>28.451970939580388</ele>
      </trkpt>
      <trkpt lat="1.3756476412051488" lon="103.84269034946105">
        <ele>28.745860619903908</ele>
      </trkpt>
      <trkpt lat="1.3756460099780228" lon="103.84260051609172">
        <ele>28.921945256288435</ele>
      </trkpt>
      <trkpt lat="1.375651231270679" lon="103.8425108607254">
        <ele>28.882614570678413</ele>
      </trkpt>
      <trkpt lat="1.3756606884282057" lon="103.84242153122614">
        <ele>28.578812122250042</ele>
      </trkpt>
      <trkpt lat="1.3756700402936808" lon="103.8423322602548">
        <ele>28.052892478012698</ele>
      </trkpt>
      <trkpt lat="1.3756780003730793" lon="103.8422427568614">
        <ele>27.476531524039444</ele>
      </trkpt>
      <trkpt lat="1.3756870933398915" lon="103.84215335501214">
        <ele>26.905896854907862</ele>
      </trkpt>
      <trkpt lat="1.3756953942755716" lon="103.84206387718244">
        <ele>26.350762060498656</ele>
      </trkpt>
      <trkpt lat="1.3757006077219656" lon="103.84197417069335">
        <ele>25.78633475082168</ele>
      </trkpt>
      <trkpt lat="1.3757041382511195" lon="103.84188438221575">
        <ele>25.221157188987565</ele>
      </trkpt>
      <trkpt lat="1.3757035036767438" lon="103.84179458003037">
        <ele>24.671510798047237</ele>
      </trkpt>
      <trkpt lat="1.3756968413942223" lon="103.84170498641404">
        <ele>24.20754478652675</ele>
      </trkpt>
      <trkpt lat="1.3756834067775259" lon="103.84161614836334">
        <ele>23.84319666904427</ele>
      </trkpt>
      <trkpt lat="1.3756654022109045" lon="103.84152810323592">
        <ele>23.595349548927043</ele>
      </trkpt>
      <trkpt lat="1.3756390803364211" lon="103.84144223850794">
        <ele>23.478467333303886</ele>
      </trkpt>
      <trkpt lat="1.3756042380230078" lon="103.84135936471044">
        <ele>23.474557396757262</ele>
      </trkpt>
      <trkpt lat="1.3755629507301557" lon="103.84127948084458">
        <ele>23.307632233824872</ele>
      </trkpt>
      <trkpt lat="1.375518430334508" lon="103.84120135266565">
        <ele>22.871605873527514</ele>
      </trkpt>
      <trkpt lat="1.375463911652837" lon="103.84112984156404">
        <ele>22.238769685169007</ele>
      </trkpt>
      <trkpt lat="1.3753966690590995" lon="103.84106996037468">
        <ele>21.70908563729853</ele>
      </trkpt>
      <trkpt lat="1.3753204203523586" lon="103.84102174334217">
        <ele>21.37634059035608</ele>
      </trkpt>
      <trkpt lat="1.3752402657295786" lon="103.84098035805793">
        <ele>21.20173028540432</ele>
      </trkpt>
      <trkpt lat="1.3751566401062523" lon="103.84094621839202">
        <ele>21.15138433775893</ele>
      </trkpt>
      <trkpt lat="1.3750703837344942" lon="103.84091928787137">
        <ele>21.21923738937406</ele>
      </trkpt>
      <trkpt lat="1.3749824122384298" lon="103.84089877873416">
        <ele>21.38764452903963</ele>
      </trkpt>
      <trkpt lat="1.3748934252564708" lon="103.84088287465052">
        <ele>21.534719838562197</ele>
      </trkpt>
      <trkpt lat="1.3748038628203718" lon="103.84087064703432">
        <ele>21.472165523398544</ele>
      </trkpt>
      <trkpt lat="1.3747141084624932" lon="103.84086027592475">
        <ele>21.22211867749938</ele>
      </trkpt>
      <trkpt lat="1.3746237597325752" lon="103.84085791653145">
        <ele>20.89887152148772</ele>
      </trkpt>
      <trkpt lat="1.3745333959012562" lon="103.84086114276151">
        <ele>20.69470449671682</ele>
      </trkpt>
      <trkpt lat="1.3744435258301446" lon="103.84087087798002">
        <ele>20.604664864631697</ele>
      </trkpt>
      <trkpt lat="1.3743546921203775" lon="103.84088751800144">
        <ele>20.692641776470904</ele>
      </trkpt>
      <trkpt lat="1.3742704730615374" lon="103.84091975011951">
        <ele>20.956127074487252</ele>
      </trkpt>
      <trkpt lat="1.374188531373463" lon="103.84095777122874">
        <ele>21.376508138372397</ele>
      </trkpt>
      <trkpt lat="1.3741085286824044" lon="103.84099962424065">
        <ele>21.75386749428623</ele>
      </trkpt>
      <trkpt lat="1.3740320874601275" lon="103.84104758506604">
        <ele>22.09714535106465</ele>
      </trkpt>
      <trkpt lat="1.3739590802509238" lon="103.84110059347421">
        <ele>22.445785926298427</ele>
      </trkpt>
      <trkpt lat="1.373885439519062" lon="103.84115271589786">
        <ele>22.85472002790766</ele>
      </trkpt>
      <trkpt lat="1.3738099324137845" lon="103.84120213498642">
        <ele>23.24448311474961</ele>
      </trkpt>
      <trkpt lat="1.373732221272619" lon="103.84124807672573">
        <ele>23.45807283034091</ele>
      </trkpt>
      <trkpt lat="1.3736523183218259" lon="103.84129013902262">
        <ele>23.59198895683014</ele>
      </trkpt>
      <trkpt lat="1.3735699495075286" lon="103.84132716626753">
        <ele>23.601930771304385</ele>
      </trkpt>
      <trkpt lat="1.373485382516717" lon="103.84135875581852">
        <ele>23.537050641557144</ele>
      </trkpt>
      <trkpt lat="1.3733990230797004" lon="103.84138405897073">
        <ele>23.32303037986203</ele>
      </trkpt>
      <trkpt lat="1.3733113212475965" lon="103.84140589734507">
        <ele>23.020010730952787</ele>
      </trkpt>
      <trkpt lat="1.3732229920127899" lon="103.84142516759968">
        <ele>22.661420452082098</ele>
      </trkpt>
      <trkpt lat="1.3731343114543224" lon="103.8414427665078">
        <ele>22.258442125695364</ele>
      </trkpt>
      <trkpt lat="1.3730452285288015" lon="103.84145824564835">
        <ele>21.817556407535317</ele>
      </trkpt>
      <trkpt lat="1.3729558622408442" lon="103.8414720232942">
        <ele>21.340925122975012</ele>
      </trkpt>
      <trkpt lat="1.3728663112898658" lon="103.84148439615342">
        <ele>20.81920960329342</ele>
      </trkpt>
      <trkpt lat="1.3727763452538786" lon="103.84149319071969">
        <ele>20.369077214543765</ele>
      </trkpt>
      <trkpt lat="1.372686015043052" lon="103.84149633678322">
        <ele>20.08801594003125</ele>
      </trkpt>
      <trkpt lat="1.372595778498434" lon="103.8414932405747">
        <ele>20.0</ele>
      </trkpt>
      <trkpt lat="1.3725060388582075" lon="103.84148531237533">
        <ele>20.0</ele>
      </trkpt>
      <trkpt lat="1.372428942521859" lon="103.84152973996663">
        <ele>20.0</ele>
      </trkpt>
      <trkpt lat="1.3723783838683004" lon="103.84160300553803">
        <ele>20.175499914809183</ele>
      </trkpt>
      <trkpt lat="1.3723552241756025" lon="103.84168973564967">
        <ele>20.886321035367818</ele>
      </trkpt>
      <trkpt lat="1.3723434376314936" lon="103.84177877646903">
        <ele>22.17578348439522</ele>
      </trkpt>
      <trkpt lat="1.3723462308953178" lon="103.84186827886818">
        <ele>23.819046369582264</ele>
      </trkpt>
      <trkpt lat="1.3723716679409996" lon="103.84195425635673">
        <ele>25.242942138099423</ele>
      </trkpt>
      <trkpt lat="1.3724141295426242" lon="103.8420333518615">
        <ele>26.423805534115463</ele>
      </trkpt>
      <trkpt lat="1.3724666155050558" lon="103.84210647722952">
        <ele>27.41049576313397</ele>
      </trkpt>
      <trkpt lat="1.3725188344719796" lon="103.84217978032856">
        <ele>28.390042170951222</ele>
      </trkpt>
      <trkpt lat="1.372563384052717" lon="103.84225796324392">
        <ele>29.323877986126803</ele>
      </trkpt>
      <trkpt lat="1.3726052863382527" lon="103.84233759316989">
        <ele>30.18269721724729</ele>
      </trkpt>
      <trkpt lat="1.3726363736316822" lon="103.84242184562052">
        <ele>30.962381256077432</ele>
      </trkpt>
      <trkpt lat="1.3726620777647287" lon="103.84250799688441">
        <ele>31.648801545319433</ele>
      </trkpt>
      <trkpt lat="1.3726822327046124" lon="103.84259555326413">
        <ele>32.27709923752785</ele>
      </trkpt>
      <trkpt lat="1.3727040038171856" lon="103.84268276111922">
        <ele>32.85609748446915</ele>
      </trkpt>
      <trkpt lat="1.372719272586317" lon="103.84277131872551">
        <ele>33.4058670959709</ele>
      </trkpt>
      <trkpt lat="1.3727307414734509" lon="103.84286042474181">
        <ele>33.890893874892484</ele>
      </trkpt>
      <trkpt lat="1.3727336091292046" lon="103.84295020366487">
        <ele>34.30382364842679</ele>
      </trkpt>
      <trkpt lat="1.372728511072323" lon="103.84303987392256">
        <ele>34.6433222277842</ele>
      </trkpt>
      <trkpt lat="1.3727201729903638" lon="103.84312933752152">
        <ele>35.052966739534</ele>
      </trkpt>
      <trkpt lat="1.3727117313956343" lon="103.84321879955428">
        <ele>35.60125073707355</ele>
      </trkpt>
      <trkpt lat="1.3727075951223358" lon="103.84330841009684">
        <ele>36.30050086476979</ele>
      </trkpt>
      <trkpt lat="1.3727231322175348" lon="103.84339678688063">
        <ele>36.8992227865859</ele>
      </trkpt>
      <trkpt lat="1.3727410499840667" lon="103.84348484684999">
        <ele>37.302297427461106</ele>
      </trkpt>
      <trkpt lat="1.3727672109834712" lon="103.8435707917829">
        <ele>37.26259728266313</ele>
      </trkpt>
      <trkpt lat="1.3728030239155808" lon="103.84365326445">
        <ele>36.93329447254796</ele>
      </trkpt>
      <trkpt lat="1.372843788308496" lon="103.84373346163287">
        <ele>36.383092898495185</ele>
      </trkpt>
      <trkpt lat="1.3728906196681177" lon="103.84381025200996">
        <ele>35.685617515371575</ele>
      </trkpt>
      <trkpt lat="1.3729525348441804" lon="103.84387536016806">
        <ele>34.90129277490818</ele>
      </trkpt>
      <trkpt lat="1.3730306502038903" lon="103.84391957066121">
        <ele>34.01405176627344</ele>
      </trkpt>
      <trkpt lat="1.3731164193149907" lon="103.84394804253986">
        <ele>33.13385339506814</ele>
      </trkpt>
      <trkpt lat="1.3732029343583991" lon="103.84397416627529">
        <ele>32.19901565529745</ele>
      </trkpt>
      <trkpt lat="1.3732905172797256" lon="103.84399643987523">
        <ele>31.236968507012524</ele>
      </trkpt>
      <trkpt lat="1.373379468281197" lon="103.84401221740532">
        <ele>30.385368913661434</ele>
      </trkpt>
      <trkpt lat="1.3734697585715911" lon="103.84401709160718">
        <ele>29.819048050375738</ele>
      </trkpt>
      <trkpt lat="1.3735600194472368" lon="103.84401453716738">
        <ele>29.560103223869515</ele>
      </trkpt>
      <trkpt lat="1.373649820808291" lon="103.84400390862852">
        <ele>29.559559494063503</ele>
      </trkpt>
      <trkpt lat="1.3737390493908803" lon="103.84398930034381">
        <ele>29.631041259921194</ele>
      </trkpt>
      <trkpt lat="1.3738282105336797" lon="103.84397429932038">
        <ele>29.632604995713056</ele>
      </trkpt>
      <trkpt lat="1.3739166806974459" lon="103.84395567552801">
        <ele>29.54413598508258</ele>
      </trkpt>
      <trkpt lat="1.3740048909212872" lon="103.84393586195917">
        <ele>29.358248068989557</ele>
      </trkpt>
      <trkpt lat="1.3740932791521263" lon="103.84391687340496">
        <ele>29.15008952880226</ele>
      </trkpt>
      <trkpt lat="1.3741823081236868" lon="103.84390118263187">
        <ele>28.86664703501431</ele>
      </trkpt>
      <trkpt lat="1.3742723626568116" lon="103.84389383034028">
        <ele>28.362251324978217</ele>
      </trkpt>
      <trkpt lat="1.37436272905944" lon="103.84389503360781">
        <ele>27.657336254606918</ele>
      </trkpt>
      <trkpt lat="1.3744531605283756" lon="103.84389470561067">
        <ele>27.051342374042918</ele>
      </trkpt>
      <trkpt lat="1.3745215715722203" lon="103.84387446476114">
        <ele>26.748450834677225</ele>
      </trkpt>
      <trkpt lat="1.3746062423488292" lon="103.843897519853">
        <ele>26.22102584137294</ele>
      </trkpt>
      <trkpt lat="1.3746966524013797" lon="103.84389565624927">
        <ele>25.710838449650378</ele>
      </trkpt>
      <trkpt lat="1.3747870640163986" lon="103.84389367691321">
        <ele>25.168095980186877</ele>
      </trkpt>
      <trkpt lat="1.3748774286849335" lon="103.84389109385309">
        <ele>24.555903358888827</ele>
      </trkpt>
      <trkpt lat="1.3749666940598677" lon="103.8438784120341">
        <ele>24.007574875196198</ele>
      </trkpt>
      <trkpt lat="1.3750562354242473" lon="103.8438658166281">
        <ele>23.548728204615514</ele>
      </trkpt>
      <trkpt lat="1.375144969464852" lon="103.84384854613496">
        <ele>23.31500834784688</ele>
      </trkpt>
      <trkpt lat="1.375231864273376" lon="103.84382383316715">
        <ele>23.486435030079175</ele>
      </trkpt>
      <trkpt lat="1.3753174682627785" lon="103.84379486255307">
        <ele>24.045958198776834</ele>
      </trkpt>
      <trkpt lat="1.3754024383886694" lon="103.84376411343112">
        <ele>24.806717913470976</ele>
      </trkpt>
      <trkpt lat="1.3754868509265408" lon="103.84373186715365">
        <ele>25.131386709780156</ele>
      </trkpt>
      <trkpt lat="1.3755709012923876" lon="103.8436987034187">
        <ele>24.815538697232537</ele>
      </trkpt>
      <trkpt lat="1.3756547618448127" lon="103.8436651114945">
        <ele>23.878948305225588</ele>
      </trkpt>
      <trkpt lat="1.3757353379143982" lon="103.8436244381139">
        <ele>22.799017017507765</ele>
      </trkpt>
      <trkpt lat="1.3758137308877676" lon="103.84357967433361">
        <ele>21.817751912003775</ele>
      </trkpt>
      <trkpt lat="1.375877938469089" lon="103.84354936714293">
        <ele>21.336551703909137</ele>
      </trkpt>
    </trkseg>
  </trk>
</gpx>