<?xml version="1.0" encoding="UTF-8"?>
<gpx xmlns="http://www.topografix.com/GPX/1/1" xmlns:xsi="http://www.w3.org/2001/XMLSchema-instance" xsi:schemaLocation="http://www.topografix.com/GPX/1/1 http://www.topografix.com/GPX/1/1/gpx.xsd" version="1.1" creator="gpx.py -- https://github.com/tkrajina/gpxpy">
  <trk>
    <name>loop_05000m_004</name>
    <trkseg>
      <trkpt lat="1.3512825234457582" lon="103.66381938003556">
        <ele>20.0</ele>
      </trkpt>
      <trkpt lat="1.351343371034159" lon="103.66375290441034">
        <ele>20.0</ele>
      </trkpt>
      <trkpt lat="1.3514042186202775" lon="103.66368642878187">
        <ele>20.0</ele>
      </trkpt>
      <trkpt lat="1.351465066204114" lon="103.66361995315012">
        <ele>20.0</ele>
      </trkpt>
      <trkpt lat="1.3515259137856686" lon="103.6635534775151">
        <ele>20.0</ele>
      </trkpt>
      <trkpt lat="1.351586761364941" lon="103.6634870018768">
        <ele>20.403753902453015</ele>
      </trkpt>
      <trkpt lat="1.3516283655725423" lon="103.6634082594798">
        <ele>21.696764195388184</ele>
      </trkpt>
      <trkpt lat="1.351663818671014" lon="103.6633255960357">
        <ele>23.879030878805708</ele>
      </trkpt>
      <trkpt lat="1.3516992717663388" lon="103.6632429325895">
        <ele>26.58247301989792</ele>
      </trkpt>
      <trkpt lat="1.351729989311215" lon="103.66315859975231">
        <ele>29.365332949782754</ele>
      </trkpt>
      <trkpt lat="1.351754899776415" lon="103.6630722197861">
        <ele>32.22761066845998</ele>
      </trkpt>
      <trkpt lat="1.3517798102382939" lon="103.66298583981849">
        <ele>35.05229805933923</ele>
      </trkpt>
      <trkpt lat="1.3518047206968506" lon="103.66289945984947">
        <ele>37.44090867869435</ele>
      </trkpt>
      <trkpt lat="1.351809900000536" lon="103.66281032659907">
        <ele>39.82908503491429</ele>
      </trkpt>
      <trkpt lat="1.35180905229969" lon="103.66272047725705">
        <ele>42.571247197616145</ele>
      </trkpt>
      <trkpt lat="1.3518076293224486" lon="103.66263063241266">
        <ele>46.02213679137904</ele>
      </trkpt>
      <trkpt lat="1.3518062063418756" lon="103.66254078756877">
        <ele>49.44916867720091</ele>
      </trkpt>
      <trkpt lat="1.3518047833579707" lon="103.66245094272544">
        <ele>52.32294219180485</ele>
      </trkpt>
      <trkpt lat="1.3518027409908095" lon="103.66236118475632">
        <ele>54.880528474150786</ele>
      </trkpt>
      <trkpt lat="1.3517790776003462" lon="103.66227445933428">
        <ele>56.3716611451483</ele>
      </trkpt>
      <trkpt lat="1.35174555050705" lon="103.66219216728985">
        <ele>57.03758919764106</ele>
      </trkpt>
      <trkpt lat="1.3516956194930194" lon="103.66211724821497">
        <ele>56.678491264106675</ele>
      </trkpt>
      <trkpt lat="1.351642665145397" lon="103.66204499853305">
        <ele>56.61974401702306</ele>
      </trkpt>
      <trkpt lat="1.3515736533487976" lon="103.66198692645406">
        <ele>56.900235066487454</ele>
      </trkpt>
      <trkpt lat="1.3515035998038893" lon="103.66193044970582">
        <ele>57.7443735309407</ele>
      </trkpt>
      <trkpt lat="1.3514221032452067" lon="103.66189149674369">
        <ele>58.78556879622358</ele>
      </trkpt>
      <trkpt lat="1.3513384576344472" lon="103.66186071167509">
        <ele>59.01657245324717</ele>
      </trkpt>
      <trkpt lat="1.3512482011306766" lon="103.66185505259809">
        <ele>57.638898840213564</ele>
      </trkpt>
      <trkpt lat="1.3511581113907143" lon="103.66184743345535">
        <ele>54.65916582581582</ele>
      </trkpt>
      <trkpt lat="1.3510681795854123" lon="103.66183795802097">
        <ele>51.060800956806666</ele>
      </trkpt>
      <trkpt lat="1.3509782477800956" lon="103.66182848258687">
        <ele>47.38063100510558</ele>
      </trkpt>
      <trkpt lat="1.3508883159747642" lon="103.66181900715306">
        <ele>43.682828870913056</ele>
      </trkpt>
      <trkpt lat="1.3507996391153052" lon="103.66180329202169">
        <ele>40.29051227093771</ele>
      </trkpt>
      <trkpt lat="1.3507129489257614" lon="103.661777698999">
        <ele>37.20368120517952</ele>
      </trkpt>
      <trkpt lat="1.350626258736118" lon="103.66175210597777">
        <ele>34.43996785612989</ele>
      </trkpt>
      <trkpt lat="1.3505395685463748" lon="103.661726512958">
        <ele>31.676254507079637</ele>
      </trkpt>
      <trkpt lat="1.3504528783565315" lon="103.66170091993969">
        <ele>28.912541158029388</ele>
      </trkpt>
      <trkpt lat="1.3503661881665887" lon="103.66167532692283">
        <ele>25.885752417226694</ele>
      </trkpt>
      <trkpt lat="1.3502794979765456" lon="103.66164973390742">
        <ele>22.914905364550435</ele>
      </trkpt>
      <trkpt lat="1.3501928077864038" lon="103.6616241408935">
        <ele>20.865296094890745</ele>
      </trkpt>
      <trkpt lat="1.3501061175961617" lon="103.66159854788101">
        <ele>20.0</ele>
      </trkpt>
      <trkpt lat="1.3500171707128288" lon="103.66158282444744">
        <ele>20.0</ele>
      </trkpt>
      <trkpt lat="1.3499278606436855" lon="103.66156868939643">
        <ele>20.0</ele>
      </trkpt>
      <trkpt lat="1.3498385505745265" lon="103.66155455434607">
        <ele>20.0</ele>
      </trkpt>
      <trkpt lat="1.349749240505352" lon="103.66154041929632">
        <ele>20.0</ele>
      </trkpt>
      <trkpt lat="1.3497308415268154" lon="103.66153750730138">
        <ele>20.0</ele>
      </trkpt>
      <trkpt lat="1.3497015816150484" lon="103.6616225301628">
        <ele>20.0</ele>
      </trkpt>
      <trkpt lat="1.3496723217000222" lon="103.66170755302254">
        <ele>20.0</ele>
      </trkpt>
      <trkpt lat="1.3496567527289218" lon="103.66179567916001">
        <ele>20.0</ele>
      </trkpt>
      <trkpt lat="1.3496460061615858" lon="103.66188489837519">
        <ele>20.0</ele>
      </trkpt>
      <trkpt lat="1.3496352595908543" lon="103.66197411759002">
        <ele>20.0</ele>
      </trkpt>
      <trkpt lat="1.3496245130167281" lon="103.66206333680448">
        <ele>20.0</ele>
      </trkpt>
      <trkpt lat="1.3496137664392063" lon="103.66215255601855">
        <ele>20.0</ele>
      </trkpt>
      <trkpt lat="1.3496030198582898" lon="103.66224177523226">
        <ele>20.0</ele>
      </trkpt>
      <trkpt lat="1.349592273273979" lon="103.6623309944456">
        <ele>20.0</ele>
      </trkpt>
      <trkpt lat="1.3495815266862725" lon="103.66242021365858">
        <ele>20.42979376449207</ele>
      </trkpt>
      <trkpt lat="1.3495707800951722" lon="103.66250943287116">
        <ele>21.664639447852675</ele>
      </trkpt>
      <trkpt lat="1.3495601194466496" lon="103.66259865568726">
        <ele>23.603534490272768</ele>
      </trkpt>
      <trkpt lat="1.3495632621129097" lon="103.6626884573027">
        <ele>25.816685127260413</ele>
      </trkpt>
      <trkpt lat="1.349566404775863" lon="103.6627782589188">
        <ele>27.75060385010693</ele>
      </trkpt>
      <trkpt lat="1.34957793463765" lon="103.66286691540799">
        <ele>29.30385993293748</ele>
      </trkpt>
      <trkpt lat="1.3495992875108982" lon="103.66295423073576">
        <ele>30.476453375751845</ele>
      </trkpt>
      <trkpt lat="1.3496206403811835" lon="103.66304154606544">
        <ele>31.158796234813952</ele>
      </trkpt>
      <trkpt lat="1.3496702652664894" lon="103.66311480979194">
        <ele>31.47298280101022</ele>
      </trkpt>
      <trkpt lat="1.349727781772687" lon="103.6631841512701">
        <ele>31.281170554343003</ele>
      </trkpt>
      <trkpt lat="1.3497852982772833" lon="103.66325349275162">
        <ele>30.804416843318815</ele>
      </trkpt>
      <trkpt lat="1.349842814780279" lon="103.66332283423648">
        <ele>30.02714372841238</ele>
      </trkpt>
      <trkpt lat="1.3499072060671395" lon="103.66338446299424">
        <ele>28.92203769527501</ele>
      </trkpt>
      <trkpt lat="1.349983434807132" lon="103.66343281147263">
        <ele>27.555858693469087</ele>
      </trkpt>
      <trkpt lat="1.3500596635464934" lon="103.66348115995386">
        <ele>26.02452365731742</ele>
      </trkpt>
      <trkpt lat="1.3501358922852227" lon="103.66352950843792">
        <ele>24.493188621165768</ele>
      </trkpt>
      <trkpt lat="1.3502121210233202" lon="103.66357785692482">
        <ele>22.961853585014108</ele>
      </trkpt>
      <trkpt lat="1.3502883497607858" lon="103.66362620541454">
        <ele>21.464124044625294</ele>
      </trkpt>
      <trkpt lat="1.3503645784976195" lon="103.66367455390711">
        <ele>20.47683951628746</ele>
      </trkpt>
      <trkpt lat="1.3504408072338205" lon="103.66372290240251">
        <ele>20.0</ele>
      </trkpt>
      <trkpt lat="1.3504412806041743" lon="103.66372320264027">
        <ele>20.0</ele>
      </trkpt>
      <trkpt lat="1.3505303559405477" lon="103.66370767399219">
        <ele>20.0</ele>
      </trkpt>
      <trkpt lat="1.3506197827209925" lon="103.6636943182177">
        <ele>20.0</ele>
      </trkpt>
      <trkpt lat="1.3507092697955931" lon="103.6636813352241">
        <ele>20.0</ele>
      </trkpt>
      <trkpt lat="1.3507975215713763" lon="103.66368244616083">
        <ele>20.0</ele>
      </trkpt>
      <trkpt lat="1.3508834028223076" lon="103.6637106032019">
        <ele>20.0</ele>
      </trkpt>
      <trkpt lat="1.3509663255140392" lon="103.66374365463021">
        <ele>20.0</ele>
      </trkpt>
      <trkpt lat="1.3510316897055603" lon="103.66380575333216">
        <ele>20.0</ele>
      </trkpt>
      <trkpt lat="1.3510970610318767" lon="103.66386784461945">
        <ele>20.0</ele>
      </trkpt>
      <trkpt lat="1.3511624484802622" lon="103.6639299191497">
        <ele>20.0</ele>
      </trkpt>
      <trkpt lat="1.351200960457731" lon="103.66396647988276">
        <ele>20.0</ele>
      </trkpt>
      <trkpt lat="1.3512445990428015" lon="103.6638877771639">
        <ele>20.0</ele>
      </trkpt>
      <trkpt lat="1.3512825234457582" lon="103.66381938003556">
        <ele>20.0</ele>
      </trkpt>
    </trkseg>
  </trk>
</gpx>