<?xml version="1.0" encoding="UTF-8"?>
<gpx xmlns="http://www.topografix.com/GPX/1/1" xmlns:xsi="http://www.w3.org/2001/XMLSchema-instance" xsi:schemaLocation="http://www.topografix.com/GPX/1/1 http://www.topografix.com/GPX/1/1/gpx.xsd" version="1.1" creator="gpx.py -- https://github.com/tkrajina/gpxpy">
  <trk>
    <name>loop_05000m_003</name>
    <trkseg>
      <trkpt lat="1.3768578069785475" lon="103.77719012472956">
        <ele>31.147135733123495</ele>
      </trkpt>
      <trkpt lat="1.3769263456123042" lon="103.7772487485515">
        <ele>31.47195300815237</ele>
      </trkpt>
      <trkpt lat="1.3769948842447084" lon="103.77730737237677">
        <ele>32.131237784893194</ele>
      </trkpt>
      <trkpt lat="1.3770758671704344" lon="103.77734441000464">
        <ele>32.79470840964095</ele>
      </trkpt>
      <trkpt lat="1.3771657235127934" lon="103.77735264340163">
        <ele>33.46180315414765</ele>
      </trkpt>
      <trkpt lat="1.3772558822442114" lon="103.77735948724762">
        <ele>34.12954391949236</ele>
      </trkpt>
      <trkpt lat="1.3773414826642412" lon="103.77738532695605">
        <ele>34.787949062806945</ele>
      </trkpt>
      <trkpt lat="1.3774075526197027" lon="103.77744471809324">
        <ele>35.427688386995904</ele>
      </trkpt>
      <trkpt lat="1.3774658381081981" lon="103.77751342398983">
        <ele>36.024257689317345</ele>
      </trkpt>
      <trkpt lat="1.377513818644747" lon="103.77758931399195">
        <ele>36.59406570322</ele>
      </trkpt>
      <trkpt lat="1.3775622264074174" lon="103.7776651488784">
        <ele>37.151084045643614</ele>
      </trkpt>
      <trkpt lat="1.3776129006994002" lon="103.77773957487108">
        <ele>37.71641807910167</ele>
      </trkpt>
      <trkpt lat="1.3776656587738187" lon="103.77781218684831">
        <ele>38.312410562352945</ele>
      </trkpt>
      <trkpt lat="1.377733253179036" lon="103.77787188320262">
        <ele>38.93498180380129</ele>
      </trkpt>
      <trkpt lat="1.3778008475828474" lon="103.77793157956029">
        <ele>39.50528010657144</ele>
      </trkpt>
      <trkpt lat="1.3778684419852514" lon="103.77799127592131">
        <ele>39.860286171971005</ele>
      </trkpt>
      <trkpt lat="1.3779391586237157" lon="103.77804658413676">
        <ele>39.99999999999999</ele>
      </trkpt>
      <trkpt lat="1.3780084228082508" lon="103.77810286653744">
        <ele>40.0</ele>
      </trkpt>
      <trkpt lat="1.3780712604494982" lon="103.77816748983194">
        <ele>40.0</ele>
      </trkpt>
      <trkpt lat="1.3781209650453081" lon="103.77824249333825">
        <ele>40.0</ele>
      </trkpt>
      <trkpt lat="1.3781901884270944" lon="103.77829489665929">
        <ele>40.0</ele>
      </trkpt>
      <trkpt lat="1.3782756000086973" lon="103.77832407528213">
        <ele>40.0</ele>
      </trkpt>
      <trkpt lat="1.3783618596831944" lon="103.77835106762753">
        <ele>40.0</ele>
      </trkpt>
      <trkpt lat="1.3784485271172495" lon="103.77837630947116">
        <ele>40.0</ele>
      </trkpt>
      <trkpt lat="1.378537466597677" lon="103.77838667710527">
        <ele>40.0</ele>
      </trkpt>
      <trkpt lat="1.3786183544216888" lon="103.77834648983443">
        <ele>40.0</ele>
      </trkpt>
      <trkpt lat="1.378705666949107" lon="103.77832355454515">
        <ele>40.0</ele>
      </trkpt>
      <trkpt lat="1.3787949898528786" lon="103.77831069258362">
        <ele>40.0</ele>
      </trkpt>
      <trkpt lat="1.378884932810483" lon="103.77830131883874">
        <ele>40.0</ele>
      </trkpt>
      <trkpt lat="1.3789739984826328" lon="103.77828682891034">
        <ele>40.0</ele>
      </trkpt>
      <trkpt lat="1.3790619910883155" lon="103.77826608103611">
        <ele>40.0</ele>
      </trkpt>
      <trkpt lat="1.3791489348556423" lon="103.77824160448708">
        <ele>40.0</ele>
      </trkpt>
      <trkpt lat="1.3792350031946792" lon="103.778214015745">
        <ele>40.0</ele>
      </trkpt>
      <trkpt lat="1.3793191483283274" lon="103.77818151373148">
        <ele>40.0</ele>
      </trkpt>
      <trkpt lat="1.3794013603517803" lon="103.77814407314254">
        <ele>40.12777239970252</ele>
      </trkpt>
      <trkpt lat="1.379483572374479" lon="103.77810663255096">
        <ele>40.568983463525164</ele>
      </trkpt>
      <trkpt lat="1.379565784396424" lon="103.7780691919567">
        <ele>41.326438136073214</ele>
      </trkpt>
      <trkpt lat="1.3796468315050585" lon="103.77802932398727">
        <ele>42.272402193244226</ele>
      </trkpt>
      <trkpt lat="1.3797278627582694" lon="103.77798942297827">
        <ele>43.23207900207385</ele>
      </trkpt>
      <trkpt lat="1.3797940534581528" lon="103.7779287476642">
        <ele>44.20379520866121</ele>
      </trkpt>
      <trkpt lat="1.3798586991699806" lon="103.7778659096233">
        <ele>45.185644436807394</ele>
      </trkpt>
      <trkpt lat="1.3799186811913184" lon="103.77779870010673">
        <ele>46.166512747328994</ele>
      </trkpt>
      <trkpt lat="1.3799780533321635" lon="103.77773091892205">
        <ele>47.13903071675808</ele>
      </trkpt>
      <trkpt lat="1.3800303817192703" lon="103.77765792981519">
        <ele>48.10149056496385</ele>
      </trkpt>
      <trkpt lat="1.3800786721116705" lon="103.77758195514632">
        <ele>49.02799652905278</ele>
      </trkpt>
      <trkpt lat="1.3801116553619357" lon="103.77749979974814">
        <ele>49.90045905551449</ele>
      </trkpt>
      <trkpt lat="1.3801303929437698" lon="103.77741189222473">
        <ele>50.722454125078706</ele>
      </trkpt>
      <trkpt lat="1.3801491305222746" lon="103.77732398470006">
        <ele>51.53359934330107</ele>
      </trkpt>
      <trkpt lat="1.380165869184021" lon="103.77723579245576">
        <ele>52.363011749973964</ele>
      </trkpt>
      <trkpt lat="1.3801727416996739" lon="103.7771461949111">
        <ele>52.954517166720564</ele>
      </trkpt>
      <trkpt lat="1.3801796142119085" lon="103.77705659736604">
        <ele>53.086779486431425</ele>
      </trkpt>
      <trkpt lat="1.3801864867207254" lon="103.77696699982062">
        <ele>52.59726597275369</ele>
      </trkpt>
      <trkpt lat="1.380167577278133" lon="103.77687953716918">
        <ele>51.67898253506666</ele>
      </trkpt>
      <trkpt lat="1.3801374877276797" lon="103.77679510062454">
        <ele>50.55922506937449</ele>
      </trkpt>
      <trkpt lat="1.380110043825172" lon="103.77671174891196">
        <ele>49.78783445994733</ele>
      </trkpt>
      <trkpt lat="1.380143745370117" lon="103.77663055027439">
        <ele>49.803158943824265</ele>
      </trkpt>
      <trkpt lat="1.3802208693715883" lon="103.77658968599377">
        <ele>50.66703500619898</ele>
      </trkpt>
      <trkpt lat="1.38030632672826" lon="103.77656028190637">
        <ele>52.246981280583064</ele>
      </trkpt>
      <trkpt lat="1.3803944686621232" lon="103.7765414145789">
        <ele>53.86401589046153</ele>
      </trkpt>
      <trkpt lat="1.3804837134360504" lon="103.77652687581391">
        <ele>55.316316689518054</ele>
      </trkpt>
      <trkpt lat="1.3805729582097754" lon="103.7765123370477">
        <ele>56.515466425803105</ele>
      </trkpt>
      <trkpt lat="1.380658933999751" lon="103.77648535325832">
        <ele>57.12413215754602</ele>
      </trkpt>
      <trkpt lat="1.380743946783511" lon="103.77645470330356">
        <ele>57.14726812053576</ele>
      </trkpt>
      <trkpt lat="1.3808289595667216" lon="103.7764240533465">
        <ele>56.41654036670095</ele>
      </trkpt>
      <trkpt lat="1.3809143654951335" lon="103.7763945038213">
        <ele>55.57329657858213</ele>
      </trkpt>
      <trkpt lat="1.380999800626257" lon="103.77636503603513">
        <ele>54.73313085768647</ele>
      </trkpt>
      <trkpt lat="1.3810852357568626" lon="103.77633556824676">
        <ele>53.893177969087425</ele>
      </trkpt>
      <trkpt lat="1.381170670886952" lon="103.77630610045617">
        <ele>53.0253147420749</ele>
      </trkpt>
      <trkpt lat="1.381256106016523" lon="103.77627663266337">
        <ele>52.121378635442085</ele>
      </trkpt>
      <trkpt lat="1.3813415411455774" lon="103.77624716486835">
        <ele>51.181369649188866</ele>
      </trkpt>
      <trkpt lat="1.381426976274114" lon="103.77621769707112">
        <ele>50.19401231659068</ele>
      </trkpt>
      <trkpt lat="1.381514632118428" lon="103.77619679305324">
        <ele>49.16211321891504</ele>
      </trkpt>
      <trkpt lat="1.3816037614834094" lon="103.77618157139484">
        <ele>48.08664521995025</ele>
      </trkpt>
      <trkpt lat="1.3816936836527567" lon="103.77617673130011">
        <ele>47.00740560030956</ele>
      </trkpt>
      <trkpt lat="1.3817841041246122" lon="103.77617841634509">
        <ele>45.929750319932076</ele>
      </trkpt>
      <trkpt lat="1.3818745245964035" lon="103.77618010139003">
        <ele>44.85115067409382</ele>
      </trkpt>
      <trkpt lat="1.3819639333238634" lon="103.77616774716854">
        <ele>43.77076090751164</ele>
      </trkpt>
      <trkpt lat="1.3820531897018469" lon="103.77615327890163">
        <ele>42.68858102018552</ele>
      </trkpt>
      <trkpt lat="1.3821424460796299" lon="103.7761388106335">
        <ele>41.60561299446747</ele>
      </trkpt>
      <trkpt lat="1.3822322493752517" lon="103.77612842229439">
        <ele>40.709419321072296</ele>
      </trkpt>
      <trkpt lat="1.3823222054373587" lon="103.77611917357154">
        <ele>40.17403037005516</ele>
      </trkpt>
      <trkpt lat="1.3824098936771934" lon="103.77609748235906">
        <ele>40.0</ele>
      </trkpt>
      <trkpt lat="1.3824981032179848" lon="103.7760902788809">
        <ele>40.0</ele>
      </trkpt>
      <trkpt lat="1.3825869947896599" lon="103.776106592292">
        <ele>40.0</ele>
      </trkpt>
      <trkpt lat="1.3826749517734302" lon="103.77612748875568">
        <ele>40.0</ele>
      </trkpt>
      <trkpt lat="1.3827629087570148" lon="103.77614838522078">
        <ele>40.0</ele>
      </trkpt>
      <trkpt lat="1.3828506031039738" lon="103.77617026970208">
        <ele>40.0</ele>
      </trkpt>
      <trkpt lat="1.3829374736503166" lon="103.7761952532484">
        <ele>40.0</ele>
      </trkpt>
      <trkpt lat="1.3830243441964079" lon="103.7762202367964">
        <ele>40.0</ele>
      </trkpt>
      <trkpt lat="1.383105170610312" lon="103.77625940734261">
        <ele>40.0</ele>
      </trkpt>
      <trkpt lat="1.3831836924497964" lon="103.776303987267">
        <ele>40.0</ele>
      </trkpt>
      <trkpt lat="1.383262214288509" lon="103.77634856719428">
        <ele>40.0</ele>
      </trkpt>
      <trkpt lat="1.3833416532065237" lon="103.77639114002986">
        <ele>40.0</ele>
      </trkpt>
      <trkpt lat="1.3834271150541402" lon="103.77642053125969">
        <ele>40.0</ele>
      </trkpt>
      <trkpt lat="1.3835131786480146" lon="103.77644801704928">
        <ele>40.0</ele>
      </trkpt>
      <trkpt lat="1.383600219675908" lon="103.776472407776">
        <ele>40.0</ele>
      </trkpt>
      <trkpt lat="1.3836872607035586" lon="103.77649679850441">
        <ele>40.0</ele>
      </trkpt>
      <trkpt lat="1.3837701935136493" lon="103.77653216052607">
        <ele>40.0</ele>
      </trkpt>
      <trkpt lat="1.383852112573583" lon="103.77657022984191">
        <ele>40.0</ele>
      </trkpt>
      <trkpt lat="1.3839340316329538" lon="103.77660829916029">
        <ele>40.0</ele>
      </trkpt>
      <trkpt lat="1.3840159506917618" lon="103.77664636848117">
        <ele>40.0</ele>
      </trkpt>
      <trkpt lat="1.3841006534827023" lon="103.77667639127235">
        <ele>40.0</ele>
      </trkpt>
      <trkpt lat="1.384188816602325" lon="103.7766964117943">
        <ele>40.0</ele>
      </trkpt>
      <trkpt lat="1.3842773211653068" lon="103.77671404470773">
        <ele>40.0</ele>
      </trkpt>
      <trkpt lat="1.3843676075374562" lon="103.77671921797611">
        <ele>40.0</ele>
      </trkpt>
      <trkpt lat="1.3844578939095418" lon="103.77672439124473">
        <ele>40.0</ele>
      </trkpt>
      <trkpt lat="1.3845481802815633" lon="103.77672956451362">
        <ele>40.0</ele>
      </trkpt>
      <trkpt lat="1.3846377876320946" lon="103.77674136556384">
        <ele>40.0</ele>
      </trkpt>
      <trkpt lat="1.3847272711965157" lon="103.77675437486334">
        <ele>40.23642653771842</ele>
      </trkpt>
      <trkpt lat="1.384816945802271" lon="103.77676413467951">
        <ele>41.09783555693185</ele>
      </trkpt>
      <trkpt lat="1.3849073452166871" lon="103.7767615659945">
        <ele>42.58422705763982</ele>
      </trkpt>
      <trkpt lat="1.384997744631023" lon="103.77675899730917">
        <ele>44.45278813860448</ele>
      </trkpt>
      <trkpt lat="1.385087767883197" lon="103.77675046058522">
        <ele>46.31483342268899</ele>
      </trkpt>
      <trkpt lat="1.3851777835115127" lon="103.77674180290539">
        <ele>48.17036290989378</ele>
      </trkpt>
      <trkpt lat="1.3852677991397009" lon="103.77673314522477">
        <ele>50.02559771213703</ele>
      </trkpt>
      <trkpt lat="1.3853578005223668" lon="103.77672438250765">
        <ele>51.87034084591425</ele>
      </trkpt>
      <trkpt lat="1.3854469117235781" lon="103.77670905620734">
        <ele>53.704592311225475</ele>
      </trkpt>
      <trkpt lat="1.3855360229245752" lon="103.77669372990574">
        <ele>55.528517359672</ele>
      </trkpt>
      <trkpt lat="1.3856251341253574" lon="103.77667840360287">
        <ele>56.978992193290104</ele>
      </trkpt>
      <trkpt lat="1.3857150004024426" lon="103.7766768284446">
        <ele>58.16671028904267</ele>
      </trkpt>
      <trkpt lat="1.3858052608140892" lon="103.77668243110604">
        <ele>59.04922948633648</ele>
      </trkpt>
      <trkpt lat="1.3858933330329624" lon="103.77670031539819">
        <ele>59.69722388230989</ele>
      </trkpt>
      <trkpt lat="1.3859800438087462" lon="103.77672584103803">
        <ele>60.0</ele>
      </trkpt>
      <trkpt lat="1.38604379710781" lon="103.77678655874975">
        <ele>60.0</ele>
      </trkpt>
      <trkpt lat="1.3861026539822119" lon="103.77685478230968">
        <ele>60.0</ele>
      </trkpt>
      <trkpt lat="1.3861615108547465" lon="103.776923005873">
        <ele>60.0</ele>
      </trkpt>
      <trkpt lat="1.386207070382873" lon="103.77700042225612">
        <ele>59.90690152313167</ele>
      </trkpt>
      <trkpt lat="1.386233013358695" lon="103.7770849941223">
        <ele>59.48321438372269</ele>
      </trkpt>
      <trkpt lat="1.3862459280314903" lon="103.77717393077867">
        <ele>58.72893858177306</ele>
      </trkpt>
      <trkpt lat="1.3862588427009626" lon="103.77726286743616">
        <ele>57.74788198780891</ele>
      </trkpt>
      <trkpt lat="1.386273830949559" lon="103.77735146959125">
        <ele>56.78310619337605</ele>
      </trkpt>
      <trkpt lat="1.3862898979459004" lon="103.77743989772709">
        <ele>55.834611198474335</ele>
      </trkpt>
      <trkpt lat="1.3863059649389653" lon="103.77752832586424">
        <ele>54.89877055537041</ele>
      </trkpt>
      <trkpt lat="1.3863220319287533" lon="103.77761675400271">
        <ele>54.30668684900539</ele>
      </trkpt>
      <trkpt lat="1.3863380989152645" lon="103.77770518214251">
        <ele>54.140867622294714</ele>
      </trkpt>
      <trkpt lat="1.3863702335807644" lon="103.77778353542718">
        <ele>54.12917559770702</ele>
      </trkpt>
      <trkpt lat="1.3864436530137922" lon="103.77783600208564">
        <ele>53.93493678442763</ele>
      </trkpt>
      <trkpt lat="1.3865170724457356" lon="103.77788846874728">
        <ele>53.48221463761778</ele>
      </trkpt>
      <trkpt lat="1.3865908177893969" lon="103.77793982803824">
        <ele>53.36987626157298</ele>
      </trkpt>
      <trkpt lat="1.3866811198039428" lon="103.77793493171463">
        <ele>53.597921656293124</ele>
      </trkpt>
      <trkpt lat="1.3867714218183937" lon="103.7779300353905">
        <ele>53.600304576946236</ele>
      </trkpt>
      <trkpt lat="1.386861723832751" lon="103.77792513906587">
        <ele>53.007694197271775</ele>
      </trkpt>
      <trkpt lat="1.3869514583153455" lon="103.77791759862012">
        <ele>51.95077006766061</ele>
      </trkpt>
      <trkpt lat="1.3870359138583828" lon="103.77788546368286">
        <ele>51.20792564880687</ele>
      </trkpt>
      <trkpt lat="1.3871203694008285" lon="103.77785332874325">
        <ele>50.814678994282566</ele>
      </trkpt>
      <trkpt lat="1.3872048249426818" lon="103.77782119380124">
        <ele>50.64550971410798</ele>
      </trkpt>
      <trkpt lat="1.3872889913785147" lon="103.77778834636845">
        <ele>50.49476667588232</ele>
      </trkpt>
      <trkpt lat="1.387372262110136" lon="103.77775329150872">
        <ele>49.961734649686</ele>
      </trkpt>
      <trkpt lat="1.387455532841076" lon="103.77771823664642">
        <ele>49.04125447510771</ele>
      </trkpt>
      <trkpt lat="1.3875388035713354" lon="103.7776831817816">
        <ele>47.72005907060983</ele>
      </trkpt>
      <trkpt lat="1.3876220743009133" lon="103.77764812691422">
        <ele>46.398863666111936</ele>
      </trkpt>
      <trkpt lat="1.3877053450298102" lon="103.77761307204429">
        <ele>45.07314922266246</ele>
      </trkpt>
      <trkpt lat="1.3877901315577914" lon="103.77758303742728">
        <ele>43.73053306009887</ele>
      </trkpt>
      <trkpt lat="1.3878790715489535" lon="103.77756675887878">
        <ele>42.371015178420826</ele>
      </trkpt>
      <trkpt lat="1.3879680115398867" lon="103.77755048032894">
        <ele>41.123376598333806</ele>
      </trkpt>
      <trkpt lat="1.38805695153059" lon="103.77753420177777">
        <ele>40.33303820552675</ele>
      </trkpt>
      <trkpt lat="1.388145891521064" lon="103.77751792322525">
        <ele>40.0</ele>
      </trkpt>
      <trkpt lat="1.3882348315113087" lon="103.77750164467137">
        <ele>40.0</ele>
      </trkpt>
      <trkpt lat="1.388324191894562" lon="103.7774878260994">
        <ele>39.99999999999999</ele>
      </trkpt>
      <trkpt lat="1.3884135548672747" lon="103.77747402267994">
        <ele>40.0</ele>
      </trkpt>
      <trkpt lat="1.388502917839797" lon="103.7774602192593">
        <ele>40.0</ele>
      </trkpt>
      <trkpt lat="1.3885922808121276" lon="103.7774464158375">
        <ele>40.0</ele>
      </trkpt>
      <trkpt lat="1.388681643784267" lon="103.77743261241453">
        <ele>40.0</ele>
      </trkpt>
      <trkpt lat="1.3887710067562153" lon="103.77741880899039">
        <ele>40.0</ele>
      </trkpt>
      <trkpt lat="1.3888603697279727" lon="103.77740500556509">
        <ele>40.0</ele>
      </trkpt>
      <trkpt lat="1.38894800350208" lon="103.77738454935687">
        <ele>40.0</ele>
      </trkpt>
      <trkpt lat="1.3890329182516667" lon="103.77735363218189">
        <ele>40.0</ele>
      </trkpt>
      <trkpt lat="1.389117833000695" lon="103.77732271500459">
        <ele>40.0</ele>
      </trkpt>
      <trkpt lat="1.3892027477491653" lon="103.77729179782499">
        <ele>40.0</ele>
      </trkpt>
      <trkpt lat="1.3892876624970765" lon="103.77726088064306">
        <ele>40.0</ele>
      </trkpt>
      <trkpt lat="1.3893666126807571" lon="103.77721769978581">
        <ele>40.0</ele>
      </trkpt>
      <trkpt lat="1.389443755960049" lon="103.77717080377165">
        <ele>40.0</ele>
      </trkpt>
      <trkpt lat="1.3895208992382295" lon="103.7771239077544">
        <ele>40.0</ele>
      </trkpt>
      <trkpt lat="1.3895980425152978" lon="103.77707701173405">
        <ele>40.0</ele>
      </trkpt>
      <trkpt lat="1.3896709223977697" lon="103.7770248183105">
        <ele>40.0</ele>
      </trkpt>
      <trkpt lat="1.3897339300876597" lon="103.77696035837688">
        <ele>40.0</ele>
      </trkpt>
      <trkpt lat="1.3897969377756045" lon="103.77689589843986">
        <ele>40.0</ele>
      </trkpt>
      <trkpt lat="1.3898599454616052" lon="103.77683143849941">
        <ele>40.0</ele>
      </trkpt>
      <trkpt lat="1.3899229531456612" lon="103.77676697855557">
        <ele>40.0</ele>
      </trkpt>
      <trkpt lat="1.3899859608277723" lon="103.7767025186083">
        <ele>40.0</ele>
      </trkpt>
      <trkpt lat="1.3900452726742871" lon="103.7766346874935">
        <ele>40.0</ele>
      </trkpt>
      <trkpt lat="1.3901045352255403" lon="103.77656681141248">
        <ele>40.0</ele>
      </trkpt>
      <trkpt lat="1.3901637977746601" lon="103.77649893532809">
        <ele>40.0</ele>
      </trkpt>
      <trkpt lat="1.390223060321647" lon="103.77643105924034">
        <ele>40.0</ele>
      </trkpt>
      <trkpt lat="1.3902823228665" lon="103.77636318314923">
        <ele>40.0</ele>
      </trkpt>
      <trkpt lat="1.3903383683593928" lon="103.77629272281537">
        <ele>40.00000000000001</ele>
      </trkpt>
      <trkpt lat="1.3903927524084978" lon="103.77622092785096">
        <ele>40.0</ele>
      </trkpt>
      <trkpt lat="1.390427850893411" lon="103.77617459267178">
        <ele>40.0</ele>
      </trkpt>
      <trkpt lat="1.3903734668458285" lon="103.7762463876383">
        <ele>40.0</ele>
      </trkpt>
      <trkpt lat="1.390319082795887" lon="103.77631818260156">
        <ele>40.0</ele>
      </trkpt>
      <trkpt lat="1.39026130730138" lon="103.77638725323357">
        <ele>40.0</ele>
      </trkpt>
      <trkpt lat="1.3902020447557701" lon="103.7764551293235">
        <ele>40.0</ele>
      </trkpt>
      <trkpt lat="1.3901427822080272" lon="103.77652300541004">
        <ele>40.0</ele>
      </trkpt>
      <trkpt lat="1.3900835196581507" lon="103.77659088149323">
        <ele>40.0</ele>
      </trkpt>
      <trkpt lat="1.3900242571061412" lon="103.77665875757306">
        <ele>40.0</ele>
      </trkpt>
      <trkpt lat="1.3899636171695322" lon="103.77672537726653">
        <ele>40.0</ele>
      </trkpt>
      <trkpt lat="1.3899006094867312" lon="103.77678983721258">
        <ele>40.0</ele>
      </trkpt>
      <trkpt lat="1.3898376018019853" lon="103.77685429715523">
        <ele>40.0</ele>
      </trkpt>
      <trkpt lat="1.3897745941152952" lon="103.77691875709445">
        <ele>40.0</ele>
      </trkpt>
      <trkpt lat="1.3897115864266607" lon="103.77698321703028">
        <ele>40.0</ele>
      </trkpt>
      <trkpt lat="1.3896478293968446" lon="103.77704674588517">
        <ele>40.0</ele>
      </trkpt>
      <trkpt lat="1.3895706861204942" lon="103.77709364190754">
        <ele>40.0</ele>
      </trkpt>
      <trkpt lat="1.3894935428430313" lon="103.77714053792678">
        <ele>40.0</ele>
      </trkpt>
      <trkpt lat="1.3894163995644568" lon="103.77718743394294">
        <ele>40.0</ele>
      </trkpt>
      <trkpt lat="1.38933925628477" lon="103.77723432995599">
        <ele>40.0</ele>
      </trkpt>
      <trkpt lat="1.3892575501987316" lon="103.77727184443266">
        <ele>40.0</ele>
      </trkpt>
      <trkpt lat="1.389172635450622" lon="103.77730276161377">
        <ele>40.0</ele>
      </trkpt>
      <trkpt lat="1.3890877207019539" lon="103.77733367879254">
        <ele>40.0</ele>
      </trkpt>
      <trkpt lat="1.3890028059527275" lon="103.77736459596902">
        <ele>40.0</ele>
      </trkpt>
      <trkpt lat="1.3889178912029432" lon="103.77739551314319">
        <ele>40.0</ele>
      </trkpt>
      <trkpt lat="1.388828680009324" lon="103.77740990050835">
        <ele>40.0</ele>
      </trkpt>
      <trkpt lat="1.3887393170374989" lon="103.77742370393325">
        <ele>40.0</ele>
      </trkpt>
      <trkpt lat="1.3886499540654826" lon="103.77743750735696">
        <ele>40.0</ele>
      </trkpt>
      <trkpt lat="1.3885605910932752" lon="103.77745131077953">
        <ele>40.0</ele>
      </trkpt>
      <trkpt lat="1.3884712281208769" lon="103.77746511420092">
        <ele>40.0</ele>
      </trkpt>
      <trkpt lat="1.388381865148287" lon="103.77747891762112">
        <ele>40.0</ele>
      </trkpt>
      <trkpt lat="1.3882925021755064" lon="103.77749272104018">
        <ele>40.0</ele>
      </trkpt>
      <trkpt lat="1.3882032917895242" lon="103.7775074173398">
        <ele>40.0</ele>
      </trkpt>
      <trkpt lat="1.3881143517991983" lon="103.7775236958932">
        <ele>40.03790489785991</ele>
      </trkpt>
      <trkpt lat="1.3880254118086428" lon="103.77753997444525">
        <ele>40.5331099829998</ele>
      </trkpt>
      <trkpt lat="1.387936471817858" lon="103.77755625299595">
        <ele>41.485615255419994</ele>
      </trkpt>
      <trkpt lat="1.387847531826844" lon="103.77757253154532">
        <ele>42.85604120231667</ele>
      </trkpt>
      <trkpt lat="1.3877590864586777" lon="103.77759044826102">
        <ele>44.20956543009954</ele>
      </trkpt>
      <trkpt lat="1.387675815730221" lon="103.77762550313258">
        <ele>45.54618793876796</ele>
      </trkpt>
      <trkpt lat="1.387592545001082" lon="103.7776605580016">
        <ele>46.867383343265836</ele>
      </trkpt>
      <trkpt lat="1.3875092742712622" lon="103.77769561286809">
        <ele>48.18857874776341</ele>
      </trkpt>
      <trkpt lat="1.3874260035407617" lon="103.77773066773202">
        <ele>49.36942680591238</ele>
      </trkpt>
      <trkpt lat="1.38734273280958" lon="103.77776572259339">
        <ele>50.14918126223852</ele>
      </trkpt>
      <trkpt lat="1.387259331028548" lon="103.77780045448695">
        <ele>50.54664673059398</ele>
      </trkpt>
      <trkpt lat="1.3871748754870765" lon="103.7778325894305">
        <ele>50.70217055732737</ele>
      </trkpt>
      <trkpt lat="1.3870904199450127" lon="103.77786472437167">
        <ele>50.95272009171407</ele>
      </trkpt>
      <trkpt lat="1.3870059644023571" lon="103.77789685931046">
        <ele>51.4610250389671</ele>
      </trkpt>
      <trkpt lat="1.3869200031269748" lon="103.77792197906584">
        <ele>52.332741846221246</ele>
      </trkpt>
      <trkpt lat="1.386829701112679" lon="103.77792687539079">
        <ele>53.22642320688061</ele>
      </trkpt>
      <trkpt lat="1.3867393990982888" lon="103.77793177171525">
        <ele>53.616953618675474</ele>
      </trkpt>
      <trkpt lat="1.3866490970838041" lon="103.77793666803917">
        <ele>53.51281184975588</ele>
      </trkpt>
      <trkpt lat="1.386564456024697" lon="103.77792232978778">
        <ele>53.40547266839685</ele>
      </trkpt>
      <trkpt lat="1.3864910365934537" lon="103.77786986312408">
        <ele>53.638517257802754</ele>
      </trkpt>
      <trkpt lat="1.386417617161126" lon="103.77781739646358">
        <ele>53.950568481942845</ele>
      </trkpt>
      <trkpt lat="1.3863484682573497" lon="103.77776225207258">
        <ele>54.080072917391334</ele>
      </trkpt>
      <trkpt lat="1.3863324012729537" lon="103.77767382393193">
        <ele>54.14185001696968</ele>
      </trkpt>
      <trkpt lat="1.3863163342852802" lon="103.7775853957926">
        <ele>54.51207918534149</ele>
      </trkpt>
      <trkpt lat="1.3863002672943305" lon="103.7774969676546">
        <ele>55.2260652904522</ele>
      </trkpt>
      <trkpt lat="1.3862842003001035" lon="103.77740853951791">
        <ele>56.16898887948059</ele>
      </trkpt>
      <trkpt lat="1.3862681333026001" lon="103.77732011138255">
        <ele>57.123257339014465</ele>
      </trkpt>
      <trkpt lat="1.3862542629270331" lon="103.77723132889608">
        <ele>58.09380659807979</ele>
      </trkpt>
      <trkpt lat="1.3862413482563827" lon="103.777142392239">
        <ele>59.05650244191012</ele>
      </trkpt>
      <trkpt lat="1.3862284335824084" lon="103.777053455583">
        <ele>59.69354555222546</ele>
      </trkpt>
      <trkpt lat="1.3861914948655738" lon="103.7769725675509">
        <ele>60.0</ele>
      </trkpt>
      <trkpt lat="1.3861406391483035" lon="103.77689881256876">
        <ele>60.0</ele>
      </trkpt>
      <trkpt lat="1.3860817822751075" lon="103.77683058900665">
        <ele>60.0</ele>
      </trkpt>
      <trkpt lat="1.3860229254000425" lon="103.77676236544791">
        <ele>60.0</ele>
      </trkpt>
      <trkpt lat="1.3859492946065481" lon="103.7767167891864">
        <ele>59.9190672410644</ele>
      </trkpt>
      <trkpt lat="1.3858625838306706" lon="103.77669126354715">
        <ele>59.479795434339145</ele>
      </trkpt>
      <trkpt lat="1.3857732528470836" lon="103.77668044430139">
        <ele>58.772245739074386</ele>
      </trkpt>
      <trkpt lat="1.3856829924354146" lon="103.77667484164006">
        <ele>57.7550604140464</ele>
      </trkpt>
      <trkpt lat="1.3855935336892322" lon="103.77668383858595">
        <ele>56.48823912065878</ele>
      </trkpt>
      <trkpt lat="1.3855044224883735" lon="103.77669916488836">
        <ele>54.88172069966182</ele>
      </trkpt>
      <trkpt lat="1.3854153112873004" lon="103.7767144911895">
        <ele>53.05424036828675</ele>
      </trkpt>
      <trkpt lat="1.3853258936054302" lon="103.77672755771314">
        <ele>51.216268368446144</ele>
      </trkpt>
      <trkpt lat="1.3852358779773242" lon="103.77673621539428">
        <ele>49.36780470013952</ele>
      </trkpt>
      <trkpt lat="1.3851458623490907" lon="103.77674487307462">
        <ele>47.512404646295</ele>
      </trkpt>
      <trkpt lat="1.3850558467207301" lon="103.77675353075418">
        <ele>45.65456454020671</ele>
      </trkpt>
      <trkpt lat="1.3849656873711629" lon="103.77675990821128">
        <ele>43.79020863723873</ele>
      </trkpt>
      <trkpt lat="1.384875287956799" lon="103.7767624768965">
        <ele>41.91882355686576</ele>
      </trkpt>
      <trkpt lat="1.3847850222778841" lon="103.77676277083147">
        <ele>40.65406209624087</ele>
      </trkpt>
      <trkpt lat="1.384695538713527" lon="103.77674976153142">
        <ele>40.01428311711052</ele>
      </trkpt>
      <trkpt lat="1.3846060551490706" lon="103.77673675223221">
        <ele>40.0</ele>
      </trkpt>
      <trkpt lat="1.3845161631085414" lon="103.7767277299793">
        <ele>40.0</ele>
      </trkpt>
      <trkpt lat="1.3844258767364976" lon="103.77672255671051">
        <ele>40.0</ele>
      </trkpt>
      <trkpt lat="1.3843355903643892" lon="103.77671738344198">
        <ele>40.0</ele>
      </trkpt>
      <trkpt lat="1.3842457154923538" lon="103.77670933267946">
        <ele>40.0</ele>
      </trkpt>
      <trkpt lat="1.3841575523728435" lon="103.77668931215663">
        <ele>40.0</ele>
      </trkpt>
      <trkpt lat="1.3840693892531588" lon="103.77666929163514">
        <ele>40.0</ele>
      </trkpt>
      <trkpt lat="1.3839869007187071" lon="103.7766328684143">
        <ele>40.0</ele>
      </trkpt>
      <trkpt lat="1.3839049816597" lon="103.7765947990943">
        <ele>40.0</ele>
      </trkpt>
      <trkpt lat="1.3838230626001293" lon="103.77655672977684">
        <ele>40.0</ele>
      </trkpt>
      <trkpt lat="1.3837411435399958" lon="103.77651866046189">
        <ele>40.0</ele>
      </trkpt>
      <trkpt lat="1.3836563943881006" lon="103.77648814911281">
        <ele>40.0</ele>
      </trkpt>
      <trkpt lat="1.3835693533603632" lon="103.77646375838499">
        <ele>40.0</ele>
      </trkpt>
      <trkpt lat="1.3834823123323845" lon="103.77643936765884">
        <ele>40.0</ele>
      </trkpt>
      <trkpt lat="1.3833968087443649" lon="103.7764101086002">
        <ele>40.0</ele>
      </trkpt>
      <trkpt lat="1.383312890869102" lon="103.77637733827824">
        <ele>40.0</ele>
      </trkpt>
      <trkpt lat="1.383234369030888" lon="103.77633275834913">
        <ele>40.0</ele>
      </trkpt>
      <trkpt lat="1.3831558471919012" lon="103.77628817842287">
        <ele>40.0</ele>
      </trkpt>
      <trkpt lat="1.3830773253521427" lon="103.77624359849948">
        <ele>40.0</ele>
      </trkpt>
      <trkpt lat="1.3829935383367808" lon="103.77621137718029">
        <ele>40.0</ele>
      </trkpt>
      <trkpt lat="1.3829066677906006" lon="103.77618639363288">
        <ele>40.0</ele>
      </trkpt>
      <trkpt lat="1.3828196746105492" lon="103.77616187142387">
        <ele>40.0</ele>
      </trkpt>
      <trkpt lat="1.3827317176270846" lon="103.77614097495787">
        <ele>40.0</ele>
      </trkpt>
      <trkpt lat="1.3826437606434343" lon="103.77612007849328">
        <ele>40.0</ele>
      </trkpt>
      <trkpt lat="1.3825556753514106" lon="103.77609981123051">
        <ele>40.0</ele>
      </trkpt>
      <trkpt lat="1.382466469061508" lon="103.77608504114154">
        <ele>40.0</ele>
      </trkpt>
      <trkpt lat="1.3823788620003508" lon="103.77610552642436">
        <ele>40.0</ele>
      </trkpt>
      <trkpt lat="1.3822903053981874" lon="103.77612245333526">
        <ele>40.302229490018426</ele>
      </trkpt>
      <trkpt lat="1.3822003493360329" lon="103.77613170205782">
        <ele>40.965566291496295</ele>
      </trkpt>
      <trkpt lat="1.3821107941611246" lon="103.776143941342">
        <ele>41.9897078153522</ele>
      </trkpt>
      <trkpt lat="1.3820215377832707" lon="103.7761584096097">
        <ele>43.072424571567716</ele>
      </trkpt>
      <trkpt lat="1.3819322814052157" lon="103.77617287787619">
        <ele>44.15396964984865</ele>
      </trkpt>
      <trkpt lat="1.3818424598691892" lon="103.77617950384276">
        <ele>45.233724607385646</ele>
      </trkpt>
      <trkpt lat="1.3817520393973757" lon="103.7761778187978">
        <ele>46.311689444178704</ele>
      </trkpt>
      <trkpt lat="1.3816616189254964" lon="103.77617613375284">
        <ele>47.38990655978349</ele>
      </trkpt>
      <trkpt lat="1.3815721546059319" lon="103.7761869692691">
        <ele>48.469708014651495</ele>
      </trkpt>
      <trkpt lat="1.381483025240875" lon="103.77620219092707">
        <ele>49.52994253701987</ele>
      </trkpt>
      <trkpt lat="1.3813966794394252" lon="103.7762281468828">
        <ele>50.5460463228718</ele>
      </trkpt>
      <trkpt lat="1.3813112443107054" lon="103.77625761467925">
        <ele>51.517608343646536</ele>
      </trkpt>
      <trkpt lat="1.3812258091814675" lon="103.77628708247349">
        <ele>52.4448252373326</ele>
      </trkpt>
      <trkpt lat="1.3811403740517127" lon="103.7763165502655">
        <ele>53.33596925139826</ele>
      </trkpt>
      <trkpt lat="1.3810549389214406" lon="103.7763460180553">
        <ele>54.19104038584328</ele>
      </trkpt>
      <trkpt lat="1.3809695037906513" lon="103.7763754858429">
        <ele>55.03099327444221</ele>
      </trkpt>
      <trkpt lat="1.3808840686593447" lon="103.77640495362827">
        <ele>55.87225053339241</ele>
      </trkpt>
      <trkpt lat="1.380798812503293" lon="103.77643492237335">
        <ele>56.71658585956613</ele>
      </trkpt>
      <trkpt lat="1.380713799719888" lon="103.7764655723296">
        <ele>57.19177475401244</ele>
      </trkpt>
      <trkpt lat="1.3806287869359328" lon="103.77649622228354">
        <ele>56.86050713439622</ele>
      </trkpt>
      <trkpt lat="1.3805413104062783" lon="103.7765174927561">
        <ele>56.11022238059571</ele>
      </trkpt>
      <trkpt lat="1.3804520656324815" lon="103.77653203152188">
        <ele>54.66363914230538</ele>
      </trkpt>
      <trkpt lat="1.380362820858483" lon="103.77654657028641">
        <ele>53.25341302686027</ele>
      </trkpt>
      <trkpt lat="1.380276022011074" lon="103.77657070912541">
        <ele>51.5119404660241</ele>
      </trkpt>
      <trkpt lat="1.3801905646542203" lon="103.77660011321203">
        <ele>50.27556541154771</ele>
      </trkpt>
      <trkpt lat="1.380124264616677" lon="103.77665586282133">
        <ele>49.68042422045545</ele>
      </trkpt>
      <trkpt lat="1.3801144950515354" lon="103.77674179776143">
        <ele>49.98369158546157</ele>
      </trkpt>
      <trkpt lat="1.3801501215114689" lon="103.77682438894577">
        <ele>50.94098562630561</ele>
      </trkpt>
      <trkpt lat="1.3801752739971194" lon="103.77691047093192">
        <ele>52.02147357006309</ele>
      </trkpt>
      <trkpt lat="1.3801840496057578" lon="103.77699877272337">
        <ele>52.85063050821437</ele>
      </trkpt>
      <trkpt lat="1.3801771770957294" lon="103.77708837026867">
        <ele>53.113587278585875</ele>
      </trkpt>
      <trkpt lat="1.3801703045822822" lon="103.77717796781359">
        <ele>52.81310264286782</ele>
      </trkpt>
      <trkpt lat="1.380161223416324" lon="103.77726725076568">
        <ele>52.06352073226453</ele>
      </trkpt>
      <trkpt lat="1.3801424858399673" lon="103.77735515829114">
        <ele>51.240586199497606</ele>
      </trkpt>
      <trkpt lat="1.380123748260282" lon="103.77744306581536">
        <ele>50.439586803425506</ele>
      </trkpt>
      <trkpt lat="1.3801050106772674" lon="103.77753097333833">
        <ele>49.59969506503271</ele>
      </trkpt>
      <trkpt lat="1.3800615474694042" lon="103.77760889713208">
        <ele>48.70933586974201</ele>
      </trkpt>
      <trkpt lat="1.3800132570760866" lon="103.77768487179989">
        <ele>47.7614530818723</ele>
      </trkpt>
      <trkpt lat="1.3799569989023293" lon="103.77775495535084">
        <ele>46.79551307871469</ele>
      </trkpt>
      <trkpt lat="1.3798976267607355" lon="103.77782273653435">
        <ele>45.8187658208469</ele>
      </trkpt>
      <trkpt lat="1.3798357746369" lon="103.77788819312433">
        <ele>44.83714837683839</ele>
      </trkpt>
      <trkpt lat="1.3797711289244188" lon="103.77795103116404">
        <ele>43.85880586465144</ele>
      </trkpt>
      <trkpt lat="1.3796991276170951" lon="103.77800357259476">
        <ele>42.891345507510344</ele>
      </trkpt>
      <trkpt lat="1.3796180963635871" lon="103.77804347360278">
        <ele>41.93693276973918</ele>
      </trkpt>
      <trkpt lat="1.3795366305333885" lon="103.77808246906581">
        <ele>40.99197693418048</ele>
      </trkpt>
      <trkpt lat="1.3794544185111763" lon="103.77811990965911">
        <ele>40.346681476671485</ele>
      </trkpt>
      <trkpt lat="1.3793722064882101" lon="103.77815735024977">
        <ele>40.016621406275775</ele>
      </trkpt>
      <trkpt lat="1.3792899944644896" lon="103.77819479083774">
        <ele>40.0</ele>
      </trkpt>
      <trkpt lat="1.3792044818121407" lon="103.77822379920988">
        <ele>40.0</ele>
      </trkpt>
      <trkpt lat="1.3791184134729395" lon="103.77825138795123">
        <ele>40.0</ele>
      </trkpt>
      <trkpt lat="1.3790307873261627" lon="103.77827343860605">
        <ele>40.0</ele>
      </trkpt>
      <trkpt lat="1.3789427947203703" lon="103.7782941864797">
        <ele>40.0</ele>
      </trkpt>
      <trkpt lat="1.3788530374184045" lon="103.77830464293754">
        <ele>40.0</ele>
      </trkpt>
      <trkpt lat="1.3787630944607523" lon="103.77831401668212">
        <ele>40.0</ele>
      </trkpt>
      <trkpt lat="1.3786745552454522" lon="103.77833128741446">
        <ele>40.0</ele>
      </trkpt>
      <trkpt lat="1.3785896701430922" lon="103.77836074096453">
        <ele>40.0</ele>
      </trkpt>
      <trkpt lat="1.378506239642397" lon="103.77838496322521">
        <ele>40.0</ele>
      </trkpt>
      <trkpt lat="1.378417530123946" lon="103.77836848800224">
        <ele>40.0</ele>
      </trkpt>
      <trkpt lat="1.3783312704496378" lon="103.77834149565567">
        <ele>40.0</ele>
      </trkpt>
      <trkpt lat="1.3782450107750372" lon="103.77831450331092">
        <ele>40.0</ele>
      </trkpt>
      <trkpt lat="1.3781610464961214" lon="103.77828159372127">
        <ele>40.0</ele>
      </trkpt>
      <trkpt lat="1.3781035030516906" lon="103.77821576600138">
        <ele>40.0</ele>
      </trkpt>
      <trkpt lat="1.3780489770907773" lon="103.77814457324786">
        <ele>40.0</ele>
      </trkpt>
      <trkpt lat="1.3779861394489414" lon="103.77807994995456">
        <ele>40.0</ele>
      </trkpt>
      <trkpt lat="1.3779120661948512" lon="103.77802980287971">
        <ele>39.999231905862075</ele>
      </trkpt>
      <trkpt lat="1.3778444717933545" lon="103.77797010651655">
        <ele>39.78317157435357</ele>
      </trkpt>
      <trkpt lat="1.3777768773904515" lon="103.77791041015671">
        <ele>39.35181900547449</ele>
      </trkpt>
      <trkpt lat="1.3777092829861413" lon="103.77785071380022">
        <ele>38.71209431200803</ele>
      </trkpt>
      <trkpt lat="1.377645604973924" lon="103.77778760806848">
        <ele>38.09894837673866</ele>
      </trkpt>
      <trkpt lat="1.377594930683382" lon="103.77771318207375">
        <ele>37.512381199666336</ele>
      </trkpt>
      <trkpt lat="1.3775442563906075" lon="103.7776387560822">
        <ele>36.95381813036452</ele>
      </trkpt>
      <trkpt lat="1.3774977918118416" lon="103.77756171329527">
        <ele>36.392264340170094</ele>
      </trkpt>
      <trkpt lat="1.377445169024825" lon="103.77748905964154">
        <ele>35.81792087849664</ele>
      </trkpt>
      <trkpt lat="1.3773868835356617" lon="103.77742035374614">
        <ele>35.204166120939455</ele>
      </trkpt>
      <trkpt lat="1.377313115032781" lon="103.7773708594438">
        <ele>34.557714370314294</ele>
      </trkpt>
      <trkpt lat="1.3772239318150468" lon="103.77735690369697">
        <ele>33.89274119708609</ele>
      </trkpt>
      <trkpt lat="1.3771337398006795" lon="103.7773503024975">
        <ele>33.224135580115494</ele>
      </trkpt>
      <trkpt lat="1.37704552308935" lon="103.77733409643182">
        <ele>32.55841920463971</ele>
      </trkpt>
      <trkpt lat="1.3769705792118474" lon="103.77728658331249">
        <ele>31.89618255240028</ele>
      </trkpt>
      <trkpt lat="1.3769020405789636" lon="103.77722795948841">
        <ele>31.318371603199086</ele>
      </trkpt>
      <trkpt lat="1.3768578069785475" lon="103.77719012472956">
        <ele>31.031949679408513</ele>
      </trkpt>
    </trkseg>
  </trk>
</gpx>