<?xml version="1.0" encoding="UTF-8"?>
<gpx xmlns="http://www.topografix.com/GPX/1/1" xmlns:xsi="http://www.w3.org/2001/XMLSchema-instance" xsi:schemaLocation="http://www.topografix.com/GPX/1/1 http://www.topografix.com/GPX/1/1/gpx.xsd" version="1.1" creator="gpx.py -- https://github.com/tkrajina/gpxpy">
  <trk>
    <name>loop_05000m_001</name>
    <trkseg>
      <trkpt lat="1.3538061126111367" lon="103.77712281790679">
        <ele>131.00414401600028</ele>
      </trkpt>
      <trkpt lat="1.3537290217127214" lon="103.77716979822398">
        <ele>129.49000503265506</ele>
      </trkpt>
      <trkpt lat="1.3536546116603458" lon="103.77722075094336">
        <ele>126.44545338077108</ele>
      </trkpt>
      <trkpt lat="1.3535815995484515" lon="103.77727377509105">
        <ele>123.59822326447721</ele>
      </trkpt>
      <trkpt lat="1.3535189816236997" lon="103.77731925058491">
        <ele>122.16647136373352</ele>
      </trkpt>
      <trkpt lat="1.3535899185659601" lon="103.77726364698749">
        <ele>123.96200493245226</ele>
      </trkpt>
      <trkpt lat="1.3536582923713774" lon="103.77720483400644">
        <ele>126.77081480462361</ele>
      </trkpt>
      <trkpt lat="1.3537448652743875" lon="103.77718056435963">
        <ele>129.71432686050255</ele>
      </trkpt>
      <trkpt lat="1.3538080380883457" lon="103.77711899902644">
        <ele>132.7882222383182</ele>
      </trkpt>
      <trkpt lat="1.353882485266531" lon="103.77706798282874">
        <ele>136.23792062902007</ele>
      </trkpt>
      <trkpt lat="1.353961118199865" lon="103.77702414763314">
        <ele>139.42042018748032</ele>
      </trkpt>
      <trkpt lat="1.354037095219252" lon="103.77697552302789">
        <ele>142.23373575619223</ele>
      </trkpt>
      <trkpt lat="1.3541183118047393" lon="103.77693630530105">
        <ele>144.8035224831193</ele>
      </trkpt>
      <trkpt lat="1.3541918155452468" lon="103.77688395688263">
        <ele>147.31669613085967</ele>
      </trkpt>
      <trkpt lat="1.354270793092997" lon="103.77684028516462">
        <ele>149.65034672033997</ele>
      </trkpt>
      <trkpt lat="1.3543499753032837" lon="103.77679687902076">
        <ele>151.36785944617384</ele>
      </trkpt>
      <trkpt lat="1.3544272225023781" lon="103.77676505811777">
        <ele>152.55232003830508</ele>
      </trkpt>
      <trkpt lat="1.3545046471192563" lon="103.77672881643">
        <ele>153.36873644700032</ele>
      </trkpt>
      <trkpt lat="1.3545890438906887" lon="103.7766973177219">
        <ele>154.21382234836972</ele>
      </trkpt>
      <trkpt lat="1.3546717658259995" lon="103.77666204248561">
        <ele>155.36023076398885</ele>
      </trkpt>
      <trkpt lat="1.3547251193004373" lon="103.7765906658127">
        <ele>156.30389757727474</ele>
      </trkpt>
      <trkpt lat="1.3547288225325687" lon="103.77658419719063">
        <ele>156.93081882414072</ele>
      </trkpt>
      <trkpt lat="1.3546553442452" lon="103.7766365817808">
        <ele>155.74674348821938</ele>
      </trkpt>
      <trkpt lat="1.3545786031572662" lon="103.77668406796585">
        <ele>154.5294362159828</ele>
      </trkpt>
      <trkpt lat="1.354501357310179" lon="103.77673079636055">
        <ele>153.35601037491458</ele>
      </trkpt>
      <trkpt lat="1.354424445097142" lon="103.77677806322791">
        <ele>152.18261221684494</ele>
      </trkpt>
      <trkpt lat="1.3543476670752908" lon="103.77682554667395">
        <ele>150.7350305914873</ele>
      </trkpt>
      <trkpt lat="1.3542699518383894" lon="103.77687145100775">
        <ele>148.84716267018862</ele>
      </trkpt>
      <trkpt lat="1.3541909740177533" lon="103.77691522801643">
        <ele>146.58762488461366</ele>
      </trkpt>
      <trkpt lat="1.3541069896456335" lon="103.7769482235912">
        <ele>144.6667326219706</ele>
      </trkpt>
      <trkpt lat="1.3540707257416986" lon="103.77696160941446">
        <ele>143.73966685291407</ele>
      </trkpt>
      <trkpt lat="1.35399362823022" lon="103.77700857902157">
        <ele>140.49139668479316</ele>
      </trkpt>
      <trkpt lat="1.3539165307176524" lon="103.77705554862564">
        <ele>137.4313854528066</ele>
      </trkpt>
      <trkpt lat="1.3538394332039947" lon="103.77710251822668">
        <ele>134.7259185994886</ele>
      </trkpt>
      <trkpt lat="1.3538061126111367" lon="103.77712281790679">
        <ele>133.33219610556802</ele>
      </trkpt>
    </trkseg>
  </trk>
</gpx>