{
"type": "FeatureCollection",
"name": "loop_05000m_001",
"crs": { "type": "name", "properties": { "name": "urn:ogc:def:crs:OGC:1.3:CRS84" } },
"features": [
{ "type": "Feature", "properties": { "route_id": "loop_05000m_001", "budget_km": 5.0, "mode": "loop", "rank": 1, "distance_m": 318.00410098521087, "ascent_m": 34.522667257089267, "descent_m": 30.104868619512118, "gain_density_m_per_km": 108.56044670535485, "source_confidence": 0.7375 }, "geometry": { "type": "LineString", "coordinates": [ [ 103.777122817906786, 1.353806112611137 ], [ 103.7771859, 1.3537026 ], [ 103.77731925058491, 1.3535189816237 ], [ 103.777291104871381, 1.353557997039671 ], [ 103.777202850956925, 1.353660597791611 ], [ 103.777198286023179, 1.353670552019509 ], [ 103.777180026340929, 1.3537471213785 ], [ 103.777163288384543, 1.353764731668003 ], [ 103.777143507167978, 1.353774685541037 ], [ 103.777122965360547, 1.353802250075753 ], [ 103.777046884082637, 1.353913274351056 ], [ 103.777021776984554, 1.353966106707376 ], [ 103.776976128321721, 1.354035784170533 ], [ 103.77694113109348, 1.354111587139159 ], [ 103.776911459550774, 1.354152933964861 ], [ 103.776879504667022, 1.354198109813632 ], [ 103.776876864572387, 1.354203001456447 ], [ 103.776817118275403, 1.354313727665843 ], [ 103.776792866818909, 1.354357160984647 ], [ 103.776794346720578, 1.354397382606545 ], [ 103.7767343984912, 1.354458459227253 ], [ 103.776727737054188, 1.354513578245277 ], [ 103.776695911669677, 1.354592532088014 ], [ 103.776681849085875, 1.354633498540132 ], [ 103.776665567203509, 1.354667760889915 ], [ 103.776642623555233, 1.354693830449638 ], [ 103.776621901451904, 1.354707237157332 ], [ 103.77658419719063, 1.354728822532569 ], [ 103.7766436, 1.3546455 ], [ 103.77674420000001, 1.3544792 ], [ 103.7768528, 1.3543036 ], [ 103.7769212, 1.3541802 ], [ 103.776961609414457, 1.354070725741699 ], [ 103.777122817906786, 1.353806112611137 ] ] } }
]
}
