{
"type": "FeatureCollection",
"name": "loop_05000m_005",
"crs": { "type": "name", "properties": { "name": "urn:ogc:def:crs:OGC:1.3:CRS84" } },
"features": [
{ "type": "Feature", "properties": { "route_id": "loop_05000m_005", "budget_km": 5.0, "mode": "loop", "rank": 5, "distance_m": 4598.8537954824978, "ascent_m": 40.534385755168962, "descent_m": 40.523262376334337, "gain_density_m_per_km": 8.8140192225693959, "source_confidence": 0.95 }, "geometry": { "type": "LineString", "coordinates": [ [ 103.936109812343318, 1.383616083192432 ], [ 103.936080502779973, 1.383618997422356 ], [ 103.936050832160561, 1.383625889959151 ], [ 103.936020590995795, 1.383633931061078 ], [ 103.935996626222632, 1.383638526267387 ], [ 103.935957255914971, 1.383655181820985 ], [ 103.935925873905731, 1.383671262756044 ], [ 103.935892870124377, 1.383690943124896 ], [ 103.935861968168084, 1.383712038729584 ], [ 103.935812913562017, 1.38374117852518 ], [ 103.935730918964467, 1.383789885638484 ], [ 103.935669154347153, 1.383826574699077 ], [ 103.935601562622608, 1.383866725911532 ], [ 103.935548969514741, 1.383897967594566 ], [ 103.935486282079381, 1.383935205638943 ], [ 103.935390461457374, 1.383992124954159 ], [ 103.9352777750196, 1.384059063525757 ], [ 103.935201235519983, 1.384104869190507 ], [ 103.935138183259596, 1.384142281784156 ], [ 103.935066490736062, 1.384189772063304 ], [ 103.935024462758307, 1.384214155496805 ], [ 103.934956271636935, 1.384253718882318 ], [ 103.934905053265268, 1.384283434832901 ], [ 103.934859029625684, 1.384314914066038 ], [ 103.934808818624703, 1.3843463102773 ], [ 103.93474947831794, 1.384382682684364 ], [ 103.934678992333048, 1.384424725019586 ], [ 103.934623226448949, 1.384458686238891 ], [ 103.934560432993919, 1.384496925394764 ], [ 103.934455839830093, 1.384560621442058 ], [ 103.934384613465411, 1.384603996831662 ], [ 103.934316853709205, 1.38464526128801 ], [ 103.934265116918723, 1.384676767886296 ], [ 103.934215578884974, 1.38470700285534 ], [ 103.934145684168499, 1.38474966283034 ], [ 103.934087616183064, 1.384785103673996 ], [ 103.934011922210786, 1.384831302664892 ], [ 103.933946705345747, 1.384871107361268 ], [ 103.933888805383333, 1.384906446000258 ], [ 103.933834698205146, 1.384939469307419 ], [ 103.933771496785099, 1.384978043979971 ], [ 103.933737492894892, 1.384998721875871 ], [ 103.93370371004778, 1.385019265011856 ], [ 103.933661386466142, 1.385045001362283 ], [ 103.933625257499116, 1.385066970777259 ], [ 103.933569813263261, 1.385100685973292 ], [ 103.933523577384307, 1.385128801866422 ], [ 103.933452330315092, 1.385172126586688 ], [ 103.933379463154225, 1.385216436224865 ], [ 103.933339954731082, 1.385240527414476 ], [ 103.933282823908996, 1.385275364085772 ], [ 103.933223510502799, 1.385311532070399 ], [ 103.933166210749405, 1.385346470939251 ], [ 103.933100480780396, 1.385386551466493 ], [ 103.933037769045043, 1.385424791485956 ], [ 103.932987881441136, 1.385455211840428 ], [ 103.932937782676191, 1.385485760622395 ], [ 103.93289642873556, 1.385513793096302 ], [ 103.932855908647824, 1.385541260307535 ], [ 103.932809980439728, 1.385578386341329 ], [ 103.932763475202435, 1.385612091194226 ], [ 103.932720872474206, 1.385645784124812 ], [ 103.932683213528577, 1.385675264324167 ], [ 103.932640611053159, 1.385715082502704 ], [ 103.932601812164449, 1.385752985984102 ], [ 103.932572522622721, 1.385784381269344 ], [ 103.932557307721652, 1.385800461481334 ], [ 103.932529539418425, 1.385830707256866 ], [ 103.932495305414548, 1.385871673621172 ], [ 103.932464875912515, 1.385911107834242 ], [ 103.932436728018871, 1.385953605027714 ], [ 103.932407819945666, 1.385996485702741 ], [ 103.932383475447978, 1.386032474036498 ], [ 103.932355327615156, 1.38607650321976 ], [ 103.932333420333393, 1.386119276884652 ], [ 103.932302004200963, 1.386180613900248 ], [ 103.932272935853632, 1.386237367506116 ], [ 103.932238162913308, 1.386305258579425 ], [ 103.932214786082852, 1.386360670775439 ], [ 103.932198910239833, 1.386386765022617 ], [ 103.93217941697921, 1.386418804702781 ], [ 103.93215645904796, 1.386456537492211 ], [ 103.932131316828475, 1.386497862502251 ], [ 103.932100787117719, 1.386548041450163 ], [ 103.932060846368813, 1.386613689014181 ], [ 103.932025280594033, 1.386653123438053 ], [ 103.931984766098992, 1.386707868931394 ], [ 103.931937343225641, 1.386781210221863 ], [ 103.931901088927205, 1.386837278618201 ], [ 103.931844791895259, 1.386893176929014 ], [ 103.931789256947582, 1.386951372288312 ], [ 103.931726112765219, 1.387007269978894 ], [ 103.931645090853749, 1.387071209105162 ], [ 103.931583468820136, 1.387126341637753 ], [ 103.931512717303505, 1.387182623090848 ], [ 103.931452018849384, 1.38723411009527 ], [ 103.931413351797758, 1.387266908426092 ], [ 103.931354286892699, 1.387317009876289 ], [ 103.931292738305899, 1.387366717126424 ], [ 103.93122547953881, 1.387423004756787 ], [ 103.931091931524747, 1.387534766949844 ], [ 103.930995985804543, 1.387615061173937 ], [ 103.930954416422281, 1.387649850121164 ], [ 103.930890978252066, 1.387702939757328 ], [ 103.930856582206914, 1.387737968965808 ], [ 103.930830116473444, 1.387760369322329 ], [ 103.930814140203651, 1.387770323402278 ], [ 103.930795121042706, 1.387772621272521 ], [ 103.930777621739239, 1.387761902585331 ], [ 103.930763072483245, 1.387751747193776 ], [ 103.9307212275571, 1.387772508576705 ], [ 103.930673775012451, 1.387802902559759 ], [ 103.930641422045738, 1.387831125446064 ], [ 103.930570243136287, 1.387874545947303 ], [ 103.930533574674385, 1.387889743472789 ], [ 103.930494750693114, 1.387930992162874 ], [ 103.930412787689946, 1.387989609114356 ], [ 103.930309255974279, 1.388065594337423 ], [ 103.930184155084731, 1.388169801088065 ], [ 103.93007630839179, 1.388245786479666 ], [ 103.929955520928829, 1.388334797032751 ], [ 103.929778654431246, 1.388495448986553 ], [ 103.929655709746314, 1.388569264509502 ], [ 103.929554334211844, 1.388636565921816 ], [ 103.929472371247812, 1.388697353314359 ], [ 103.9293472704625, 1.388805902775272 ], [ 103.929222169578125, 1.388912280854979 ], [ 103.929077656189577, 1.389027342508134 ], [ 103.928918043633331, 1.389155431210733 ], [ 103.928810198710551, 1.389255295346853 ], [ 103.928704509839804, 1.389342134756821 ], [ 103.928605290218883, 1.389394240034836 ], [ 103.928516857423261, 1.389476736890677 ], [ 103.928383128594021, 1.389589628501432 ], [ 103.928245085599045, 1.389700348000125 ], [ 103.928128611970763, 1.389787187822707 ], [ 103.927984098388052, 1.389900079848481 ], [ 103.927841741548036, 1.390017312721247 ], [ 103.927714483946602, 1.390123690815469 ], [ 103.927641149878085, 1.390206187034461 ], [ 103.927531145305124, 1.390253950857936 ], [ 103.927440554870572, 1.390334276388687 ], [ 103.927343493520212, 1.390408090762691 ], [ 103.927173095711694, 1.390527495193132 ], [ 103.927108389147904, 1.390594795042207 ], [ 103.927052309389822, 1.390651240381385 ], [ 103.926972503687779, 1.390709857137619 ], [ 103.926914266825833, 1.390753277020913 ], [ 103.926853872563726, 1.390798867459895 ], [ 103.92676759555583, 1.390863997689535 ], [ 103.926642494274091, 1.390966033798938 ], [ 103.926515235629864, 1.391048532131459 ], [ 103.926422487901334, 1.391135370934263 ], [ 103.926324666724398, 1.391197351711248 ], [ 103.926231834061625, 1.391272556785931 ], [ 103.926183069482718, 1.391326417147387 ], [ 103.926135617874266, 1.391361153797475 ], [ 103.926080502550235, 1.391402328005213 ], [ 103.926202491769232, 1.391567383880214 ], [ 103.926081704411359, 1.391667249321304 ], [ 103.926008369560748, 1.391732378109567 ], [ 103.925952289580323, 1.391784481579057 ], [ 103.92587032615873, 1.391838756540471 ], [ 103.925807775685485, 1.39189520210875 ], [ 103.92571287170388, 1.391969015432557 ], [ 103.925568357870588, 1.392081907324233 ], [ 103.92544756947629, 1.392179601360361 ], [ 103.925335409776224, 1.392268611359073 ], [ 103.925195210397703, 1.39239235722451 ], [ 103.924977361188581, 1.392559522777928 ], [ 103.924768131063132, 1.392795507284163 ], [ 103.924534639273318, 1.393054371293119 ], [ 103.924384213029782, 1.393199955165787 ], [ 103.924153424793886, 1.393453956276444 ], [ 103.924024010682302, 1.393595068142827 ], [ 103.923816948003079, 1.393814335340812 ], [ 103.923612788935586, 1.393995431058185 ], [ 103.923384140656765, 1.394241609279462 ], [ 103.923233629165466, 1.394417816628816 ], [ 103.922972605497861, 1.394700366824497 ], [ 103.92281267223342, 1.394873490633279 ], [ 103.922614595834318, 1.395087902772659 ], [ 103.922241647786734, 1.395491606537812 ], [ 103.922361652836301, 1.395558900142624 ], [ 103.922441539314136, 1.395633552263486 ], [ 103.922537922776911, 1.395683509215947 ], [ 103.922100073103465, 1.396211048960671 ], [ 103.921662224209754, 1.396764638809732 ], [ 103.921541438742324, 1.396927459463605 ], [ 103.921454725164295, 1.396958048294219 ], [ 103.921440004055057, 1.396966613167063 ], [ 103.921454725164295, 1.396958048294219 ], [ 103.921541438742324, 1.396927459463605 ], [ 103.921662224209754, 1.396764638809732 ], [ 103.922100073103465, 1.396211048960671 ], [ 103.922537922776911, 1.395683509215947 ], [ 103.922441539314136, 1.395633552263486 ], [ 103.922361652836301, 1.395558900142624 ], [ 103.922241647786734, 1.395491606537812 ], [ 103.922614595834318, 1.395087902772659 ], [ 103.92281267223342, 1.394873490633279 ], [ 103.922972605497861, 1.394700366824497 ], [ 103.923233629165466, 1.394417816628816 ], [ 103.923384140656765, 1.394241609279462 ], [ 103.923612788935586, 1.393995431058185 ], [ 103.923816948003079, 1.393814335340812 ], [ 103.924024010682302, 1.393595068142827 ], [ 103.924153424793886, 1.393453956276444 ], [ 103.924384213029782, 1.393199955165787 ], [ 103.924534639273318, 1.393054371293119 ], [ 103.924768131063132, 1.392795507284163 ], [ 103.924977361188581, 1.392559522777928 ], [ 103.925195210397703, 1.39239235722451 ], [ 103.925335409776224, 1.392268611359073 ], [ 103.92544756947629, 1.392179601360361 ], [ 103.925568357870588, 1.392081907324233 ], [ 103.92571287170388, 1.391969015432557 ], [ 103.925807775685485, 1.39189520210875 ], [ 103.92587032615873, 1.391838756540471 ], [ 103.925952289580323, 1.391784481579057 ], [ 103.926008369560748, 1.391732378109567 ], [ 103.926081704411359, 1.391667249321304 ], [ 103.926202491769232, 1.391567383880214 ], [ 103.926080502550235, 1.391402328005213 ], [ 103.926135617874266, 1.391361153797475 ], [ 103.926183069482718, 1.391326417147387 ], [ 103.926231834061625, 1.391272556785931 ], [ 103.926324666724398, 1.391197351711248 ], [ 103.926422487901334, 1.391135370934263 ], [ 103.926515235629864, 1.391048532131459 ], [ 103.926642494274091, 1.390966033798938 ], [ 103.92676759555583, 1.390863997689535 ], [ 103.926853872563726, 1.390798867459895 ], [ 103.926914266825833, 1.390753277020913 ], [ 103.926972503687779, 1.390709857137619 ], [ 103.927052309389822, 1.390651240381385 ], [ 103.927108389147904, 1.390594795042207 ], [ 103.927173095711694, 1.390527495193132 ], [ 103.927343493520212, 1.390408090762691 ], [ 103.927440554870572, 1.390334276388687 ], [ 103.927531145305124, 1.390253950857936 ], [ 103.927641149878085, 1.390206187034461 ], [ 103.927714483946602, 1.390123690815469 ], [ 103.927841741548036, 1.390017312721247 ], [ 103.927984098388052, 1.389900079848481 ], [ 103.928128611970763, 1.389787187822707 ], [ 103.928245085599045, 1.389700348000125 ], [ 103.928383128594021, 1.389589628501432 ], [ 103.928516857423261, 1.389476736890677 ], [ 103.928605290218883, 1.389394240034836 ], [ 103.928704509839804, 1.389342134756821 ], [ 103.928810198710551, 1.389255295346853 ], [ 103.928918043633331, 1.389155431210733 ], [ 103.929077656189577, 1.389027342508134 ], [ 103.929222169578125, 1.388912280854979 ], [ 103.9293472704625, 1.388805902775272 ], [ 103.929472371247812, 1.388697353314359 ], [ 103.929554334211844, 1.388636565921816 ], [ 103.929655709746314, 1.388569264509502 ], [ 103.929778654431246, 1.388495448986553 ], [ 103.929955520928829, 1.388334797032751 ], [ 103.93007630839179, 1.388245786479666 ], [ 103.930184155084731, 1.388169801088065 ], [ 103.930309255974279, 1.388065594337423 ], [ 103.930412787689946, 1.387989609114356 ], [ 103.930494750693114, 1.387930992162874 ], [ 103.930533574674385, 1.387889743472789 ], [ 103.930570243136287, 1.387874545947303 ], [ 103.930641422045738, 1.387831125446064 ], [ 103.930673775012451, 1.387802902559759 ], [ 103.9307212275571, 1.387772508576705 ], [ 103.930763072483245, 1.387751747193776 ], [ 103.930777621739239, 1.387761902585331 ], [ 103.930795121042706, 1.387772621272521 ], [ 103.930814140203651, 1.387770323402278 ], [ 103.930830116473444, 1.387760369322329 ], [ 103.930856582206914, 1.387737968965808 ], [ 103.930890978252066, 1.387702939757328 ], [ 103.930954416422281, 1.387649850121164 ], [ 103.930995985804543, 1.387615061173937 ], [ 103.931091931524747, 1.387534766949844 ], [ 103.93122547953881, 1.387423004756787 ], [ 103.931292738305899, 1.387366717126424 ], [ 103.931354286892699, 1.387317009876289 ], [ 103.931413351797758, 1.387266908426092 ], [ 103.931452018849384, 1.38723411009527 ], [ 103.931512717303505, 1.387182623090848 ], [ 103.931583468820136, 1.387126341637753 ], [ 103.931645090853749, 1.387071209105162 ], [ 103.931726112765219, 1.387007269978894 ], [ 103.931789256947582, 1.386951372288312 ], [ 103.931844791895259, 1.386893176929014 ], [ 103.931901088927205, 1.386837278618201 ], [ 103.931937343225641, 1.386781210221863 ], [ 103.931984766098992, 1.386707868931394 ], [ 103.932025280594033, 1.386653123438053 ], [ 103.932060846368813, 1.386613689014181 ], [ 103.932100787117719, 1.386548041450163 ], [ 103.932131316828475, 1.386497862502251 ], [ 103.93215645904796, 1.386456537492211 ], [ 103.93217941697921, 1.386418804702781 ], [ 103.932198910239833, 1.386386765022617 ], [ 103.932214786082852, 1.386360670775439 ], [ 103.932238162913308, 1.386305258579425 ], [ 103.932272935853632, 1.386237367506116 ], [ 103.932302004200963, 1.386180613900248 ], [ 103.932333420333393, 1.386119276884652 ], [ 103.932355327615156, 1.38607650321976 ], [ 103.932383475447978, 1.386032474036498 ], [ 103.932407819945666, 1.385996485702741 ], [ 103.932436728018871, 1.385953605027714 ], [ 103.932464875912515, 1.385911107834242 ], [ 103.932495305414548, 1.385871673621172 ], [ 103.932529539418425, 1.385830707256866 ], [ 103.932557307721652, 1.385800461481334 ], [ 103.932572522622721, 1.385784381269344 ], [ 103.932601812164449, 1.385752985984102 ], [ 103.932640611053159, 1.385715082502704 ], [ 103.932683213528577, 1.385675264324167 ], [ 103.932720872474206, 1.385645784124812 ], [ 103.932763475202435, 1.385612091194226 ], [ 103.932809980439728, 1.385578386341329 ], [ 103.932855908647824, 1.385541260307535 ], [ 103.93289642873556, 1.385513793096302 ], [ 103.932937782676191, 1.385485760622395 ], [ 103.932987881441136, 1.385455211840428 ], [ 103.933037769045043, 1.385424791485956 ], [ 103.933100480780396, 1.385386551466493 ], [ 103.933166210749405, 1.385346470939251 ], [ 103.933223510502799, 1.385311532070399 ], [ 103.933282823908996, 1.385275364085772 ], [ 103.933339954731082, 1.385240527414476 ], [ 103.933379463154225, 1.385216436224865 ], [ 103.933452330315092, 1.385172126586688 ], [ 103.933523577384307, 1.385128801866422 ], [ 103.933569813263261, 1.385100685973292 ], [ 103.933625257499116, 1.385066970777259 ], [ 103.933661386466142, 1.385045001362283 ], [ 103.93370371004778, 1.385019265011856 ], [ 103.933737492894892, 1.384998721875871 ], [ 103.933771496785099, 1.384978043979971 ], [ 103.933834698205146, 1.384939469307419 ], [ 103.933888805383333, 1.384906446000258 ], [ 103.933946705345747, 1.384871107361268 ], [ 103.934011922210786, 1.384831302664892 ], [ 103.934087616183064, 1.384785103673996 ], [ 103.934145684168499, 1.38474966283034 ], [ 103.934215578884974, 1.38470700285534 ], [ 103.934265116918723, 1.384676767886296 ], [ 103.934316853709205, 1.38464526128801 ], [ 103.934384613465411, 1.384603996831662 ], [ 103.934455839830093, 1.384560621442058 ], [ 103.934560432993919, 1.384496925394764 ], [ 103.934623226448949, 1.384458686238891 ], [ 103.934678992333048, 1.384424725019586 ], [ 103.93474947831794, 1.384382682684364 ], [ 103.934808818624703, 1.3843463102773 ], [ 103.934859029625684, 1.384314914066038 ], [ 103.934905053265268, 1.384283434832901 ], [ 103.934956271636935, 1.384253718882318 ], [ 103.935024462758307, 1.384214155496805 ], [ 103.935066490736062, 1.384189772063304 ], [ 103.935138183259596, 1.384142281784156 ], [ 103.935201235519983, 1.384104869190507 ], [ 103.9352777750196, 1.384059063525757 ], [ 103.935390461457374, 1.383992124954159 ], [ 103.935486282079381, 1.383935205638943 ], [ 103.935548969514741, 1.383897967594566 ], [ 103.935601562622608, 1.383866725911532 ], [ 103.935669154347153, 1.383826574699077 ], [ 103.935730918964467, 1.383789885638484 ], [ 103.935812913562017, 1.38374117852518 ], [ 103.935861968168084, 1.383712038729584 ], [ 103.935892870124377, 1.383690943124896 ], [ 103.935925873905731, 1.383671262756044 ], [ 103.935957255914971, 1.383655181820985 ], [ 103.935996626222632, 1.383638526267387 ], [ 103.936020590995795, 1.383633931061078 ], [ 103.936050832160561, 1.383625889959151 ], [ 103.936080502779973, 1.383618997422356 ], [ 103.936109812343318, 1.383616083192432 ] ] } }
]
}
