<?xml version="1.0" encoding="UTF-8"?>
<gpx xmlns="http://www.topografix.com/GPX/1/1" xmlns:xsi="http://www.w3.org/2001/XMLSchema-instance" xsi:schemaLocation="http://www.topografix.com/GPX/1/1 http://www.topografix.com/GPX/1/1/gpx.xsd" version="1.1" creator="gpx.py -- https://github.com/tkrajina/gpxpy">
  <trk>
    <name>point_to_point_05000m_025</name>
    <trkseg>
      <trkpt lat="1.3382961012837669" lon="103.65762716773925">
        <ele>19.699109622036698</ele>
      </trkpt>
      <trkpt lat="1.3383529868096795" lon="103.6576970208251">
        <ele>19.739060150659412</ele>
      </trkpt>
      <trkpt lat="1.338409872333992" lon="103.65776687391424">
        <ele>19.818961207904824</ele>
      </trkpt>
      <trkpt lat="1.338466757856703" lon="103.65783672700671">
        <ele>19.898862265150253</ele>
      </trkpt>
      <trkpt lat="1.3385236433778132" lon="103.65790658010246">
        <ele>19.959208529181975</ele>
      </trkpt>
      <trkpt lat="1.3385789931596141" lon="103.65797762591316">
        <ele>19.992921107465225</ele>
      </trkpt>
      <trkpt lat="1.3386334805472813" lon="103.65804934149351">
        <ele>20.0</ele>
      </trkpt>
      <trkpt lat="1.3386879679332335" lon="103.65812105707714">
        <ele>20.0</ele>
      </trkpt>
      <trkpt lat="1.3387424553174707" lon="103.65819277266407">
        <ele>20.0</ele>
      </trkpt>
      <trkpt lat="1.33880696297501" lon="103.65825526329151">
        <ele>20.0</ele>
      </trkpt>
      <trkpt lat="1.3388747855432739" lon="103.65831470211589">
        <ele>20.0</ele>
      </trkpt>
      <trkpt lat="1.3389426081104827" lon="103.65837414094347">
        <ele>20.0</ele>
      </trkpt>
      <trkpt lat="1.3390104306766364" lon="103.65843357977425">
        <ele>20.0</ele>
      </trkpt>
      <trkpt lat="1.3390782532417338" lon="103.65849301860827">
        <ele>20.0</ele>
      </trkpt>
      <trkpt lat="1.339158082929517" lon="103.65853506917043">
        <ele>20.0</ele>
      </trkpt>
      <trkpt lat="1.339238305096152" lon="103.658576551361">
        <ele>20.0</ele>
      </trkpt>
      <trkpt lat="1.3393214441553882" lon="103.65861188650065">
        <ele>20.0</ele>
      </trkpt>
      <trkpt lat="1.3394046963326391" lon="103.65864698325723">
        <ele>20.47930361906766</ele>
      </trkpt>
      <trkpt lat="1.3394879485096403" lon="103.65868208001585">
        <ele>21.982739935642144</ele>
      </trkpt>
      <trkpt lat="1.3395712423264663" lon="103.65871707669143">
        <ele>24.503257375863342</ele>
      </trkpt>
      <trkpt lat="1.3396551363893319" lon="103.65875063063098">
        <ele>27.3878655798928</ele>
      </trkpt>
      <trkpt lat="1.3397390304519787" lon="103.65878418457248">
        <ele>30.03334721890866</ele>
      </trkpt>
      <trkpt lat="1.3398229245144067" lon="103.65881773851596">
        <ele>32.44675386677103</ele>
      </trkpt>
      <trkpt lat="1.3399068185766154" lon="103.6588512924614">
        <ele>34.801772264250715</ele>
      </trkpt>
      <trkpt lat="1.3399907126386055" lon="103.65888484640882">
        <ele>37.15862701473949</ele>
      </trkpt>
      <trkpt lat="1.3400718899898152" lon="103.65892415350191">
        <ele>38.89136959332259</ele>
      </trkpt>
      <trkpt lat="1.3401514842950848" lon="103.658966812993">
        <ele>39.83910603941245</ele>
      </trkpt>
      <trkpt lat="1.3402310785999176" lon="103.6590094724866">
        <ele>40.0</ele>
      </trkpt>
      <trkpt lat="1.3403106729043137" lon="103.65905213198272">
        <ele>40.0</ele>
      </trkpt>
      <trkpt lat="1.3403902672082733" lon="103.65909479148135">
        <ele>40.0</ele>
      </trkpt>
      <trkpt lat="1.3404626891347433" lon="103.65914845996758">
        <ele>40.0</ele>
      </trkpt>
      <trkpt lat="1.3405344482945432" lon="103.6592031457457">
        <ele>40.0</ele>
      </trkpt>
      <trkpt lat="1.340606207453491" lon="103.6592578315269">
        <ele>40.0</ele>
      </trkpt>
      <trkpt lat="1.3406779666115862" lon="103.65931251731118">
        <ele>40.0</ele>
      </trkpt>
      <trkpt lat="1.3407571782191474" lon="103.6593558554624">
        <ele>40.216863328570504</ele>
      </trkpt>
      <trkpt lat="1.3408364561917303" lon="103.6593990925633">
        <ele>41.13597249368849</ele>
      </trkpt>
      <trkpt lat="1.3409157341638593" lon="103.65944232966677">
        <ele>42.74892641804868</ele>
      </trkpt>
      <trkpt lat="1.3410003430101158" lon="103.65947219001481">
        <ele>44.83418108980055</ele>
      </trkpt>
      <trkpt lat="1.341087921967648" lon="103.65949459746687">
        <ele>46.90639541683142</ele>
      </trkpt>
      <trkpt lat="1.3411754930742286" lon="103.65951703312325">
        <ele>48.9784577714195</ele>
      </trkpt>
      <trkpt lat="1.3412622135582588" lon="103.65954252450979">
        <ele>51.055048836844854</ele>
      </trkpt>
      <trkpt lat="1.341348934042196" lon="103.65956801589776">
        <ele>53.13612719724267</ele>
      </trkpt>
      <trkpt lat="1.3414356545260397" lon="103.65959350728716">
        <ele>54.88545391450351</ele>
      </trkpt>
      <trkpt lat="1.3415223750097902" lon="103.659618998678">
        <ele>56.13426671215942</ele>
      </trkpt>
      <trkpt lat="1.3416064357221775" lon="103.6596515345174">
        <ele>57.72853152627942</ele>
      </trkpt>
      <trkpt lat="1.341688633126468" lon="103.65968900535972">
        <ele>58.960855196736986</ele>
      </trkpt>
      <trkpt lat="1.3417708305304537" lon="103.65972647620428">
        <ele>60.0</ele>
      </trkpt>
      <trkpt lat="1.3418572805944564" lon="103.65975088060046">
        <ele>60.0</ele>
      </trkpt>
      <trkpt lat="1.3419459961987483" lon="103.65976832404411">
        <ele>60.0</ele>
      </trkpt>
      <trkpt lat="1.342034711803014" lon="103.65978576748861">
        <ele>60.0</ele>
      </trkpt>
      <trkpt lat="1.3421236257434683" lon="103.65980120000006">
        <ele>60.0</ele>
      </trkpt>
      <trkpt lat="1.3422140617755813" lon="103.65980120000033">
        <ele>60.0</ele>
      </trkpt>
      <trkpt lat="1.3423044978076273" lon="103.65980120000017">
        <ele>60.0</ele>
      </trkpt>
      <trkpt lat="1.342389460972656" lon="103.65977770228885">
        <ele>60.0</ele>
      </trkpt>
      <trkpt lat="1.342470703077186" lon="103.65973822823506">
        <ele>60.0</ele>
      </trkpt>
      <trkpt lat="1.3425484769728726" lon="103.6596934747345">
        <ele>60.0</ele>
      </trkpt>
      <trkpt lat="1.3426175452879534" lon="103.65963546925195">
        <ele>60.0</ele>
      </trkpt>
      <trkpt lat="1.3426866136011832" lon="103.65957746376607">
        <ele>60.0</ele>
      </trkpt>
      <trkpt lat="1.3427556819125628" lon="103.65951945827689">
        <ele>60.0</ele>
      </trkpt>
      <trkpt lat="1.342824750222091" lon="103.65946145278436">
        <ele>60.0</ele>
      </trkpt>
      <trkpt lat="1.3428938185297674" lon="103.6594034472885">
        <ele>60.0</ele>
      </trkpt>
      <trkpt lat="1.3429628868355934" lon="103.65934544178933">
        <ele>60.0</ele>
      </trkpt>
      <trkpt lat="1.3430319551395669" lon="103.6592874362868">
        <ele>60.0</ele>
      </trkpt>
      <trkpt lat="1.3431010234416885" lon="103.65922943078097">
        <ele>60.0</ele>
      </trkpt>
      <trkpt lat="1.3431607667498642" lon="103.6591792566638">
        <ele>60.0</ele>
      </trkpt>
    </trkseg>
  </trk>
</gpx>