{
"type": "FeatureCollection",
"name": "point_to_point_05000m_020",
"crs": { "type": "name", "properties": { "name": "urn:ogc:def:crs:OGC:1.3:CRS84" } },
"features": [
{ "type": "Feature", "properties": { "route_id": "point_to_point_05000m_020", "budget_km": 5.0, "mode": "point_to_point", "rank": 20, "distance_m": 1586.999910267323, "ascent_m": 47.111673255226535, "descent_m": 29.818113281115632, "gain_density_m_per_km": 29.685996168261148, "source_confidence": 0.93 }, "geometry": { "type": "LineString", "coordinates": [ [ 103.843549367142927, 1.375877938469089 ], [ 103.843511777969852, 1.375858087835963 ], [ 103.843480088841048, 1.375842100620986 ], [ 103.843450491597594, 1.375828003517897 ], [ 103.84341404093216, 1.37581170702976 ], [ 103.843378971380275, 1.375797083609033 ], [ 103.843352733017142, 1.375786558729174 ], [ 103.843252220326235, 1.375747793579126 ], [ 103.843222774956502, 1.375736719762132 ], [ 103.843185293646002, 1.375724015409473 ], [ 103.843147408877172, 1.37571139064194 ], [ 103.843087633958632, 1.375692753750535 ], [ 103.843051794361287, 1.37568492933838 ], [ 103.842980408114613, 1.375672433124953 ], [ 103.842949803612854, 1.375667453819815 ], [ 103.842892458474026, 1.375658113777906 ], [ 103.842875481733515, 1.375655651262488 ], [ 103.842845632941632, 1.375653188798602 ], [ 103.842807306118047, 1.375650721846428 ], [ 103.842761516653312, 1.375649169235536 ], [ 103.842743528127585, 1.375648559765488 ], [ 103.842696639711932, 1.375647821989889 ], [ 103.842631858915865, 1.37564596015884 ], [ 103.842583947927878, 1.375646036312827 ], [ 103.84254281757579, 1.375648106562652 ], [ 103.842499419234827, 1.375652350007776 ], [ 103.842458970912091, 1.375657846889574 ], [ 103.842435362723236, 1.375659733484093 ], [ 103.842405233594278, 1.375661813637286 ], [ 103.842381138388731, 1.37566628128864 ], [ 103.842292338781078, 1.37567311048012 ], [ 103.842233144438538, 1.375678948374147 ], [ 103.842151006852447, 1.37568733304179 ], [ 103.842061642046403, 1.37569560107023 ], [ 103.841972444362824, 1.375700706532976 ], [ 103.841878632503679, 1.375704362313124 ], [ 103.841825154860075, 1.375705169198148 ], [ 103.841771849729298, 1.375702265474891 ], [ 103.84171936948546, 1.375698567715723 ], [ 103.841679473746467, 1.375693779247866 ], [ 103.841633491069047, 1.375686620461996 ], [ 103.841618519043848, 1.375683857681633 ], [ 103.841608011129722, 1.375681859073362 ], [ 103.84156231149781, 1.375673166483375 ], [ 103.841503469328529, 1.375659811035855 ], [ 103.841462214020154, 1.375646106442039 ], [ 103.841434178524139, 1.375636245350362 ], [ 103.841424323863237, 1.375631475767035 ], [ 103.841418117414662, 1.375629044857145 ], [ 103.841408353511611, 1.375624860397102 ], [ 103.841407828744508, 1.375624635212189 ], [ 103.841395692605261, 1.375619021864681 ], [ 103.841353172096078, 1.375601717903603 ], [ 103.841319205998971, 1.375584781084843 ], [ 103.841309610127254, 1.375579974421225 ], [ 103.84130821284441, 1.375579184915958 ], [ 103.841271681311198, 1.375558543829222 ], [ 103.841250966484964, 1.375548046942806 ], [ 103.841216538514814, 1.375528605939526 ], [ 103.841181207466079, 1.375504931609757 ], [ 103.841152348844474, 1.375484013760296 ], [ 103.841125018683798, 1.37545960415516 ], [ 103.841107296976006, 1.375440497710094 ], [ 103.841077996221046, 1.375408062782614 ], [ 103.841056573257944, 1.375377687970854 ], [ 103.841034372116241, 1.375342501943679 ], [ 103.841005047940428, 1.375291228203897 ], [ 103.840990955546033, 1.375265008921456 ], [ 103.8409773034344, 1.375233133743548 ], [ 103.840964368387532, 1.375202404392759 ], [ 103.84095134527999, 1.375171396497971 ], [ 103.840936831407248, 1.375129622151612 ], [ 103.8409253672978, 1.375090493060792 ], [ 103.840913889713832, 1.375052527886715 ], [ 103.840905336093428, 1.375017417781161 ], [ 103.840899370371716, 1.3749855724222 ], [ 103.840894767807157, 1.374960988199369 ], [ 103.840887864866559, 1.374926497577957 ], [ 103.84088326318124, 1.374895686807287 ], [ 103.840877902201285, 1.374864481736202 ], [ 103.840873860328927, 1.374834384507103 ], [ 103.840868191966564, 1.37478054319998 ], [ 103.84086349055417, 1.374754169240529 ], [ 103.84086007404936, 1.374711592687204 ], [ 103.840857436596423, 1.37466571158445 ], [ 103.840858073509793, 1.374610038015278 ], [ 103.840858478728777, 1.374598194459854 ], [ 103.840860381730593, 1.374542646593272 ], [ 103.840865039751051, 1.374486026141913 ], [ 103.840873247121138, 1.374426279292057 ], [ 103.840882411503486, 1.374377175901895 ], [ 103.840882420489109, 1.37437713972729 ], [ 103.840889972882664, 1.374343881708147 ], [ 103.840903876367435, 1.374305644239192 ], [ 103.840918126721277, 1.374273978784013 ], [ 103.840938874607303, 1.374229173799808 ], [ 103.840964667041817, 1.374173700014182 ], [ 103.840999687777824, 1.374108410228922 ], [ 103.841037202061088, 1.374046885303413 ], [ 103.841075258204754, 1.373992647742631 ], [ 103.841118900756513, 1.373934824358646 ], [ 103.841151489108398, 1.373887237509219 ], [ 103.841180267531996, 1.373845059674472 ], [ 103.841216085316006, 1.373787522997989 ], [ 103.841252881623021, 1.373723915320469 ], [ 103.841281360779234, 1.373669856852333 ], [ 103.841301135517668, 1.373630347825104 ], [ 103.841325631294254, 1.373573622399578 ], [ 103.841347163597476, 1.373522099791335 ], [ 103.841359559263509, 1.373482837679896 ], [ 103.841376435156604, 1.373428306267216 ], [ 103.841375833110561, 1.37342740642682 ], [ 103.841390281976459, 1.373377550585425 ], [ 103.841403263458474, 1.373322990246046 ], [ 103.841417060820888, 1.373261863314984 ], [ 103.841428626149821, 1.373206408564013 ], [ 103.841438009777846, 1.373160292285672 ], [ 103.84144410018402, 1.373127027034578 ], [ 103.841455979071768, 1.373059315433605 ], [ 103.841462182679578, 1.37302075965116 ], [ 103.841469520251209, 1.372972368903536 ], [ 103.841481292173938, 1.372894737331235 ], [ 103.84148190856628, 1.372886552832604 ], [ 103.841490578643516, 1.372816004251686 ], [ 103.841496377725164, 1.372727957136565 ], [ 103.841496271324104, 1.372618956826195 ], [ 103.841486484729572, 1.372544111673862 ], [ 103.841485528620851, 1.3725356088444 ], [ 103.841484267897243, 1.372527342959403 ], [ 103.841484160056453, 1.372523733642021 ], [ 103.841483932692142, 1.372516125226305 ], [ 103.841486240166262, 1.372499256111894 ], [ 103.841495269845652, 1.372480351250447 ], [ 103.841510076411481, 1.372453048442612 ], [ 103.841514313148792, 1.372445236529567 ], [ 103.841515577430712, 1.37244290507416 ], [ 103.841547181875129, 1.372411746903367 ], [ 103.841585242567518, 1.372384657444538 ], [ 103.841626023278039, 1.372370254397441 ], [ 103.841631094810126, 1.372368996409057 ], [ 103.841679941103976, 1.372356876852614 ], [ 103.84173126656755, 1.372348216479686 ], [ 103.841791166207258, 1.372342191392629 ], [ 103.841831597420295, 1.372341590750549 ], [ 103.841878037402509, 1.372347465334278 ], [ 103.841925254674322, 1.37236040932971 ], [ 103.841971375707459, 1.372378313766115 ], [ 103.842016798576893, 1.372403290332676 ], [ 103.842058530124746, 1.372430616450251 ], [ 103.842133749736519, 1.372487091912029 ], [ 103.842162653259521, 1.372508144500353 ], [ 103.842186272261685, 1.372522886454237 ], [ 103.842246482061512, 1.372557342507347 ], [ 103.842340186166865, 1.372606650806356 ], [ 103.842377252295393, 1.372622308828298 ], [ 103.842417582923474, 1.372635101811221 ], [ 103.842515383545617, 1.372664281652397 ], [ 103.842550634528379, 1.372671182719557 ], [ 103.842601109129433, 1.372683599444452 ], [ 103.842679290310656, 1.372703353166655 ], [ 103.842726976632306, 1.372712292619287 ], [ 103.84278901763615, 1.372722058602787 ], [ 103.842832663070226, 1.372727798428634 ], [ 103.842848310801259, 1.372729856699078 ], [ 103.842876107217961, 1.372731886885369 ], [ 103.842913597421926, 1.372733562521483 ], [ 103.842970241568167, 1.372733634641581 ], [ 103.843029413377479, 1.372729144232367 ], [ 103.843044146351062, 1.372728252469054 ], [ 103.843061939856923, 1.372726864197148 ], [ 103.843079734261323, 1.372725475925106 ], [ 103.843141989059944, 1.37271882045243 ], [ 103.843203360565724, 1.372712951778688 ], [ 103.843230889190934, 1.372710775763809 ], [ 103.843253701215858, 1.372708883738671 ], [ 103.843279633078836, 1.372706533187585 ], [ 103.843296743677072, 1.372706834269197 ], [ 103.843319414640177, 1.372708312809587 ], [ 103.843336019353416, 1.372711180478808 ], [ 103.843348787167599, 1.372714266115854 ], [ 103.843358575315975, 1.372716631891453 ], [ 103.84336549072863, 1.372718303127414 ], [ 103.843370308870632, 1.372718790559397 ], [ 103.843382351532327, 1.372720572106083 ], [ 103.843383885394701, 1.372720799095025 ], [ 103.843432917778941, 1.372729666178622 ], [ 103.843476848976209, 1.372739176285969 ], [ 103.843503511414156, 1.372745422615891 ], [ 103.843530890021555, 1.372753525602243 ], [ 103.843570267276448, 1.372767001364632 ], [ 103.843598969494408, 1.372778472196967 ], [ 103.843624863674634, 1.372789425744748 ], [ 103.843651656434574, 1.372802249513636 ], [ 103.843678876017478, 1.372815358155087 ], [ 103.843705371353977, 1.372828910842216 ], [ 103.843726733141693, 1.372840088690996 ], [ 103.843753878151873, 1.372855014199693 ], [ 103.843775771002228, 1.372867674298692 ], [ 103.843791075514076, 1.372877431417267 ], [ 103.843809585243335, 1.37289012770543 ], [ 103.843824884370704, 1.372901415912473 ], [ 103.843833727246391, 1.372909124674259 ], [ 103.843840912254961, 1.372916198579659 ], [ 103.843849569127443, 1.372924131624547 ], [ 103.843861923642606, 1.372936839696243 ], [ 103.843872941981445, 1.372949407597361 ], [ 103.843883830932739, 1.37296348940474 ], [ 103.84389396149291, 1.372978279332636 ], [ 103.843903998605981, 1.372994032408841 ], [ 103.843913906347396, 1.373014902378488 ], [ 103.843915881431769, 1.373020392765027 ], [ 103.843920658296497, 1.373033674237095 ], [ 103.843929545281341, 1.37305917998234 ], [ 103.84393496643537, 1.373075489262975 ], [ 103.843941637523812, 1.373096633269303 ], [ 103.843950881255509, 1.373125188529089 ], [ 103.843954074822435, 1.373135056033107 ], [ 103.843956628597695, 1.373142946599744 ], [ 103.843958740269727, 1.373149472482701 ], [ 103.843964631392225, 1.3731692056842 ], [ 103.843970871168082, 1.373190631853992 ], [ 103.843976492724835, 1.373211620314224 ], [ 103.843985458810209, 1.37324276296121 ], [ 103.843992011322129, 1.373271579594137 ], [ 103.844000467940049, 1.373307742369254 ], [ 103.844005875658098, 1.373333418150238 ], [ 103.844009771081886, 1.373359486432091 ], [ 103.844012495649963, 1.373381741015169 ], [ 103.844014619111007, 1.373412416136436 ], [ 103.844016707595785, 1.373458401240121 ], [ 103.844018136512489, 1.373500662174806 ], [ 103.844016760081658, 1.373541428207999 ], [ 103.844011831598692, 1.373582647343626 ], [ 103.844005628993571, 1.373635764300952 ], [ 103.844004459994068, 1.373645313488242 ], [ 103.844003268531097, 1.373655053496484 ], [ 103.843990278224766, 1.3737331056151 ], [ 103.843975946389961, 1.373820217660589 ], [ 103.843960650329592, 1.373894446137282 ], [ 103.843948888255937, 1.373947015978835 ], [ 103.843937978909693, 1.373995769399406 ], [ 103.843929374348534, 1.374032844754207 ], [ 103.843913877906914, 1.3741077605482 ], [ 103.843907939390604, 1.374140882914916 ], [ 103.84390403159567, 1.374162380574646 ], [ 103.843900712372857, 1.374185597428158 ], [ 103.843897861302636, 1.374208049187452 ], [ 103.843895492774763, 1.374232606304515 ], [ 103.843893951830438, 1.374256885778086 ], [ 103.843893614156315, 1.374299902768934 ], [ 103.843893260218522, 1.374322579703757 ], [ 103.843893440875632, 1.374332624476542 ], [ 103.843893892886626, 1.374339286925872 ], [ 103.84389466660177, 1.374349445645919 ], [ 103.843895203089616, 1.374358632175449 ], [ 103.843894800572102, 1.374368362232066 ], [ 103.843894784575383, 1.374408785504821 ], [ 103.843894720934216, 1.374444626364171 ], [ 103.843894656394937, 1.374480570321048 ], [ 103.843874464761143, 1.37452157157222 ], [ 103.843898708451718, 1.374570508421937 ], [ 103.843896058912577, 1.374650163931218 ], [ 103.843895449989589, 1.374720465592103 ], [ 103.843893459980606, 1.374795212209301 ], [ 103.843892333252384, 1.374813718219633 ], [ 103.843890721401635, 1.374856470237225 ], [ 103.843891105186842, 1.374878066453418 ], [ 103.843891088164668, 1.374889603428012 ], [ 103.843890841089376, 1.374896906170306 ], [ 103.843889297393034, 1.374908464856446 ], [ 103.843886138972692, 1.374922378514223 ], [ 103.843881027104203, 1.374947216900602 ], [ 103.843871830517529, 1.375015713488468 ], [ 103.843865249568481, 1.375060056304737 ], [ 103.843860959894286, 1.37508515876176 ], [ 103.843851891696048, 1.375129362316915 ], [ 103.843845770746299, 1.375157916740287 ], [ 103.84384070288381, 1.375177460978148 ], [ 103.843831737052426, 1.375205723304435 ], [ 103.843822639138708, 1.37523581335139 ], [ 103.843817511952423, 1.375251311463884 ], [ 103.843792880599793, 1.375323257364627 ], [ 103.843783974059264, 1.375348331806543 ], [ 103.843778346369135, 1.375364173579544 ], [ 103.843773255120141, 1.375378507775014 ], [ 103.843726741045685, 1.375500269770458 ], [ 103.843700963079669, 1.375565341602662 ], [ 103.843690813811079, 1.375590312952091 ], [ 103.843679004009161, 1.375621990169469 ], [ 103.843659676809054, 1.375667581967558 ], [ 103.843640297461775, 1.375706362998702 ], [ 103.843628260281022, 1.375728993861428 ], [ 103.843610244927902, 1.375758895838411 ], [ 103.843596239887916, 1.375785094426378 ], [ 103.843569258648088, 1.375831736223661 ], [ 103.843549367142927, 1.375877938469089 ], [ 103.843511777969852, 1.375858087835963 ], [ 103.843480088841048, 1.375842100620986 ], [ 103.843450491597594, 1.375828003517897 ], [ 103.84341404093216, 1.37581170702976 ], [ 103.843378971380275, 1.375797083609033 ], [ 103.843352733017142, 1.375786558729174 ], [ 103.843252220326235, 1.375747793579126 ], [ 103.843222774956502, 1.375736719762132 ], [ 103.843185293646002, 1.375724015409473 ], [ 103.843147408877172, 1.37571139064194 ], [ 103.843087633958632, 1.375692753750535 ], [ 103.843051794361287, 1.37568492933838 ], [ 103.842980408114613, 1.375672433124953 ], [ 103.842949803612854, 1.375667453819815 ], [ 103.842892458474026, 1.375658113777906 ], [ 103.842875481733515, 1.375655651262488 ], [ 103.842845632941632, 1.375653188798602 ], [ 103.842807306118047, 1.375650721846428 ], [ 103.842761497782874, 1.375649137582868 ], [ 103.84276077348207, 1.37563597999055 ], [ 103.842760057247062, 1.375617451379025 ], [ 103.842749328029925, 1.375550777168713 ], [ 103.842744261738162, 1.375515019531466 ], [ 103.842742240734339, 1.375485826662078 ], [ 103.84274145894581, 1.375478122386291 ], [ 103.8428284, 1.3754455 ], [ 103.8428696, 1.3754313 ], [ 103.842926, 1.3754015 ], [ 103.8429845, 1.3753643 ], [ 103.8430484, 1.37531 ], [ 103.8430984, 1.3752461 ], [ 103.8431282, 1.375194 ], [ 103.8431517, 1.3751301 ], [ 103.8431698, 1.3750514 ], [ 103.8431778, 1.3749601 ], [ 103.8432011, 1.374516 ], [ 103.8432059, 1.3743636 ], [ 103.843212, 1.3741356 ], [ 103.8432106, 1.3740531 ], [ 103.8431932, 1.3739854 ], [ 103.8431436, 1.3738855 ], [ 103.843047775334028, 1.373755216841868 ] ] } }
]
}
