{
"type": "FeatureCollection",
"name": "point_to_point_05000m_037",
"crs": { "type": "name", "properties": { "name": "urn:ogc:def:crs:OGC:1.3:CRS84" } },
"features": [
{ "type": "Feature", "properties": { "route_id": "point_to_point_05000m_037", "budget_km": 5.0, "mode": "point_to_point", "rank": 37, "distance_m": 901.50953490751317, "ascent_m": 32.302695348625313, "descent_m": 23.079427990040696, "gain_density_m_per_km": 35.831784465750857, "source_confidence": 0.72 }, "geometry": { "type": "LineString", "coordinates": [ [ 103.846765646942274, 1.29664555273295 ], [ 103.846729929031994, 1.296665371172571 ], [ 103.846715972890124, 1.29667310175717 ], [ 103.846708041466911, 1.296677495203557 ], [ 103.846697115202474, 1.29668290245877 ], [ 103.846690953892988, 1.296683945224124 ], [ 103.846658706928821, 1.296679428092952 ], [ 103.846547468006619, 1.296660878348896 ], [ 103.846519920415744, 1.296654167202259 ], [ 103.84647926394041, 1.296641826452934 ], [ 103.846416245349147, 1.296618439003283 ], [ 103.846363539328948, 1.296591694496471 ], [ 103.846353707429827, 1.296585234669589 ], [ 103.846325854184343, 1.296548899244493 ], [ 103.846303421877039, 1.296517058484206 ], [ 103.846288896791847, 1.29649240828756 ], [ 103.846275316037534, 1.296460099020439 ], [ 103.846268725087597, 1.296434173628455 ], [ 103.846263441529274, 1.296410287572387 ], [ 103.846261128574497, 1.296389933949952 ], [ 103.846259250534061, 1.296373356048345 ], [ 103.846250425760886, 1.296338743339457 ], [ 103.846257266250362, 1.296314345350586 ], [ 103.84625957364257, 1.296300939034847 ], [ 103.846254181361374, 1.296277157885597 ], [ 103.84624162049009, 1.296251634966489 ], [ 103.846233673706692, 1.296239146633631 ], [ 103.846255275424454, 1.296205523143644 ], [ 103.846281383271148, 1.296158734791802 ], [ 103.846312303553773, 1.296079985258208 ], [ 103.846411600335443, 1.295831936468958 ], [ 103.846419007833248, 1.295813431317741 ], [ 103.84646961943784, 1.295686116385001 ], [ 103.84649055163483, 1.295633460538997 ], [ 103.846552641271686, 1.295515005606536 ], [ 103.846562877221373, 1.295465490675 ], [ 103.846580369735889, 1.29540229899622 ], [ 103.846597583677706, 1.295334603581986 ], [ 103.846573756709205, 1.29527782858884 ], [ 103.846567409082368, 1.29521675596204 ], [ 103.84657444002039, 1.295185293073239 ], [ 103.846582245484583, 1.295150366463107 ], [ 103.846613240458723, 1.295097291842073 ], [ 103.846647255605433, 1.295076805086376 ], [ 103.84665400967134, 1.295022460864631 ], [ 103.846671396858, 1.294922320456751 ], [ 103.84667760205437, 1.29489498418863 ], [ 103.846678665905003, 1.294890299573261 ], [ 103.846695867218969, 1.294814521849857 ], [ 103.846697030805515, 1.294809394095184 ], [ 103.846701369770301, 1.294790280321784 ], [ 103.84673547071057, 1.294681854034125 ], [ 103.846771623404067, 1.29464602562064 ], [ 103.846829345651244, 1.294615470442442 ], [ 103.846906212305356, 1.294594228308749 ], [ 103.846981955775249, 1.294572221086173 ], [ 103.847038270907646, 1.294543136408023 ], [ 103.847091694093649, 1.294433610302724 ], [ 103.847114062176118, 1.294387751649392 ], [ 103.847211443311039, 1.294174510934761 ], [ 103.847269574718624, 1.294041502967113 ], [ 103.847278932925832, 1.294020090269535 ], [ 103.847329553510932, 1.293906055011513 ], [ 103.84736488832641, 1.293836596883853 ], [ 103.847432350395238, 1.293741452807781 ], [ 103.8476403, 1.2936281 ], [ 103.84783929911039, 1.293510927906874 ], [ 103.8477355, 1.2936817 ], [ 103.8476621, 1.2940589 ], [ 103.847574503158384, 1.294332363980597 ], [ 103.847523, 1.2942032 ], [ 103.8474612, 1.2939066 ], [ 103.847432350395238, 1.293741452807781 ], [ 103.8476068, 1.2933622 ], [ 103.8476712, 1.2929946 ], [ 103.8477291, 1.2926358 ], [ 103.8477069, 1.2924329 ], [ 103.8476374, 1.2922238 ], [ 103.8476149, 1.2921898 ], [ 103.8475713, 1.292153 ], [ 103.8475183, 1.2921318 ], [ 103.847393, 1.292087 ], [ 103.8470949, 1.291894 ], [ 103.846857183543406, 1.291923682652498 ] ] } }
]
}
