{
"type": "FeatureCollection",
"name": "point_to_point_05000m_009",
"crs": { "type": "name", "properties": { "name": "urn:ogc:def:crs:OGC:1.3:CRS84" } },
"features": [
{ "type": "Feature", "properties": { "route_id": "point_to_point_05000m_009", "budget_km": 5.0, "mode": "point_to_point", "rank": 9, "distance_m": 1141.6089651360671, "ascent_m": 65.098314724584483, "descent_m": 39.314369300188019, "gain_density_m_per_km": 57.023303699113377, "source_confidence": 0.65 }, "geometry": { "type": "LineString", "coordinates": [ [ 103.754396229622557, 1.368329733787678 ], [ 103.75416, 1.3679336 ], [ 103.7541015, 1.3678199 ], [ 103.754056700000021, 1.3676615 ], [ 103.7540946, 1.3674204 ], [ 103.7541376, 1.3672309 ], [ 103.7541979, 1.3664817 ], [ 103.7542755, 1.365593 ], [ 103.7542892, 1.3651952 ], [ 103.754291, 1.3647785 ], [ 103.7543082, 1.3645235 ], [ 103.754334, 1.3643495 ], [ 103.7544047, 1.3641325 ], [ 103.7544391, 1.3640154 ], [ 103.7544598, 1.3638363 ], [ 103.7544684, 1.3634677 ], [ 103.754477, 1.3634057 ], [ 103.754513200000019, 1.3633678 ], [ 103.7545837, 1.3633767 ], [ 103.7547884, 1.3634755 ], [ 103.7552629, 1.363702 ], [ 103.7552955, 1.3637092 ], [ 103.7553132, 1.3636982 ], [ 103.7553154, 1.3636604 ], [ 103.7552271, 1.3634233 ], [ 103.7549309, 1.3625894 ], [ 103.7549342, 1.3625262 ], [ 103.7549583, 1.3624746 ], [ 103.755006, 1.3624285 ], [ 103.7551562, 1.3623588 ], [ 103.7554137, 1.3622193 ], [ 103.755601400000018, 1.3621067 ], [ 103.7557258, 1.3620023 ], [ 103.7557663, 1.3619407 ], [ 103.7558257, 1.3618128 ], [ 103.7558696, 1.3616723 ], [ 103.7559173, 1.3614528 ], [ 103.7559472, 1.3613895 ], [ 103.7559851, 1.3613585 ], [ 103.7560019, 1.3613535 ], [ 103.757347810879537, 1.360954383385841 ] ] } }
]
}
