{
"type": "FeatureCollection",
"name": "point_to_point_05000m_028",
"crs": { "type": "name", "properties": { "name": "urn:ogc:def:crs:OGC:1.3:CRS84" } },
"features": [
{ "type": "Feature", "properties": { "route_id": "point_to_point_05000m_028", "budget_km": 5.0, "mode": "point_to_point", "rank": 28, "distance_m": 674.64378154841688, "ascent_m": 36.952040527983023, "descent_m": 19.299160856208811, "gain_density_m_per_km": 54.772668982692018, "source_confidence": 0.9125 }, "geometry": { "type": "LineString", "coordinates": [ [ 103.840392328228816, 1.283111848871666 ], [ 103.840397131847951, 1.283122398273768 ], [ 103.840405553893689, 1.283136576883514 ], [ 103.840410150841905, 1.283144677267279 ], [ 103.840420581140251, 1.283165256061885 ], [ 103.840425409021023, 1.283176223281757 ], [ 103.840432818415891, 1.283191270988903 ], [ 103.840436703744459, 1.283207759359198 ], [ 103.840433621803982, 1.283225409857869 ], [ 103.840429405015783, 1.283245684826693 ], [ 103.840421317312575, 1.283262913905254 ], [ 103.840415391483475, 1.283276163772144 ], [ 103.840402117446345, 1.283305844161244 ], [ 103.840353713212181, 1.283331324776886 ], [ 103.840345796190888, 1.283333964639924 ], [ 103.840255789605749, 1.283364398574771 ], [ 103.840181676362093, 1.283388338219205 ], [ 103.840118691515741, 1.283408827679662 ], [ 103.840056501881293, 1.283431525595566 ], [ 103.839998039390963, 1.283456004194686 ], [ 103.839953018138914, 1.283477155598977 ], [ 103.839916075647295, 1.283496399675958 ], [ 103.839864999168128, 1.283529396466009 ], [ 103.839829007344193, 1.283554424857268 ], [ 103.839821094821588, 1.283559927937985 ], [ 103.839801057419677, 1.283569075640178 ], [ 103.839784402107981, 1.283573695178497 ], [ 103.839754720673966, 1.283578762410269 ], [ 103.839732214064441, 1.283579299659813 ], [ 103.839715474274882, 1.283577884370812 ], [ 103.839691968466894, 1.2835691835349 ], [ 103.839675446996964, 1.28355741326682 ], [ 103.839660932857228, 1.283542966977849 ], [ 103.839652208014726, 1.283532129994781 ], [ 103.839644773457366, 1.283514243483962 ], [ 103.839638686693917, 1.283490246176047 ], [ 103.839615010229338, 1.283508103824297 ], [ 103.839595676396527, 1.283522685851894 ], [ 103.839568235066196, 1.283546418263478 ], [ 103.839548546326867, 1.283568056146659 ], [ 103.839545338551574, 1.283572110422418 ], [ 103.839542827142054, 1.283575286558132 ], [ 103.83953420478349, 1.283585236401971 ], [ 103.839519359159681, 1.283602526086599 ], [ 103.839515501741303, 1.283606943014222 ], [ 103.83949976657911, 1.283630806529462 ], [ 103.839488752319483, 1.283645277299157 ], [ 103.839478386809958, 1.283661781983924 ], [ 103.83946438312681, 1.283683349312225 ], [ 103.839458459979298, 1.283693183390592 ], [ 103.839456317870116, 1.283696740262967 ], [ 103.839403817334812, 1.283788483687619 ], [ 103.839396295719439, 1.283812764094766 ], [ 103.839383606643409, 1.28385373004685 ], [ 103.839384963470138, 1.283867478199036 ], [ 103.839369063937681, 1.283919148221776 ], [ 103.839353711607487, 1.283967583329832 ], [ 103.839323576590019, 1.284051841271195 ], [ 103.839305496312903, 1.284109061386083 ], [ 103.839298784266518, 1.284127669614278 ], [ 103.839272827425518, 1.284199630895427 ], [ 103.839268527936142, 1.284209140302514 ], [ 103.839223149188058, 1.284292265108902 ], [ 103.839196142790456, 1.284338480027029 ], [ 103.83918702713963, 1.284352743691409 ], [ 103.839182033972364, 1.284360126938026 ], [ 103.839155196479766, 1.284397955679501 ], [ 103.839122983040269, 1.28444286470582 ], [ 103.839077128908002, 1.284504517174528 ], [ 103.839033435742849, 1.284557874802604 ], [ 103.83898637753218, 1.284605362204787 ], [ 103.838961691104643, 1.284627942442656 ], [ 103.838930362703806, 1.284665219529052 ], [ 103.838917154214059, 1.284684874120679 ], [ 103.838901261805205, 1.284713295631535 ], [ 103.83889187930572, 1.28473708587537 ], [ 103.838883566102325, 1.284776660901892 ], [ 103.838881085284285, 1.284799825310048 ], [ 103.838881078994262, 1.284799849729205 ], [ 103.838876134444632, 1.284852679119122 ], [ 103.838876010450889, 1.284854873108669 ], [ 103.838875886457132, 1.2848570670982 ], [ 103.838874958301119, 1.284873531063347 ], [ 103.838882988576344, 1.284885575377639 ], [ 103.838884329201903, 1.2848875857779 ], [ 103.838885668928938, 1.284889595273781 ], [ 103.838892302869041, 1.284899545986338 ], [ 103.838893715377793, 1.284901546438405 ], [ 103.838895128785055, 1.284903546890487 ], [ 103.838897700425264, 1.284912588725189 ], [ 103.838898477667257, 1.284914971725008 ], [ 103.838899254909265, 1.284917354724843 ], [ 103.838901664808759, 1.284924744285205 ], [ 103.838902386340948, 1.284926957264545 ], [ 103.838903107873122, 1.284929169339522 ], [ 103.83890381233266, 1.284931344336857 ], [ 103.838905600440114, 1.284937399054699 ], [ 103.838914784422883, 1.284941241681001 ], [ 103.839011413485537, 1.284987218474163 ], [ 103.839018016860535, 1.284990152219141 ], [ 103.839113215437678, 1.28502995400802 ], [ 103.839198825693785, 1.285067035485832 ], [ 103.839234690946469, 1.285083656725283 ], [ 103.839283124087956, 1.285105709550413 ], [ 103.839302969258199, 1.285114662716373 ], [ 103.839402146594367, 1.285161180298745 ], [ 103.83946876979806, 1.285191444710069 ], [ 103.839522252743322, 1.285215991756798 ], [ 103.839539742841168, 1.285224451143391 ], [ 103.839566176119703, 1.28523858087586 ], [ 103.839591169040048, 1.285253066931359 ], [ 103.839625840149679, 1.285274295907362 ], [ 103.839683098785258, 1.285308042141079 ], [ 103.839741166109221, 1.285342183578911 ], [ 103.839823881320413, 1.285391609623687 ], [ 103.839829150365972, 1.285394679024672 ], [ 103.83983510679559, 1.285398149961909 ], [ 103.839904927941475, 1.285439196191836 ], [ 103.839946057778633, 1.285467290180629 ], [ 103.840069076216523, 1.285558448030253 ], [ 103.840132263478239, 1.285610140455018 ], [ 103.840225675907931, 1.285690934354325 ], [ 103.840242688925969, 1.285714033596278 ], [ 103.840298652909894, 1.285794493883854 ], [ 103.840298528022984, 1.285798355523586 ], [ 103.8402192, 1.2857398 ], [ 103.8401609, 1.2856826 ], [ 103.8398229, 1.2854225 ], [ 103.8397814, 1.2853905 ], [ 103.8396158, 1.2852966 ], [ 103.8394643, 1.2852041 ], [ 103.8390733, 1.2850124 ], [ 103.83890381233266, 1.284931344336857 ] ] } }
]
}
