<?xml version="1.0" encoding="UTF-8"?>
<gpx xmlns="http://www.topografix.com/GPX/1/1" xmlns:xsi="http://www.w3.org/2001/XMLSchema-instance" xsi:schemaLocation="http://www.topografix.com/GPX/1/1 http://www.topografix.com/GPX/1/1/gpx.xsd" version="1.1" creator="gpx.py -- https://github.com/tkrajina/gpxpy">
  <trk>
    <name>point_to_point_05000m_019</name>
    <trkseg>
      <trkpt lat="1.3972605862271816" lon="103.76908876380924">
        <ele>40.0</ele>
      </trkpt>
      <trkpt lat="1.3973104882654872" lon="103.76901382385448">
        <ele>40.0</ele>
      </trkpt>
      <trkpt lat="1.3973603903012182" lon="103.76893888389664">
        <ele>40.0</ele>
      </trkpt>
      <trkpt lat="1.3973219483490729" lon="103.76887264834824">
        <ele>40.0</ele>
      </trkpt>
      <trkpt lat="1.397243492775451" lon="103.76885339619304">
        <ele>40.0</ele>
      </trkpt>
      <trkpt lat="1.3971541221232395" lon="103.76886715035492">
        <ele>40.0</ele>
      </trkpt>
      <trkpt lat="1.3970718900550498" lon="103.76890439852133">
        <ele>40.0</ele>
      </trkpt>
      <trkpt lat="1.3969897899502655" lon="103.76894208099627">
        <ele>40.0</ele>
      </trkpt>
      <trkpt lat="1.3969076898446935" lon="103.7689797634685">
        <ele>40.0</ele>
      </trkpt>
      <trkpt lat="1.3968255897383337" lon="103.76901744593799">
        <ele>40.0</ele>
      </trkpt>
      <trkpt lat="1.3967360902971981" lon="103.76902664659642">
        <ele>40.0</ele>
      </trkpt>
      <trkpt lat="1.3966458914947162" lon="103.76903315524537">
        <ele>40.0</ele>
      </trkpt>
      <trkpt lat="1.3965556926921234" lon="103.76903966389365">
        <ele>40.0</ele>
      </trkpt>
      <trkpt lat="1.3964654692550666" lon="103.7690451252822">
        <ele>40.0</ele>
      </trkpt>
      <trkpt lat="1.3963750629082625" lon="103.76904281078936">
        <ele>40.0</ele>
      </trkpt>
      <trkpt lat="1.3962846565613938" lon="103.7690404962965">
        <ele>40.0</ele>
      </trkpt>
      <trkpt lat="1.3961942502144618" lon="103.7690381818037">
        <ele>40.0</ele>
      </trkpt>
      <trkpt lat="1.3961038438674653" lon="103.76903586731089">
        <ele>40.0</ele>
      </trkpt>
      <trkpt lat="1.3960134375204056" lon="103.7690335528181">
        <ele>40.0</ele>
      </trkpt>
      <trkpt lat="1.395923031173282" lon="103.76903123832534">
        <ele>40.0</ele>
      </trkpt>
      <trkpt lat="1.3958326245467694" lon="103.76902906450202">
        <ele>40.0</ele>
      </trkpt>
      <trkpt lat="1.3957422097116816" lon="103.76903102451878">
        <ele>40.0</ele>
      </trkpt>
      <trkpt lat="1.395651794876516" lon="103.76903298453522">
        <ele>40.0</ele>
      </trkpt>
      <trkpt lat="1.3955683523238207" lon="103.76901713372614">
        <ele>40.0</ele>
      </trkpt>
      <trkpt lat="1.3955030329817555" lon="103.76895498683848">
        <ele>40.0</ele>
      </trkpt>
      <trkpt lat="1.395437713638162" lon="103.76889283995425">
        <ele>40.0</ele>
      </trkpt>
      <trkpt lat="1.39537239429304" lon="103.76883069307344">
        <ele>40.0</ele>
      </trkpt>
      <trkpt lat="1.3953070749463898" lon="103.76876854619606">
        <ele>40.0</ele>
      </trkpt>
      <trkpt lat="1.3952417555982124" lon="103.7687063993221">
        <ele>40.0</ele>
      </trkpt>
      <trkpt lat="1.3951764362485073" lon="103.76864425245155">
        <ele>40.0</ele>
      </trkpt>
      <trkpt lat="1.3951111168972754" lon="103.76858210558443">
        <ele>40.0</ele>
      </trkpt>
      <trkpt lat="1.3950555655035812" lon="103.76851219621686">
        <ele>40.0</ele>
      </trkpt>
      <trkpt lat="1.3950315602861036" lon="103.76842847085989">
        <ele>40.0</ele>
      </trkpt>
      <trkpt lat="1.3950278806406085" lon="103.76833868734451">
        <ele>40.0</ele>
      </trkpt>
      <trkpt lat="1.3950242009916787" lon="103.76824890382957">
        <ele>40.0</ele>
      </trkpt>
      <trkpt lat="1.3950205213393148" lon="103.76815912031508">
        <ele>40.0</ele>
      </trkpt>
      <trkpt lat="1.3950168416835167" lon="103.76806933680102">
        <ele>40.0</ele>
      </trkpt>
      <trkpt lat="1.3950131620242843" lon="103.76797955328739">
        <ele>40.0</ele>
      </trkpt>
      <trkpt lat="1.3950254179479196" lon="103.76789170946381">
        <ele>40.0</ele>
      </trkpt>
      <trkpt lat="1.3950508007714635" lon="103.76780546345391">
        <ele>40.0</ele>
      </trkpt>
      <trkpt lat="1.395076183591733" lon="103.76771921744229">
        <ele>40.0</ele>
      </trkpt>
      <trkpt lat="1.3950986341412976" lon="103.76763228700048">
        <ele>39.99999999999999</ele>
      </trkpt>
      <trkpt lat="1.395114555305172" lon="103.76754383251652">
        <ele>40.0</ele>
      </trkpt>
      <trkpt lat="1.3951304764656416" lon="103.76745537803154">
        <ele>40.0</ele>
      </trkpt>
      <trkpt lat="1.395152008575895" lon="103.76736884129924">
        <ele>40.0</ele>
      </trkpt>
      <trkpt lat="1.3951942224843332" lon="103.76728937334632">
        <ele>40.0</ele>
      </trkpt>
      <trkpt lat="1.3952364363899197" lon="103.76720990539064">
        <ele>40.0</ele>
      </trkpt>
      <trkpt lat="1.3952848258364703" lon="103.76713435441225">
        <ele>40.0</ele>
      </trkpt>
      <trkpt lat="1.3953396031162189" lon="103.76706285506174">
        <ele>40.0</ele>
      </trkpt>
      <trkpt lat="1.3954134132551237" lon="103.76701504056805">
        <ele>40.0</ele>
      </trkpt>
      <trkpt lat="1.3954957131686327" lon="103.76697779091218">
        <ele>40.0</ele>
      </trkpt>
      <trkpt lat="1.395578013081365" lon="103.7669405412536">
        <ele>40.0</ele>
      </trkpt>
      <trkpt lat="1.3956675317530325" lon="103.76693315218422">
        <ele>40.0</ele>
      </trkpt>
      <trkpt lat="1.3957578804278463" lon="103.76692919644489">
        <ele>40.0</ele>
      </trkpt>
      <trkpt lat="1.3958482291025698" lon="103.76692524070512">
        <ele>40.0</ele>
      </trkpt>
      <trkpt lat="1.395938577777202" lon="103.76692128496487">
        <ele>40.0</ele>
      </trkpt>
      <trkpt lat="1.396028926451743" lon="103.76691732922414">
        <ele>40.0</ele>
      </trkpt>
      <trkpt lat="1.3961192751261937" lon="103.76691337348298">
        <ele>40.0</ele>
      </trkpt>
      <trkpt lat="1.3962096238005532" lon="103.76690941774133">
        <ele>40.0</ele>
      </trkpt>
      <trkpt lat="1.3962999724748217" lon="103.76690546199922">
        <ele>40.0</ele>
      </trkpt>
      <trkpt lat="1.3963903211489994" lon="103.76690150625664">
        <ele>40.0</ele>
      </trkpt>
      <trkpt lat="1.3964807443303884" lon="103.76690191658484">
        <ele>40.0</ele>
      </trkpt>
      <trkpt lat="1.3965711760394472" lon="103.76690282663188">
        <ele>40.0</ele>
      </trkpt>
      <trkpt lat="1.396661607748439" lon="103.7669037366788">
        <ele>40.0</ele>
      </trkpt>
      <trkpt lat="1.3967457327765984" lon="103.76693556791416">
        <ele>40.0</ele>
      </trkpt>
      <trkpt lat="1.396829386168034" lon="103.76696971154954">
        <ele>40.0</ele>
      </trkpt>
      <trkpt lat="1.3969130395590277" lon="103.76700385518721">
        <ele>40.0</ele>
      </trkpt>
      <trkpt lat="1.3970004649153789" lon="103.7670203888252">
        <ele>40.0</ele>
      </trkpt>
      <trkpt lat="1.3970908615808013" lon="103.76702305045002">
        <ele>40.0</ele>
      </trkpt>
      <trkpt lat="1.3971812702112592" lon="103.76702337220947">
        <ele>40.0</ele>
      </trkpt>
      <trkpt lat="1.3972716894296013" lon="103.76702162341363">
        <ele>40.0</ele>
      </trkpt>
      <trkpt lat="1.3973206202089203" lon="103.76709501074704">
        <ele>40.00000000000001</ele>
      </trkpt>
      <trkpt lat="1.397330234247059" lon="103.7671843595618">
        <ele>40.00000000000001</ele>
      </trkpt>
      <trkpt lat="1.3973096263791072" lon="103.76727176268926">
        <ele>40.0</ele>
      </trkpt>
      <trkpt lat="1.3972884883195154" lon="103.76735913168176">
        <ele>40.0</ele>
      </trkpt>
      <trkpt lat="1.3972673502565751" lon="103.76744650067283">
        <ele>40.0</ele>
      </trkpt>
      <trkpt lat="1.3972462121902869" lon="103.76753386966249">
        <ele>40.0</ele>
      </trkpt>
      <trkpt lat="1.3972658650864276" lon="103.76762130052504">
        <ele>40.0</ele>
      </trkpt>
      <trkpt lat="1.3972867345818074" lon="103.76770873323467">
        <ele>40.0</ele>
      </trkpt>
      <trkpt lat="1.3973053593747522" lon="103.76779666068978">
        <ele>40.0</ele>
      </trkpt>
      <trkpt lat="1.397323655498361" lon="103.76788466058619">
        <ele>40.0</ele>
      </trkpt>
      <trkpt lat="1.3973571338358177" lon="103.76796723102625">
        <ele>40.0</ele>
      </trkpt>
      <trkpt lat="1.3974032958313718" lon="103.76804077134263">
        <ele>40.0</ele>
      </trkpt>
      <trkpt lat="1.3974935363025573" lon="103.76804668229029">
        <ele>40.0</ele>
      </trkpt>
      <trkpt lat="1.3975837767736796" lon="103.76805259323824">
        <ele>40.0</ele>
      </trkpt>
      <trkpt lat="1.3976736709791602" lon="103.76805226415065">
        <ele>40.0</ele>
      </trkpt>
      <trkpt lat="1.3977627104324462" lon="103.76803653161605">
        <ele>40.0</ele>
      </trkpt>
      <trkpt lat="1.3978493285561142" lon="103.76801453345098">
        <ele>40.0</ele>
      </trkpt>
      <trkpt lat="1.3979260833787128" lon="103.76796701220448">
        <ele>40.0</ele>
      </trkpt>
      <trkpt lat="1.397941166687617" lon="103.76789041430625">
        <ele>40.0</ele>
      </trkpt>
      <trkpt lat="1.397929671230877" lon="103.7678012851552">
        <ele>40.0</ele>
      </trkpt>
      <trkpt lat="1.3978966822023198" lon="103.76771839105068">
        <ele>40.0</ele>
      </trkpt>
      <trkpt lat="1.3978581073599077" lon="103.76763711733048">
        <ele>40.0</ele>
      </trkpt>
      <trkpt lat="1.3978122603495822" lon="103.7675597676252">
        <ele>40.0</ele>
      </trkpt>
      <trkpt lat="1.397764656040983" lon="103.76748336614826">
        <ele>40.0</ele>
      </trkpt>
      <trkpt lat="1.3977156333556104" lon="103.7674078931594">
        <ele>40.0</ele>
      </trkpt>
      <trkpt lat="1.3976637685939481" lon="103.7673342806297">
        <ele>40.0</ele>
      </trkpt>
      <trkpt lat="1.3976148445235845" lon="103.7672587421327">
        <ele>40.00000000000001</ele>
      </trkpt>
      <trkpt lat="1.3975907471822608" lon="103.76717504489741">
        <ele>40.0</ele>
      </trkpt>
      <trkpt lat="1.3975860867000138" lon="103.76708530627337">
        <ele>40.0</ele>
      </trkpt>
      <trkpt lat="1.3975814262143331" lon="103.76699556764986">
        <ele>40.0</ele>
      </trkpt>
      <trkpt lat="1.39757676572522" lon="103.76690582902687">
        <ele>40.0</ele>
      </trkpt>
      <trkpt lat="1.3975676957768564" lon="103.76681656935003">
        <ele>40.61246558812032</ele>
      </trkpt>
      <trkpt lat="1.3975527332071256" lon="103.76672794971779">
        <ele>41.91229554400395</ele>
      </trkpt>
      <trkpt lat="1.3975377706340817" lon="103.76663933008685">
        <ele>43.89948986765116</ele>
      </trkpt>
      <trkpt lat="1.3975228080577258" lon="103.76655071045717">
        <ele>45.64889144856462</ele>
      </trkpt>
      <trkpt lat="1.3975078454780578" lon="103.76646209082877">
        <ele>46.943787604907264</ele>
      </trkpt>
      <trkpt lat="1.3974983306116504" lon="103.76637281369875">
        <ele>47.79758820208298</ele>
      </trkpt>
      <trkpt lat="1.397491505297956" lon="103.76628321195808">
        <ele>48.522984762468774</ele>
      </trkpt>
      <trkpt lat="1.3974846799808474" lon="103.76619361021811">
        <ele>49.35118177123197</ele>
      </trkpt>
      <trkpt lat="1.3975003349988928" lon="103.76610861647974">
        <ele>50.373354479207386</ele>
      </trkpt>
      <trkpt lat="1.3975422915408184" lon="103.76602901400446">
        <ele>51.58950288639491</ele>
      </trkpt>
      <trkpt lat="1.397584248079877" lon="103.76594941152644">
        <ele>52.8666582287429</ele>
      </trkpt>
      <trkpt lat="1.397614538679361" lon="103.76586651121617">
        <ele>54.0113658825274</ele>
      </trkpt>
      <trkpt lat="1.3976210387908974" lon="103.76577688560151">
        <ele>54.99071802196621</ele>
      </trkpt>
      <trkpt lat="1.3976208386985574" lon="103.76568790776776">
        <ele>55.7325422808286</ele>
      </trkpt>
      <trkpt lat="1.3975970712038264" lon="103.76560120845184">
        <ele>56.32570816659955</ele>
      </trkpt>
      <trkpt lat="1.3975733037059552" lon="103.7655145091378">
        <ele>56.74379004913724</ele>
      </trkpt>
      <trkpt lat="1.397539083255403" lon="103.7654313993569">
        <ele>57.144288004365876</ele>
      </trkpt>
      <trkpt lat="1.3975126817883334" lon="103.76534629942076">
        <ele>57.68091440809754</ele>
      </trkpt>
      <trkpt lat="1.3975123217842618" lon="103.7652575876353">
        <ele>58.6259594389228</ele>
      </trkpt>
      <trkpt lat="1.3975316594052285" lon="103.76516980787392">
        <ele>59.242247997789796</ele>
      </trkpt>
      <trkpt lat="1.3975564273037673" lon="103.76508356292749">
        <ele>58.93927906495793</ele>
      </trkpt>
      <trkpt lat="1.3975864833469538" lon="103.7649988126229">
        <ele>58.01351260517877</ele>
      </trkpt>
      <trkpt lat="1.3975567831841786" lon="103.76491489557054">
        <ele>57.44692776186307</ele>
      </trkpt>
      <trkpt lat="1.3975022475565966" lon="103.76484848463937">
        <ele>57.919672745665615</ele>
      </trkpt>
      <trkpt lat="1.3974272810721744" lon="103.76479822394984">
        <ele>58.866214682702584</ele>
      </trkpt>
      <trkpt lat="1.3973523145867806" lon="103.76474796326343">
        <ele>59.64077695638944</ele>
      </trkpt>
      <trkpt lat="1.3972773481004148" lon="103.76469770258015">
        <ele>60.0</ele>
      </trkpt>
      <trkpt lat="1.3972016749041487" lon="103.76464850104983">
        <ele>60.0</ele>
      </trkpt>
      <trkpt lat="1.3971258948286867" lon="103.76459945970183">
        <ele>60.0</ele>
      </trkpt>
      <trkpt lat="1.3970524458718925" lon="103.76454724462988">
        <ele>60.0</ele>
      </trkpt>
      <trkpt lat="1.3969823304093303" lon="103.76449049113923">
        <ele>60.0</ele>
      </trkpt>
      <trkpt lat="1.3969122149455147" lon="103.76443373765188">
        <ele>60.0</ele>
      </trkpt>
      <trkpt lat="1.396842099480446" lon="103.76437698416787">
        <ele>59.84241625384964</ele>
      </trkpt>
      <trkpt lat="1.3967699435461323" lon="103.76432428069484">
        <ele>59.252118986354766</ele>
      </trkpt>
      <trkpt lat="1.3966822001078718" lon="103.76430251596356">
        <ele>58.22729838955241</ele>
      </trkpt>
      <trkpt lat="1.3965944566694233" lon="103.76428075123373">
        <ele>56.924500929614645</ele>
      </trkpt>
      <trkpt lat="1.3965067132307871" lon="103.76425898650538">
        <ele>55.873240373117916</ele>
      </trkpt>
      <trkpt lat="1.3964702153034256" lon="103.76424993320808">
        <ele>55.3470914548804</ele>
      </trkpt>
      <trkpt lat="1.3963808051113349" lon="103.76426343122954">
        <ele>53.50993878168371</ele>
      </trkpt>
      <trkpt lat="1.3962905760740811" lon="103.76426933695747">
        <ele>51.879763271153145</ele>
      </trkpt>
      <trkpt lat="1.3962009962278994" lon="103.76426376958287">
        <ele>49.942445124145536</ele>
      </trkpt>
      <trkpt lat="1.3961120698495262" lon="103.7642474178807">
        <ele>47.68500585558102</ele>
      </trkpt>
      <trkpt lat="1.3960231434710326" lon="103.76423106617958">
        <ele>45.22182336717281</ele>
      </trkpt>
      <trkpt lat="1.3959351535469842" lon="103.7642461972696">
        <ele>42.8139498756895</ele>
      </trkpt>
      <trkpt lat="1.3958483102194732" lon="103.76427048512187">
        <ele>41.0855459707798</ele>
      </trkpt>
      <trkpt lat="1.3958073180632793" lon="103.76428886104902">
        <ele>40.23069269056526</ele>
      </trkpt>
      <trkpt lat="1.3958134684368662" lon="103.76437813849483">
        <ele>40.23760402520691</ele>
      </trkpt>
      <trkpt lat="1.3958386845940032" lon="103.76446443277999">
        <ele>40.78408846318001</ele>
      </trkpt>
      <trkpt lat="1.3958639007480411" lon="103.76455072706713">
        <ele>41.93238583271239</ele>
      </trkpt>
      <trkpt lat="1.3959232085301718" lon="103.764617802966">
        <ele>43.0317553059518</ele>
      </trkpt>
      <trkpt lat="1.3959848248737767" lon="103.76468357746766">
        <ele>44.00964916062961</ele>
      </trkpt>
      <trkpt lat="1.3960466935260045" lon="103.76474907950261">
        <ele>44.64733925263582</ele>
      </trkpt>
      <trkpt lat="1.396117782381252" lon="103.76480462463321">
        <ele>45.34810680034932</ele>
      </trkpt>
      <trkpt lat="1.3961895514807343" lon="103.76485926038548">
        <ele>46.125783331062</ele>
      </trkpt>
      <trkpt lat="1.3962635762317632" lon="103.76491088068654">
        <ele>46.93995044432671</ele>
      </trkpt>
      <trkpt lat="1.3963408424756865" lon="103.76495706172271">
        <ele>47.84088918722884</ele>
      </trkpt>
      <trkpt lat="1.3964219872186294" lon="103.76499673458974">
        <ele>48.765756047192745</ele>
      </trkpt>
      <trkpt lat="1.3964979657075558" lon="103.76504384092455">
        <ele>49.58444615826903</ele>
      </trkpt>
      <trkpt lat="1.396564048114367" lon="103.76510518624126">
        <ele>50.20590832878295</ele>
      </trkpt>
      <trkpt lat="1.3966239898682358" lon="103.76517219818071">
        <ele>50.653664845989766</ele>
      </trkpt>
      <trkpt lat="1.3966806856388152" lon="103.76524220552903">
        <ele>50.961577769396776</ele>
      </trkpt>
      <trkpt lat="1.3967064650961427" lon="103.76527403773696">
        <ele>51.10215371473136</ele>
      </trkpt>
      <trkpt lat="1.3967963221976922" lon="103.76526388381524">
        <ele>52.557186699321925</ele>
      </trkpt>
      <trkpt lat="1.3968861792990903" lon="103.76525372989258">
        <ele>53.72226719517315</ele>
      </trkpt>
      <trkpt lat="1.3969749313189315" lon="103.76523875814863">
        <ele>54.72486038876912</ele>
      </trkpt>
      <trkpt lat="1.3970603427879802" lon="103.76520922261457">
        <ele>55.78074950030285</ele>
      </trkpt>
      <trkpt lat="1.3971457542564878" lon="103.76517968707823">
        <ele>56.988865810436835</ele>
      </trkpt>
      <trkpt lat="1.3972048173525586" lon="103.76511792910135">
        <ele>58.30591689568663</ele>
      </trkpt>
      <trkpt lat="1.3972075473548913" lon="103.7650281120504">
        <ele>59.34392200062248</ele>
      </trkpt>
      <trkpt lat="1.397227680297551" lon="103.76494203709959">
        <ele>59.91063425201736</ele>
      </trkpt>
      <trkpt lat="1.3972913233211246" lon="103.76488575303755">
        <ele>60.0</ele>
      </trkpt>
      <trkpt lat="1.3973772025891078" lon="103.7648914514328">
        <ele>60.0</ele>
      </trkpt>
      <trkpt lat="1.3974380826915438" lon="103.76494919206012">
        <ele>60.0</ele>
      </trkpt>
      <trkpt lat="1.3974537694452671" lon="103.7650341346464">
        <ele>59.99685884451859</ele>
      </trkpt>
      <trkpt lat="1.3974310345594563" lon="103.76511838535369">
        <ele>59.48090026251047</ele>
      </trkpt>
      <trkpt lat="1.3973809049021544" lon="103.7651923363991">
        <ele>58.47871721930085</ele>
      </trkpt>
      <trkpt lat="1.3973146707091157" lon="103.76525351991552">
        <ele>56.96949128062074</ele>
      </trkpt>
      <trkpt lat="1.3972657315799673" lon="103.76532753684182">
        <ele>55.498121131206425</ele>
      </trkpt>
      <trkpt lat="1.39724944805635" lon="103.76541042577627">
        <ele>54.115843497312106</ele>
      </trkpt>
      <trkpt lat="1.3972725973502862" lon="103.76549729005735">
        <ele>52.88082349626237</ele>
      </trkpt>
      <trkpt lat="1.3972577664270454" lon="103.76558593059926">
        <ele>51.631127835046584</ele>
      </trkpt>
      <trkpt lat="1.397184375734841" lon="103.7656341895001">
        <ele>50.27638628476941</ele>
      </trkpt>
      <trkpt lat="1.3971090813749836" lon="103.7656836483528">
        <ele>48.788350150757545</ele>
      </trkpt>
      <trkpt lat="1.39703724341801" lon="103.76573822088254">
        <ele>47.31764922625178</ele>
      </trkpt>
      <trkpt lat="1.3969670188153287" lon="103.76579484099938">
        <ele>45.8768296879371</ele>
      </trkpt>
      <trkpt lat="1.3968967927702218" lon="103.76585145934818">
        <ele>44.45993414248258</ele>
      </trkpt>
      <trkpt lat="1.3968265668767479" lon="103.76590807787376">
        <ele>43.21718891526058</ele>
      </trkpt>
      <trkpt lat="1.3967822701754142" lon="103.76594383699134">
        <ele>42.595816021434544</ele>
      </trkpt>
      <trkpt lat="1.3967822883413057" lon="103.76585397900564">
        <ele>43.5303536791935</ele>
      </trkpt>
      <trkpt lat="1.3967752233246788" lon="103.76576489863157">
        <ele>44.840915347893166</ele>
      </trkpt>
      <trkpt lat="1.3967554621060048" lon="103.76567721208338">
        <ele>46.08027337300115</ele>
      </trkpt>
      <trkpt lat="1.3967357008841073" lon="103.76558952553681">
        <ele>47.28449434153796</ele>
      </trkpt>
      <trkpt lat="1.3967179148759288" lon="103.7655015721769">
        <ele>48.54104029456772</ele>
      </trkpt>
      <trkpt lat="1.3967133987688078" lon="103.76541182630166">
        <ele>49.71679621288744</ele>
      </trkpt>
      <trkpt lat="1.3967088826582557" lon="103.76532208042691">
        <ele>50.61172224296007</ele>
      </trkpt>
      <trkpt lat="1.3967064650961427" lon="103.76527403773696">
        <ele>50.992627748394966</ele>
      </trkpt>
    </trkseg>
  </trk>
</gpx>