<?xml version="1.0" encoding="UTF-8"?>
<gpx xmlns="http://www.topografix.com/GPX/1/1" xmlns:xsi="http://www.w3.org/2001/XMLSchema-instance" xsi:schemaLocation="http://www.topografix.com/GPX/1/1 http://www.topografix.com/GPX/1/1/gpx.xsd" version="1.1" creator="gpx.py -- https://github.com/tkrajina/gpxpy">
  <trk>
    <name>point_to_point_05000m_036</name>
    <trkseg>
      <trkpt lat="1.4199023355490226" lon="103.92840582256851">
        <ele>5.795696529490569</ele>
      </trkpt>
      <trkpt lat="1.419952022683296" lon="103.92833074113389">
        <ele>5.390052069532923</ele>
      </trkpt>
      <trkpt lat="1.4200017098153117" lon="103.92825565969598">
        <ele>4.946570303405181</ele>
      </trkpt>
      <trkpt lat="1.4200553705826668" lon="103.92818395882875">
        <ele>5.131497900809138</ele>
      </trkpt>
      <trkpt lat="1.420128430973243" lon="103.92813155288161">
        <ele>6.089332387860677</ele>
      </trkpt>
      <trkpt lat="1.4202162043495732" lon="103.92814595647454">
        <ele>7.605115286183765</ele>
      </trkpt>
      <trkpt lat="1.4202816914442786" lon="103.92820706024776">
        <ele>9.269261854374015</ele>
      </trkpt>
      <trkpt lat="1.420351504548333" lon="103.9282626959987">
        <ele>11.01405891376516</ele>
      </trkpt>
      <trkpt lat="1.4204372777377603" lon="103.92828228936028">
        <ele>12.379778480674723</ele>
      </trkpt>
      <trkpt lat="1.4205185861254452" lon="103.92824646060996">
        <ele>13.235051299173959</ele>
      </trkpt>
      <trkpt lat="1.420586753139583" lon="103.92818845532443">
        <ele>13.37215578697589</ele>
      </trkpt>
      <trkpt lat="1.4206426321627015" lon="103.92811780200402">
        <ele>13.133807934823466</ele>
      </trkpt>
      <trkpt lat="1.4206920155722647" lon="103.92804256094246">
        <ele>12.950306072947813</ele>
      </trkpt>
      <trkpt lat="1.4207408069124345" lon="103.92796690171089">
        <ele>13.04920909075374</ele>
      </trkpt>
      <trkpt lat="1.420798057237455" lon="103.92789757535489">
        <ele>12.86376280566642</ele>
      </trkpt>
      <trkpt lat="1.4208577967022331" lon="103.92783011250836">
        <ele>12.152125855823405</ele>
      </trkpt>
      <trkpt lat="1.4209175361652318" lon="103.92776264965835">
        <ele>10.986560362608108</ele>
      </trkpt>
      <trkpt lat="1.4209905384393717" lon="103.92770965140765">
        <ele>10.003602559449481</ele>
      </trkpt>
      <trkpt lat="1.4210694024830468" lon="103.92766636934223">
        <ele>9.34630206619994</ele>
      </trkpt>
      <trkpt lat="1.4211510840261452" lon="103.92762779909832">
        <ele>9.024599929660603</ele>
      </trkpt>
      <trkpt lat="1.4212386283776561" lon="103.92760577646887">
        <ele>8.859093348498261</ele>
      </trkpt>
      <trkpt lat="1.4213266138717886" lon="103.9275849989514">
        <ele>8.497954660825782</ele>
      </trkpt>
      <trkpt lat="1.4214143312582426" lon="103.92756314106211">
        <ele>7.759027366915426</ele>
      </trkpt>
      <trkpt lat="1.4215019521492052" lon="103.92754089433225">
        <ele>7.225764195905714</ele>
      </trkpt>
      <trkpt lat="1.4215891699215382" lon="103.92751715808019">
        <ele>7.2268896981904485</ele>
      </trkpt>
      <trkpt lat="1.4216762028345895" lon="103.92749273877313">
        <ele>7.697974431423791</ele>
      </trkpt>
      <trkpt lat="1.4217598081363687" lon="103.92745859781635">
        <ele>8.104921802696259</ele>
      </trkpt>
      <trkpt lat="1.4218417849395737" lon="103.92742121348523">
        <ele>8.318849067631747</ele>
      </trkpt>
      <trkpt lat="1.421916601826456" lon="103.9273707328063">
        <ele>8.517877356420561</ele>
      </trkpt>
      <trkpt lat="1.4220011660499556" lon="103.92734171409111">
        <ele>8.753550387724147</ele>
      </trkpt>
      <trkpt lat="1.4220892210689542" lon="103.92735005038725">
        <ele>9.317947126947379</ele>
      </trkpt>
      <trkpt lat="1.4221648176487582" lon="103.92739788917449">
        <ele>10.180821133121048</ele>
      </trkpt>
      <trkpt lat="1.422225936583517" lon="103.92746411510947">
        <ele>11.254627170996232</ele>
      </trkpt>
      <trkpt lat="1.4223026697123426" lon="103.9275102012834">
        <ele>12.599194272079531</ele>
      </trkpt>
      <trkpt lat="1.4223914429684439" lon="103.92751790582851">
        <ele>13.911280357275032</ele>
      </trkpt>
      <trkpt lat="1.4224719039762976" lon="103.92747902323018">
        <ele>15.094186736615862</ele>
      </trkpt>
      <trkpt lat="1.4225394827908036" lon="103.92741964241283">
        <ele>15.809671726871207</ele>
      </trkpt>
      <trkpt lat="1.4225982262991541" lon="103.92735184841173">
        <ele>16.215447935821132</ele>
      </trkpt>
      <trkpt lat="1.4226500663350967" lon="103.9272782179889">
        <ele>16.503542232074853</ele>
      </trkpt>
      <trkpt lat="1.422705477026855" lon="103.92720789785021">
        <ele>17.103292079866335</ele>
      </trkpt>
      <trkpt lat="1.4227880861729174" lon="103.92718107832376">
        <ele>18.280410912600317</ele>
      </trkpt>
      <trkpt lat="1.4228634003473424" lon="103.9272283989483">
        <ele>19.36003779353719</ele>
      </trkpt>
      <trkpt lat="1.422926172971037" lon="103.9272928297586">
        <ele>20.0</ele>
      </trkpt>
      <trkpt lat="1.4229841440443873" lon="103.92736179897776">
        <ele>20.0</ele>
      </trkpt>
      <trkpt lat="1.4230421151154031" lon="103.92743076820034">
        <ele>20.0</ele>
      </trkpt>
      <trkpt lat="1.423100086184084" lon="103.9274997374263">
        <ele>19.97513530682051</ele>
      </trkpt>
      <trkpt lat="1.4231721070539198" lon="103.92755149125168">
        <ele>19.20370871774175</ele>
      </trkpt>
      <trkpt lat="1.4232540110233054" lon="103.92758948442888">
        <ele>17.672086084373543</ele>
      </trkpt>
      <trkpt lat="1.4233347379729486" lon="103.92762992466531">
        <ele>15.467796594583206</ele>
      </trkpt>
      <trkpt lat="1.42340613624043" lon="103.92768459300251">
        <ele>13.304447925816348</ele>
      </trkpt>
      <trkpt lat="1.4234624415791952" lon="103.92775475243025">
        <ele>11.220350208434345</ele>
      </trkpt>
      <trkpt lat="1.4235135342346652" lon="103.92782879805931">
        <ele>9.164055120538741</ele>
      </trkpt>
      <trkpt lat="1.4235623405493907" lon="103.92790444784643">
        <ele>7.317125076732033</ele>
      </trkpt>
      <trkpt lat="1.4236075118467655" lon="103.92798174005945">
        <ele>6.050094209166385</ele>
      </trkpt>
      <trkpt lat="1.4236328101508846" lon="103.9280680115653">
        <ele>5.396483581825289</ele>
      </trkpt>
      <trkpt lat="1.4236520020396075" lon="103.92815582122807">
        <ele>5.372681521853083</ele>
      </trkpt>
      <trkpt lat="1.4236641506611751" lon="103.92824452459104">
        <ele>5.629916719421118</ele>
      </trkpt>
      <trkpt lat="1.4236676294615926" lon="103.92833431704125">
        <ele>6.133860084580121</ele>
      </trkpt>
      <trkpt lat="1.4236689797297428" lon="103.92842392575862">
        <ele>6.42275895088651</ele>
      </trkpt>
      <trkpt lat="1.4237174630432514" lon="103.92849878764477">
        <ele>6.300903234130277</ele>
      </trkpt>
      <trkpt lat="1.423787463565966" lon="103.92855549367145">
        <ele>5.729055125985376</ele>
      </trkpt>
      <trkpt lat="1.4238611420191483" lon="103.92860759052898">
        <ele>5.056131647799773</ele>
      </trkpt>
      <trkpt lat="1.4239247016661456" lon="103.92867132741826">
        <ele>4.650577890839257</ele>
      </trkpt>
      <trkpt lat="1.4239643528986274" lon="103.92875060951378">
        <ele>5.160403650555096</ele>
      </trkpt>
      <trkpt lat="1.4239909666487114" lon="103.9288364389419">
        <ele>6.33833002264316</ele>
      </trkpt>
      <trkpt lat="1.4240176887394853" lon="103.92892225167537">
        <ele>7.600058879737401</ele>
      </trkpt>
      <trkpt lat="1.4240479091481308" lon="103.9290069451441">
        <ele>8.326410087888725</ele>
      </trkpt>
      <trkpt lat="1.4240781295534866" lon="103.92909163861485">
        <ele>8.71647305722759</ele>
      </trkpt>
      <trkpt lat="1.424105278829669" lon="103.92917727133923">
        <ele>9.177797837350418</ele>
      </trkpt>
      <trkpt lat="1.4241278865394034" lon="103.92926424261518">
        <ele>9.762193560187933</ele>
      </trkpt>
      <trkpt lat="1.4241326141872743" lon="103.92935397872095">
        <ele>10.403736877875183</ele>
      </trkpt>
      <trkpt lat="1.4241246316403293" lon="103.92944338479262">
        <ele>11.080593300176425</ele>
      </trkpt>
      <trkpt lat="1.4241138170316934" lon="103.92953255668712">
        <ele>11.72342766953813</ele>
      </trkpt>
      <trkpt lat="1.4241052541237855" lon="103.92962121392416">
        <ele>12.101458324501214</ele>
      </trkpt>
      <trkpt lat="1.424132005520002" lon="103.92970604826118">
        <ele>12.12406533660409</ele>
      </trkpt>
      <trkpt lat="1.4241894014987444" lon="103.9297745037674">
        <ele>11.703764372732337</ele>
      </trkpt>
      <trkpt lat="1.4242751712422521" lon="103.92980293013662">
        <ele>11.096767815361874</ele>
      </trkpt>
      <trkpt lat="1.4243614556769137" lon="103.9298297433845">
        <ele>10.429291238154342</ele>
      </trkpt>
      <trkpt lat="1.4244448528487375" lon="103.92986400517735">
        <ele>9.869260616899199</ele>
      </trkpt>
      <trkpt lat="1.4245241529751191" lon="103.92990720416425">
        <ele>9.417775743421226</ele>
      </trkpt>
      <trkpt lat="1.4246034531004288" lon="103.92995040315424">
        <ele>9.011903403528699</ele>
      </trkpt>
      <trkpt lat="1.4246831941978577" lon="103.92999279081108">
        <ele>8.587148117302137</ele>
      </trkpt>
      <trkpt lat="1.4247630385618957" lon="103.93003498847125">
        <ele>8.154066642561496</ele>
      </trkpt>
      <trkpt lat="1.4248428829249014" lon="103.93007718613447">
        <ele>7.719405304953018</ele>
      </trkpt>
      <trkpt lat="1.4249227272868745" lon="103.93011938380072">
        <ele>7.199530112061832</ele>
      </trkpt>
      <trkpt lat="1.4250010593244662" lon="103.93016422769739">
        <ele>6.434991215288982</ele>
      </trkpt>
      <trkpt lat="1.4250784379617902" lon="103.93021073983228">
        <ele>5.533860416039526</ele>
      </trkpt>
      <trkpt lat="1.4251558165979026" lon="103.93025725197039">
        <ele>4.938284515438656</ele>
      </trkpt>
      <trkpt lat="1.4252298908241066" lon="103.93030871074052">
        <ele>4.882897932515577</ele>
      </trkpt>
      <trkpt lat="1.4252945271461757" lon="103.9303709266859">
        <ele>5.377974768320123</ele>
      </trkpt>
      <trkpt lat="1.4253401788527302" lon="103.93044806570438">
        <ele>6.122894824558418</ele>
      </trkpt>
      <trkpt lat="1.4253744859195174" lon="103.9305311807238">
        <ele>7.075743450039018</ele>
      </trkpt>
      <trkpt lat="1.425400584726039" lon="103.93061709351811">
        <ele>7.7887176843431005</ele>
      </trkpt>
      <trkpt lat="1.4254241996352388" lon="103.93070383494673">
        <ele>8.174457381523887</ele>
      </trkpt>
      <trkpt lat="1.4254308779361573" lon="103.93072836544218">
        <ele>8.202598701132155</ele>
      </trkpt>
    </trkseg>
  </trk>
</gpx>