{
"type": "FeatureCollection",
"name": "point_to_point_05000m_026",
"crs": { "type": "name", "properties": { "name": "urn:ogc:def:crs:OGC:1.3:CRS84" } },
"features": [
{ "type": "Feature", "properties": { "route_id": "point_to_point_05000m_026", "budget_km": 5.0, "mode": "point_to_point", "rank": 26, "distance_m": 450.52730127803466, "ascent_m": 39.362263819207428, "descent_m": 3.3786768803072746, "gain_density_m_per_km": 87.369319700596193, "source_confidence": 0.65 }, "geometry": { "type": "LineString", "coordinates": [ [ 103.930534020569198, 1.42591218794623 ], [ 103.93058760000001, 1.4258439 ], [ 103.9306359, 1.4257366 ], [ 103.9306802, 1.4256159 ], [ 103.9307284, 1.4254309 ], [ 103.9307794, 1.4252794 ], [ 103.9308652, 1.4250448 ], [ 103.9309484, 1.4248571 ], [ 103.9310355, 1.4247056 ], [ 103.9311415, 1.4245099 ], [ 103.931222, 1.4244254 ], [ 103.9313239, 1.4243034 ], [ 103.9314204, 1.4241988 ], [ 103.9314848, 1.4240983 ], [ 103.9316095, 1.4238972 ], [ 103.931741, 1.4236947 ], [ 103.9318308, 1.4235674 ], [ 103.9318952, 1.4234708 ], [ 103.931919271054412, 1.423411928056436 ], [ 103.9319971, 1.4234105 ], [ 103.9320709, 1.4234038 ], [ 103.9321473, 1.4233864 ], [ 103.9322211, 1.4233555 ], [ 103.932374, 1.4232684 ], [ 103.9325282, 1.4232081 ], [ 103.9326529, 1.4231813 ], [ 103.9327361, 1.4231813 ], [ 103.9328165, 1.4232094 ], [ 103.9328688, 1.4232537 ], [ 103.9329144, 1.4233126 ], [ 103.932972056795506, 1.423375708027293 ] ] } }
]
}
