<?xml version="1.0" encoding="UTF-8"?>
<gpx xmlns="http://www.topografix.com/GPX/1/1" xmlns:xsi="http://www.w3.org/2001/XMLSchema-instance" xsi:schemaLocation="http://www.topografix.com/GPX/1/1 http://www.topografix.com/GPX/1/1/gpx.xsd" version="1.1" creator="gpx.py -- https://github.com/tkrajina/gpxpy">
  <trk>
    <name>point_to_point_05000m_022</name>
    <trkseg>
      <trkpt lat="1.2848735021280249" lon="103.78709096327847">
        <ele>20.0</ele>
      </trkpt>
      <trkpt lat="1.2849250984496043" lon="103.787034734758">
        <ele>20.0</ele>
      </trkpt>
      <trkpt lat="1.2849992285962202" lon="103.78698326615876">
        <ele>20.0</ele>
      </trkpt>
      <trkpt lat="1.2850732716106985" lon="103.78693167471869">
        <ele>20.0</ele>
      </trkpt>
      <trkpt lat="1.285146986616621" lon="103.78687962084855">
        <ele>20.0</ele>
      </trkpt>
      <trkpt lat="1.2852207016213235" lon="103.7868275669754">
        <ele>20.0</ele>
      </trkpt>
      <trkpt lat="1.2852944166248068" lon="103.78677551309923">
        <ele>20.0</ele>
      </trkpt>
      <trkpt lat="1.2853681316270698" lon="103.78672345922004">
        <ele>20.0</ele>
      </trkpt>
      <trkpt lat="1.2854322997650973" lon="103.78666193302165">
        <ele>20.0</ele>
      </trkpt>
      <trkpt lat="1.2854845895204199" lon="103.78658862119208">
        <ele>20.0</ele>
      </trkpt>
      <trkpt lat="1.2855258669406333" lon="103.78650942862247">
        <ele>20.0</ele>
      </trkpt>
      <trkpt lat="1.2855585567454424" lon="103.78642565014741">
        <ele>20.0</ele>
      </trkpt>
      <trkpt lat="1.2855809236424653" lon="103.78633871982798">
        <ele>20.0</ele>
      </trkpt>
      <trkpt lat="1.2856018235763873" lon="103.7862513147371">
        <ele>20.0</ele>
      </trkpt>
      <trkpt lat="1.2856273200106638" lon="103.78616510560771">
        <ele>20.0</ele>
      </trkpt>
      <trkpt lat="1.2856528164419423" lon="103.78607889647668">
        <ele>20.0</ele>
      </trkpt>
      <trkpt lat="1.2856863790025896" lon="103.78599629578824">
        <ele>20.0</ele>
      </trkpt>
      <trkpt lat="1.2857344432419888" lon="103.78592018253217">
        <ele>20.0</ele>
      </trkpt>
      <trkpt lat="1.2858100959968402" lon="103.78587247103127">
        <ele>20.0</ele>
      </trkpt>
      <trkpt lat="1.2858878366308926" lon="103.78582656354168">
        <ele>20.0</ele>
      </trkpt>
      <trkpt lat="1.2859680193407834" lon="103.78578514280913">
        <ele>20.0</ele>
      </trkpt>
      <trkpt lat="1.2860492243783506" lon="103.78574559347332">
        <ele>20.0</ele>
      </trkpt>
      <trkpt lat="1.2861304294151559" lon="103.78570604413494">
        <ele>20.0</ele>
      </trkpt>
      <trkpt lat="1.2862152861284173" lon="103.78567665271719">
        <ele>20.0</ele>
      </trkpt>
      <trkpt lat="1.2863033340932233" lon="103.7856561384492">
        <ele>20.0</ele>
      </trkpt>
      <trkpt lat="1.2863919787247444" lon="103.7856457617394">
        <ele>20.189154372187996</ele>
      </trkpt>
      <trkpt lat="1.286481833140194" lon="103.78565593964102">
        <ele>20.674597168587535</ele>
      </trkpt>
      <trkpt lat="1.286571687555566" lon="103.78566611754322">
        <ele>21.471575289302006</ele>
      </trkpt>
      <trkpt lat="1.2866612935185664" lon="103.78567803258963">
        <ele>22.402583889679477</ele>
      </trkpt>
      <trkpt lat="1.2867504446209213" lon="103.78569312795801">
        <ele>23.038484231021915</ele>
      </trkpt>
      <trkpt lat="1.286839595723163" lon="103.78570822332733">
        <ele>23.31176122978628</ele>
      </trkpt>
      <trkpt lat="1.2869286399651099" lon="103.78571711682547">
        <ele>22.983114333515484</ele>
      </trkpt>
      <trkpt lat="1.287017218783577" lon="103.7856989984308">
        <ele>22.07375223383462</ele>
      </trkpt>
      <trkpt lat="1.287082604539258" lon="103.7856414014977">
        <ele>21.302960595049694</ele>
      </trkpt>
      <trkpt lat="1.2871420417392776" lon="103.78557367911122">
        <ele>21.447899039497756</ele>
      </trkpt>
      <trkpt lat="1.2871761295803035" lon="103.78549398026462">
        <ele>22.74127375393016</ele>
      </trkpt>
      <trkpt lat="1.2871902419809746" lon="103.78540544426232">
        <ele>24.36076880131651</ele>
      </trkpt>
      <trkpt lat="1.2871729478649145" lon="103.78531724846735">
        <ele>25.756875584240944</ele>
      </trkpt>
      <trkpt lat="1.2871556537458275" lon="103.78522905267369">
        <ele>26.81919112726625</ele>
      </trkpt>
      <trkpt lat="1.2871148261048848" lon="103.78515097498097">
        <ele>27.611683719319615</ele>
      </trkpt>
      <trkpt lat="1.2870619569653774" lon="103.78507807446238">
        <ele>28.134353360400866</ele>
      </trkpt>
      <trkpt lat="1.2870090878238651" lon="103.78500517394684">
        <ele>28.300104063341806</ele>
      </trkpt>
      <trkpt lat="1.2869583093041173" lon="103.78493083579006">
        <ele>27.651822808541695</ele>
      </trkpt>
      <trkpt lat="1.2869082611326137" lon="103.78485599540149">
        <ele>26.189509596000534</ele>
      </trkpt>
      <trkpt lat="1.286858212958992" lon="103.78478115501586">
        <ele>24.944252292728596</ele>
      </trkpt>
      <trkpt lat="1.2868793698432774" lon="103.78469575872323">
        <ele>24.51526550008293</ele>
      </trkpt>
      <trkpt lat="1.2869052493710826" lon="103.7846096623127">
        <ele>24.90254921806321</ele>
      </trkpt>
      <trkpt lat="1.286931128895892" lon="103.78452356590054">
        <ele>25.340604350562955</ele>
      </trkpt>
      <trkpt lat="1.2869570084177049" lon="103.78443746948673">
        <ele>25.952250450521827</ele>
      </trkpt>
      <trkpt lat="1.2870183711652694" lon="103.7843752760287">
        <ele>26.569661797243768</ele>
      </trkpt>
      <trkpt lat="1.2870892914777983" lon="103.78431952093631">
        <ele>27.1928383907287</ele>
      </trkpt>
      <trkpt lat="1.287160211788942" lon="103.7842637658408">
        <ele>27.648189263517267</ele>
      </trkpt>
      <trkpt lat="1.287231132098701" lon="103.7842080107422">
        <ele>28.147965597088568</ele>
      </trkpt>
      <trkpt lat="1.2873039250408516" lon="103.7841567026591">
        <ele>28.963977169860367</ele>
      </trkpt>
      <trkpt lat="1.2873936768995646" lon="103.78414566759581">
        <ele>29.715193273451632</ele>
      </trkpt>
      <trkpt lat="1.2874834287581365" lon="103.78413463253162">
        <ele>30.357188447079356</ele>
      </trkpt>
      <trkpt lat="1.2875731806165673" lon="103.78412359746656">
        <ele>30.625002622758675</ele>
      </trkpt>
      <trkpt lat="1.2876627560666003" lon="103.78411363593577">
        <ele>31.265762636012216</ele>
      </trkpt>
      <trkpt lat="1.287744314819861" lon="103.78415246013581">
        <ele>32.40025829929724</ele>
      </trkpt>
      <trkpt lat="1.2878263939442067" lon="103.7841901141323">
        <ele>34.0127951730151</ele>
      </trkpt>
      <trkpt lat="1.2879102013889692" lon="103.7842238815022">
        <ele>35.62491357054363</ele>
      </trkpt>
      <trkpt lat="1.2879940088333117" lon="103.78425764887425">
        <ele>36.96657653175968</ele>
      </trkpt>
      <trkpt lat="1.288077816277233" lon="103.7842914162484">
        <ele>38.04662878582869</ele>
      </trkpt>
      <trkpt lat="1.2881616237207347" lon="103.78432518362466">
        <ele>38.955453434514645</ele>
      </trkpt>
      <trkpt lat="1.2882470822564234" lon="103.78435332141756">
        <ele>39.606577172571725</ele>
      </trkpt>
      <trkpt lat="1.288336027756086" lon="103.78436957001612">
        <ele>39.94743254182791</ele>
      </trkpt>
      <trkpt lat="1.2884249732556248" lon="103.78438581861572">
        <ele>40.0</ele>
      </trkpt>
      <trkpt lat="1.288513918755041" lon="103.78440206721632">
        <ele>40.0</ele>
      </trkpt>
      <trkpt lat="1.2886028642543337" lon="103.78441831581796">
        <ele>40.0</ele>
      </trkpt>
      <trkpt lat="1.288691809753503" lon="103.7844345644206">
        <ele>40.0</ele>
      </trkpt>
      <trkpt lat="1.2887814090760163" lon="103.78444665137083">
        <ele>40.0</ele>
      </trkpt>
      <trkpt lat="1.2888711073348547" lon="103.78445810858133">
        <ele>40.0</ele>
      </trkpt>
      <trkpt lat="1.2889608055936086" lon="103.78446956579256">
        <ele>40.0</ele>
      </trkpt>
      <trkpt lat="1.2890483352497863" lon="103.78447015047286">
        <ele>40.0</ele>
      </trkpt>
      <trkpt lat="1.2891268566796494" lon="103.7844255714027">
        <ele>40.0</ele>
      </trkpt>
      <trkpt lat="1.289205378108573" lon="103.78438099232976">
        <ele>40.0</ele>
      </trkpt>
      <trkpt lat="1.2892242783899872" lon="103.78429708713259">
        <ele>40.0</ele>
      </trkpt>
      <trkpt lat="1.2892351470849204" lon="103.78420788430043">
        <ele>40.0</ele>
      </trkpt>
      <trkpt lat="1.2892180915885276" lon="103.78412243315464">
        <ele>40.0</ele>
      </trkpt>
      <trkpt lat="1.2891837682779772" lon="103.78403930198577">
        <ele>39.89676830774429</ele>
      </trkpt>
      <trkpt lat="1.2891585485870565" lon="103.78395311042735">
        <ele>39.36153798558348</ele>
      </trkpt>
      <trkpt lat="1.2891350167094173" lon="103.78386635147245">
        <ele>38.43733475017268</ele>
      </trkpt>
      <trkpt lat="1.2891114848288612" lon="103.78377959251925">
        <ele>37.50131472503383</ele>
      </trkpt>
      <trkpt lat="1.2890879529453878" lon="103.78369283356776">
        <ele>36.925063458912035</ele>
      </trkpt>
      <trkpt lat="1.2890728337626536" lon="103.78360569154313">
        <ele>36.82112497709826</ele>
      </trkpt>
      <trkpt lat="1.2890882798405046" lon="103.78351715772074">
        <ele>36.91557484832643</ele>
      </trkpt>
      <trkpt lat="1.289103725915214" lon="103.7834286238974">
        <ele>37.165594461500625</ele>
      </trkpt>
      <trkpt lat="1.2891191719867825" lon="103.78334009007308">
        <ele>37.63238051212255</ele>
      </trkpt>
      <trkpt lat="1.2891774734542674" lon="103.78327484109319">
        <ele>38.358353345540934</ele>
      </trkpt>
      <trkpt lat="1.2892441615542598" lon="103.78321414886362">
        <ele>39.19628061962276</ele>
      </trkpt>
      <trkpt lat="1.2893108496526366" lon="103.78315345663087">
        <ele>40.13668168230689</ele>
      </trkpt>
      <trkpt lat="1.2893924778433035" lon="103.78312079717752">
        <ele>41.280732478427836</ele>
      </trkpt>
      <trkpt lat="1.2894804833208657" lon="103.78310010371884">
        <ele>42.775665350118516</ele>
      </trkpt>
      <trkpt lat="1.2895684887981422" lon="103.78307941025862">
        <ele>44.41419451199233</ele>
      </trkpt>
      <trkpt lat="1.2896564942751314" lon="103.78305871679686">
        <ele>45.37971259418851</ele>
      </trkpt>
      <trkpt lat="1.289706183751381" lon="103.78298874366547">
        <ele>45.543757607700485</ele>
      </trkpt>
      <trkpt lat="1.289748559601736" lon="103.78290936420177">
        <ele>44.706261412484345</ele>
      </trkpt>
      <trkpt lat="1.2897753641909766" lon="103.78282429423925">
        <ele>43.39584077581352</ele>
      </trkpt>
      <trkpt lat="1.2897948569079891" lon="103.78273655216213">
        <ele>41.74763932619959</ele>
      </trkpt>
      <trkpt lat="1.2898143496219014" lon="103.7826488100838">
        <ele>39.98706433770574</ele>
      </trkpt>
      <trkpt lat="1.2898338423327138" lon="103.78256106800424">
        <ele>38.54649469439321</ele>
      </trkpt>
      <trkpt lat="1.289894649251545" lon="103.7825064836226">
        <ele>37.568629299843494</ele>
      </trkpt>
      <trkpt lat="1.2899768862731713" lon="103.78246909847635">
        <ele>37.34116432028778</ele>
      </trkpt>
      <trkpt lat="1.290062261133255" lon="103.78247701403296">
        <ele>37.699971454469384</ele>
      </trkpt>
      <trkpt lat="1.2901488775177148" lon="103.78250285337238">
        <ele>38.49567015930182</ele>
      </trkpt>
      <trkpt lat="1.2902354939019214" lon="103.78252869271346">
        <ele>39.41959849831389</ele>
      </trkpt>
      <trkpt lat="1.2903221102858742" lon="103.78255453205615">
        <ele>40.12145141511245</ele>
      </trkpt>
      <trkpt lat="1.2904087266695734" lon="103.78258037140051">
        <ele>40.57205308054546</ele>
      </trkpt>
      <trkpt lat="1.2904843420012098" lon="103.78262785244198">
        <ele>40.771398257913624</ele>
      </trkpt>
      <trkpt lat="1.2905566816720457" lon="103.78268177749126">
        <ele>41.044507411219335</ele>
      </trkpt>
      <trkpt lat="1.2906195032838688" lon="103.78274584242513">
        <ele>41.458270237312604</ele>
      </trkpt>
      <trkpt lat="1.2906786832518986" lon="103.78281378691618">
        <ele>42.00831860911361</ele>
      </trkpt>
      <trkpt lat="1.2907378632181985" lon="103.7828817314104">
        <ele>42.59608084861237</ele>
      </trkpt>
      <trkpt lat="1.290797043182768" lon="103.78294967590777">
        <ele>43.26858879572469</ele>
      </trkpt>
      <trkpt lat="1.290856223145608" lon="103.7830176204083">
        <ele>43.98444826749767</ele>
      </trkpt>
      <trkpt lat="1.2909198680130367" lon="103.78308122526619">
        <ele>44.71014702630493</ele>
      </trkpt>
      <trkpt lat="1.290986934792969" lon="103.78314150421322">
        <ele>45.36093936453316</ele>
      </trkpt>
      <trkpt lat="1.291054001571552" lon="103.78320178316339">
        <ele>45.978219465134806</ele>
      </trkpt>
      <trkpt lat="1.2911210683487855" lon="103.78326206211672">
        <ele>46.22758798437818</ele>
      </trkpt>
      <trkpt lat="1.2911881351246697" lon="103.78332234107319">
        <ele>45.97279227115671</ele>
      </trkpt>
      <trkpt lat="1.291255201899204" lon="103.78338262003281">
        <ele>45.21383232547077</ele>
      </trkpt>
      <trkpt lat="1.2913222686723882" lon="103.78344289899556">
        <ele>44.31861972867844</ele>
      </trkpt>
      <trkpt lat="1.2913893354442219" lon="103.78350317796148">
        <ele>43.48621061378727</ele>
      </trkpt>
      <trkpt lat="1.2914422870424391" lon="103.78355077034894">
        <ele>43.07000605634161</ele>
      </trkpt>
    </trkseg>
  </trk>
</gpx>