<?xml version="1.0" encoding="UTF-8"?>
<gpx xmlns="http://www.topografix.com/GPX/1/1" xmlns:xsi="http://www.w3.org/2001/XMLSchema-instance" xsi:schemaLocation="http://www.topografix.com/GPX/1/1 http://www.topografix.com/GPX/1/1/gpx.xsd" version="1.1" creator="gpx.py -- https://github.com/tkrajina/gpxpy">
  <trk>
    <name>point_to_point_05000m_039</name>
    <trkseg>
      <trkpt lat="1.4146544188979298" lon="103.81796567496717">
        <ele>20.0</ele>
      </trkpt>
      <trkpt lat="1.414665661389064" lon="103.81787651327517">
        <ele>20.0</ele>
      </trkpt>
      <trkpt lat="1.4146769038767408" lon="103.81778735158234">
        <ele>20.0</ele>
      </trkpt>
      <trkpt lat="1.4146990955408971" lon="103.81770036582098">
        <ele>20.0</ele>
      </trkpt>
      <trkpt lat="1.4147150289916515" lon="103.81761208616072">
        <ele>20.0</ele>
      </trkpt>
      <trkpt lat="1.4147214446241556" lon="103.81752253891653">
        <ele>20.0</ele>
      </trkpt>
      <trkpt lat="1.414725258098107" lon="103.81743276010823">
        <ele>20.0</ele>
      </trkpt>
      <trkpt lat="1.4147290715685599" lon="103.81734298129969">
        <ele>20.22989209848108</ele>
      </trkpt>
      <trkpt lat="1.414732885035514" lon="103.81725320249089">
        <ele>20.825431778944075</ele>
      </trkpt>
      <trkpt lat="1.4147366984989687" lon="103.81716342368182">
        <ele>21.777029514894576</ele>
      </trkpt>
      <trkpt lat="1.4147522533329306" lon="103.81707514635616">
        <ele>22.851824428318395</ele>
      </trkpt>
      <trkpt lat="1.414771443124098" lon="103.81698733386696">
        <ele>23.90420949915701</ele>
      </trkpt>
      <trkpt lat="1.4147977138877763" lon="103.81690142273594">
        <ele>24.941454930669938</ele>
      </trkpt>
      <trkpt lat="1.4148256517051283" lon="103.8168159592354">
        <ele>25.966529502390145</ele>
      </trkpt>
      <trkpt lat="1.414853589519281" lon="103.81673049573286">
        <ele>26.98928475087548</ele>
      </trkpt>
      <trkpt lat="1.4148815273302355" lon="103.81664503222831">
        <ele>28.01203999936082</ele>
      </trkpt>
      <trkpt lat="1.4149094651379905" lon="103.81655956872173">
        <ele>29.03479524784615</ele>
      </trkpt>
      <trkpt lat="1.4149374029425466" lon="103.81647410521315">
        <ele>30.057550496331487</ele>
      </trkpt>
      <trkpt lat="1.414965340743903" lon="103.81638864170256">
        <ele>31.106302567324164</ele>
      </trkpt>
      <trkpt lat="1.4149932785420596" lon="103.81630317818995">
        <ele>32.22303983296346</ele>
      </trkpt>
      <trkpt lat="1.4150212163370162" lon="103.81621771467535">
        <ele>33.407762293249306</ele>
      </trkpt>
      <trkpt lat="1.415049154128773" lon="103.81613225115872">
        <ele>34.63447312567428</ele>
      </trkpt>
      <trkpt lat="1.4150770919173299" lon="103.81604678764009">
        <ele>35.86118395809942</ele>
      </trkpt>
      <trkpt lat="1.4151050297026857" lon="103.81596132411946">
        <ele>37.08789479052455</ele>
      </trkpt>
      <trkpt lat="1.4151329674848412" lon="103.81587586059679">
        <ele>38.316137761332755</ele>
      </trkpt>
      <trkpt lat="1.4151526224022348" lon="103.81578836217763">
        <ele>39.28683949782455</ele>
      </trkpt>
      <trkpt lat="1.4151679874294114" lon="103.81569980983792">
        <ele>39.84863762350796</ele>
      </trkpt>
      <trkpt lat="1.415177326540416" lon="103.81561058506388">
        <ele>40.0</ele>
      </trkpt>
      <trkpt lat="1.4151821130078697" lon="103.81552085225898">
        <ele>40.0</ele>
      </trkpt>
      <trkpt lat="1.415186899471826" lon="103.81543111945376">
        <ele>40.0</ele>
      </trkpt>
      <trkpt lat="1.4151916859322833" lon="103.81534138664821">
        <ele>40.0</ele>
      </trkpt>
      <trkpt lat="1.4151964723892436" lon="103.81525165384235">
        <ele>40.0</ele>
      </trkpt>
      <trkpt lat="1.4152012588427054" lon="103.81516192103616">
        <ele>40.0</ele>
      </trkpt>
      <trkpt lat="1.415176540265788" lon="103.81507575205487">
        <ele>40.0</ele>
      </trkpt>
      <trkpt lat="1.415128477162826" lon="103.81500043659655">
        <ele>40.0</ele>
      </trkpt>
      <trkpt lat="1.4150604974922703" lon="103.81494154008179">
        <ele>40.0</ele>
      </trkpt>
      <trkpt lat="1.4149909829190688" lon="103.81488406094428">
        <ele>40.0</ele>
      </trkpt>
      <trkpt lat="1.4149214683444375" lon="103.81482658181018">
        <ele>40.0</ele>
      </trkpt>
      <trkpt lat="1.4148537733047668" lon="103.81476735706738">
        <ele>40.0</ele>
      </trkpt>
      <trkpt lat="1.4147983970039855" lon="103.81469631407401">
        <ele>40.0</ele>
      </trkpt>
      <trkpt lat="1.4147430207010334" lon="103.81462527108403">
        <ele>40.0</ele>
      </trkpt>
      <trkpt lat="1.4146876443959107" lon="103.81455422809744">
        <ele>40.0</ele>
      </trkpt>
      <trkpt lat="1.4146347158582593" lon="103.81448153473252">
        <ele>40.0</ele>
      </trkpt>
      <trkpt lat="1.4145887318211388" lon="103.81440415911632">
        <ele>40.0</ele>
      </trkpt>
      <trkpt lat="1.4145488380111122" lon="103.81432356492162">
        <ele>40.0</ele>
      </trkpt>
      <trkpt lat="1.4145161337694983" lon="103.8142404634172">
        <ele>40.0</ele>
      </trkpt>
      <trkpt lat="1.4145024514545095" lon="103.81415193055702">
        <ele>40.0</ele>
      </trkpt>
      <trkpt lat="1.4145123673381466" lon="103.81406261360802">
        <ele>40.0</ele>
      </trkpt>
      <trkpt lat="1.414524463732458" lon="103.81397357200831">
        <ele>40.0</ele>
      </trkpt>
      <trkpt lat="1.4145373483127122" lon="103.81388462993831">
        <ele>40.0</ele>
      </trkpt>
      <trkpt lat="1.4145580761417522" lon="103.81379735514066">
        <ele>40.0</ele>
      </trkpt>
      <trkpt lat="1.4145829443871571" lon="103.81371096048787">
        <ele>40.0</ele>
      </trkpt>
      <trkpt lat="1.4146078126292938" lon="103.81362456583327">
        <ele>39.99999999999999</ele>
      </trkpt>
      <trkpt lat="1.4146326808681622" lon="103.81353817117687">
        <ele>40.0</ele>
      </trkpt>
      <trkpt lat="1.4146575491037627" lon="103.81345177651869">
        <ele>40.0</ele>
      </trkpt>
      <trkpt lat="1.414682417336095" lon="103.81336538185869">
        <ele>40.0</ele>
      </trkpt>
      <trkpt lat="1.4147072855651588" lon="103.8132789871969">
        <ele>40.0</ele>
      </trkpt>
      <trkpt lat="1.4147321537909534" lon="103.81319259253331">
        <ele>40.0</ele>
      </trkpt>
      <trkpt lat="1.4147570220134797" lon="103.81310619786792">
        <ele>40.0</ele>
      </trkpt>
      <trkpt lat="1.4147818902327363" lon="103.81301980320075">
        <ele>40.0</ele>
      </trkpt>
      <trkpt lat="1.4148120124445769" lon="103.8129353406059">
        <ele>40.0</ele>
      </trkpt>
      <trkpt lat="1.4148497426113662" lon="103.81285367571527">
        <ele>40.0</ele>
      </trkpt>
      <trkpt lat="1.4148874727752119" lon="103.81277201082203">
        <ele>40.0</ele>
      </trkpt>
      <trkpt lat="1.414925202936114" lon="103.81269034592619">
        <ele>40.0</ele>
      </trkpt>
      <trkpt lat="1.4149629330940718" lon="103.81260868102775">
        <ele>40.0</ele>
      </trkpt>
      <trkpt lat="1.4150006632490855" lon="103.8125270161267">
        <ele>40.0</ele>
      </trkpt>
      <trkpt lat="1.415038393401155" lon="103.81244535122303">
        <ele>40.0</ele>
      </trkpt>
      <trkpt lat="1.4150733200786556" lon="103.81236253240118">
        <ele>40.0</ele>
      </trkpt>
      <trkpt lat="1.415104762883546" lon="103.81227827960802">
        <ele>40.0</ele>
      </trkpt>
      <trkpt lat="1.4151362056853145" lon="103.81219402681263">
        <ele>40.0</ele>
      </trkpt>
      <trkpt lat="1.4151676484839608" lon="103.81210977401503">
        <ele>40.0</ele>
      </trkpt>
      <trkpt lat="1.4151990912794845" lon="103.81202552121518">
        <ele>40.0</ele>
      </trkpt>
      <trkpt lat="1.4152305340718854" lon="103.8119412684131">
        <ele>40.0</ele>
      </trkpt>
      <trkpt lat="1.4152619768611636" lon="103.8118570156088">
        <ele>40.0</ele>
      </trkpt>
      <trkpt lat="1.4152902520435204" lon="103.81177171702772">
        <ele>40.0</ele>
      </trkpt>
      <trkpt lat="1.4153158082801924" lon="103.81168552079437">
        <ele>40.0</ele>
      </trkpt>
      <trkpt lat="1.4153413645136061" lon="103.81159932455915">
        <ele>40.0</ele>
      </trkpt>
      <trkpt lat="1.4153669207437618" lon="103.8115131283221">
        <ele>40.0</ele>
      </trkpt>
      <trkpt lat="1.4153924769706585" lon="103.81142693208322">
        <ele>40.0</ele>
      </trkpt>
      <trkpt lat="1.4154198052387508" lon="103.81134136399953">
        <ele>40.0</ele>
      </trkpt>
      <trkpt lat="1.4154549293660967" lon="103.81125855940297">
        <ele>40.0</ele>
      </trkpt>
      <trkpt lat="1.4154900534904176" lon="103.81117575480395">
        <ele>40.0</ele>
      </trkpt>
      <trkpt lat="1.4155251776117126" lon="103.81109295020248">
        <ele>40.0</ele>
      </trkpt>
      <trkpt lat="1.4155603017299823" lon="103.81101014559854">
        <ele>40.0</ele>
      </trkpt>
      <trkpt lat="1.4155954258452264" lon="103.81092734099217">
        <ele>40.0</ele>
      </trkpt>
      <trkpt lat="1.4156188441551898" lon="103.81084071026402">
        <ele>40.0</ele>
      </trkpt>
      <trkpt lat="1.415640054338498" lon="103.81075335779447">
        <ele>40.0</ele>
      </trkpt>
      <trkpt lat="1.415656808046718" lon="103.81066510604083">
        <ele>40.0</ele>
      </trkpt>
      <trkpt lat="1.4156715725588096" lon="103.81057645288188">
        <ele>40.0</ele>
      </trkpt>
      <trkpt lat="1.4156863370674702" lon="103.81048779972184">
        <ele>40.0</ele>
      </trkpt>
      <trkpt lat="1.4157011015727" lon="103.81039914656077">
        <ele>40.0</ele>
      </trkpt>
      <trkpt lat="1.415713425396409" lon="103.81031030945213">
        <ele>40.0</ele>
      </trkpt>
      <trkpt lat="1.4157122877730155" lon="103.81022045779518">
        <ele>40.0</ele>
      </trkpt>
      <trkpt lat="1.41571115014612" lon="103.81013060613837">
        <ele>40.0</ele>
      </trkpt>
      <trkpt lat="1.4157100125157225" lon="103.81004075448172">
        <ele>40.0</ele>
      </trkpt>
      <trkpt lat="1.4157088748818225" lon="103.8099509028252">
        <ele>40.0</ele>
      </trkpt>
      <trkpt lat="1.4157306056589531" lon="103.80986861022252">
        <ele>40.0</ele>
      </trkpt>
      <trkpt lat="1.4158010159778065" lon="103.80981612418829">
        <ele>40.0</ele>
      </trkpt>
      <trkpt lat="1.4158872208081514" lon="103.80982920394915">
        <ele>40.0</ele>
      </trkpt>
      <trkpt lat="1.4159674533750812" lon="103.80987066840048">
        <ele>40.0</ele>
      </trkpt>
      <trkpt lat="1.4160476859412565" lon="103.80991213285459">
        <ele>40.0</ele>
      </trkpt>
      <trkpt lat="1.4161304771389158" lon="103.8099432">
        <ele>40.0</ele>
      </trkpt>
      <trkpt lat="1.4162111777307549" lon="103.80991078875374">
        <ele>39.99999999999999</ele>
      </trkpt>
      <trkpt lat="1.4162246705316914" lon="103.8098235246863">
        <ele>40.0</ele>
      </trkpt>
      <trkpt lat="1.4162782985415114" lon="103.80975356248881">
        <ele>40.0</ele>
      </trkpt>
      <trkpt lat="1.4163447621940821" lon="103.80969262456358">
        <ele>40.0</ele>
      </trkpt>
      <trkpt lat="1.4163976793682067" lon="103.80962177143469">
        <ele>40.0</ele>
      </trkpt>
      <trkpt lat="1.416436546848576" lon="103.80954063478026">
        <ele>40.0</ele>
      </trkpt>
      <trkpt lat="1.4165061168581368" lon="103.80948865730969">
        <ele>40.0</ele>
      </trkpt>
      <trkpt lat="1.41658990361476" lon="103.8095195588313">
        <ele>40.0</ele>
      </trkpt>
      <trkpt lat="1.4166736511144717" lon="103.80955347433593">
        <ele>40.0</ele>
      </trkpt>
      <trkpt lat="1.4167573986136655" lon="103.80958738984296">
        <ele>40.0</ele>
      </trkpt>
      <trkpt lat="1.4168411461123398" lon="103.80962130535238">
        <ele>40.0</ele>
      </trkpt>
      <trkpt lat="1.4169115705231536" lon="103.80967717511012">
        <ele>40.0</ele>
      </trkpt>
      <trkpt lat="1.4169423665028384" lon="103.80976059732295">
        <ele>40.0</ele>
      </trkpt>
      <trkpt lat="1.4169312472318107" lon="103.80984829259731">
        <ele>40.0</ele>
      </trkpt>
      <trkpt lat="1.4169026397322153" lon="103.80993353716971">
        <ele>40.0</ele>
      </trkpt>
      <trkpt lat="1.4168741099504307" lon="103.81001880645746">
        <ele>40.0</ele>
      </trkpt>
      <trkpt lat="1.4168475847307758" lon="103.81010471324919">
        <ele>40.0</ele>
      </trkpt>
      <trkpt lat="1.416821059507877" lon="103.81019062003902">
        <ele>40.0</ele>
      </trkpt>
      <trkpt lat="1.416789303828386" lon="103.81027428744484">
        <ele>40.0</ele>
      </trkpt>
      <trkpt lat="1.4167446799738597" lon="103.81035244542996">
        <ele>40.0</ele>
      </trkpt>
      <trkpt lat="1.4167000561166145" lon="103.81043060341212">
        <ele>40.0</ele>
      </trkpt>
      <trkpt lat="1.4166620705013462" lon="103.8105119711029">
        <ele>40.0</ele>
      </trkpt>
      <trkpt lat="1.4166277080606748" lon="103.81059509066318">
        <ele>40.0</ele>
      </trkpt>
      <trkpt lat="1.4165933456169528" lon="103.81067821022108">
        <ele>40.0</ele>
      </trkpt>
      <trkpt lat="1.4165551138993797" lon="103.81075936595498">
        <ele>40.0</ele>
      </trkpt>
      <trkpt lat="1.416507478027162" lon="103.81083574867395">
        <ele>40.0</ele>
      </trkpt>
      <trkpt lat="1.4164598421523407" lon="103.81091213138981">
        <ele>40.0</ele>
      </trkpt>
      <trkpt lat="1.4164129582766203" lon="103.81098880861708">
        <ele>40.0</ele>
      </trkpt>
      <trkpt lat="1.4163954232376286" lon="103.81107696198423">
        <ele>40.0</ele>
      </trkpt>
      <trkpt lat="1.416378143645941" lon="103.81116516527335">
        <ele>40.0</ele>
      </trkpt>
      <trkpt lat="1.4163363944376557" lon="103.81124310556531">
        <ele>40.0</ele>
      </trkpt>
      <trkpt lat="1.4162675243651623" lon="103.81130128221167">
        <ele>40.0</ele>
      </trkpt>
      <trkpt lat="1.4162134642229596" lon="103.81137254927854">
        <ele>40.0</ele>
      </trkpt>
      <trkpt lat="1.4161783386473934" lon="103.81145521734508">
        <ele>40.0</ele>
      </trkpt>
      <trkpt lat="1.416144419383795" lon="103.8115385164095">
        <ele>40.0</ele>
      </trkpt>
      <trkpt lat="1.4161105977302613" lon="103.81162185429407">
        <ele>40.0</ele>
      </trkpt>
      <trkpt lat="1.4160550890960515" lon="103.81168705305414">
        <ele>40.0</ele>
      </trkpt>
      <trkpt lat="1.4159808827240288" lon="103.8117384157826">
        <ele>40.0</ele>
      </trkpt>
      <trkpt lat="1.4159218749369498" lon="103.81180470389977">
        <ele>40.0</ele>
      </trkpt>
      <trkpt lat="1.4158911747838607" lon="103.81188900906618">
        <ele>40.0</ele>
      </trkpt>
      <trkpt lat="1.4158500981939943" lon="103.81196906403113">
        <ele>40.0</ele>
      </trkpt>
      <trkpt lat="1.4158584315602765" lon="103.81205025171289">
        <ele>40.0</ele>
      </trkpt>
      <trkpt lat="1.4159394479136829" lon="103.81208634228935">
        <ele>40.0</ele>
      </trkpt>
      <trkpt lat="1.4160242203400326" lon="103.8121162836295">
        <ele>40.0</ele>
      </trkpt>
      <trkpt lat="1.4160929446421149" lon="103.81217334464169">
        <ele>40.0</ele>
      </trkpt>
      <trkpt lat="1.4161502076762402" lon="103.81224273491522">
        <ele>40.0</ele>
      </trkpt>
      <trkpt lat="1.4162234965888305" lon="103.81229233243702">
        <ele>40.0</ele>
      </trkpt>
      <trkpt lat="1.416310512440208" lon="103.81229125347475">
        <ele>40.0</ele>
      </trkpt>
      <trkpt lat="1.4163755800248585" lon="103.81222884578622">
        <ele>40.0</ele>
      </trkpt>
      <trkpt lat="1.4164406476077294" lon="103.81216643809421">
        <ele>40.0</ele>
      </trkpt>
      <trkpt lat="1.4165056915108127" lon="103.81210400655048">
        <ele>40.0</ele>
      </trkpt>
      <trkpt lat="1.4165658446839555" lon="103.81203779404701">
        <ele>40.0</ele>
      </trkpt>
      <trkpt lat="1.4166029906875757" lon="103.8119558651313">
        <ele>40.0</ele>
      </trkpt>
      <trkpt lat="1.4166401366882295" lon="103.811873936213">
        <ele>40.0</ele>
      </trkpt>
      <trkpt lat="1.4166772826859158" lon="103.81179200729215">
        <ele>40.0</ele>
      </trkpt>
      <trkpt lat="1.4167144286806355" lon="103.81171007836872">
        <ele>39.99999999999999</ele>
      </trkpt>
      <trkpt lat="1.4167549994252269" lon="103.81163010437271">
        <ele>40.0</ele>
      </trkpt>
      <trkpt lat="1.4168078685802936" lon="103.81155722554645">
        <ele>40.0</ele>
      </trkpt>
      <trkpt lat="1.4168673867712214" lon="103.81148956984558">
        <ele>40.0</ele>
      </trkpt>
      <trkpt lat="1.416926904960077" lon="103.81142191414128">
        <ele>40.0</ele>
      </trkpt>
      <trkpt lat="1.4169854226113738" lon="103.81135353627441">
        <ele>40.0</ele>
      </trkpt>
      <trkpt lat="1.4170183244623902" lon="103.81127179307963">
        <ele>40.0</ele>
      </trkpt>
      <trkpt lat="1.4170239332471024" lon="103.81118219292007">
        <ele>40.0</ele>
      </trkpt>
      <trkpt lat="1.4170136980745969" lon="103.81109333895184">
        <ele>40.0</ele>
      </trkpt>
      <trkpt lat="1.4169975693231132" lon="103.81100492072706">
        <ele>40.0</ele>
      </trkpt>
      <trkpt lat="1.4169814405682506" lon="103.81091650250355">
        <ele>40.0</ele>
      </trkpt>
      <trkpt lat="1.4169653118100096" lon="103.81082808428133">
        <ele>40.0</ele>
      </trkpt>
      <trkpt lat="1.4169483046476627" lon="103.81073997555318">
        <ele>40.0</ele>
      </trkpt>
      <trkpt lat="1.4169047699960482" lon="103.81066121343389">
        <ele>40.0</ele>
      </trkpt>
      <trkpt lat="1.4168688723094554" lon="103.81057928001431">
        <ele>40.0</ele>
      </trkpt>
      <trkpt lat="1.4168430556808658" lon="103.81049316036714">
        <ele>40.0</ele>
      </trkpt>
      <trkpt lat="1.4168598858200823" lon="103.81040635152137">
        <ele>40.0</ele>
      </trkpt>
      <trkpt lat="1.4168828701418437" lon="103.81031944321836">
        <ele>40.0</ele>
      </trkpt>
      <trkpt lat="1.4169111782393737" lon="103.81023495210833">
        <ele>40.0</ele>
      </trkpt>
      <trkpt lat="1.4169653135322324" lon="103.81016373156908">
        <ele>40.0</ele>
      </trkpt>
      <trkpt lat="1.4170381516204593" lon="103.8101104702445">
        <ele>40.0</ele>
      </trkpt>
      <trkpt lat="1.4171109897073526" lon="103.81005720891656">
        <ele>40.0</ele>
      </trkpt>
      <trkpt lat="1.4171755026185233" lon="103.80999684739236">
        <ele>40.0</ele>
      </trkpt>
      <trkpt lat="1.4172174462572276" lon="103.80991723747881">
        <ele>40.0</ele>
      </trkpt>
      <trkpt lat="1.4172593898931156" lon="103.80983762756249">
        <ele>40.0</ele>
      </trkpt>
      <trkpt lat="1.417301540068783" lon="103.80975812756803">
        <ele>40.0</ele>
      </trkpt>
      <trkpt lat="1.4173492851404046" lon="103.80968300486057">
        <ele>39.99999999999999</ele>
      </trkpt>
      <trkpt lat="1.41742144653379" lon="103.80962884176712">
        <ele>40.0</ele>
      </trkpt>
      <trkpt lat="1.4174936079257987" lon="103.8095746786703">
        <ele>40.0</ele>
      </trkpt>
      <trkpt lat="1.417568894791282" lon="103.80952825257911">
        <ele>40.0</ele>
      </trkpt>
      <trkpt lat="1.4176565801078158" lon="103.80953640575599">
        <ele>40.0</ele>
      </trkpt>
      <trkpt lat="1.4177378567790628" lon="103.80957370806483">
        <ele>40.0</ele>
      </trkpt>
      <trkpt lat="1.4178127645317802" lon="103.80953050949846">
        <ele>40.0</ele>
      </trkpt>
      <trkpt lat="1.4178764760712903" lon="103.80946673543473">
        <ele>40.0</ele>
      </trkpt>
      <trkpt lat="1.417957251121193" lon="103.8094536883236">
        <ele>40.0</ele>
      </trkpt>
      <trkpt lat="1.4180336945747423" lon="103.80950170299442">
        <ele>40.0</ele>
      </trkpt>
      <trkpt lat="1.418110138027293" lon="103.80954971766836">
        <ele>40.0</ele>
      </trkpt>
      <trkpt lat="1.418185338962755" lon="103.80959951642407">
        <ele>40.0</ele>
      </trkpt>
      <trkpt lat="1.4182391108979677" lon="103.80966993226937">
        <ele>40.0</ele>
      </trkpt>
      <trkpt lat="1.4182790279191564" lon="103.80975054575781">
        <ele>40.0</ele>
      </trkpt>
      <trkpt lat="1.4183102239208547" lon="103.80983431043735">
        <ele>40.0</ele>
      </trkpt>
      <trkpt lat="1.4183308960238388" lon="103.80992179026673">
        <ele>40.0</ele>
      </trkpt>
      <trkpt lat="1.4183515681235181" lon="103.81000927009774">
        <ele>40.0</ele>
      </trkpt>
      <trkpt lat="1.4183722402198924" lon="103.81009674993034">
        <ele>40.0</ele>
      </trkpt>
      <trkpt lat="1.4183929123129615" lon="103.81018422976454">
        <ele>40.0</ele>
      </trkpt>
      <trkpt lat="1.4184135844027248" lon="103.81027170960034">
        <ele>40.0</ele>
      </trkpt>
      <trkpt lat="1.4184342564891828" lon="103.81035918943776">
        <ele>40.0</ele>
      </trkpt>
      <trkpt lat="1.418454928572335" lon="103.81044666927677">
        <ele>40.0</ele>
      </trkpt>
      <trkpt lat="1.418475276883035" lon="103.81053416358802">
        <ele>40.0</ele>
      </trkpt>
      <trkpt lat="1.4184625928251398" lon="103.8106231342572">
        <ele>40.0</ele>
      </trkpt>
      <trkpt lat="1.4184499087637858" lon="103.81071210492547">
        <ele>40.0</ele>
      </trkpt>
      <trkpt lat="1.4184324180900374" lon="103.8107998875502">
        <ele>40.0</ele>
      </trkpt>
      <trkpt lat="1.4184016712344123" lon="103.81088439366266">
        <ele>40.0</ele>
      </trkpt>
      <trkpt lat="1.4183660847692725" lon="103.81096609213445">
        <ele>40.0</ele>
      </trkpt>
      <trkpt lat="1.4183071322038459" lon="103.81103423504733">
        <ele>40.0</ele>
      </trkpt>
      <trkpt lat="1.418248179636315" lon="103.81110237795676">
        <ele>40.0</ele>
      </trkpt>
      <trkpt lat="1.4181892270666812" lon="103.81117052086275">
        <ele>40.0</ele>
      </trkpt>
      <trkpt lat="1.4181302744949433" lon="103.81123866376531">
        <ele>40.0</ele>
      </trkpt>
      <trkpt lat="1.4180713219211025" lon="103.81130680666442">
        <ele>40.0</ele>
      </trkpt>
      <trkpt lat="1.418012369345159" lon="103.81137494956009">
        <ele>40.0</ele>
      </trkpt>
      <trkpt lat="1.417953416767113" lon="103.81144309245232">
        <ele>40.0</ele>
      </trkpt>
      <trkpt lat="1.4178944641869642" lon="103.81151123534111">
        <ele>40.0</ele>
      </trkpt>
      <trkpt lat="1.4178355116047134" lon="103.81157937822647">
        <ele>40.0</ele>
      </trkpt>
      <trkpt lat="1.4177672995172546" lon="103.81163801290452">
        <ele>40.0</ele>
      </trkpt>
      <trkpt lat="1.417690242254919" lon="103.81168480042402">
        <ele>40.0</ele>
      </trkpt>
      <trkpt lat="1.41761203427499" lon="103.81172992243594">
        <ele>40.0</ele>
      </trkpt>
      <trkpt lat="1.417533826294075" lon="103.8117750444448">
        <ele>40.0</ele>
      </trkpt>
      <trkpt lat="1.417455786443314" lon="103.81182043052839">
        <ele>40.0</ele>
      </trkpt>
      <trkpt lat="1.4173812496895302" lon="103.8118713188038">
        <ele>40.0</ele>
      </trkpt>
      <trkpt lat="1.4173107204190625" lon="103.81192728448184">
        <ele>40.0</ele>
      </trkpt>
      <trkpt lat="1.4172432141526283" lon="103.81198708024644">
        <ele>40.0</ele>
      </trkpt>
      <trkpt lat="1.4171757078845482" lon="103.81204687600757">
        <ele>40.0</ele>
      </trkpt>
      <trkpt lat="1.4171082016148226" lon="103.81210667176524">
        <ele>40.0</ele>
      </trkpt>
      <trkpt lat="1.417036382314827" lon="103.81216114451094">
        <ele>40.0</ele>
      </trkpt>
      <trkpt lat="1.416963178782773" lon="103.81221390887792">
        <ele>40.0</ele>
      </trkpt>
      <trkpt lat="1.4168882067623485" lon="103.8122638600681">
        <ele>40.0</ele>
      </trkpt>
      <trkpt lat="1.4168083726949774" lon="103.8123060770858">
        <ele>40.0</ele>
      </trkpt>
      <trkpt lat="1.4167285386267332" lon="103.81234829410057">
        <ele>40.0</ele>
      </trkpt>
      <trkpt lat="1.4166487045576168" lon="103.81239051111243">
        <ele>40.0</ele>
      </trkpt>
      <trkpt lat="1.4165688704876283" lon="103.81243272812137">
        <ele>40.0</ele>
      </trkpt>
      <trkpt lat="1.4164890364167668" lon="103.8124749451274">
        <ele>40.0</ele>
      </trkpt>
      <trkpt lat="1.4164092023450334" lon="103.8125171621305">
        <ele>40.0</ele>
      </trkpt>
      <trkpt lat="1.4163293682724278" lon="103.81255937913068">
        <ele>40.0</ele>
      </trkpt>
      <trkpt lat="1.4162508993915643" lon="103.81260333387876">
        <ele>40.0</ele>
      </trkpt>
      <trkpt lat="1.4162427961226183" lon="103.81267809812617">
        <ele>40.0</ele>
      </trkpt>
      <trkpt lat="1.4163190360177957" lon="103.81272506706418">
        <ele>40.00000000000001</ele>
      </trkpt>
      <trkpt lat="1.4164002398076807" lon="103.81276462091733">
        <ele>40.0</ele>
      </trkpt>
      <trkpt lat="1.4164810517748738" lon="103.81280481188264">
        <ele>40.0</ele>
      </trkpt>
      <trkpt lat="1.4165532800519407" lon="103.81285885899108">
        <ele>40.0</ele>
      </trkpt>
      <trkpt lat="1.4166204501338524" lon="103.81291902734758">
        <ele>40.0</ele>
      </trkpt>
      <trkpt lat="1.4166876202142036" lon="103.81297919570754">
        <ele>40.0</ele>
      </trkpt>
      <trkpt lat="1.4167547902929936" lon="103.81303936407096">
        <ele>40.0</ele>
      </trkpt>
      <trkpt lat="1.4168219603702223" lon="103.81309953243783">
        <ele>40.0</ele>
      </trkpt>
      <trkpt lat="1.4168891304458895" lon="103.81315970080819">
        <ele>40.0</ele>
      </trkpt>
      <trkpt lat="1.4169563005199959" lon="103.81321986918198">
        <ele>40.0</ele>
      </trkpt>
      <trkpt lat="1.4170234705925404" lon="103.81328003755924">
        <ele>40.0</ele>
      </trkpt>
      <trkpt lat="1.4170906406635226" lon="103.81334020593997">
        <ele>40.0</ele>
      </trkpt>
      <trkpt lat="1.417157810732943" lon="103.81340037432416">
        <ele>40.0</ele>
      </trkpt>
      <trkpt lat="1.4172248385734119" lon="103.81346069604074">
        <ele>40.0</ele>
      </trkpt>
      <trkpt lat="1.4172906594387025" lon="103.81352231894459">
        <ele>40.0</ele>
      </trkpt>
      <trkpt lat="1.41732176657456" lon="103.81360487709097">
        <ele>40.0</ele>
      </trkpt>
      <trkpt lat="1.4173174662486074" lon="103.81369451118253">
        <ele>40.0</ele>
      </trkpt>
      <trkpt lat="1.4173064084657476" lon="103.81378368013947">
        <ele>40.0</ele>
      </trkpt>
      <trkpt lat="1.417294883379894" lon="103.81387280630214">
        <ele>40.0</ele>
      </trkpt>
      <trkpt lat="1.4172833582905762" lon="103.813961932464">
        <ele>40.0</ele>
      </trkpt>
      <trkpt lat="1.4172718331977938" lon="103.81405105862501">
        <ele>40.0</ele>
      </trkpt>
      <trkpt lat="1.4172603081015471" lon="103.81414018478517">
        <ele>40.0</ele>
      </trkpt>
      <trkpt lat="1.4172487830018357" lon="103.81422931094453">
        <ele>40.0</ele>
      </trkpt>
      <trkpt lat="1.4172372578986605" lon="103.81431843710303">
        <ele>40.0</ele>
      </trkpt>
      <trkpt lat="1.4172257327920212" lon="103.81440756326069">
        <ele>40.0</ele>
      </trkpt>
      <trkpt lat="1.4172142076819174" lon="103.81449668941752">
        <ele>39.660017489967636</ele>
      </trkpt>
      <trkpt lat="1.41720268256835" lon="103.81458581557352">
        <ele>38.952652518501715</ele>
      </trkpt>
      <trkpt lat="1.4171956379596196" lon="103.8146752679929">
        <ele>37.99479500206407</ele>
      </trkpt>
      <trkpt lat="1.4171939627021826" lon="103.81476511140072">
        <ele>37.20841446728973</ele>
      </trkpt>
      <trkpt lat="1.41719920578535" lon="103.81485477005504">
        <ele>36.62522988856666</ele>
      </trkpt>
      <trkpt lat="1.4172057355131" lon="103.8149443943501">
        <ele>36.12835134943304</ele>
      </trkpt>
      <trkpt lat="1.4172122652373667" lon="103.8150340186457">
        <ele>35.60325504271818</ele>
      </trkpt>
      <trkpt lat="1.4172087598472338" lon="103.81512335647336">
        <ele>34.92679872195629</ele>
      </trkpt>
      <trkpt lat="1.4171592042964551" lon="103.81519667026755">
        <ele>34.08372596615295</ele>
      </trkpt>
      <trkpt lat="1.417103388539671" lon="103.81526737298972">
        <ele>33.106554143175266</ele>
      </trkpt>
      <trkpt lat="1.4170475612578182" lon="103.81533806672438">
        <ele>32.11408240888087</ele>
      </trkpt>
      <trkpt lat="1.4169917196952246" lon="103.81540874932296">
        <ele>31.121567184263913</ele>
      </trkpt>
      <trkpt lat="1.4169358781303902" lon="103.81547943191816">
        <ele>30.129027892025558</ele>
      </trkpt>
      <trkpt lat="1.4168800365633156" lon="103.81555011450999">
        <ele>29.136488599787196</ele>
      </trkpt>
      <trkpt lat="1.4168241949940015" lon="103.81562079709845">
        <ele>28.47186153159134</ele>
      </trkpt>
      <trkpt lat="1.416823699746977" lon="103.81562142396729">
        <ele>28.139547997495114</ele>
      </trkpt>
      <trkpt lat="1.416802168236543" lon="103.8157086988374">
        <ele>27.37926578865654</ele>
      </trkpt>
      <trkpt lat="1.4167806367227767" lon="103.81579597370593">
        <ele>26.572963006973783</ele>
      </trkpt>
      <trkpt lat="1.4167382062952307" lon="103.81587428586047">
        <ele>25.709221432828006</ele>
      </trkpt>
      <trkpt lat="1.416693527022328" lon="103.81595240136323">
        <ele>24.860761973101887</ele>
      </trkpt>
      <trkpt lat="1.4166754884057795" lon="103.81603786658633">
        <ele>24.214125823100407</ele>
      </trkpt>
      <trkpt lat="1.4167034931556226" lon="103.81612330852501">
        <ele>23.742647250857758</ele>
      </trkpt>
      <trkpt lat="1.4167265090821344" lon="103.81620976525194">
        <ele>23.288969609872414</ele>
      </trkpt>
      <trkpt lat="1.4167240694790098" lon="103.81629917213219">
        <ele>22.69497682873214</ele>
      </trkpt>
      <trkpt lat="1.4167143680233745" lon="103.81638851241226">
        <ele>21.99435154896403</ele>
      </trkpt>
      <trkpt lat="1.4167046665642626" lon="103.81647785269162">
        <ele>21.20463826747368</ele>
      </trkpt>
      <trkpt lat="1.416665599778648" lon="103.81655768046537">
        <ele>20.539854417818933</ele>
      </trkpt>
      <trkpt lat="1.4166582597922106" lon="103.81664458192616">
        <ele>20.115944581089938</ele>
      </trkpt>
      <trkpt lat="1.4166380947403507" lon="103.81672972233721">
        <ele>20.0</ele>
      </trkpt>
      <trkpt lat="1.4165835160801508" lon="103.81679896847787">
        <ele>20.0</ele>
      </trkpt>
      <trkpt lat="1.4165475000001566" lon="103.81687286434726">
        <ele>20.0</ele>
      </trkpt>
      <trkpt lat="1.4165737524513076" lon="103.81695764057844">
        <ele>20.0</ele>
      </trkpt>
      <trkpt lat="1.4165838225060094" lon="103.81704666646938">
        <ele>20.0</ele>
      </trkpt>
      <trkpt lat="1.4165867349417363" lon="103.81713647866447">
        <ele>20.0</ele>
      </trkpt>
      <trkpt lat="1.416589647373964" lon="103.81722629085982">
        <ele>20.0</ele>
      </trkpt>
      <trkpt lat="1.416595355500545" lon="103.81731595545905">
        <ele>20.0</ele>
      </trkpt>
      <trkpt lat="1.4166020378393602" lon="103.81740556862596">
        <ele>20.0</ele>
      </trkpt>
      <trkpt lat="1.4165937333125016" lon="103.81749460220954">
        <ele>20.0</ele>
      </trkpt>
      <trkpt lat="1.4165780887233022" lon="103.81758308860856">
        <ele>20.0</ele>
      </trkpt>
      <trkpt lat="1.4165608861813548" lon="103.8176713067759">
        <ele>20.0</ele>
      </trkpt>
      <trkpt lat="1.4165442353938307" lon="103.81775960436387">
        <ele>20.0</ele>
      </trkpt>
      <trkpt lat="1.4165355351255586" lon="103.81784904637595">
        <ele>20.0</ele>
      </trkpt>
      <trkpt lat="1.416533448795801" lon="103.81793883363818">
        <ele>20.0</ele>
      </trkpt>
      <trkpt lat="1.416532668952297" lon="103.81802868909969">
        <ele>20.0</ele>
      </trkpt>
      <trkpt lat="1.4165318891052867" lon="103.81811854456119">
        <ele>20.0</ele>
      </trkpt>
      <trkpt lat="1.4165357884844674" lon="103.81820811628205">
        <ele>20.0</ele>
      </trkpt>
      <trkpt lat="1.4165475594979404" lon="103.81829721068073">
        <ele>20.0</ele>
      </trkpt>
      <trkpt lat="1.4165292497132977" lon="103.81838460661676">
        <ele>20.0</ele>
      </trkpt>
      <trkpt lat="1.4164883719387003" lon="103.8184646671014">
        <ele>20.0</ele>
      </trkpt>
      <trkpt lat="1.4164126064993907" lon="103.8185124603435">
        <ele>20.0</ele>
      </trkpt>
      <trkpt lat="1.4163670308192355" lon="103.81858794289305">
        <ele>20.0</ele>
      </trkpt>
      <trkpt lat="1.4163325456102533" lon="103.8186710122353">
        <ele>20.0</ele>
      </trkpt>
      <trkpt lat="1.4162932491516145" lon="103.81875180056034">
        <ele>20.0</ele>
      </trkpt>
      <trkpt lat="1.4162438656980465" lon="103.81882672061234">
        <ele>20.000000000000004</ele>
      </trkpt>
      <trkpt lat="1.4161929917428648" lon="103.81890072547414">
        <ele>20.0</ele>
      </trkpt>
      <trkpt lat="1.4161432547562476" lon="103.8189748316114">
        <ele>20.0</ele>
      </trkpt>
      <trkpt lat="1.4160645309917768" lon="103.81901765257521">
        <ele>20.0</ele>
      </trkpt>
      <trkpt lat="1.4160107824341983" lon="103.8190880174763">
        <ele>20.0</ele>
      </trkpt>
      <trkpt lat="1.4159537987482926" lon="103.8191577943069">
        <ele>20.0</ele>
      </trkpt>
      <trkpt lat="1.4158968150602107" lon="103.81922757113409">
        <ele>20.0</ele>
      </trkpt>
      <trkpt lat="1.4158264582408264" lon="103.81928287023808">
        <ele>20.0</ele>
      </trkpt>
      <trkpt lat="1.4157506723148565" lon="103.81933153782184">
        <ele>19.999999999999996</ele>
      </trkpt>
      <trkpt lat="1.4156665291555897" lon="103.81936447230025">
        <ele>20.0</ele>
      </trkpt>
      <trkpt lat="1.415578946703563" lon="103.81938441712298">
        <ele>20.0</ele>
      </trkpt>
      <trkpt lat="1.4155580683544293" lon="103.8193873245437">
        <ele>20.0</ele>
      </trkpt>
      <trkpt lat="1.4155296660993484" lon="103.8193020122854">
        <ele>20.0</ele>
      </trkpt>
      <trkpt lat="1.4155019880435498" lon="103.819216465866">
        <ele>20.0</ele>
      </trkpt>
      <trkpt lat="1.4154535184063093" lon="103.81914855614808">
        <ele>20.0</ele>
      </trkpt>
      <trkpt lat="1.415365107510071" lon="103.81914994648439">
        <ele>20.0</ele>
      </trkpt>
      <trkpt lat="1.4152953000001527" lon="103.81911340607225">
        <ele>20.0</ele>
      </trkpt>
      <trkpt lat="1.4153006722018888" lon="103.81902410659555">
        <ele>20.0</ele>
      </trkpt>
      <trkpt lat="1.4153194174067716" lon="103.81893619932825">
        <ele>20.0</ele>
      </trkpt>
      <trkpt lat="1.4153381626082846" lon="103.81884829205957">
        <ele>20.0</ele>
      </trkpt>
      <trkpt lat="1.415367408094197" lon="103.81876379499401">
        <ele>20.0</ele>
      </trkpt>
      <trkpt lat="1.4154045352023974" lon="103.81868185766118">
        <ele>20.0</ele>
      </trkpt>
      <trkpt lat="1.4154314980815648" lon="103.81859680612314">
        <ele>20.0</ele>
      </trkpt>
      <trkpt lat="1.4154461581395412" lon="103.81850819039165">
        <ele>20.0</ele>
      </trkpt>
      <trkpt lat="1.4154520538526711" lon="103.81841852278275">
        <ele>20.0</ele>
      </trkpt>
      <trkpt lat="1.4154579495623072" lon="103.81832885517345">
        <ele>20.0</ele>
      </trkpt>
      <trkpt lat="1.41546686520197" lon="103.81823944389097">
        <ele>20.0</ele>
      </trkpt>
      <trkpt lat="1.4154878023074022" lon="103.81815309137039">
        <ele>20.0</ele>
      </trkpt>
      <trkpt lat="1.4155401736437108" lon="103.81808144229363">
        <ele>20.0</ele>
      </trkpt>
      <trkpt lat="1.4156126165764316" lon="103.81803127398689">
        <ele>20.0</ele>
      </trkpt>
      <trkpt lat="1.4156922963961074" lon="103.81799073451992">
        <ele>20.0</ele>
      </trkpt>
      <trkpt lat="1.4157375334530593" lon="103.81791381002954">
        <ele>20.0</ele>
      </trkpt>
      <trkpt lat="1.4157813065563962" lon="103.8178354292679">
        <ele>20.0</ele>
      </trkpt>
      <trkpt lat="1.415836457628962" lon="103.81776512524263">
        <ele>20.0</ele>
      </trkpt>
      <trkpt lat="1.415868421283149" lon="103.81768106613498">
        <ele>20.0</ele>
      </trkpt>
      <trkpt lat="1.4159003849342346" lon="103.81759700702506">
        <ele>20.0</ele>
      </trkpt>
      <trkpt lat="1.4159162994568915" lon="103.8175087467619">
        <ele>20.0</ele>
      </trkpt>
      <trkpt lat="1.4159065949991934" lon="103.81741992300051">
        <ele>20.0</ele>
      </trkpt>
      <trkpt lat="1.4158750813202663" lon="103.81733627936379">
        <ele>20.0</ele>
      </trkpt>
      <trkpt lat="1.4158867982864336" lon="103.81724717795748">
        <ele>20.0</ele>
      </trkpt>
      <trkpt lat="1.4159411687921686" lon="103.81717694459718">
        <ele>20.0</ele>
      </trkpt>
      <trkpt lat="1.4159743279698953" lon="103.81709488691247">
        <ele>20.0</ele>
      </trkpt>
      <trkpt lat="1.4159928388948406" lon="103.81700813602453">
        <ele>20.0</ele>
      </trkpt>
      <trkpt lat="1.4159803126205621" lon="103.8169191433795">
        <ele>20.000000000000004</ele>
      </trkpt>
      <trkpt lat="1.4159692715912535" lon="103.81683024392825">
        <ele>20.0</ele>
      </trkpt>
      <trkpt lat="1.415992965260656" lon="103.81674352392665">
        <ele>20.0</ele>
      </trkpt>
      <trkpt lat="1.4160207888874228" lon="103.81665823827102">
        <ele>20.0</ele>
      </trkpt>
      <trkpt lat="1.4160474464998596" lon="103.81657274207433">
        <ele>20.404326018106712</ele>
      </trkpt>
      <trkpt lat="1.4160449240525463" lon="103.81648432770591">
        <ele>21.3285065686067</ele>
      </trkpt>
      <trkpt lat="1.4160181438022357" lon="103.81639863140546">
        <ele>22.674744696043387</ele>
      </trkpt>
      <trkpt lat="1.4160229975059975" lon="103.81631096757903">
        <ele>23.873589525794376</ele>
      </trkpt>
      <trkpt lat="1.416064341485655" lon="103.81623149101382">
        <ele>24.876143288198374</ele>
      </trkpt>
      <trkpt lat="1.4160892282661528" lon="103.8161462719229">
        <ele>25.422585947863325</ele>
      </trkpt>
      <trkpt lat="1.4161069085640374" lon="103.8160581470768">
        <ele>25.678042361304563</ele>
      </trkpt>
      <trkpt lat="1.4161245888585312" lon="103.81597002222942">
        <ele>25.847066651328273</ele>
      </trkpt>
      <trkpt lat="1.4161422691496344" lon="103.81588189738072">
        <ele>26.399835533303946</ele>
      </trkpt>
      <trkpt lat="1.4161599494373474" lon="103.81579377253074">
        <ele>27.33634900723187</ele>
      </trkpt>
      <trkpt lat="1.4161776297216693" lon="103.81570564767947">
        <ele>28.38542220568067</ele>
      </trkpt>
      <trkpt lat="1.4161953100026001" lon="103.81561752282688">
        <ele>29.434495404129404</ele>
      </trkpt>
      <trkpt lat="1.4162129902801401" lon="103.81552939797301">
        <ele>30.38591356568934</ele>
      </trkpt>
      <trkpt lat="1.4162257331456103" lon="103.81546588294309">
        <ele>30.86162264646927</ele>
      </trkpt>
      <trkpt lat="1.4161388722643826" lon="103.81548038413142">
        <ele>31.225186486898263</ele>
      </trkpt>
      <trkpt lat="1.4160595681282526" lon="103.81552354023245">
        <ele>31.0745606134341</ele>
      </trkpt>
      <trkpt lat="1.4159810933433767" lon="103.8155682025455">
        <ele>30.70066583759369</ele>
      </trkpt>
      <trkpt lat="1.4159164321882987" lon="103.81562987596261">
        <ele>30.483785294630806</ele>
      </trkpt>
      <trkpt lat="1.4158562708582283" lon="103.81569693132072">
        <ele>30.590661830912836</ele>
      </trkpt>
      <trkpt lat="1.4158045138261317" lon="103.81577061930072">
        <ele>31.050117972680514</ele>
      </trkpt>
      <trkpt lat="1.415763098451157" lon="103.81584888604178">
        <ele>31.46909125226172</ele>
      </trkpt>
      <trkpt lat="1.415746964588666" lon="103.81593703140203">
        <ele>31.491831462328822</ele>
      </trkpt>
      <trkpt lat="1.4157416531875293" lon="103.8160267350641">
        <ele>30.99326789545916</ele>
      </trkpt>
      <trkpt lat="1.4157186951212877" lon="103.81611308215409">
        <ele>30.13877716927138</ele>
      </trkpt>
      <trkpt lat="1.4156902877170587" lon="103.81619839272419">
        <ele>29.07598924302251</ele>
      </trkpt>
      <trkpt lat="1.4156729853973546" lon="103.81628587336492">
        <ele>27.944275973725862</ele>
      </trkpt>
      <trkpt lat="1.4156667631925242" lon="103.81637551919816">
        <ele>26.801920484273932</ele>
      </trkpt>
      <trkpt lat="1.4156561635003257" lon="103.81646472569706">
        <ele>25.70400611560505</ele>
      </trkpt>
      <trkpt lat="1.4156442179164122" lon="103.81655379711883">
        <ele>24.767850220481165</ele>
      </trkpt>
      <trkpt lat="1.4156186631635082" lon="103.81663961364187">
        <ele>23.93622275061837</ele>
      </trkpt>
      <trkpt lat="1.415588507954492" lon="103.8167243298747">
        <ele>23.20268410154608</ele>
      </trkpt>
      <trkpt lat="1.415558352742328" lon="103.81680904610539">
        <ele>22.493926477045637</ele>
      </trkpt>
      <trkpt lat="1.4155281975270162" lon="103.81689376233392">
        <ele>21.78516885254507</ele>
      </trkpt>
      <trkpt lat="1.415498042308556" lon="103.81697847856027">
        <ele>21.07641122804449</ele>
      </trkpt>
      <trkpt lat="1.4154678870869484" lon="103.8170631947845">
        <ele>20.48135494386266</ele>
      </trkpt>
      <trkpt lat="1.4154377318621938" lon="103.81714791100654">
        <ele>20.122551201181164</ele>
      </trkpt>
      <trkpt lat="1.4154075766342915" lon="103.81723262722645">
        <ele>20.0</ele>
      </trkpt>
      <trkpt lat="1.4153774214032422" lon="103.81731734344417">
        <ele>20.0</ele>
      </trkpt>
      <trkpt lat="1.4153472661690463" lon="103.81740205965976">
        <ele>20.0</ele>
      </trkpt>
      <trkpt lat="1.4153081755504602" lon="103.81748253783114">
        <ele>20.0</ele>
      </trkpt>
      <trkpt lat="1.4152385126966285" lon="103.8175369069436">
        <ele>20.0</ele>
      </trkpt>
      <trkpt lat="1.4151488138073254" lon="103.81754835937926">
        <ele>20.0</ele>
      </trkpt>
      <trkpt lat="1.4150594099582816" lon="103.81756181035591">
        <ele>20.0</ele>
      </trkpt>
      <trkpt lat="1.414970179595848" lon="103.81757643649458">
        <ele>20.0</ele>
      </trkpt>
      <trkpt lat="1.4148848458808523" lon="103.8176052546795">
        <ele>20.0</ele>
      </trkpt>
      <trkpt lat="1.4148005023136967" lon="103.81763767909852">
        <ele>20.0</ele>
      </trkpt>
      <trkpt lat="1.414716158745997" lon="103.81767010351518">
        <ele>20.0</ele>
      </trkpt>
      <trkpt lat="1.4147065082955168" lon="103.81767381346275">
        <ele>20.0</ele>
      </trkpt>
    </trkseg>
  </trk>
</gpx>