<?xml version="1.0" encoding="UTF-8"?>
<gpx xmlns="http://www.topografix.com/GPX/1/1" xmlns:xsi="http://www.w3.org/2001/XMLSchema-instance" xsi:schemaLocation="http://www.topografix.com/GPX/1/1 http://www.topografix.com/GPX/1/1/gpx.xsd" version="1.1" creator="gpx.py -- https://github.com/tkrajina/gpxpy">
  <trk>
    <name>point_to_point_05000m_023</name>
    <trkseg>
      <trkpt lat="1.3969666131670635" lon="103.92144000405506">
        <ele>1.17312200903377</ele>
      </trkpt>
      <trkpt lat="1.3969337951338867" lon="103.92152347831035">
        <ele>1.072017509578203</ele>
      </trkpt>
      <trkpt lat="1.3968703408713956" lon="103.9215838111077">
        <ele>0.8822042287399784</ele>
      </trkpt>
      <trkpt lat="1.39679787394607" lon="103.92163756934494">
        <ele>0.8111670216264409</ele>
      </trkpt>
      <trkpt lat="1.3967263331992046" lon="103.92169252114137">
        <ele>0.7851352860722387</ele>
      </trkpt>
      <trkpt lat="1.3966555770624267" lon="103.92174848405863">
        <ele>0.7917133040043978</ele>
      </trkpt>
      <trkpt lat="1.3965848209244798" lon="103.92180444697259">
        <ele>0.7677000545240816</ele>
      </trkpt>
      <trkpt lat="1.3965140647853636" lon="103.92186040988327">
        <ele>0.7436868050437665</ele>
      </trkpt>
      <trkpt lat="1.396443308645079" lon="103.92191637279063">
        <ele>0.7196735555634951</ele>
      </trkpt>
      <trkpt lat="1.396372552503626" lon="103.9219723356947">
        <ele>0.6956603060832952</ele>
      </trkpt>
      <trkpt lat="1.3963017963610047" lon="103.92202829859549">
        <ele>0.6716470566030242</ele>
      </trkpt>
      <trkpt lat="1.3962310402172156" lon="103.92208426149296">
        <ele>0.6456962213876154</ele>
      </trkpt>
      <trkpt lat="1.3961612520352835" lon="103.92214140377747">
        <ele>0.7301800829844263</ele>
      </trkpt>
      <trkpt lat="1.3960918450367903" lon="103.92219901050358">
        <ele>0.9271648652535963</ele>
      </trkpt>
      <trkpt lat="1.3960224380370534" lon="103.92225661722632">
        <ele>1.2203512916887174</ele>
      </trkpt>
      <trkpt lat="1.395953031036073" lon="103.92231422394575">
        <ele>1.4947334587446648</ele>
      </trkpt>
      <trkpt lat="1.3958836240338495" lon="103.92237183066183">
        <ele>1.7482451425612757</ele>
      </trkpt>
      <trkpt lat="1.3958142170303833" lon="103.92242943737457">
        <ele>1.999123205380144</ele>
      </trkpt>
      <trkpt lat="1.3957448100256742" lon="103.92248704408398">
        <ele>2.250421411959067</ele>
      </trkpt>
      <trkpt lat="1.3956786732900388" lon="103.92252859267792">
        <ele>2.505316980343999</ele>
      </trkpt>
      <trkpt lat="1.3956372670441406" lon="103.92244870635264">
        <ele>2.7866806154971795</ele>
      </trkpt>
      <trkpt lat="1.3955775379321118" lon="103.92238159744444">
        <ele>3.080368901524295</ele>
      </trkpt>
      <trkpt lat="1.395528214943517" lon="103.92230693175242">
        <ele>3.3510534216591736</ele>
      </trkpt>
      <trkpt lat="1.3954804587040606" lon="103.92225194633765">
        <ele>3.611864290944043</ele>
      </trkpt>
      <trkpt lat="1.3954142269323073" lon="103.92231313232755">
        <ele>3.8566952779833508</ele>
      </trkpt>
      <trkpt lat="1.3953479951591365" lon="103.92237431831403">
        <ele>4.115076177695527</ele>
      </trkpt>
      <trkpt lat="1.3952817633845478" lon="103.92243550429711">
        <ele>4.351006170075888</ele>
      </trkpt>
      <trkpt lat="1.395215531608542" lon="103.92249669027677">
        <ele>4.5843147586542665</ele>
      </trkpt>
      <trkpt lat="1.3951492998311188" lon="103.92255787625304">
        <ele>4.8176233662618095</ele>
      </trkpt>
      <trkpt lat="1.3950830680418536" lon="103.92261906221475">
        <ele>5.050932234555046</ele>
      </trkpt>
      <trkpt lat="1.395016836118778" lon="103.92268024803158">
        <ele>5.284241363533931</ele>
      </trkpt>
      <trkpt lat="1.394950604194286" lon="103.922741433845">
        <ele>5.5175507341692045</ele>
      </trkpt>
      <trkpt lat="1.3948843722683777" lon="103.92280261965503">
        <ele>5.7836571780785</ele>
      </trkpt>
      <trkpt lat="1.3948181402665694" lon="103.92286380538204">
        <ele>6.084411876857917</ele>
      </trkpt>
      <trkpt lat="1.3947519082487023" lon="103.92292499109">
        <ele>6.396784765875263</ele>
      </trkpt>
      <trkpt lat="1.394685676266849" lon="103.92298617683454">
        <ele>6.663689828591313</ele>
      </trkpt>
      <trkpt lat="1.3946194444149003" lon="103.92304736271603">
        <ele>6.883275883410032</ele>
      </trkpt>
      <trkpt lat="1.3945532125615365" lon="103.9231085485941">
        <ele>7.078572994963572</ele>
      </trkpt>
      <trkpt lat="1.3944869807067584" lon="103.92316973446879">
        <ele>7.273870106517154</ele>
      </trkpt>
      <trkpt lat="1.3944207488505653" lon="103.92323092034006">
        <ele>7.565122736568598</ele>
      </trkpt>
      <trkpt lat="1.3943522741411747" lon="103.92328961376656">
        <ele>7.957523623547183</ele>
      </trkpt>
      <trkpt lat="1.39428369553513" lon="103.92334819173264">
        <ele>8.451689038049912</ele>
      </trkpt>
      <trkpt lat="1.3942160873556404" lon="103.92340784520981">
        <ele>8.952642480825192</ele>
      </trkpt>
      <trkpt lat="1.39415002081498" lon="103.92346920726641">
        <ele>9.455191213443761</ele>
      </trkpt>
      <trkpt lat="1.3940839542728973" lon="103.9235305693196">
        <ele>9.958718965308675</ele>
      </trkpt>
      <trkpt lat="1.3940178877293923" lon="103.92359193136939">
        <ele>10.463950092427908</ele>
      </trkpt>
      <trkpt lat="1.393955959867739" lon="103.92365728696302">
        <ele>10.97176173878696</ele>
      </trkpt>
      <trkpt lat="1.393896163197229" lon="103.92372469900906">
        <ele>11.482153904385802</ele>
      </trkpt>
      <trkpt lat="1.393836366524971" lon="103.92379211105167">
        <ele>11.991972204006052</ele>
      </trkpt>
      <trkpt lat="1.393772934641509" lon="103.92385604432346">
        <ele>12.499493020643257</ele>
      </trkpt>
      <trkpt lat="1.3937073820910786" lon="103.92391794818967">
        <ele>13.004716354297242</ele>
      </trkpt>
      <trkpt lat="1.3936418295391992" lon="103.92397985205247">
        <ele>13.508948031809718</ele>
      </trkpt>
      <trkpt lat="1.3935760182309909" lon="103.92404148141424">
        <ele>14.012673241068029</ele>
      </trkpt>
      <trkpt lat="1.3935095630153151" lon="103.92410242769111">
        <ele>14.515864518826723</ele>
      </trkpt>
      <trkpt lat="1.3934430615087885" lon="103.9241633239024">
        <ele>15.018526278092395</ele>
      </trkpt>
      <trkpt lat="1.3933763227320615" lon="103.92422396350344">
        <ele>15.521019803996674</ele>
      </trkpt>
      <trkpt lat="1.3933095839539513" lon="103.92428460310107">
        <ele>16.02337255978502</ele>
      </trkpt>
      <trkpt lat="1.3932428451744587" lon="103.92434524269531">
        <ele>16.52644329421395</ele>
      </trkpt>
      <trkpt lat="1.3931775550340297" lon="103.92440735823037">
        <ele>17.031523231426096</ele>
      </trkpt>
      <trkpt lat="1.3931148701499623" lon="103.92447212812341">
        <ele>17.53853760425443</ele>
      </trkpt>
      <trkpt lat="1.3930520361537166" lon="103.92453674553738">
        <ele>18.044699235272102</ele>
      </trkpt>
      <trkpt lat="1.392985075485906" lon="103.9245971431489">
        <ele>18.54871690033659</ele>
      </trkpt>
      <trkpt lat="1.3929181148167256" lon="103.92465754075702">
        <ele>19.050665366614982</ele>
      </trkpt>
      <trkpt lat="1.3928511541461754" lon="103.92471793836175">
        <ele>19.534426399836153</ele>
      </trkpt>
      <trkpt lat="1.3927841061761312" lon="103.92477823958934">
        <ele>19.850871277631146</ele>
      </trkpt>
      <trkpt lat="1.3927166288297634" lon="103.92483806680018">
        <ele>20.0</ele>
      </trkpt>
      <trkpt lat="1.3926491514820554" lon="103.92489789400764">
        <ele>20.0</ele>
      </trkpt>
      <trkpt lat="1.3925816741330068" lon="103.92495772121173">
        <ele>20.0</ele>
      </trkpt>
      <trkpt lat="1.3925226906066024" lon="103.92502536067187">
        <ele>19.949083300062718</ele>
      </trkpt>
      <trkpt lat="1.392467858111554" lon="103.92509681807316">
        <ele>19.81658869133206</ele>
      </trkpt>
      <trkpt lat="1.3924130256145204" lon="103.92516827547108">
        <ele>19.60312072872136</ele>
      </trkpt>
      <trkpt lat="1.392355204262467" lon="103.92523730329894">
        <ele>19.359961852042876</ele>
      </trkpt>
      <trkpt lat="1.392295574730881" lon="103.92530486129922">
        <ele>19.1173491154875</ele>
      </trkpt>
      <trkpt lat="1.3922379352950816" lon="103.92537406406602">
        <ele>18.874327857500255</ele>
      </trkpt>
      <trkpt lat="1.3921819385279157" lon="103.92544462445889">
        <ele>18.630648163876394</ele>
      </trkpt>
      <trkpt lat="1.3921253148718835" lon="103.92551468900827">
        <ele>18.38668881963396</ele>
      </trkpt>
      <trkpt lat="1.3920689442744378" lon="103.92558495197783">
        <ele>18.142634689347798</ele>
      </trkpt>
      <trkpt lat="1.3920134926185401" lon="103.92565593609746">
        <ele>17.89836491470123</ele>
      </trkpt>
      <trkpt lat="1.3919580709787802" lon="103.92572694331365">
        <ele>17.653904469102073</ele>
      </trkpt>
      <trkpt lat="1.3919027709939658" lon="103.92579804414557">
        <ele>17.41035542781133</ele>
      </trkpt>
      <trkpt lat="1.3918430922295872" lon="103.92586552154067">
        <ele>17.166243677853515</ele>
      </trkpt>
      <trkpt lat="1.3917926181873217" lon="103.92594000206857">
        <ele>16.923153513619894</ele>
      </trkpt>
      <trkpt lat="1.3917331790818592" lon="103.92600750745868">
        <ele>16.680078431221627</ele>
      </trkpt>
      <trkpt lat="1.391673322247627" lon="103.92607486631198">
        <ele>16.437992629970434</ele>
      </trkpt>
      <trkpt lat="1.391615669171799" lon="103.92614409065952">
        <ele>16.2098157759503</ele>
      </trkpt>
      <trkpt lat="1.3915558545982534" lon="103.92619397072612">
        <ele>16.07258956792618</ele>
      </trkpt>
      <trkpt lat="1.3914832914711708" lon="103.92614034088986">
        <ele>16.02681895220831</ele>
      </trkpt>
      <trkpt lat="1.3914107283425954" lon="103.92608671105694">
        <ele>15.976554935010368</ele>
      </trkpt>
      <trkpt lat="1.3913547508544448" lon="103.92614436454247">
        <ele>15.835759187855876</ele>
      </trkpt>
      <trkpt lat="1.3912951747773583" lon="103.92621135598131">
        <ele>15.604339985792036</ele>
      </trkpt>
      <trkpt lat="1.3912350371773567" lon="103.92627814802754">
        <ele>15.362394117842053</ele>
      </trkpt>
      <trkpt lat="1.3911811899984718" lon="103.92635017395276">
        <ele>15.11841920750625</ele>
      </trkpt>
      <trkpt lat="1.3911323502355988" lon="103.9264257141429">
        <ele>14.874591136124272</ele>
      </trkpt>
      <trkpt lat="1.3910707513155713" lon="103.92649150454763">
        <ele>14.63090696690241</ele>
      </trkpt>
      <trkpt lat="1.391017224485362" lon="103.92656352956088">
        <ele>14.387161493239182</ele>
      </trkpt>
      <trkpt lat="1.3909682521599775" lon="103.92663907231889">
        <ele>14.142241017968418</ele>
      </trkpt>
      <trkpt lat="1.3909116731250943" lon="103.92670914313248">
        <ele>13.897488359000008</ele>
      </trkpt>
      <trkpt lat="1.3908551684220822" lon="103.92677929155039">
        <ele>13.653292449941896</ele>
      </trkpt>
      <trkpt lat="1.390800903540917" lon="103.92685117539881">
        <ele>13.40867510107835</ele>
      </trkpt>
      <trkpt lat="1.3907466921064984" lon="103.92692309883398">
        <ele>13.163587927341778</ele>
      </trkpt>
      <trkpt lat="1.3906930233758137" lon="103.92699542256473">
        <ele>12.918901674098398</ele>
      </trkpt>
      <trkpt lat="1.3906374102685044" lon="103.92706604992918">
        <ele>12.676685704681306</ele>
      </trkpt>
      <trkpt lat="1.3905731127143386" lon="103.92712923598468">
        <ele>12.436360319013843</ele>
      </trkpt>
      <trkpt lat="1.3905120914073157" lon="103.92719507790753">
        <ele>12.195306022466815</ele>
      </trkpt>
      <trkpt lat="1.39046041625873" lon="103.92726882167324">
        <ele>11.951461182202154</ele>
      </trkpt>
      <trkpt lat="1.390408741108023" lon="103.92734256543565">
        <ele>11.705844593456158</ele>
      </trkpt>
      <trkpt lat="1.3903542556866932" lon="103.92741428332671">
        <ele>11.461264393781057</ele>
      </trkpt>
      <trkpt lat="1.3902964004925904" lon="103.92748327097779">
        <ele>11.217720017971395</ele>
      </trkpt>
      <trkpt lat="1.3902435637658512" lon="103.92755506775543">
        <ele>10.973899338162695</ele>
      </trkpt>
      <trkpt lat="1.3902077393958552" lon="103.92763757464421">
        <ele>10.732889460076422</ele>
      </trkpt>
      <trkpt lat="1.3901417082745609" lon="103.9276984675334">
        <ele>10.49262095148908</ele>
      </trkpt>
      <trkpt lat="1.3900813547888276" lon="103.92776512953756">
        <ele>10.253226566098556</ele>
      </trkpt>
      <trkpt lat="1.3900235720518626" lon="103.9278342536592">
        <ele>10.010850064990764</ele>
      </trkpt>
      <trkpt lat="1.389966246212229" lon="103.92790375203217">
        <ele>9.767549941579029</ele>
      </trkpt>
      <trkpt lat="1.3899089758772178" lon="103.92797329586814">
        <ele>9.523858640906878</ele>
      </trkpt>
      <trkpt lat="1.389853241663375" lon="103.92804405615942">
        <ele>9.27981845027918</ele>
      </trkpt>
      <trkpt lat="1.389797789940417" lon="103.92811504015391">
        <ele>9.03523816987422</ele>
      </trkpt>
      <trkpt lat="1.3897436473117475" lon="103.92818701054078">
        <ele>8.789782981552285</ele>
      </trkpt>
      <trkpt lat="1.3896893191620727" lon="103.92825883614853">
        <ele>8.534998940873878</ele>
      </trkpt>
      <trkpt lat="1.3896329564015328" lon="103.92832910818323">
        <ele>8.271021080197203</ele>
      </trkpt>
      <trkpt lat="1.389576187618519" lon="103.9283990503587">
        <ele>7.998244256011799</ele>
      </trkpt>
      <trkpt lat="1.3895180692206943" lon="103.92846789608954">
        <ele>7.725056531528864</ele>
      </trkpt>
      <trkpt lat="1.389458980431305" lon="103.92853589152331">
        <ele>7.451234315956955</ele>
      </trkpt>
      <trkpt lat="1.3893975022500262" lon="103.92860179327599">
        <ele>7.181560275009512</ele>
      </trkpt>
      <trkpt lat="1.3893546239667376" lon="103.92868072770749">
        <ele>6.913422875426893</ele>
      </trkpt>
      <trkpt lat="1.389302015716386" lon="103.92875333716626">
        <ele>6.645745042826955</ele>
      </trkpt>
      <trkpt lat="1.3892440832598345" lon="103.92882230682838">
        <ele>6.3735322543530195</ele>
      </trkpt>
      <trkpt lat="1.3891828501628243" lon="103.92888843345747">
        <ele>6.099887652967702</ele>
      </trkpt>
      <trkpt lat="1.389124296311015" lon="103.9289568411321">
        <ele>5.826482290936849</ele>
      </trkpt>
      <trkpt lat="1.3890679149842382" lon="103.92902709844263">
        <ele>5.55376690621826</ele>
      </trkpt>
      <trkpt lat="1.3890116098391057" lon="103.92909741586985">
        <ele>5.281403955866964</ele>
      </trkpt>
      <trkpt lat="1.3889555002125775" lon="103.92916788758828">
        <ele>5.00900432901735</ele>
      </trkpt>
      <trkpt lat="1.388898872215361" lon="103.92923793817243">
        <ele>4.736264413191935</ele>
      </trkpt>
      <trkpt lat="1.3888405061949438" lon="103.92930657675755">
        <ele>4.463108836527568</ele>
      </trkpt>
      <trkpt lat="1.388781860734565" lon="103.92937497836928">
        <ele>4.189566337208917</ele>
      </trkpt>
      <trkpt lat="1.3887228083508156" lon="103.92944303489878">
        <ele>3.9164818452466936</ele>
      </trkpt>
      <trkpt lat="1.388666829943894" lon="103.92951352757761">
        <ele>3.6447360711651484</ele>
      </trkpt>
      <trkpt lat="1.3886148598220007" lon="103.9295870299233">
        <ele>3.3750181964264434</ele>
      </trkpt>
      <trkpt lat="1.3885653552675323" lon="103.92966222085043">
        <ele>3.1077217958806087</ele>
      </trkpt>
      <trkpt lat="1.3885190230998141" lon="103.92973939017261">
        <ele>2.84045155846959</ele>
      </trkpt>
      <trkpt lat="1.3884656867094238" lon="103.92981142060708">
        <ele>2.5709660352238832</ele>
      </trkpt>
      <trkpt lat="1.3884050949399296" lon="103.92987812788378">
        <ele>2.313991460018115</ele>
      </trkpt>
      <trkpt lat="1.3883445031687498" lon="103.92994483515707">
        <ele>2.0682236166146177</ele>
      </trkpt>
      <trkpt lat="1.3882899283652057" lon="103.93001640778459">
        <ele>1.8368799514117764</ele>
      </trkpt>
      <trkpt lat="1.3882367727788552" lon="103.9300891016124">
        <ele>1.6077476245323377</ele>
      </trkpt>
      <trkpt lat="1.388184907984179" lon="103.93016271374357">
        <ele>1.387276131315562</ele>
      </trkpt>
      <trkpt lat="1.388128934593882" lon="103.93023321558196">
        <ele>1.1753338270740032</ele>
      </trkpt>
      <trkpt lat="1.3880712726369284" lon="103.93030243913886">
        <ele>0.9649467500992547</ele>
      </trkpt>
      <trkpt lat="1.3880175558716945" lon="103.93037470955439">
        <ele>0.7517843768469561</ele>
      </trkpt>
      <trkpt lat="1.3879646987387895" lon="103.93044761941006">
        <ele>0.5884552284607262</ele>
      </trkpt>
      <trkpt lat="1.3879075825828122" lon="103.9305167841954">
        <ele>0.4805487429156708</ele>
      </trkpt>
      <trkpt lat="1.3878610937452367" lon="103.93059229523318">
        <ele>0.4331765756294101</ele>
      </trkpt>
      <trkpt lat="1.3878097603207598" lon="103.93066591370062">
        <ele>0.38821407349906645</ele>
      </trkpt>
      <trkpt lat="1.3877621811385037" lon="103.93074204268758">
        <ele>0.30775835236904137</ele>
      </trkpt>
      <trkpt lat="1.3877655215235059" lon="103.93082184720537">
        <ele>0.2374031636426993</ele>
      </trkpt>
      <trkpt lat="1.3877053607266592" lon="103.93088860104253">
        <ele>0.17848826557444333</ele>
      </trkpt>
      <trkpt lat="1.3876472946012457" lon="103.93095747001819">
        <ele>0.16653864089244283</ele>
      </trkpt>
      <trkpt lat="1.3875894729173301" lon="103.93102656189927">
        <ele>0.15101043060596606</ele>
      </trkpt>
      <trkpt lat="1.3875316516342073" lon="103.93109565410961">
        <ele>0.12773559590753536</ele>
      </trkpt>
      <trkpt lat="1.3874738304442775" lon="103.93116474639504">
        <ele>0.09701440650098518</ele>
      </trkpt>
      <trkpt lat="1.3874160091903234" lon="103.93123383862569">
        <ele>0.05921948254828058</ele>
      </trkpt>
      <trkpt lat="1.3873583676961738" lon="103.93130307675042">
        <ele>0.026881370929969044</ele>
      </trkpt>
      <trkpt lat="1.3873013146998434" lon="103.93137279003233">
        <ele>0.00707311980864193</ele>
      </trkpt>
      <trkpt lat="1.3872430330370462" lon="103.93144149929438">
        <ele>0.0</ele>
      </trkpt>
      <trkpt lat="1.387184751224562" lon="103.9315102084292">
        <ele>0.0</ele>
      </trkpt>
      <trkpt lat="1.3871285923957297" lon="103.93158063938832">
        <ele>0.0</ele>
      </trkpt>
      <trkpt lat="1.3870688489510568" lon="103.9316480815766">
        <ele>0.0</ele>
      </trkpt>
      <trkpt lat="1.3870130461598957" lon="103.931718793347">
        <ele>0.0</ele>
      </trkpt>
      <trkpt lat="1.3869537240795347" lon="103.93178660027381">
        <ele>0.0</ele>
      </trkpt>
      <trkpt lat="1.3868888320604704" lon="103.93184916775577">
        <ele>0.0</ele>
      </trkpt>
      <trkpt lat="1.3868230045143433" lon="103.93191031868345">
        <ele>0.0</ele>
      </trkpt>
      <trkpt lat="1.3867472055299648" lon="103.93195933084294">
        <ele>0.0</ele>
      </trkpt>
      <trkpt lat="1.3866729794995203" lon="103.93201058608238">
        <ele>0.0</ele>
      </trkpt>
      <trkpt lat="1.3866030966137783" lon="103.93206729090979">
        <ele>0.0</ele>
      </trkpt>
      <trkpt lat="1.3865259708991775" lon="103.93211421521008">
        <ele>0.0</ele>
      </trkpt>
      <trkpt lat="1.3864488450970724" lon="103.93216113936668">
        <ele>0.0</ele>
      </trkpt>
      <trkpt lat="1.3863717195631717" lon="103.93220806395682">
        <ele>0.00154057395032182</ele>
      </trkpt>
      <trkpt lat="1.386289898628756" lon="103.93224603008397">
        <ele>0.02326089615962275</ele>
      </trkpt>
      <trkpt lat="1.3862095140059751" lon="103.93228720199963">
        <ele>0.06804427374911957</ele>
      </trkpt>
      <trkpt lat="1.3861291294161275" lon="103.93232837397723">
        <ele>0.13171347554284982</ele>
      </trkpt>
      <trkpt lat="1.386050240052983" lon="103.9323721176435">
        <ele>0.1890555326464054</ele>
      </trkpt>
      <trkpt lat="1.385975158012005" lon="103.93242219804144">
        <ele>0.23639343475064165</ele>
      </trkpt>
      <trkpt lat="1.3859005905067396" lon="103.93247299163282">
        <ele>0.26963065062714175</ele>
      </trkpt>
      <trkpt lat="1.3858304912752821" lon="103.93252973770866">
        <ele>0.28973716373631514</ele>
      </trkpt>
      <trkpt lat="1.3857644465758068" lon="103.93259112025729">
        <ele>0.2938027967127255</ele>
      </trkpt>
      <trkpt lat="1.3857012712631895" lon="103.93265538804756">
        <ele>0.28239853926964215</ele>
      </trkpt>
      <trkpt lat="1.3856431882146347" lon="103.93272415484995">
        <ele>0.2569950251065484</ele>
      </trkpt>
      <trkpt lat="1.3855886543559146" lon="103.93279581285243">
        <ele>0.23111294507432945</ele>
      </trkpt>
      <trkpt lat="1.3855336753901628" lon="103.93286709804451">
        <ele>0.2185115795040927</ele>
      </trkpt>
      <trkpt lat="1.3854833433107812" lon="103.93294174696942">
        <ele>0.2189124190856763</ele>
      </trkpt>
      <trkpt lat="1.3854364807439343" lon="103.9330185993453">
        <ele>0.22249875800504623</ele>
      </trkpt>
      <trkpt lat="1.3853896180913918" lon="103.93309545166784">
        <ele>0.22167340977022745</ele>
      </trkpt>
      <trkpt lat="1.385342755520265" lon="103.93317230403763">
        <ele>0.22084730184639093</ele>
      </trkpt>
      <trkpt lat="1.3852958935528097" lon="103.93324915676908">
        <ele>0.22002104536903574</ele>
      </trkpt>
      <trkpt lat="1.3852490310119088" lon="103.93332600915357">
        <ele>0.2191585295187736</ele>
      </trkpt>
      <trkpt lat="1.3852021973832935" lon="103.93340287891729">
        <ele>0.21817799408167668</ele>
      </trkpt>
      <trkpt lat="1.3851554296358497" lon="103.93347978828447">
        <ele>0.2170790430099856</ele>
      </trkpt>
      <trkpt lat="1.3851086616308568" lon="103.9335566974953">
        <ele>0.20701163192770222</ele>
      </trkpt>
      <trkpt lat="1.3850618937289365" lon="103.93363360676625">
        <ele>0.19750590292194128</ele>
      </trkpt>
      <trkpt lat="1.385015126198266" lon="103.93371051625833">
        <ele>0.1885911490578951</ele>
      </trkpt>
      <trkpt lat="1.384968331711361" lon="103.93378740953676">
        <ele>0.18926335604976852</ele>
      </trkpt>
      <trkpt lat="1.3849214373493288" lon="103.93386424274406">
        <ele>0.19007472406910522</ele>
      </trkpt>
      <trkpt lat="1.384874543146226" lon="103.93394107604537">
        <ele>0.19099600774028777</ele>
      </trkpt>
      <trkpt lat="1.3848276486067022" lon="103.93401790914223">
        <ele>0.19191720851299796</ele>
      </trkpt>
      <trkpt lat="1.384780754313179" lon="103.93409474238555">
        <ele>0.19283845483458384</ele>
      </trkpt>
      <trkpt lat="1.3847338600617312" lon="103.93417157565248">
        <ele>0.19375968836775623</ele>
      </trkpt>
      <trkpt lat="1.3846869655269352" lon="103.93424840874695">
        <ele>0.19461517885216303</ele>
      </trkpt>
      <trkpt lat="1.3846401310546252" lon="103.9343252779902">
        <ele>0.1953895163268373</ele>
      </trkpt>
      <trkpt lat="1.38459331308172" lon="103.93440215716244">
        <ele>0.1960843897259464</ele>
      </trkpt>
      <trkpt lat="1.384546495055738" lon="103.93447903630101">
        <ele>0.19676619742380694</ele>
      </trkpt>
      <trkpt lat="1.3844996766677384" lon="103.93455591522022">
        <ele>0.19744937280239183</ele>
      </trkpt>
      <trkpt lat="1.38445285921077" lon="103.9346327946974">
        <ele>0.19782249582281455</ele>
      </trkpt>
      <trkpt lat="1.3844063241829723" lon="103.93470984221602">
        <ele>0.19791538967687503</ele>
      </trkpt>
      <trkpt lat="1.38435976196261" lon="103.93478687267226">
        <ele>0.19898899115368673</ele>
      </trkpt>
      <trkpt lat="1.3843120576321333" lon="103.93486320582296">
        <ele>0.2021084884712967</ele>
      </trkpt>
      <trkpt lat="1.3842637006331535" lon="103.93493906710523">
        <ele>0.2037048377359418</ele>
      </trkpt>
      <trkpt lat="1.3842185342431335" lon="103.93501691558791">
        <ele>0.20434384720894125</ele>
      </trkpt>
      <trkpt lat="1.3841717143735004" lon="103.93509375108087">
        <ele>0.2063331491376048</ele>
      </trkpt>
      <trkpt lat="1.3841235408835912" lon="103.93516976770881">
        <ele>0.2114812554517358</ele>
      </trkpt>
      <trkpt lat="1.3840774379288439" lon="103.93524707210135">
        <ele>0.217924070892448</ele>
      </trkpt>
      <trkpt lat="1.3840313691200292" lon="103.93532439663065">
        <ele>0.22248487508231415</ele>
      </trkpt>
      <trkpt lat="1.3839854011973425" lon="103.93540178054282">
        <ele>0.2268936685408354</ele>
      </trkpt>
      <trkpt lat="1.3839394335513024" lon="103.9354791646155">
        <ele>0.23118927113371537</ele>
      </trkpt>
      <trkpt lat="1.3838934655070054" lon="103.93555654845288">
        <ele>0.23548496897259721</ele>
      </trkpt>
      <trkpt lat="1.3838474974924366" lon="103.93563393230598">
        <ele>0.23978065057326117</ele>
      </trkpt>
      <trkpt lat="1.3838015298538606" lon="103.93571131637782">
        <ele>0.24407621362774956</ele>
      </trkpt>
      <trkpt lat="1.3837555619081963" lon="103.93578870026786">
        <ele>0.24476698570036381</ele>
      </trkpt>
      <trkpt lat="1.3837093386017743" lon="103.93586592345802">
        <ele>0.1953981862980095</ele>
      </trkpt>
      <trkpt lat="1.3836626162067651" lon="103.93594274768147">
        <ele>0.15364159316979528</ele>
      </trkpt>
      <trkpt lat="1.3836322667109273" lon="103.93602685032302">
        <ele>0.18697224299228313</ele>
      </trkpt>
      <trkpt lat="1.3836160831924322" lon="103.93610981234332">
        <ele>0.23247362777384556</ele>
      </trkpt>
      <trkpt lat="1.3836335906003625" lon="103.93602187140847">
        <ele>0.18543531845184902</ele>
      </trkpt>
      <trkpt lat="1.3836649678108508" lon="103.93593815851666">
        <ele>0.15517115747804686</ele>
      </trkpt>
      <trkpt lat="1.3837122282246677" lon="103.93586164916769">
        <ele>0.19857950147706951</ele>
      </trkpt>
      <trkpt lat="1.3837581963533225" lon="103.9357842653866">
        <ele>0.24766937044714588</ele>
      </trkpt>
      <trkpt lat="1.3838041642526102" lon="103.93570688146927">
        <ele>0.24383004135217812</ele>
      </trkpt>
      <trkpt lat="1.3838501319285406" lon="103.93562949741921">
        <ele>0.23953448569698846</ele>
      </trkpt>
      <trkpt lat="1.3838960999451362" lon="103.93555211356721">
        <ele>0.23523878401746387</ele>
      </trkpt>
      <trkpt lat="1.3839420679675432" lon="103.93547472971689">
        <ele>0.23094310816900068</ele>
      </trkpt>
      <trkpt lat="1.3839880356134495" lon="103.93539734564403">
        <ele>0.22664750897483218</ele>
      </trkpt>
      <trkpt lat="1.38403400355473" lon="103.93531996174266">
        <ele>0.22222236498926562</ele>
      </trkpt>
      <trkpt lat="1.384080086901251" lon="103.93524264577063">
        <ele>0.217664000525119</ele>
      </trkpt>
      <trkpt lat="1.3841261731249141" lon="103.93516533153507">
        <ele>0.21110536719750517</ele>
      </trkpt>
      <trkpt lat="1.3841745638441192" lon="103.93508944944809">
        <ele>0.20614592958404357</ele>
      </trkpt>
      <trkpt lat="1.3842211227409167" lon="103.93501245407485">
        <ele>0.20432651447343456</ele>
      </trkpt>
      <trkpt lat="1.3842662891230852" lon="103.93493460558757">
        <ele>0.20361936597479435</ele>
      </trkpt>
      <trkpt lat="1.3843149674021158" lon="103.93485894432692">
        <ele>0.2019056701346568</ele>
      </trkpt>
      <trkpt lat="1.3843624578647027" lon="103.93478247440257">
        <ele>0.19872743661157347</ele>
      </trkpt>
      <trkpt lat="1.384408966626266" lon="103.93470541203348">
        <ele>0.19790675416687056</ele>
      </trkpt>
      <trkpt lat="1.3844555424079" lon="103.93462838876418">
        <ele>0.19782785678232276</ele>
      </trkpt>
      <trkpt lat="1.384502359840192" lon="103.93455150927207">
        <ele>0.19741011149126708</ele>
      </trkpt>
      <trkpt lat="1.3845491782280595" lon="103.9344746303527">
        <ele>0.1967269955113066</ele>
      </trkpt>
      <trkpt lat="1.3845959962243863" lon="103.9343977511962">
        <ele>0.19604547628444027</ele>
      </trkpt>
      <trkpt lat="1.384642814204931" lon="103.93432087202845">
        <ele>0.195346087139305</ele>
      </trkpt>
      <trkpt lat="1.3846896530490864" lon="103.93424400541642">
        <ele>0.19456717405325252</ele>
      </trkpt>
      <trkpt lat="1.3847365476087057" lon="103.93416717233681">
        <ele>0.1937068963019047</ele>
      </trkpt>
      <trkpt lat="1.3847834418196454" lon="103.93409033904537">
        <ele>0.1927856601528184</ele>
      </trkpt>
      <trkpt lat="1.3848303361308374" lon="103.9340135058126">
        <ele>0.19186443659844196</ele>
      </trkpt>
      <trkpt lat="1.3848772306720927" lon="103.93393667271668">
        <ele>0.19094324320471398</ele>
      </trkpt>
      <trkpt lat="1.3849241248486868" lon="103.9338598393993">
        <ele>0.19002193792853672</ele>
      </trkpt>
      <trkpt lat="1.384971019254756" lon="103.93378300621843">
        <ele>0.1892185248787658</ele>
      </trkpt>
      <trkpt lat="1.3850178064830747" lon="103.93370610857426">
        <ele>0.18855428113014006</ele>
      </trkpt>
      <trkpt lat="1.3850645739796759" lon="103.93362919906163">
        <ele>0.1975091981780109</ele>
      </trkpt>
      <trkpt lat="1.3851113419260754" lon="103.93355228981727">
        <ele>0.20704713832892294</ele>
      </trkpt>
      <trkpt lat="1.385158109912975" lon="103.9334753805955">
        <ele>0.21714673671230791</ele>
      </trkpt>
      <trkpt lat="1.3852048776495653" lon="103.9333984712217">
        <ele>0.21823892731243913</ele>
      </trkpt>
      <trkpt lat="1.3852517167042786" lon="103.93332160471982">
        <ele>0.21921264976913077</ele>
      </trkpt>
      <trkpt lat="1.3852985792690076" lon="103.93324475234958">
        <ele>0.22006842608794708</ele>
      </trkpt>
      <trkpt lat="1.3853454411669983" lon="103.9331678995762">
        <ele>0.2208946642476611</ele>
      </trkpt>
      <trkpt lat="1.385392303797985" lon="103.93309104724234">
        <ele>0.22172077045452507</ele>
      </trkpt>
      <trkpt lat="1.3854391664611059" lon="103.93301419492607">
        <ele>0.2225194154518428</ele>
      </trkpt>
      <trkpt lat="1.385486049958272" lon="103.93293735584344">
        <ele>0.21866649356687082</ele>
      </trkpt>
      <trkpt lat="1.3855365707471303" lon="103.93286282676561">
        <ele>0.21911906745089152</ele>
      </trkpt>
      <trkpt lat="1.3855916830826573" lon="103.93279163387989">
        <ele>0.23241034134890348</ele>
      </trkpt>
      <trkpt lat="1.3856463867218585" lon="103.93272010269756">
        <ele>0.25883250248033873</ele>
      </trkpt>
      <trkpt lat="1.3857047981761323" lon="103.93265161451426">
        <ele>0.2833343450644145</ele>
      </trkpt>
      <trkpt lat="1.385768225000928" lon="103.93258759525858">
        <ele>0.2937826669122026</ele>
      </trkpt>
      <trkpt lat="1.3858344487543217" lon="103.93252641279399">
        <ele>0.2889558714948505</ele>
      </trkpt>
      <trkpt lat="1.3859046839495623" lon="103.93246983291812">
        <ele>0.2681108268869663</ele>
      </trkpt>
      <trkpt lat="1.3859794469105184" lon="103.93241930667388">
        <ele>0.23426644084192935</ele>
      </trkpt>
      <trkpt lat="1.3860545987061228" lon="103.93236933115892">
        <ele>0.1860786927187886</ele>
      </trkpt>
      <trkpt lat="1.3861337362725665" lon="103.93232601439699">
        <ele>0.128185914694809</ele>
      </trkpt>
      <trkpt lat="1.3862141208695506" lon="103.93228484243306">
        <ele>0.06426944486311624</ele>
      </trkpt>
      <trkpt lat="1.3862945054882108" lon="103.93224367050938">
        <ele>0.02080781128774419</ele>
      </trkpt>
      <trkpt lat="1.3863761396734526" lon="103.93220537474427">
        <ele>0.0004092467191906905</ele>
      </trkpt>
      <trkpt lat="1.386453265146834" lon="103.93215845005585">
        <ele>0.0</ele>
      </trkpt>
      <trkpt lat="1.3865303909842428" lon="103.93211152595642">
        <ele>0.0</ele>
      </trkpt>
      <trkpt lat="1.3866075167087182" lon="103.93206460167205">
        <ele>0.0</ele>
      </trkpt>
      <trkpt lat="1.38667713615434" lon="103.93200750994296">
        <ele>0.0</ele>
      </trkpt>
      <trkpt lat="1.386751549590229" lon="103.93195652195018">
        <ele>0.0</ele>
      </trkpt>
      <trkpt lat="1.3868273485685276" lon="103.9319075097813">
        <ele>0.0</ele>
      </trkpt>
      <trkpt lat="1.3868924720694538" lon="103.93184550178258">
        <ele>0.0</ele>
      </trkpt>
      <trkpt lat="1.386957147129104" lon="103.93178273346541">
        <ele>0.0</ele>
      </trkpt>
      <trkpt lat="1.3870162442305138" lon="103.93171474083957">
        <ele>0.0</ele>
      </trkpt>
      <trkpt lat="1.3870721113278708" lon="103.93164408243288">
        <ele>0.0</ele>
      </trkpt>
      <trkpt lat="1.3871318062596634" lon="103.93157659923429">
        <ele>0.0</ele>
      </trkpt>
      <trkpt lat="1.387188091374841" lon="103.93150627069862">
        <ele>0.0</ele>
      </trkpt>
      <trkpt lat="1.3872463731454692" lon="103.93143756152864">
        <ele>0.0</ele>
      </trkpt>
      <trkpt lat="1.3873046548537045" lon="103.93136885230452">
        <ele>0.007871129260624462</ele>
      </trkpt>
      <trkpt lat="1.3873616114582006" lon="103.93129906025437">
        <ele>0.028397439684809306</ele>
      </trkpt>
      <trkpt lat="1.3874193229653984" lon="103.93122987895583">
        <ele>0.06145364454444543</ele>
      </trkpt>
      <trkpt lat="1.3874771441897815" lon="103.93116078670064">
        <ele>0.09916865188953554</ele>
      </trkpt>
      <trkpt lat="1.387534965379952" lon="103.93109169441531">
        <ele>0.12946314559549946</ele>
      </trkpt>
      <trkpt lat="1.3875927866683817" lon="103.93102260220924">
        <ele>0.15231121310448417</ele>
      </trkpt>
      <trkpt lat="1.3876506083841622" lon="103.93095351035437">
        <ele>0.16695498012602825</ele>
      </trkpt>
      <trkpt lat="1.387709047203942" lon="103.93088498119945">
        <ele>0.1795519113239725</ele>
      </trkpt>
      <trkpt lat="1.3877682496415131" lon="103.93081746858377">
        <ele>0.23955165809475376</ele>
      </trkpt>
      <trkpt lat="1.3877644728522474" lon="103.9307374236989">
        <ele>0.3102686442115699</ele>
      </trkpt>
      <trkpt lat="1.3878131549866988" lon="103.93066202226612">
        <ele>0.39076759539477796</ele>
      </trkpt>
      <trkpt lat="1.387863780242074" lon="103.93058789127853">
        <ele>0.43408845400571333</ele>
      </trkpt>
      <trkpt lat="1.387911345308417" lon="103.93051324265292">
        <ele>0.48545513215612507</ele>
      </trkpt>
      <trkpt lat="1.3879677008962887" lon="103.9304434215485">
        <ele>0.5965267896754199</ele>
      </trkpt>
      <trkpt lat="1.3880206096942604" lon="103.93037054864688">
        <ele>0.7640452367423837</ele>
      </trkpt>
      <trkpt lat="1.3880745772567553" lon="103.93029847192126">
        <ele>0.9769414820763503</ele>
      </trkpt>
      <trkpt lat="1.388132239213604" lon="103.93022924836418">
        <ele>1.1873957055505715</ele>
      </trkpt>
      <trkpt lat="1.3881878803673335" lon="103.93015849501579">
        <ele>1.3996283985215114</ele>
      </trkpt>
      <trkpt lat="1.3882397451618895" lon="103.93008488288443">
        <ele>1.6207203552535459</ele>
      </trkpt>
      <trkpt lat="1.3882929902845433" lon="103.93001225275513">
        <ele>1.8499360088444503</ele>
      </trkpt>
      <trkpt lat="1.3883479756968877" lon="103.92994101214826">
        <ele>2.0823047479753676</ele>
      </trkpt>
      <trkpt lat="1.388408567467971" lon="103.92987430487479">
        <ele>2.328767590521018</ele>
      </trkpt>
      <trkpt lat="1.3884691592373686" lon="103.92980759759787">
        <ele>2.58650257657224</ele>
      </trkpt>
      <trkpt lat="1.3885216784068748" lon="103.92973496758141">
        <ele>2.8558067634467434</ele>
      </trkpt>
      <trkpt lat="1.3885680105744587" lon="103.92965779825906">
        <ele>3.1229550532050077</ele>
      </trkpt>
      <trkpt lat="1.3886177136928237" lon="103.9295827311623">
        <ele>3.390366119058576</ele>
      </trkpt>
      <trkpt lat="1.388669904603553" lon="103.9295093818459">
        <ele>3.660254591006241</ele>
      </trkpt>
      <trkpt lat="1.3887261926563141" lon="103.92943913456381">
        <ele>3.9321115735783914</ele>
      </trkpt>
      <trkpt lat="1.388785245039963" lon="103.92937107803411">
        <ele>4.205246423970831</ele>
      </trkpt>
      <trkpt lat="1.3888438511648058" lon="103.92930264306483">
        <ele>4.47878334981852</ele>
      </trkpt>
      <trkpt lat="1.38890221718512" lon="103.92923400447951">
        <ele>4.751911800526766</ele>
      </trkpt>
      <trkpt lat="1.3889587158679992" lon="103.92916384883826">
        <ele>5.024630163867026</ele>
      </trkpt>
      <trkpt lat="1.3890148254944175" lon="103.92909337711964">
        <ele>5.297011087624533</ele>
      </trkpt>
      <trkpt lat="1.3890711462108625" lon="103.92902307198038">
        <ele>5.569376887368786</ele>
      </trkpt>
      <trkpt lat="1.3891275275375299" lon="103.92895281466967">
        <ele>5.842133865290073</ele>
      </trkpt>
      <trkpt lat="1.3891863594454894" lon="103.92888464372551">
        <ele>6.115577971130574</ele>
      </trkpt>
      <trkpt lat="1.389247592542405" lon="103.92881851709623">
        <ele>6.389230672303147</ele>
      </trkpt>
      <trkpt lat="1.3893052934386696" lon="103.92874934797783">
        <ele>6.661168924474993</ele>
      </trkpt>
      <trkpt lat="1.3893570215980582" lon="103.92867616210351">
        <ele>6.928848062014318</ele>
      </trkpt>
      <trkpt lat="1.3894010255785263" lon="103.92859801643175">
        <ele>7.197017410558664</ele>
      </trkpt>
      <trkpt lat="1.3894625037597108" lon="103.92853211467887">
        <ele>7.466943821287455</ele>
      </trkpt>
      <trkpt lat="1.3895213999992497" lon="103.92846395052526">
        <ele>7.740742565399194</ele>
      </trkpt>
      <trkpt lat="1.3895795183969712" lon="103.92839510479422">
        <ele>8.013890048786863</ele>
      </trkpt>
      <trkpt lat="1.3896361865641218" lon="103.92832508087713">
        <ele>8.286650103337033</ele>
      </trkpt>
      <trkpt lat="1.3896925493245529" lon="103.92825480884225">
        <ele>8.550090918919656</ele>
      </trkpt>
      <trkpt lat="1.3897467325028154" lon="103.92818287253834">
        <ele>8.804340320962327</ele>
      </trkpt>
      <trkpt lat="1.389800967891237" lon="103.92811097204525">
        <ele>9.049260870648522</ele>
      </trkpt>
      <trkpt lat="1.3898564196140843" lon="103.92803998805056">
        <ele>9.29380745221222</ele>
      </trkpt>
      <trkpt lat="1.3899122580531036" lon="103.9279693102953">
        <ele>9.537828307175525</ele>
      </trkpt>
      <trkpt lat="1.3899695283880085" lon="103.9278997664591">
        <ele>9.781494185904988</ele>
      </trkpt>
      <trkpt lat="1.3900268835936196" lon="103.92783029214026">
        <ele>10.024788223038422</ele>
      </trkpt>
      <trkpt lat="1.390084666330479" lon="103.92776116801842">
        <ele>10.26698339458878</ele>
      </trkpt>
      <trkpt lat="1.3901455709463073" lon="103.92769503385568">
        <ele>10.506427876177154</ele>
      </trkpt>
      <trkpt lat="1.3902097924986656" lon="103.92763284615583">
        <ele>10.746746480962344</ele>
      </trkpt>
      <trkpt lat="1.3902456168685045" lon="103.92755033926693">
        <ele>10.987905007481025</ele>
      </trkpt>
      <trkpt lat="1.390299826702822" lon="103.92747940692769">
        <ele>11.231709587855653</ele>
      </trkpt>
      <trkpt lat="1.3903573803113314" lon="103.92741017463808">
        <ele>11.475258872096001</ele>
      </trkpt>
      <trkpt lat="1.3904117026226395" lon="103.92733833916405">
        <ele>11.71992067124637</ele>
      </trkpt>
      <trkpt lat="1.390463377773225" lon="103.92726459540144">
        <ele>11.965558267857121</ele>
      </trkpt>
      <trkpt lat="1.3905150529216885" lon="103.92719085163556">
        <ele>12.209228894073503</ele>
      </trkpt>
      <trkpt lat="1.3905768373317149" lon="103.92712565488905">
        <ele>12.450130416933815</ele>
      </trkpt>
      <trkpt lat="1.390641075294901" lon="103.9270624086401">
        <ele>12.690444657464573</ele>
      </trkpt>
      <trkpt lat="1.3906960787254417" lon="103.92699126275885">
        <ele>12.932819621420945</ele>
      </trkpt>
      <trkpt lat="1.3907497772955433" lon="103.92691896082808">
        <ele>13.177639851147909</ele>
      </trkpt>
      <trkpt lat="1.3908040134735682" lon="103.9268470557193">
        <ele>13.422719372818024</ele>
      </trkpt>
      <trkpt lat="1.3908582783546184" lon="103.92677517187069">
        <ele>13.667306795311836</ele>
      </trkpt>
      <trkpt lat="1.390914936366799" lon="103.92670514223789">
        <ele>13.911534611833082</ele>
      </trkpt>
      <trkpt lat="1.3909710587750677" lon="103.92663474294645">
        <ele>14.156319178264654</ele>
      </trkpt>
      <trkpt lat="1.3910200311003231" lon="103.92655920018827">
        <ele>14.40117495282945</ele>
      </trkpt>
      <trkpt lat="1.391074281563636" lon="103.92648773408476">
        <ele>14.644815598919124</ele>
      </trkpt>
      <trkpt lat="1.391135769496608" lon="103.92642185887026">
        <ele>14.888502414102149</ele>
      </trkpt>
      <trkpt lat="1.3911839513089594" lon="103.92634581591365">
        <ele>15.132397779246746</ele>
      </trkpt>
      <trkpt lat="1.3912382870509281" lon="103.9262741364044">
        <ele>15.376247841267102</ele>
      </trkpt>
      <trkpt lat="1.3912990057711454" lon="103.92620788744168">
        <ele>15.618167681580394</ele>
      </trkpt>
      <trkpt lat="1.3913577995442419" lon="103.92614019991413">
        <ele>15.84433435458476</ele>
      </trkpt>
      <trkpt lat="1.3914148869519243" lon="103.92608978459468">
        <ele>15.980051585486764</ele>
      </trkpt>
      <trkpt lat="1.3914874500804146" lon="103.9261434144278">
        <ele>16.025030792218733</ele>
      </trkpt>
      <trkpt lat="1.3915600132074115" lon="103.92619704426426">
        <ele>16.076045983047567</ele>
      </trkpt>
      <trkpt lat="1.3916189591440284" lon="103.92614011143459">
        <ele>16.218484896734214</ele>
      </trkpt>
      <trkpt lat="1.391676751529008" lon="103.92607100494996">
        <ele>16.45185120496861</ele>
      </trkpt>
      <trkpt lat="1.3917366947034127" lon="103.92600372352675">
        <ele>16.693997685191643</ele>
      </trkpt>
      <trkpt lat="1.3917954669719654" lon="103.92593569997193">
        <ele>16.937064814508588</ele>
      </trkpt>
      <trkpt lat="1.3918465522269072" lon="103.92586168732534">
        <ele>17.180232481058805</ele>
      </trkpt>
      <trkpt lat="1.3919059402486396" lon="103.92579396934093">
        <ele>17.42430593346467</ele>
      </trkpt>
      <trkpt lat="1.3919612402333414" lon="103.92572286850881">
        <ele>17.667915721369884</ele>
      </trkpt>
      <trkpt lat="1.3920166705655175" lon="103.92565186798161">
        <ele>17.912374709633877</ele>
      </trkpt>
      <trkpt lat="1.3920721222213028" lon="103.9255808838618">
        <ele>18.156630667619577</ele>
      </trkpt>
      <trkpt lat="1.3921285615512693" lon="103.9255106748309">
        <ele>18.400679365696217</ele>
      </trkpt>
      <trkpt lat="1.3921851477153422" lon="103.92544058062693">
        <ele>18.6446332777291</ele>
      </trkpt>
      <trkpt lat="1.3922411444823979" lon="103.92537002023386">
        <ele>18.888275525378727</ele>
      </trkpt>
      <trkpt lat="1.3922989921128526" lon="103.92530098953506">
        <ele>19.13125241027553</ele>
      </trkpt>
      <trkpt lat="1.3923586216443382" lon="103.92523343153456">
        <ele>19.373876381553973</ele>
      </trkpt>
      <trkpt lat="1.3924161680773643" lon="103.92516418023155">
        <ele>19.617090866045967</ele>
      </trkpt>
      <trkpt lat="1.3924710005742842" lon="103.92509272283344">
        <ele>19.825939188090807</ele>
      </trkpt>
      <trkpt lat="1.392525833069219" lon="103.92502126543197">
        <ele>19.953758548442092</ele>
      </trkpt>
      <trkpt lat="1.3925855412751584" lon="103.92495429250123">
        <ele>20.0</ele>
      </trkpt>
      <trkpt lat="1.39265301862413" lon="103.92489446529696">
        <ele>20.0</ele>
      </trkpt>
      <trkpt lat="1.3927204959717614" lon="103.92483463808931">
        <ele>20.0</ele>
      </trkpt>
      <trkpt lat="1.392787973318052" lon="103.92477481087828">
        <ele>19.841282350970985</ele>
      </trkpt>
      <trkpt lat="1.3928549916773667" lon="103.92471447696147">
        <ele>19.515248546515895</ele>
      </trkpt>
      <trkpt lat="1.392921952347838" lon="103.92465407935654">
        <ele>19.021898586634737</ele>
      </trkpt>
      <trkpt lat="1.39298891301694" lon="103.92459368174822">
        <ele>18.519902016350358</ele>
      </trkpt>
      <trkpt lat="1.3930557777492962" lon="103.92453318603613">
        <ele>18.0157614801128</ele>
      </trkpt>
      <trkpt lat="1.3931184626348705" lon="103.9244684161463">
        <ele>17.509476977922024</ele>
      </trkpt>
      <trkpt lat="1.393181147518846" lon="103.92440364625305">
        <ele>17.00250298579212</ele>
      </trkpt>
      <trkpt lat="1.3932466699890236" lon="103.92434176742657">
        <ele>16.49753819644542</ele>
      </trkpt>
      <trkpt lat="1.3933134087684367" lon="103.92428112783212">
        <ele>15.994582609881855</ele>
      </trkpt>
      <trkpt lat="1.3933801475464676" lon="103.9242204882343">
        <ele>15.492229854093438</ele>
      </trkpt>
      <trkpt lat="1.393446886323115" lon="103.92415984863308">
        <ele>14.989726686697198</ele>
      </trkpt>
      <trkpt lat="1.3935133715787742" lon="103.92409893484631">
        <ele>14.487055285939668</ele>
      </trkpt>
      <trkpt lat="1.3935798267943693" lon="103.92403798856924">
        <ele>13.983825340879093</ele>
      </trkpt>
      <trkpt lat="1.393645586370793" lon="103.92397630432819">
        <ele>13.480071105810682</ele>
      </trkpt>
      <trkpt lat="1.3937111389225896" lon="103.9239144004652">
        <ele>12.975810402488039</ele>
      </trkpt>
      <trkpt lat="1.3937766914729375" lon="103.9238524965988">
        <ele>12.470455399565315</ele>
      </trkpt>
      <trkpt lat="1.3938397934858118" lon="103.92378824765237">
        <ele>11.962802913659544</ele>
      </trkpt>
      <trkpt lat="1.3938995901579698" lon="103.92372083560956">
        <ele>11.452852944770632</ele>
      </trkpt>
      <trkpt lat="1.3939593868283795" lon="103.92365342356332">
        <ele>10.942608669312307</ele>
      </trkpt>
      <trkpt lat="1.3940216740179616" lon="103.92358841469654">
        <ele>10.434944913093704</ele>
      </trkpt>
      <trkpt lat="1.3940877405613852" lon="103.92352705264656">
        <ele>9.92986167611499</ele>
      </trkpt>
      <trkpt lat="1.3941538071033868" lon="103.92346569059318">
        <ele>9.426333924250006</ele>
      </trkpt>
      <trkpt lat="1.394219873643965" lon="103.92340432853639">
        <ele>8.923876618052617</ele>
      </trkpt>
      <trkpt lat="1.3942876257905672" lon="103.92334483461626">
        <ele>8.423014601698519</ele>
      </trkpt>
      <trkpt lat="1.3943562043965385" lon="103.92328625664999">
        <ele>7.934737443068468</ele>
      </trkpt>
      <trkpt lat="1.3944245446132422" lon="103.92322741376404">
        <ele>7.548133385541349</ele>
      </trkpt>
      <trkpt lat="1.3944907764693542" lon="103.92316622789258">
        <ele>7.262677584941268</ele>
      </trkpt>
      <trkpt lat="1.3945570083240515" lon="103.92310504201771">
        <ele>7.067380473387625</ele>
      </trkpt>
      <trkpt lat="1.394623240177334" lon="103.92304385613943">
        <ele>6.872083361833982</ele>
      </trkpt>
      <trkpt lat="1.3946894720292013" lon="103.92298267025775">
        <ele>6.649785443984531</ele>
      </trkpt>
      <trkpt lat="1.3947557040206444" lon="103.92292148452334">
        <ele>6.38016851823775</ele>
      </trkpt>
      <trkpt lat="1.3948219360384309" lon="103.92286029881518">
        <ele>6.067069465502487</ele>
      </trkpt>
      <trkpt lat="1.3948881680350502" lon="103.92279911308252">
        <ele>5.768300466035883</ele>
      </trkpt>
      <trkpt lat="1.3949543999608771" lon="103.92273792727231">
        <ele>5.504179721439378</ele>
      </trkpt>
      <trkpt lat="1.3950206318852882" lon="103.92267674145869">
        <ele>5.270870350804106</ele>
      </trkpt>
      <trkpt lat="1.3950868638082823" lon="103.92261555564167">
        <ele>5.037561236765175</ele>
      </trkpt>
      <trkpt lat="1.3951530955892815" lon="103.922554369671">
        <ele>4.804252383411914</ele>
      </trkpt>
      <trkpt lat="1.3952193273666231" lon="103.92249318369454">
        <ele>4.570943790744206</ele>
      </trkpt>
      <trkpt lat="1.395285559142548" lon="103.92243199771468">
        <ele>4.337635202165828</ele>
      </trkpt>
      <trkpt lat="1.3953517909170554" lon="103.92237081173141">
        <ele>4.100418543215174</ele>
      </trkpt>
      <trkpt lat="1.3954180226901451" lon="103.92230962574475">
        <ele>3.8407509769328225</ele>
      </trkpt>
      <trkpt lat="1.395484254461817" lon="103.92224843975464">
        <ele>3.5960157004650735</ele>
      </trkpt>
      <trkpt lat="1.3955307375779344" lon="103.92231143038006">
        <ele>3.33450978807813</ele>
      </trkpt>
      <trkpt lat="1.3955810645151732" lon="103.92238537129964">
        <ele>3.0645701320501573</ele>
      </trkpt>
      <trkpt lat="1.3956396400455247" lon="103.92245328465592">
        <ele>2.7702443329880957</ele>
      </trkpt>
      <trkpt lat="1.3956810462912552" lon="103.92253317098135">
        <ele>2.490526770661514</ele>
      </trkpt>
      <trkpt lat="1.395748787756825" lon="103.92248374263053">
        <ele>2.235837367894202</ele>
      </trkpt>
      <trkpt lat="1.3958181947614632" lon="103.92242613592094">
        <ele>1.9847453269328976</ele>
      </trkpt>
      <trkpt lat="1.395887601764858" lon="103.92236852920801">
        <ele>1.7338672641140296</ele>
      </trkpt>
      <trkpt lat="1.3959570087670103" lon="103.92231092249175">
        <ele>1.4791594881888626</ele>
      </trkpt>
      <trkpt lat="1.396026415767919" lon="103.92225331577212">
        <ele>1.2035812290243582</ele>
      </trkpt>
      <trkpt lat="1.396095822767585" lon="103.92219570904918">
        <ele>0.9158009361481282</ele>
      </trkpt>
      <trkpt lat="1.3961652297660072" lon="103.92213810232289">
        <ele>0.7252636070538436</ele>
      </trkpt>
      <trkpt lat="1.3962350952678297" lon="103.92208105424676">
        <ele>0.6472271986318668</ele>
      </trkpt>
      <trkpt lat="1.396305851411552" lon="103.9220250913491">
        <ele>0.673023261354735</ele>
      </trkpt>
      <trkpt lat="1.3963766075541062" lon="103.92196912844813">
        <ele>0.6970365108350061</ele>
      </trkpt>
      <trkpt lat="1.3964473636954922" lon="103.92191316554387">
        <ele>0.721049760315324</ele>
      </trkpt>
      <trkpt lat="1.3965181198357097" lon="103.9218572026363">
        <ele>0.745063009795572</ele>
      </trkpt>
      <trkpt lat="1.3965888759747587" lon="103.92180123972545">
        <ele>0.7690762592758879</ele>
      </trkpt>
      <trkpt lat="1.396659632112639" lon="103.92174527681128">
        <ele>0.7930895087560907</ele>
      </trkpt>
      <trkpt lat="1.3967303882493498" lon="103.92168931389384">
        <ele>0.7883803631619627</ele>
      </trkpt>
      <trkpt lat="1.396802027041958" lon="103.92163448844832">
        <ele>0.8162809710541922</ele>
      </trkpt>
      <trkpt lat="1.3968744939672215" lon="103.92158073021088">
        <ele>0.8925412002719041</ele>
      </trkpt>
      <trkpt lat="1.3969355094990075" lon="103.92151861840804">
        <ele>1.0800268738548526</ele>
      </trkpt>
      <trkpt lat="1.3969666131670635" lon="103.92144000405506">
        <ele>1.1816446445658315</ele>
      </trkpt>
      <trkpt lat="1.3970520670046247" lon="103.92146882958623">
        <ele>1.070404080132619</ele>
      </trkpt>
      <trkpt lat="1.3971111271181724" lon="103.92152627307587">
        <ele>0.9469031985777874</ele>
      </trkpt>
      <trkpt lat="1.3971779254534733" lon="103.92146569814835">
        <ele>0.9187666473982637</ele>
      </trkpt>
      <trkpt lat="1.3972012951965926" lon="103.92144450569555">
        <ele>0.9187666473982637</ele>
      </trkpt>
      <trkpt lat="1.3972401178518061" lon="103.92137783969895">
        <ele>1.2719116090346427</ele>
      </trkpt>
      <trkpt lat="1.3971965398749264" lon="103.92129910200813">
        <ele>1.5814380597857405</ele>
      </trkpt>
      <trkpt lat="1.3971549096891538" lon="103.92122390268115">
        <ele>1.76126487348953</ele>
      </trkpt>
    </trkseg>
  </trk>
</gpx>