{
"type": "FeatureCollection",
"name": "point_to_point_05000m_039",
"crs": { "type": "name", "properties": { "name": "urn:ogc:def:crs:OGC:1.3:CRS84" } },
"features": [
{ "type": "Feature", "properties": { "route_id": "point_to_point_05000m_039", "budget_km": 5.0, "mode": "point_to_point", "rank": 39, "distance_m": 4110.771447799777, "ascent_m": 31.869668814167333, "descent_m": 31.922570664499847, "gain_density_m_per_km": 7.7527221395937866, "source_confidence": 0.65 }, "geometry": { "type": "LineString", "coordinates": [ [ 103.817965674967169, 1.41465441889793 ], [ 103.8177739, 1.4146786 ], [ 103.8176738, 1.4147065 ], [ 103.8175848, 1.4147188 ], [ 103.8171422, 1.4147376 ], [ 103.8169706, 1.4147751 ], [ 103.8158467, 1.4151425 ], [ 103.8156617, 1.4151746 ], [ 103.8151574, 1.4152015 ], [ 103.8150609, 1.415172 ], [ 103.8149938, 1.4151237 ], [ 103.8147765, 1.4148609 ], [ 103.8145017, 1.4146467 ], [ 103.814393, 1.4145821 ], [ 103.814264200000011, 1.4145204 ], [ 103.8141596, 1.4145016 ], [ 103.8140389, 1.414515 ], [ 103.813853900000012, 1.4145418 ], [ 103.8129687, 1.4147966 ], [ 103.8124001, 1.4150593 ], [ 103.811818100000011, 1.4152765 ], [ 103.8113567, 1.4154133 ], [ 103.8109142, 1.415601 ], [ 103.8107264, 1.4156466 ], [ 103.8103241, 1.4157136 ], [ 103.8098976, 1.4157082 ], [ 103.80983860000002, 1.4157538 ], [ 103.8098118, 1.4158101 ], [ 103.8098171, 1.4158638 ], [ 103.8099432, 1.4161078 ], [ 103.8099432, 1.4161614 ], [ 103.8099083, 1.416215 ], [ 103.8098145, 1.4162257 ], [ 103.8097796, 1.4162499 ], [ 103.8096616, 1.4163786 ], [ 103.8095328, 1.4164403 ], [ 103.8095033, 1.4164671 ], [ 103.8094872, 1.41651 ], [ 103.809624, 1.4168478 ], [ 103.8096777, 1.4169122 ], [ 103.8097447, 1.4169417 ], [ 103.8098091, 1.4169444 ], [ 103.8100156, 1.4168751 ], [ 103.8102517, 1.4168022 ], [ 103.8104582, 1.4166843 ], [ 103.8107371, 1.416569 ], [ 103.8109866, 1.4164134 ], [ 103.8110536, 1.4164 ], [ 103.8111904, 1.4163732 ], [ 103.8112441, 1.4163357 ], [ 103.8113138, 1.4162526 ], [ 103.8113782, 1.4162097 ], [ 103.8116088, 1.4161158 ], [ 103.8116625, 1.4160944 ], [ 103.811684, 1.4160595 ], [ 103.8117564, 1.4159549 ], [ 103.8118073, 1.4159201 ], [ 103.8118798, 1.4158959 ], [ 103.811979, 1.415845 ], [ 103.8120192, 1.4158369 ], [ 103.8120541, 1.4158611 ], [ 103.812072900000018, 1.4158906 ], [ 103.8121024, 1.4159978 ], [ 103.8121292, 1.4160488 ], [ 103.8121882, 1.4161078 ], [ 103.8122606, 1.4161641 ], [ 103.8122901, 1.416215 ], [ 103.8123035, 1.416266 ], [ 103.8122928, 1.4163089 ], [ 103.8121051, 1.4165046 ], [ 103.8120487, 1.4165609 ], [ 103.8116464, 1.4167433 ], [ 103.8115606, 1.4168049 ], [ 103.8113594, 1.4169819 ], [ 103.8113058, 1.4170141 ], [ 103.8112414, 1.4170221 ], [ 103.8111542, 1.4170248 ], [ 103.8107425, 1.4169497 ], [ 103.8106164, 1.41688 ], [ 103.8104823, 1.4168398 ], [ 103.810249, 1.4169015 ], [ 103.8101712, 1.4169551 ], [ 103.8100183, 1.4171642 ], [ 103.8097689, 1.4172956 ], [ 103.8096911, 1.4173385 ], [ 103.8095301, 1.417553 ], [ 103.8095248, 1.4175986 ], [ 103.8095275, 1.4176415 ], [ 103.8095663, 1.4177072 ], [ 103.8095757, 1.4177461 ], [ 103.809557, 1.4177863 ], [ 103.809455, 1.4178882 ], [ 103.8094416, 1.4179204 ], [ 103.809452400000012, 1.4179552 ], [ 103.809583800000013, 1.4181644 ], [ 103.809616, 1.4182073 ], [ 103.809675, 1.4182421 ], [ 103.8097957, 1.4183011 ], [ 103.8105333, 1.4184754 ], [ 103.8107774, 1.4184406 ], [ 103.8109544, 1.4183762 ], [ 103.8115928, 1.4178239 ], [ 103.8116464, 1.4177568 ], [ 103.811818100000011, 1.4174592 ], [ 103.8118932, 1.4173492 ], [ 103.8121212, 1.4170918 ], [ 103.8122526, 1.4169095 ], [ 103.8125986, 1.4162552 ], [ 103.8126281, 1.4162284 ], [ 103.8126656, 1.4162284 ], [ 103.8127005, 1.4162686 ], [ 103.8128024, 1.4164778 ], [ 103.8128561, 1.4165502 ], [ 103.8134542, 1.4172179 ], [ 103.813532, 1.417301 ], [ 103.8136071, 1.4173224 ], [ 103.813701, 1.4173171 ], [ 103.8146344, 1.4171964 ], [ 103.8147792, 1.4171937 ], [ 103.8150743, 1.4172152 ], [ 103.815136, 1.4172071 ], [ 103.8153065, 1.4170725 ], [ 103.815621423967286, 1.416823699746977 ], [ 103.8158172, 1.4167754 ], [ 103.8158789, 1.4167352 ], [ 103.8159782, 1.4166789 ], [ 103.8160318, 1.4166735 ], [ 103.8161874, 1.4167245 ], [ 103.8162464, 1.4167298 ], [ 103.8164932, 1.416703 ], [ 103.8165763, 1.4166548 ], [ 103.8166809, 1.4166601 ], [ 103.8167641, 1.4166226 ], [ 103.8168311, 1.4165475 ], [ 103.8168901, 1.4165475 ], [ 103.8169464, 1.4165716 ], [ 103.8170028, 1.4165824 ], [ 103.8172495, 1.4165904 ], [ 103.8174292, 1.4166038 ], [ 103.8175338, 1.4165877 ], [ 103.8177538, 1.4165448 ], [ 103.8178638, 1.4165341 ], [ 103.8181749, 1.4165314 ], [ 103.8183066, 1.4165488 ], [ 103.8183868, 1.4165287 ], [ 103.8184646, 1.4164885 ], [ 103.8184941, 1.4164322 ], [ 103.81853430000001, 1.4163893 ], [ 103.8187087, 1.4163169 ], [ 103.8187918, 1.4162713 ], [ 103.8188669, 1.4162123 ], [ 103.8189608, 1.4161587 ], [ 103.818987600000014, 1.4161292 ], [ 103.8190225, 1.4160541 ], [ 103.8190842, 1.4160139 ], [ 103.8192451, 1.4158825 ], [ 103.8193282, 1.4157592 ], [ 103.8193765, 1.4156358 ], [ 103.819387324543698, 1.415558068354429 ], [ 103.8192907, 1.4155259 ], [ 103.8192075, 1.4154991 ], [ 103.8191566, 1.4154776 ], [ 103.8191405, 1.4154294 ], [ 103.8191539, 1.4153382 ], [ 103.8191244, 1.4152953 ], [ 103.8190493, 1.4152953 ], [ 103.8188106, 1.4153462 ], [ 103.8186389, 1.415424 ], [ 103.8185182, 1.4154455 ], [ 103.8183144, 1.4154589 ], [ 103.8181883, 1.4154723 ], [ 103.8181213, 1.4155018 ], [ 103.8180461, 1.4155742 ], [ 103.8180099, 1.415668 ], [ 103.8179845, 1.4157002 ], [ 103.8178423, 1.4157753 ], [ 103.8177779, 1.4158316 ], [ 103.8175875, 1.415904 ], [ 103.8175017, 1.4159174 ], [ 103.8174266, 1.4159093 ], [ 103.8173407, 1.4158745 ], [ 103.8172388, 1.4158879 ], [ 103.817161, 1.4159549 ], [ 103.8170242, 1.4159951 ], [ 103.8168338, 1.4159683 ], [ 103.8166863, 1.4160086 ], [ 103.8166246, 1.4160354 ], [ 103.8165441, 1.4160541 ], [ 103.8164744, 1.4160434 ], [ 103.8163778, 1.4160112 ], [ 103.8163134, 1.416022 ], [ 103.8162678, 1.4160407 ], [ 103.8162142, 1.4160756 ], [ 103.815465882943087, 1.41622573314561 ], [ 103.8154659, 1.4161668 ], [ 103.8155007, 1.4160997 ], [ 103.8155785, 1.415963 ], [ 103.8156939, 1.4158584 ], [ 103.8158199, 1.4157699 ], [ 103.8159111, 1.4157485 ], [ 103.8160479, 1.4157404 ], [ 103.816241, 1.4156761 ], [ 103.8163966, 1.4156653 ], [ 103.8165763, 1.4156412 ], [ 103.8174427, 1.4153328 ], [ 103.817499, 1.415298 ], [ 103.8175365, 1.4152417 ], [ 103.817552600000013, 1.4151156 ], [ 103.8175794, 1.4149521 ], [ 103.817673813462747, 1.414706508295517 ] ] } }
]
}
