<?xml version="1.0" encoding="UTF-8"?>
<gpx xmlns="http://www.topografix.com/GPX/1/1" xmlns:xsi="http://www.w3.org/2001/XMLSchema-instance" xsi:schemaLocation="http://www.topografix.com/GPX/1/1 http://www.topografix.com/GPX/1/1/gpx.xsd" version="1.1" creator="gpx.py -- https://github.com/tkrajina/gpxpy">
  <trk>
    <name>point_to_point_10000m_006</name>
    <trkseg>
      <trkpt lat="1.3569666777862517" lon="103.64071149870836">
        <ele>0.8789988019866551</ele>
      </trkpt>
      <trkpt lat="1.3570483385629648" lon="103.64075011048885">
        <ele>0.8593625470237569</ele>
      </trkpt>
      <trkpt lat="1.357129999339374" lon="103.64078872227164">
        <ele>0.8239757206706336</ele>
      </trkpt>
      <trkpt lat="1.357211096994797" lon="103.64082846393336">
        <ele>0.7972442935647956</ele>
      </trkpt>
      <trkpt lat="1.357291503413567" lon="103.64086959253241">
        <ele>0.7791682657061997</ele>
      </trkpt>
      <trkpt lat="1.3573719098319696" lon="103.6409107211339">
        <ele>0.7658619535221</ele>
      </trkpt>
      <trkpt lat="1.3574523162500054" lon="103.64095184973783">
        <ele>0.7525556413379787</ele>
      </trkpt>
      <trkpt lat="1.3575327226676728" lon="103.64099297834422">
        <ele>0.7660897042351452</ele>
      </trkpt>
      <trkpt lat="1.3576084772791306" lon="103.64104150632464">
        <ele>0.825415837962054</ele>
      </trkpt>
      <trkpt lat="1.3576809473005806" lon="103.6410952589235">
        <ele>0.894466944055018</ele>
      </trkpt>
      <trkpt lat="1.3577499339938681" lon="103.64115311443369">
        <ele>0.9062880459797525</ele>
      </trkpt>
      <trkpt lat="1.3578154722349212" lon="103.64121503177579">
        <ele>0.8419274479876991</ele>
      </trkpt>
      <trkpt lat="1.3578810104748202" lon="103.64127694912119">
        <ele>0.7812087299545657</ele>
      </trkpt>
      <trkpt lat="1.357935985522884" lon="103.64134782815746">
        <ele>0.7795589863242555</ele>
      </trkpt>
      <trkpt lat="1.3579872640017707" lon="103.64142184332162">
        <ele>0.8556670721644927</ele>
      </trkpt>
      <trkpt lat="1.3580334514330432" lon="103.64149898585215">
        <ele>0.9748313466681262</ele>
      </trkpt>
      <trkpt lat="1.3580771722259073" lon="103.64157764360833">
        <ele>1.1217393168444263</ele>
      </trkpt>
      <trkpt lat="1.358120893016584" lon="103.64165630136756">
        <ele>1.2777021276258294</ele>
      </trkpt>
      <trkpt lat="1.3581646138050725" lon="103.6417349591299">
        <ele>1.4547915087204142</ele>
      </trkpt>
      <trkpt lat="1.3582083345913736" lon="103.6418136168953">
        <ele>1.691017367776439</ele>
      </trkpt>
      <trkpt lat="1.358252055375486" lon="103.6418922746638">
        <ele>1.890906547082036</ele>
      </trkpt>
      <trkpt lat="1.35829577615741" lon="103.64197093243536">
        <ele>2.0333324763242</ele>
      </trkpt>
      <trkpt lat="1.3583394969371454" lon="103.64204959021001">
        <ele>2.0802852478542646</ele>
      </trkpt>
      <trkpt lat="1.3583832177146917" lon="103.64212824798774">
        <ele>2.1272380193843445</ele>
      </trkpt>
      <trkpt lat="1.3584269384900487" lon="103.64220690576855">
        <ele>2.1741907909144085</ele>
      </trkpt>
      <trkpt lat="1.3584706592632165" lon="103.64228556355243">
        <ele>2.221143562444489</ele>
      </trkpt>
      <trkpt lat="1.3585143800341946" lon="103.64236422133939">
        <ele>2.268096333974553</ele>
      </trkpt>
      <trkpt lat="1.3585581008029828" lon="103.64244287912943">
        <ele>2.315049105504633</ele>
      </trkpt>
      <trkpt lat="1.3586018215695799" lon="103.64252153692256">
        <ele>2.401097308323818</ele>
      </trkpt>
      <trkpt lat="1.3586455423339878" lon="103.64260019471878">
        <ele>2.559028159516909</ele>
      </trkpt>
      <trkpt lat="1.3586922029933057" lon="103.6426771007083">
        <ele>2.7768685664990116</ele>
      </trkpt>
      <trkpt lat="1.3587414490085998" lon="103.6427524661521">
        <ele>3.0155230979814527</ele>
      </trkpt>
      <trkpt lat="1.3587906950219422" lon="103.64282783159915">
        <ele>3.2422045368790164</ele>
      </trkpt>
      <trkpt lat="1.358839941033331" lon="103.64290319704943">
        <ele>3.4016800264007556</ele>
      </trkpt>
      <trkpt lat="1.3589019990305193" lon="103.64296821332539">
        <ele>3.482704299846707</ele>
      </trkpt>
      <trkpt lat="1.3589662007982297" lon="103.64303149792372">
        <ele>3.485277357216918</ele>
      </trkpt>
      <trkpt lat="1.3590304025647113" lon="103.64309478252538">
        <ele>3.33967005039978</ele>
      </trkpt>
      <trkpt lat="1.359099552009562" lon="103.64315234410823">
        <ele>2.982075630754474</ele>
      </trkpt>
      <trkpt lat="1.3591722009331662" lon="103.64320585781701">
        <ele>2.619955774774177</ele>
      </trkpt>
      <trkpt lat="1.3592448498559866" lon="103.64325937152886">
        <ele>2.413859157841579</ele>
      </trkpt>
      <trkpt lat="1.359317498778023" lon="103.64331288524376">
        <ele>2.438837795297246</ele>
      </trkpt>
      <trkpt lat="1.3593901476992745" lon="103.64336639896172">
        <ele>2.487430010648147</ele>
      </trkpt>
      <trkpt lat="1.359462796619742" lon="103.64341991268275">
        <ele>2.5208287459798964</ele>
      </trkpt>
      <trkpt lat="1.3595379194555395" lon="103.64346965978439">
        <ele>2.517972912431673</ele>
      </trkpt>
      <trkpt lat="1.3596164716148724" lon="103.6435141856248">
        <ele>2.4788625100034776</ele>
      </trkpt>
      <trkpt lat="1.3596950237737344" lon="103.64355871146785">
        <ele>2.418691018714462</ele>
      </trkpt>
      <trkpt lat="1.3597735759321257" lon="103.64360323731354">
        <ele>2.358519527425423</ele>
      </trkpt>
      <trkpt lat="1.359852128090046" lon="103.64364776316187">
        <ele>2.1044180786808018</ele>
      </trkpt>
      <trkpt lat="1.3599306802474955" lon="103.64369228901283">
        <ele>1.674145753171052</ele>
      </trkpt>
      <trkpt lat="1.3600092324044735" lon="103.64373681486644">
        <ele>1.2659625414855258</ele>
      </trkpt>
      <trkpt lat="1.3600877845609805" lon="103.64378134072268">
        <ele>1.073798401079794</ele>
      </trkpt>
      <trkpt lat="1.3601663367170154" lon="103.6438258665816">
        <ele>1.0798942512633787</ele>
      </trkpt>
      <trkpt lat="1.360244888872579" lon="103.64387039244312">
        <ele>1.085646870256949</ele>
      </trkpt>
      <trkpt lat="1.360323539664143" lon="103.64391474311307">
        <ele>1.0888172195303498</ele>
      </trkpt>
      <trkpt lat="1.3604028339016214" lon="103.64395795092152">
        <ele>1.0894052990835694</ele>
      </trkpt>
      <trkpt lat="1.3604821281386679" lon="103.64400115873252">
        <ele>1.0877543401066638</ele>
      </trkpt>
      <trkpt lat="1.36056142237528" lon="103.64404436654611">
        <ele>1.0861033811297465</ele>
      </trkpt>
      <trkpt lat="1.3606407166114594" lon="103.64408757436226">
        <ele>1.084452422152841</ele>
      </trkpt>
      <trkpt lat="1.3607200108472046" lon="103.64413078218098">
        <ele>1.0178602269150312</ele>
      </trkpt>
      <trkpt lat="1.3607993050825165" lon="103.64417399000227">
        <ele>0.9347525648173809</ele>
      </trkpt>
      <trkpt lat="1.3608785993173944" lon="103.64421719782614">
        <ele>0.8517694805167554</ele>
      </trkpt>
      <trkpt lat="1.3609578935518385" lon="103.64426040565256">
        <ele>0.8338522102740688</ele>
      </trkpt>
      <trkpt lat="1.3610371877858487" lon="103.64430361348157">
        <ele>0.8325749846882592</ele>
      </trkpt>
      <trkpt lat="1.3611164820194241" lon="103.64434682131314">
        <ele>0.8312977591024499</ele>
      </trkpt>
      <trkpt lat="1.3611957762525657" lon="103.64439002914729">
        <ele>0.830020533516631</ele>
      </trkpt>
      <trkpt lat="1.3612750704852723" lon="103.64443323698401">
        <ele>0.8287433079308214</ele>
      </trkpt>
      <trkpt lat="1.3613543647175443" lon="103.64447644482328">
        <ele>0.8274660823450538</ele>
      </trkpt>
      <trkpt lat="1.3614336589493816" lon="103.64451965266515">
        <ele>0.8250765850729666</ele>
      </trkpt>
      <trkpt lat="1.361513353578372" lon="103.64456211963045">
        <ele>0.8013014761170272</ele>
      </trkpt>
      <trkpt lat="1.3615934045867681" lon="103.6446039271678">
        <ele>0.7703104174539921</ele>
      </trkpt>
      <trkpt lat="1.3616734555947678" lon="103.64464573470765">
        <ele>0.7385588118970651</ele>
      </trkpt>
      <trkpt lat="1.361753506602372" lon="103.64468754224998">
        <ele>0.7263199994438109</ele>
      </trkpt>
      <trkpt lat="1.36183355760958" lon="103.64472934979482">
        <ele>0.7194243181174409</ele>
      </trkpt>
      <trkpt lat="1.3619136086163917" lon="103.64477115734215">
        <ele>0.7125286367911091</ele>
      </trkpt>
      <trkpt lat="1.3619936596228073" lon="103.64481296489197">
        <ele>0.7056329554647774</ele>
      </trkpt>
      <trkpt lat="1.3620737106288268" lon="103.64485477244428">
        <ele>0.6987372741384456</ele>
      </trkpt>
      <trkpt lat="1.3621537616344497" lon="103.6448965799991">
        <ele>0.6918415928120757</ele>
      </trkpt>
      <trkpt lat="1.3622338126396754" lon="103.6449383875564">
        <ele>0.6849459114856972</ele>
      </trkpt>
      <trkpt lat="1.362313863644505" lon="103.64498019511619">
        <ele>0.6780502301593181</ele>
      </trkpt>
      <trkpt lat="1.3623939146489372" lon="103.64502200267849">
        <ele>0.6711545488329361</ele>
      </trkpt>
      <trkpt lat="1.3624739656529725" lon="103.64506381024329">
        <ele>0.664258867506598</ele>
      </trkpt>
      <trkpt lat="1.3625540166566108" lon="103.64510561781057">
        <ele>0.6573631861802575</ele>
      </trkpt>
      <trkpt lat="1.3626340676598516" lon="103.64514742538034">
        <ele>0.6504675048539169</ele>
      </trkpt>
      <trkpt lat="1.362714118662695" lon="103.64518923295263">
        <ele>0.6435718235275384</ele>
      </trkpt>
      <trkpt lat="1.362794169665141" lon="103.6452310405274">
        <ele>0.6366761422011598</ele>
      </trkpt>
      <trkpt lat="1.362874220667189" lon="103.64527284810467">
        <ele>0.6311488826397186</ele>
      </trkpt>
      <trkpt lat="1.3629537313118643" lon="103.6453156589544">
        <ele>0.6272261471038972</ele>
      </trkpt>
      <trkpt lat="1.3630331487249834" lon="103.64535864290706">
        <ele>0.6249079355936957</ele>
      </trkpt>
      <trkpt lat="1.3631125661376713" lon="103.64540162686227">
        <ele>0.6228258263441933</ele>
      </trkpt>
      <trkpt lat="1.3631919835499278" lon="103.64544461082005">
        <ele>0.6207437170946951</ele>
      </trkpt>
      <trkpt lat="1.3632714009617526" lon="103.64548759478039">
        <ele>0.618661607845196</ele>
      </trkpt>
      <trkpt lat="1.363350818373146" lon="103.64553057874329">
        <ele>0.6165794985956848</ele>
      </trkpt>
      <trkpt lat="1.363430235784108" lon="103.64557356270878">
        <ele>0.6144973893461795</ele>
      </trkpt>
      <trkpt lat="1.3635096531946376" lon="103.64561654667682">
        <ele>0.6124152800966768</ele>
      </trkpt>
      <trkpt lat="1.363589070604735" lon="103.64565953064741">
        <ele>0.6103331708471363</ele>
      </trkpt>
      <trkpt lat="1.3636684880144008" lon="103.64570251462058">
        <ele>0.6082510615975898</ele>
      </trkpt>
      <trkpt lat="1.3637479054236337" lon="103.64574549859631">
        <ele>0.6061689523480518</ele>
      </trkpt>
      <trkpt lat="1.363827322832435" lon="103.64578848257462">
        <ele>0.6040868430985493</ele>
      </trkpt>
      <trkpt lat="1.3639067402408025" lon="103.64583146655548">
        <ele>0.6018797223403457</ele>
      </trkpt>
      <trkpt lat="1.3639861576487382" lon="103.64587445053891">
        <ele>0.5994812254370178</ele>
      </trkpt>
      <trkpt lat="1.3640655750562403" lon="103.64591743452492">
        <ele>0.5968913523885636</ele>
      </trkpt>
      <trkpt lat="1.36414499246331" lon="103.64596041851348">
        <ele>0.5942351147036828</ele>
      </trkpt>
      <trkpt lat="1.3642244098699465" lon="103.64600340250462">
        <ele>0.5915788770187932</ele>
      </trkpt>
      <trkpt lat="1.3643038272761494" lon="103.64604638649831">
        <ele>0.5889226393339119</ele>
      </trkpt>
      <trkpt lat="1.3643832446819188" lon="103.64608937049458">
        <ele>0.5862664016490279</ele>
      </trkpt>
      <trkpt lat="1.3644626620872549" lon="103.64613235449342">
        <ele>0.5836101639641466</ele>
      </trkpt>
      <trkpt lat="1.3645420794921572" lon="103.64617533849483">
        <ele>0.5809539262792569</ele>
      </trkpt>
      <trkpt lat="1.364621496896626" lon="103.6462183224988">
        <ele>0.5782976885943759</ele>
      </trkpt>
      <trkpt lat="1.3647009143006603" lon="103.64626130650534">
        <ele>0.5299172146368399</ele>
      </trkpt>
      <trkpt lat="1.3647803317042606" lon="103.64630429051445">
        <ele>0.428812055096319</ele>
      </trkpt>
      <trkpt lat="1.3648597491074266" lon="103.64634727452612">
        <ele>0.3250365226801709</ele>
      </trkpt>
      <trkpt lat="1.3649391665101585" lon="103.64639025854038">
        <ele>0.2674029355663025</ele>
      </trkpt>
      <trkpt lat="1.3650185839124556" lon="103.6464332425572">
        <ele>0.26291174306502585</ele>
      </trkpt>
      <trkpt lat="1.3650980013143184" lon="103.64647622657658">
        <ele>0.2615086324689947</ele>
      </trkpt>
      <trkpt lat="1.365177418715746" lon="103.64651921059854">
        <ele>0.2601055218729595</ele>
      </trkpt>
      <trkpt lat="1.365256836116739" lon="103.64656219462307">
        <ele>0.25870241127694615</ele>
      </trkpt>
      <trkpt lat="1.3653362535172962" lon="103.64660517865016">
        <ele>0.25729930068093276</ele>
      </trkpt>
      <trkpt lat="1.365415670917419" lon="103.64664816267982">
        <ele>0.25589619008491943</ele>
      </trkpt>
      <trkpt lat="1.365495088317106" lon="103.64669114671207">
        <ele>0.25449307948890604</ele>
      </trkpt>
      <trkpt lat="1.365574505716358" lon="103.64673413074688">
        <ele>0.25308996889289265</ele>
      </trkpt>
      <trkpt lat="1.3656539231151734" lon="103.64677711478427">
        <ele>0.25168685829687926</ele>
      </trkpt>
      <trkpt lat="1.3657333405135539" lon="103.64682009882422">
        <ele>0.25028374770086187</ele>
      </trkpt>
      <trkpt lat="1.365812757911498" lon="103.64686308286673">
        <ele>0.2488806371048485</ele>
      </trkpt>
      <trkpt lat="1.3658921753090063" lon="103.64690606691182">
        <ele>0.24747752650883514</ele>
      </trkpt>
      <trkpt lat="1.3659715927060787" lon="103.6469490509595">
        <ele>0.24607441591282175</ele>
      </trkpt>
      <trkpt lat="1.3660510101027143" lon="103.64699203500975">
        <ele>0.24467130531680437</ele>
      </trkpt>
      <trkpt lat="1.3661304274989137" lon="103.64703501906254">
        <ele>0.243268194720791</ele>
      </trkpt>
      <trkpt lat="1.366209844894676" lon="103.64707800311794">
        <ele>0.24186508412477767</ele>
      </trkpt>
      <trkpt lat="1.366289262290002" lon="103.6471209871759">
        <ele>0.23978003703501824</ele>
      </trkpt>
      <trkpt lat="1.366369255426968" lon="103.64716289451079">
        <ele>0.2385622117362548</ele>
      </trkpt>
      <trkpt lat="1.3664495575779327" lon="103.64720422394406">
        <ele>0.24637296497867775</ele>
      </trkpt>
      <trkpt lat="1.3665298597285072" lon="103.6472455533798">
        <ele>0.2598700980113137</ele>
      </trkpt>
      <trkpt lat="1.3666101618786903" lon="103.64728688281802">
        <ele>0.2775044525494166</ele>
      </trkpt>
      <trkpt lat="1.366690464028483" lon="103.64732821225871">
        <ele>0.2911146718428</ele>
      </trkpt>
      <trkpt lat="1.3667707661778845" lon="103.6473695417019">
        <ele>0.30472489113619877</ele>
      </trkpt>
      <trkpt lat="1.3668510683268946" lon="103.64741087114756">
        <ele>0.3183351104295975</ele>
      </trkpt>
      <trkpt lat="1.3669313704755135" lon="103.64745220059571">
        <ele>0.33194532972299623</ele>
      </trkpt>
      <trkpt lat="1.3670116726237405" lon="103.64749353004632">
        <ele>0.3455555490163797</ele>
      </trkpt>
      <trkpt lat="1.3670919747715764" lon="103.64753485949943">
        <ele>0.3591657683097784</ele>
      </trkpt>
      <trkpt lat="1.36717227691902" lon="103.64757618895501">
        <ele>0.3727759876031771</ele>
      </trkpt>
      <trkpt lat="1.3672525790660721" lon="103.64761751841309">
        <ele>0.3856291534666784</ele>
      </trkpt>
      <trkpt lat="1.3673328812127323" lon="103.64765884787361">
        <ele>0.3894394496958307</ele>
      </trkpt>
      <trkpt lat="1.3674131833590009" lon="103.64770017733666">
        <ele>0.3842068762906718</ele>
      </trkpt>
      <trkpt lat="1.367493485504876" lon="103.64774150680216">
        <ele>0.3706884866810765</ele>
      </trkpt>
      <trkpt lat="1.3675737876503593" lon="103.64778283627015">
        <ele>0.35717009707148134</ele>
      </trkpt>
      <trkpt lat="1.3676540897954501" lon="103.64782416574063">
        <ele>0.3438943171320619</ele>
      </trkpt>
      <trkpt lat="1.3677342153626948" lon="103.64786582719948">
        <ele>0.3315739184199015</ele>
      </trkpt>
      <trkpt lat="1.3678138221563605" lon="103.64790846401402">
        <ele>0.3202089009349824</ele>
      </trkpt>
      <trkpt lat="1.367893428949596" lon="103.64795110083114">
        <ele>0.30955665500712876</ele>
      </trkpt>
      <trkpt lat="1.3679730357424027" lon="103.6479937376508">
        <ele>0.2989044090792797</ele>
      </trkpt>
      <trkpt lat="1.368052642534779" lon="103.64803637447301">
        <ele>0.28825216315143054</ele>
      </trkpt>
      <trkpt lat="1.3681322493267258" lon="103.64807901129778">
        <ele>0.2775999172235814</ele>
      </trkpt>
      <trkpt lat="1.3682118561182424" lon="103.64812164812511">
        <ele>0.2669476712957322</ele>
      </trkpt>
      <trkpt lat="1.3682914629093292" lon="103.64816428495502">
        <ele>0.25629542536788313</ele>
      </trkpt>
      <trkpt lat="1.3683710696999856" lon="103.64820692178746">
        <ele>0.24564317944003408</ele>
      </trkpt>
      <trkpt lat="1.3684506764902116" lon="103.64824955862247">
        <ele>0.234990933512185</ele>
      </trkpt>
      <trkpt lat="1.368530283280007" lon="103.64829219546006">
        <ele>0.2243386875843313</ele>
      </trkpt>
      <trkpt lat="1.3686098900693715" lon="103.6483348323002">
        <ele>0.21368644165647774</ele>
      </trkpt>
      <trkpt lat="1.3686894968583059" lon="103.64837746914287">
        <ele>0.20455908329911984</ele>
      </trkpt>
      <trkpt lat="1.3687691036468086" lon="103.64842010598814">
        <ele>0.1993058983112476</ele>
      </trkpt>
      <trkpt lat="1.3688487104348805" lon="103.64846274283595">
        <ele>0.19792688669286</ele>
      </trkpt>
      <trkpt lat="1.3689283172225208" lon="103.64850537968631">
        <ele>0.1988971608734554</ele>
      </trkpt>
      <trkpt lat="1.3690079240097301" lon="103.64854801653925">
        <ele>0.1998674350540508</ele>
      </trkpt>
      <trkpt lat="1.3690875307965082" lon="103.64859065339475">
        <ele>0.20083770923463953</ele>
      </trkpt>
      <trkpt lat="1.3691671375828542" lon="103.64863329025279">
        <ele>0.2018079834152283</ele>
      </trkpt>
      <trkpt lat="1.369246744368769" lon="103.64867592711342">
        <ele>0.20277825759582</ele>
      </trkpt>
      <trkpt lat="1.3693263511542515" lon="103.6487185639766">
        <ele>0.2037485317764091</ele>
      </trkpt>
      <trkpt lat="1.3694059579393016" lon="103.64876120084233">
        <ele>0.204718805956997</ele>
      </trkpt>
      <trkpt lat="1.3694855647239201" lon="103.64880383771064">
        <ele>0.2056890801375865</ele>
      </trkpt>
      <trkpt lat="1.369565171508106" lon="103.64884647458152">
        <ele>0.2066593543181793</ele>
      </trkpt>
      <trkpt lat="1.3696447782918597" lon="103.64888911145495">
        <ele>0.20762962849877922</ele>
      </trkpt>
      <trkpt lat="1.3697243850751804" lon="103.64893174833092">
        <ele>0.20859990267937167</ele>
      </trkpt>
      <trkpt lat="1.369803991858069" lon="103.64897438520948">
        <ele>0.20957017685996485</ele>
      </trkpt>
      <trkpt lat="1.369883598640524" lon="103.64901702209062">
        <ele>0.2105404510405573</ele>
      </trkpt>
      <trkpt lat="1.3699632054225466" lon="103.6490596589743">
        <ele>0.21151072522115308</ele>
      </trkpt>
      <trkpt lat="1.370042812204136" lon="103.64910229586054">
        <ele>0.21248099940174534</ele>
      </trkpt>
      <trkpt lat="1.3701224189852916" lon="103.64914493274935">
        <ele>0.21345127358232907</ele>
      </trkpt>
      <trkpt lat="1.3702020257660144" lon="103.64918756964072">
        <ele>0.21442154776291575</ele>
      </trkpt>
      <trkpt lat="1.3702816325463032" lon="103.64923020653465">
        <ele>0.21545327640109632</ele>
      </trkpt>
      <trkpt lat="1.3703612393261588" lon="103.64927284343116">
        <ele>0.2173429342000471</ele>
      </trkpt>
      <trkpt lat="1.3704402729221785" lon="103.64931651862292">
        <ele>0.2201717583943267</ele>
      </trkpt>
      <trkpt lat="1.370519244603599" lon="103.64936030597161">
        <ele>0.22387829452634658</ele>
      </trkpt>
      <trkpt lat="1.3705982162845511" lon="103.64940409332293">
        <ele>0.22766606789291766</ele>
      </trkpt>
      <trkpt lat="1.3706771879650357" lon="103.64944788067689">
        <ele>0.2314538412594965</ele>
      </trkpt>
      <trkpt lat="1.3707561596450522" lon="103.64949166803346">
        <ele>0.235241614626062</ele>
      </trkpt>
      <trkpt lat="1.3708351313245997" lon="103.64953545539268">
        <ele>0.2390293879926414</ele>
      </trkpt>
      <trkpt lat="1.3709141030036793" lon="103.64957924275451">
        <ele>0.24281716135920708</ele>
      </trkpt>
      <trkpt lat="1.3709930746822905" lon="103.64962303011899">
        <ele>0.24660493472577275</ele>
      </trkpt>
      <trkpt lat="1.371072046360433" lon="103.6496668174861">
        <ele>0.23237366336808085</ele>
      </trkpt>
      <trkpt lat="1.3711510180381064" lon="103.64971060485581">
        <ele>0.1921885247131423</ele>
      </trkpt>
      <trkpt lat="1.3712299897153108" lon="103.64975439222819">
        <ele>0.12604951876097775</ele>
      </trkpt>
      <trkpt lat="1.3713089613920464" lon="103.64979817960318">
        <ele>0.059341736332258706</ele>
      </trkpt>
      <trkpt lat="1.3713879330683125" lon="103.64984196698082">
        <ele>0.017325230078610306</ele>
      </trkpt>
      <trkpt lat="1.3714669047441097" lon="103.64988575436108">
        <ele>0.0</ele>
      </trkpt>
      <trkpt lat="1.371545876419437" lon="103.64992954174397">
        <ele>0.0</ele>
      </trkpt>
      <trkpt lat="1.3716248480942945" lon="103.6499733291295">
        <ele>0.0</ele>
      </trkpt>
      <trkpt lat="1.3717038197686824" lon="103.65001711651765">
        <ele>0.0</ele>
      </trkpt>
      <trkpt lat="1.3717827914426002" lon="103.65006090390844">
        <ele>0.0</ele>
      </trkpt>
      <trkpt lat="1.3718602370335593" lon="103.65010727527088">
        <ele>0.0</ele>
      </trkpt>
      <trkpt lat="1.3719332629719798" lon="103.65015952124342">
        <ele>0.0</ele>
      </trkpt>
      <trkpt lat="1.3719986634022363" lon="103.65022158269569">
        <ele>0.0</ele>
      </trkpt>
      <trkpt lat="1.37203629457846" lon="103.65030286047521">
        <ele>0.0</ele>
      </trkpt>
      <trkpt lat="1.3720253322368383" lon="103.6503913359466">
        <ele>0.0</ele>
      </trkpt>
      <trkpt lat="1.3719796410081104" lon="103.65046876089252">
        <ele>0.0</ele>
      </trkpt>
      <trkpt lat="1.371918122125245" lon="103.65053462420663">
        <ele>0.05806276480791811</ele>
      </trkpt>
      <trkpt lat="1.3718566032400699" lon="103.6506004875174">
        <ele>0.17785561831082367</ele>
      </trkpt>
      <trkpt lat="1.3717950843525848" lon="103.65066635082482">
        <ele>0.35937856050871647</ele>
      </trkpt>
      <trkpt lat="1.3717335654627894" lon="103.65073221412892">
        <ele>0.5445688265936787</ele>
      </trkpt>
      <trkpt lat="1.371672046570685" lon="103.65079807742968">
        <ele>0.7297590926786407</ele>
      </trkpt>
      <trkpt lat="1.3716105276762713" lon="103.65086394072713">
        <ele>0.9140796395196112</ele>
      </trkpt>
      <trkpt lat="1.3715536876891643" lon="103.65093379385124">
        <ele>1.0936287591450167</ele>
      </trkpt>
      <trkpt lat="1.3715101303708637" lon="103.6510116029016">
        <ele>1.2648231971735842</ele>
      </trkpt>
      <trkpt lat="1.3714776605834216" lon="103.65109528528409">
        <ele>1.4235816489170314</ele>
      </trkpt>
      <trkpt lat="1.371457199803246" lon="103.65118281195824">
        <ele>1.5676829104407783</ele>
      </trkpt>
      <trkpt lat="1.3714485045278086" lon="103.65127111185771">
        <ele>1.6916679283617777</ele>
      </trkpt>
      <trkpt lat="1.3714571845350976" lon="103.65136055365726">
        <ele>1.8004877266123398</ele>
      </trkpt>
      <trkpt lat="1.3714658645391091" lon="103.6514499954579">
        <ele>1.8921619512786272</ele>
      </trkpt>
      <trkpt lat="1.3714873952394948" lon="103.6515369514956">
        <ele>1.972285258666088</ele>
      </trkpt>
      <trkpt lat="1.3715142476460835" lon="103.6516226618372">
        <ele>2.0319063815047387</ele>
      </trkpt>
      <trkpt lat="1.371553671401123" lon="103.6517035310712">
        <ele>2.0791285856145385</ele>
      </trkpt>
      <trkpt lat="1.3715930951537547" lon="103.65178440030814">
        <ele>2.1155380562258483</ele>
      </trkpt>
      <trkpt lat="1.371634772558244" lon="103.65186379759227">
        <ele>2.1357077532081106</ele>
      </trkpt>
      <trkpt lat="1.3716938576007247" lon="103.65193182522277">
        <ele>2.1396376765613208</ele>
      </trkpt>
      <trkpt lat="1.3717529426416764" lon="103.6519998528567">
        <ele>2.1291892925139915</ele>
      </trkpt>
      <trkpt lat="1.3718120276810999" lon="103.65206788049402">
        <ele>2.1187409084666258</ele>
      </trkpt>
      <trkpt lat="1.3718711127189944" lon="103.65213590813474">
        <ele>2.1082925244192605</ele>
      </trkpt>
      <trkpt lat="1.3719301977553602" lon="103.65220393577887">
        <ele>2.0978441403718953</ele>
      </trkpt>
      <trkpt lat="1.3719892827901958" lon="103.65227196342639">
        <ele>2.09517443016029</ele>
      </trkpt>
      <trkpt lat="1.37203934548004" lon="103.65234665188993">
        <ele>2.1016296566607315</ele>
      </trkpt>
      <trkpt lat="1.3720878466618651" lon="103.65242249315023">
        <ele>2.1172098198732203</ele>
      </trkpt>
      <trkpt lat="1.372136347841659" lon="103.65249833441376">
        <ele>2.1341362459619915</ele>
      </trkpt>
      <trkpt lat="1.3721848490194213" lon="103.65257417568056">
        <ele>2.151062672050763</ele>
      </trkpt>
      <trkpt lat="1.3722333501951522" lon="103.6526500169506">
        <ele>2.167989098139534</ele>
      </trkpt>
      <trkpt lat="1.372281851368851" lon="103.65272585822389">
        <ele>2.1849155242283413</ele>
      </trkpt>
      <trkpt lat="1.3723303525405175" lon="103.65280169950042">
        <ele>2.201841950317149</ele>
      </trkpt>
      <trkpt lat="1.3723788537101518" lon="103.65287754078018">
        <ele>2.218768376405957</ele>
      </trkpt>
      <trkpt lat="1.3724273548777528" lon="103.6529533820632">
        <ele>2.2356948024947285</ele>
      </trkpt>
      <trkpt lat="1.3724758560433215" lon="103.65302922334948">
        <ele>2.2526212285834997</ele>
      </trkpt>
      <trkpt lat="1.3725243572068566" lon="103.65310506463898">
        <ele>2.2687991842989774</ele>
      </trkpt>
      <trkpt lat="1.3725736709676972" lon="103.65318019337728">
        <ele>2.265442970935123</ele>
      </trkpt>
      <trkpt lat="1.3726433799850384" lon="103.65323743786614">
        <ele>2.2425525884918973</ele>
      </trkpt>
      <trkpt lat="1.3727130890014008" lon="103.65329468235824">
        <ele>2.1856655090642993</ele>
      </trkpt>
      <trkpt lat="1.372794945525506" lon="103.65333181251866">
        <ele>2.107678771599059</ele>
      </trkpt>
      <trkpt lat="1.3728805860326716" lon="103.65335997063372">
        <ele>2.0048916151651768</ele>
      </trkpt>
      <trkpt lat="1.3729682528381937" lon="103.65338203642848">
        <ele>1.8953880367079357</ele>
      </trkpt>
      <trkpt lat="1.3730578298978686" lon="103.65339326822756">
        <ele>1.7849607293941405</ele>
      </trkpt>
      <trkpt lat="1.373147825217137" lon="103.65340212786971">
        <ele>1.6857605994712526</ele>
      </trkpt>
      <trkpt lat="1.3732378205363918" lon="103.65341098751209">
        <ele>1.5949146482722594</ele>
      </trkpt>
      <trkpt lat="1.3733278158556337" lon="103.65341984715471">
        <ele>1.5125188423896907</ele>
      </trkpt>
      <trkpt lat="1.3734178111748623" lon="103.65342870679754">
        <ele>1.4301230365070978</ele>
      </trkpt>
      <trkpt lat="1.373507806494078" lon="103.6534375664406">
        <ele>1.3477272306245291</ele>
      </trkpt>
      <trkpt lat="1.3735978018132804" lon="103.65344642608387">
        <ele>1.2653314247419363</ele>
      </trkpt>
      <trkpt lat="1.3736877971324704" lon="103.65345528572739">
        <ele>1.1816838611211882</ele>
      </trkpt>
      <trkpt lat="1.3737778982518767" lon="103.65346219787594">
        <ele>1.092866969193466</ele>
      </trkpt>
      <trkpt lat="1.373868330489521" lon="103.65346301503513">
        <ele>0.9988807489587933</ele>
      </trkpt>
      <trkpt lat="1.3739587627271035" lon="103.65346383219394">
        <ele>0.9009769581553063</ele>
      </trkpt>
      <trkpt lat="1.3740491949646256" lon="103.65346464935236">
        <ele>0.8067398268260333</ele>
      </trkpt>
      <trkpt lat="1.374139258595578" lon="103.65347113659232">
        <ele>0.7189253604255139</ele>
      </trkpt>
      <trkpt lat="1.3742290451673624" lon="103.65348188568903">
        <ele>0.6467936874685262</ele>
      </trkpt>
      <trkpt lat="1.3743161701234725" lon="103.65350593614366">
        <ele>0.5867776835459146</ele>
      </trkpt>
      <trkpt lat="1.3744032664703896" lon="103.65353012957299">
        <ele>0.5361213432031102</ele>
      </trkpt>
      <trkpt lat="1.3744903628172285" lon="103.65355432300369">
        <ele>0.4912350611675456</ele>
      </trkpt>
      <trkpt lat="1.374574599486422" lon="103.65358593797853">
        <ele>0.458261268699452</ele>
      </trkpt>
      <trkpt lat="1.3746556882957146" lon="103.65362572239914">
        <ele>0.4371999657988826</ele>
      </trkpt>
      <trkpt lat="1.374736777104641" lon="103.65366550682216">
        <ele>0.422380629223622</ele>
      </trkpt>
      <trkpt lat="1.3748178659131998" lon="103.65370529124762">
        <ele>0.40756129264838553</ele>
      </trkpt>
      <trkpt lat="1.3748989547213921" lon="103.65374507567546">
        <ele>0.3927419560731249</ele>
      </trkpt>
      <trkpt lat="1.3749800435292168" lon="103.65378486010574">
        <ele>0.37792261949788336</ele>
      </trkpt>
      <trkpt lat="1.3750611323366742" lon="103.65382464453842">
        <ele>0.36061240580873005</ele>
      </trkpt>
      <trkpt lat="1.3751422211437638" lon="103.65386442897352">
        <ele>0.3490580308945157</ele>
      </trkpt>
      <trkpt lat="1.3752233099504865" lon="103.65390421341104">
        <ele>0.3432594947552081</ele>
      </trkpt>
      <trkpt lat="1.3753043987568412" lon="103.65394399785096">
        <ele>0.34570767450473977</ele>
      </trkpt>
      <trkpt lat="1.375385487562828" lon="103.65398378229331">
        <ele>0.3481558542542566</ele>
      </trkpt>
      <trkpt lat="1.3754665763684466" lon="103.65402356673808">
        <ele>0.35060403400379303</ele>
      </trkpt>
      <trkpt lat="1.3755476651736975" lon="103.65406335118526">
        <ele>0.3530522137533032</ele>
      </trkpt>
      <trkpt lat="1.3756287539785799" lon="103.65410313563486">
        <ele>0.35550039350284024</ele>
      </trkpt>
      <trkpt lat="1.375709842783094" lon="103.65414292008685">
        <ele>0.3579485732523507</ele>
      </trkpt>
      <trkpt lat="1.3757909315872396" lon="103.6541827045413">
        <ele>0.3603967530018816</ele>
      </trkpt>
      <trkpt lat="1.3758720203910166" lon="103.65422248899814">
        <ele>0.36284493275138646</ele>
      </trkpt>
      <trkpt lat="1.3759531091944255" lon="103.65426227345739">
        <ele>0.3652931125009233</ele>
      </trkpt>
      <trkpt lat="1.3760341979974648" lon="103.65430205791907">
        <ele>0.36774129225043345</ele>
      </trkpt>
      <trkpt lat="1.3761152868001358" lon="103.65434184238318">
        <ele>0.3701894719999695</ele>
      </trkpt>
      <trkpt lat="1.3761963756024373" lon="103.6543816268497">
        <ele>0.3726376517494745</ele>
      </trkpt>
      <trkpt lat="1.3762774644043698" lon="103.65442141131862">
        <ele>0.3750858314990113</ele>
      </trkpt>
      <trkpt lat="1.3763585532059333" lon="103.65446119578996">
        <ele>0.3775340112485226</ele>
      </trkpt>
      <trkpt lat="1.3764396420071265" lon="103.65450098026375">
        <ele>0.3799821909980389</ele>
      </trkpt>
      <trkpt lat="1.3765207308079508" lon="103.65454076473993">
        <ele>0.3824303707475434</ele>
      </trkpt>
      <trkpt lat="1.3766018196084058" lon="103.65458054921854">
        <ele>0.386306883846338</ele>
      </trkpt>
      <trkpt lat="1.3766829084084902" lon="103.65462033369957">
        <ele>0.3958835178745678</ele>
      </trkpt>
      <trkpt lat="1.376763997208205" lon="103.654660118183">
        <ele>0.4111602728322124</ele>
      </trkpt>
      <trkpt lat="1.37684508600755" lon="103.65469990266888">
        <ele>0.430708815370003</ele>
      </trkpt>
      <trkpt lat="1.3769261748065247" lon="103.65473968715716">
        <ele>0.45025735790778104</ele>
      </trkpt>
      <trkpt lat="1.3770072636051292" lon="103.65477947164787">
        <ele>0.46980590044557163</ele>
      </trkpt>
      <trkpt lat="1.377088352403363" lon="103.654819256141">
        <ele>0.48935444298334335</ele>
      </trkpt>
      <trkpt lat="1.3771694412012268" lon="103.65485904063654">
        <ele>0.5089029855211391</ele>
      </trkpt>
      <trkpt lat="1.3772505299987199" lon="103.6548988251345">
        <ele>0.5284515280589112</ele>
      </trkpt>
      <trkpt lat="1.3773316187958415" lon="103.6549386096349">
        <ele>0.5466797350940288</ele>
      </trkpt>
      <trkpt lat="1.3774127075925928" lon="103.6549783941377">
        <ele>0.5587762731656479</ele>
      </trkpt>
      <trkpt lat="1.3774937963889733" lon="103.65501817864293">
        <ele>0.5647411422738288</ele>
      </trkpt>
      <trkpt lat="1.3775748851849823" lon="103.65505796315058">
        <ele>0.5658946779212001</ele>
      </trkpt>
      <trkpt lat="1.3776559739806202" lon="103.65509774766065">
        <ele>0.5670482135685972</ele>
      </trkpt>
      <trkpt lat="1.377737062775887" lon="103.65513753217316">
        <ele>0.5682017492159686</ele>
      </trkpt>
      <trkpt lat="1.377818151570782" lon="103.65517731668807">
        <ele>0.5693552848633662</ele>
      </trkpt>
      <trkpt lat="1.3778992403653052" lon="103.65521710120541">
        <ele>0.570508820510737</ele>
      </trkpt>
      <trkpt lat="1.3779803291594572" lon="103.65525688572518">
        <ele>0.5716623561581341</ele>
      </trkpt>
      <trkpt lat="1.3780614179532367" lon="103.65529667024737">
        <ele>0.5728158918054991</ele>
      </trkpt>
      <trkpt lat="1.3781425067466448" lon="103.65533645477197">
        <ele>0.5721977626331144</ele>
      </trkpt>
      <trkpt lat="1.3782235955396807" lon="103.65537623929899">
        <ele>0.5684456471918723</ele>
      </trkpt>
      <trkpt lat="1.378304684332344" lon="103.65541602382845">
        <ele>0.5615595454818253</ele>
      </trkpt>
      <trkpt lat="1.3783857731246354" lon="103.65545580836033">
        <ele>0.5533111223227083</ele>
      </trkpt>
      <trkpt lat="1.378466861916554" lon="103.65549559289462">
        <ele>0.5450626991636113</ele>
      </trkpt>
      <trkpt lat="1.3785479507081004" lon="103.65553537743136">
        <ele>0.5368142760044995</ele>
      </trkpt>
      <trkpt lat="1.3786290394992737" lon="103.6555751619705">
        <ele>0.5285658528453759</ele>
      </trkpt>
      <trkpt lat="1.3787101282900749" lon="103.65561494651209">
        <ele>0.5203174296862526</ele>
      </trkpt>
      <trkpt lat="1.3787912170805023" lon="103.65565473105609">
        <ele>0.5120690065271285</ele>
      </trkpt>
      <trkpt lat="1.3788723058705572" lon="103.65569451560252">
        <ele>0.5038205833680321</ele>
      </trkpt>
      <trkpt lat="1.3789533946602388" lon="103.65573430015137">
        <ele>0.5251578425164489</ele>
      </trkpt>
      <trkpt lat="1.3790344834495472" lon="103.65577408470264">
        <ele>0.594633453714625</ele>
      </trkpt>
      <trkpt lat="1.3791155722384818" lon="103.65581386925635">
        <ele>0.7122474169625409</ele>
      </trkpt>
      <trkpt lat="1.379196661027043" lon="103.65585365381247">
        <ele>0.8484140499526666</ele>
      </trkpt>
      <trkpt lat="1.3792777498152304" lon="103.65589343837102">
        <ele>0.98458068294279</ele>
      </trkpt>
      <trkpt lat="1.3793588386030444" lon="103.65593322293202">
        <ele>1.1207473159329158</ele>
      </trkpt>
      <trkpt lat="1.379439927390484" lon="103.65597300749542">
        <ele>1.256913948923059</ele>
      </trkpt>
      <trkpt lat="1.37952101617755" lon="103.65601279206125">
        <ele>1.3930805819132048</ele>
      </trkpt>
      <trkpt lat="1.379602104964242" lon="103.65605257662952">
        <ele>1.529247214903348</ele>
      </trkpt>
      <trkpt lat="1.3796831937505591" lon="103.6560923612002">
        <ele>1.6526881261051933</ele>
      </trkpt>
      <trkpt lat="1.3797642825365026" lon="103.65613214577331">
        <ele>1.7388722016387763</ele>
      </trkpt>
      <trkpt lat="1.3798453713220706" lon="103.65617193034886">
        <ele>1.7877994415041598</ele>
      </trkpt>
      <trkpt lat="1.379926460107265" lon="103.65621171492683">
        <ele>1.8121955674895824</ele>
      </trkpt>
      <trkpt lat="1.380007548892084" lon="103.65625149950723">
        <ele>1.8365916934750646</ele>
      </trkpt>
      <trkpt lat="1.380088637676528" lon="103.65629128409006">
        <ele>1.860987819460487</ele>
      </trkpt>
      <trkpt lat="1.3801697264605972" lon="103.65633106867531">
        <ele>1.8853839454459695</ele>
      </trkpt>
      <trkpt lat="1.3802508152442916" lon="103.656370853263">
        <ele>1.909780071431392</ele>
      </trkpt>
      <trkpt lat="1.3803319040276103" lon="103.65641063785311">
        <ele>1.9341761974168745</ele>
      </trkpt>
      <trkpt lat="1.380412992810554" lon="103.65645042244566">
        <ele>1.958572323402297</ele>
      </trkpt>
      <trkpt lat="1.3804940815931221" lon="103.65649020704063">
        <ele>1.9816646645604745</ele>
      </trkpt>
      <trkpt lat="1.3805751703753142" lon="103.65652999163802">
        <ele>2.0017828167023355</ele>
      </trkpt>
      <trkpt lat="1.3806562591571312" lon="103.65656977623786">
        <ele>2.018926779827969</ele>
      </trkpt>
      <trkpt lat="1.380737347938572" lon="103.65660956084012">
        <ele>2.0344003387645904</ele>
      </trkpt>
      <trkpt lat="1.3808184367196366" lon="103.6566493454448">
        <ele>2.046962897117155</ele>
      </trkpt>
      <trkpt lat="1.3809000737876116" lon="103.65668800315403">
        <ele>2.056029746637966</ele>
      </trkpt>
      <trkpt lat="1.380981820985105" lon="103.6567264345151">
        <ele>2.061600887327086</ele>
      </trkpt>
      <trkpt lat="1.3810635681822578" lon="103.65676486587849">
        <ele>2.0665873197685385</ele>
      </trkpt>
      <trkpt lat="1.381145315379069" lon="103.65680329724422">
        <ele>2.071573752209991</ele>
      </trkpt>
      <trkpt lat="1.3812270625755378" lon="103.65684172861232">
        <ele>2.0733723888437043</ele>
      </trkpt>
      <trkpt lat="1.3813088097716646" lon="103.65688015998278">
        <ele>2.058740415513165</ele>
      </trkpt>
      <trkpt lat="1.3813905569674498" lon="103.65691859135558">
        <ele>2.0276778322183686</ele>
      </trkpt>
      <trkpt lat="1.381472304162893" lon="103.65695702273072">
        <ele>1.9833724347670554</ele>
      </trkpt>
      <trkpt lat="1.3815540513579936" lon="103.65699545410821">
        <ele>1.9390670373157362</ele>
      </trkpt>
      <trkpt lat="1.3816357985527519" lon="103.65703388548806">
        <ele>1.894761639864422</ele>
      </trkpt>
      <trkpt lat="1.381717545747168" lon="103.65707231687026">
        <ele>1.8504562424131146</ele>
      </trkpt>
      <trkpt lat="1.3817992929412408" lon="103.6571107482548">
        <ele>1.8061508449618067</ele>
      </trkpt>
      <trkpt lat="1.3818810401349715" lon="103.6571491796417">
        <ele>1.7631790240021994</ele>
      </trkpt>
      <trkpt lat="1.3819627873283595" lon="103.65718761103095">
        <ele>1.7319394283847984</ele>
      </trkpt>
      <trkpt lat="1.3820445345214043" lon="103.65722604242255">
        <ele>1.7124320581096395</ele>
      </trkpt>
      <trkpt lat="1.3821262817141058" lon="103.65726447381651">
        <ele>1.7033233366850549</ele>
      </trkpt>
      <trkpt lat="1.3822080289064642" lon="103.65730290521282">
        <ele>1.6942146152604707</ele>
      </trkpt>
      <trkpt lat="1.3822897760984798" lon="103.65734133661148">
        <ele>1.6822395829321772</ele>
      </trkpt>
      <trkpt lat="1.3823719909709626" lon="103.65737869836306">
        <ele>1.6560837873115748</ele>
      </trkpt>
      <trkpt lat="1.3824560519626092" lon="103.65741183779134">
        <ele>1.6157472283987264</ele>
      </trkpt>
      <trkpt lat="1.382540112954031" lon="103.65744497722163">
        <ele>1.5799027799239493</ele>
      </trkpt>
      <trkpt lat="1.382621495721894" lon="103.65748396706533">
        <ele>1.5716894699385495</ele>
      </trkpt>
      <trkpt lat="1.382701876484015" lon="103.65752514572952">
        <ele>1.60412623495586</ele>
      </trkpt>
      <trkpt lat="1.3827822572457196" lon="103.6575663243962">
        <ele>1.66140651214928</ele>
      </trkpt>
      <trkpt lat="1.382862638007007" lon="103.65760750306542">
        <ele>1.7317057258560655</ele>
      </trkpt>
      <trkpt lat="1.382943018767878" lon="103.65764868173716">
        <ele>1.8020049395628515</ele>
      </trkpt>
      <trkpt lat="1.3830233995283314" lon="103.65768986041141">
        <ele>1.8794131945533987</ele>
      </trkpt>
      <trkpt lat="1.38310218861311" lon="103.6577339079463">
        <ele>1.9676480319420981</ele>
      </trkpt>
      <trkpt lat="1.3831801453603465" lon="103.65777945569998">
        <ele>2.066709451728931</ele>
      </trkpt>
      <trkpt lat="1.3832581021070343" lon="103.65782500345641">
        <ele>2.1694884126301908</ele>
      </trkpt>
      <trkpt lat="1.3833360588531725" lon="103.65787055121561">
        <ele>2.2722673735314363</ele>
      </trkpt>
      <trkpt lat="1.3834140155987618" lon="103.65791609897758">
        <ele>2.375046334432682</ele>
      </trkpt>
      <trkpt lat="1.3834919723438015" lon="103.65796164674231">
        <ele>2.477825295333927</ele>
      </trkpt>
      <trkpt lat="1.3835699290882917" lon="103.65800719450979">
        <ele>2.6544465002803164</ele>
      </trkpt>
      <trkpt lat="1.3836478858322316" lon="103.65805274228003">
        <ele>2.8619785745010944</ele>
      </trkpt>
      <trkpt lat="1.3837286240850686" lon="103.65809300256348">
        <ele>3.094847551619676</ele>
      </trkpt>
      <trkpt lat="1.383810763440848" lon="103.65813059943247">
        <ele>3.2792111875909966</ele>
      </trkpt>
      <trkpt lat="1.383892902796303" lon="103.65816819630375">
        <ele>3.4580008571857963</ele>
      </trkpt>
      <trkpt lat="1.3839750421514325" lon="103.65820579317734">
        <ele>3.636790526780628</ele>
      </trkpt>
      <trkpt lat="1.3840571815062368" lon="103.65824339005323">
        <ele>3.775687416223951</ele>
      </trkpt>
      <trkpt lat="1.3841393208607156" lon="103.65828098693143">
        <ele>3.8330139880570093</ele>
      </trkpt>
      <trkpt lat="1.3842212498284752" lon="103.65831897538567">
        <ele>3.8348288889956557</ele>
      </trkpt>
      <trkpt lat="1.3842983949829213" lon="103.65836586753377">
        <ele>3.821024899191397</ele>
      </trkpt>
      <trkpt lat="1.3843755401367717" lon="103.65841275968471">
        <ele>3.8332795561030086</ele>
      </trkpt>
      <trkpt lat="1.3844526852900263" lon="103.65845965183847">
        <ele>3.848934304197373</ele>
      </trkpt>
      <trkpt lat="1.3845290271571218" lon="103.65850760112657">
        <ele>3.909577154663772</ele>
      </trkpt>
      <trkpt lat="1.3845955436841588" lon="103.6585684806584">
        <ele>4.030285496652289</ele>
      </trkpt>
      <trkpt lat="1.384657367915158" lon="103.65863338782582">
        <ele>4.242576118990088</ele>
      </trkpt>
      <trkpt lat="1.384708325521942" lon="103.65870762236413">
        <ele>4.54004549044399</ele>
      </trkpt>
      <trkpt lat="1.3847448110761724" lon="103.65878919856397">
        <ele>4.921846358987792</ele>
      </trkpt>
      <trkpt lat="1.3847754434997643" lon="103.65887374405295">
        <ele>5.364006396404027</ele>
      </trkpt>
      <trkpt lat="1.384799928890729" lon="103.65895961226266">
        <ele>5.861909869810604</ele>
      </trkpt>
      <trkpt lat="1.3848072452793543" lon="103.65904917490009">
        <ele>6.401326642083679</ele>
      </trkpt>
      <trkpt lat="1.3848145616646443" lon="103.65913873753847">
        <ele>6.971312161430801</ele>
      </trkpt>
      <trkpt lat="1.384821878046598" lon="103.65922830017784">
        <ele>7.549104699148908</ele>
      </trkpt>
      <trkpt lat="1.384822784876178" lon="103.65931762375801">
        <ele>8.152926418782668</ele>
      </trkpt>
      <trkpt lat="1.3848087313365027" lon="103.65940638935389">
        <ele>8.782777320332169</ele>
      </trkpt>
      <trkpt lat="1.3847946777933475" lon="103.65949515494913">
        <ele>9.430850385426373</ele>
      </trkpt>
      <trkpt lat="1.3847806242467124" lon="103.65958392054374">
        <ele>10.078923450520627</ele>
      </trkpt>
      <trkpt lat="1.3847665706965988" lon="103.6596726861377">
        <ele>10.726996515614793</ele>
      </trkpt>
      <trkpt lat="1.3847525171430057" lon="103.65976145173103">
        <ele>11.375069580709047</ele>
      </trkpt>
      <trkpt lat="1.3847384635859332" lon="103.65985021732372">
        <ele>12.023142645803253</ele>
      </trkpt>
      <trkpt lat="1.3847244100253817" lon="103.65993898291576">
        <ele>12.671215710897505</ele>
      </trkpt>
      <trkpt lat="1.3847103564613514" lon="103.66002774850718">
        <ele>13.32982991401524</ele>
      </trkpt>
      <trkpt lat="1.384682586172661" lon="103.66011323445672">
        <ele>14.000260042191718</ele>
      </trkpt>
      <trkpt lat="1.3846507279043643" lon="103.66019690497721">
        <ele>14.686802537084263</ele>
      </trkpt>
      <trkpt lat="1.3846031792663844" lon="103.66027333983634">
        <ele>15.378916260669392</ele>
      </trkpt>
      <trkpt lat="1.3845556306255202" lon="103.66034977469262">
        <ele>16.02531029318367</ele>
      </trkpt>
      <trkpt lat="1.3845080819817714" lon="103.66042620954605">
        <ele>16.550950665698846</ele>
      </trkpt>
      <trkpt lat="1.3844605333351387" lon="103.6605026443966">
        <ele>16.907660949898425</ele>
      </trkpt>
      <trkpt lat="1.3844129846856226" lon="103.66057907924433">
        <ele>17.145950368980834</ele>
      </trkpt>
      <trkpt lat="1.3843656854790414" lon="103.66065565132214">
        <ele>17.388289382823363</ele>
      </trkpt>
      <trkpt lat="1.3843257206246875" lon="103.66073625840306">
        <ele>17.765690884785627</ele>
      </trkpt>
      <trkpt lat="1.3842895093633336" lon="103.66081851733699">
        <ele>18.3040683164344</ele>
      </trkpt>
      <trkpt lat="1.384256288360141" lon="103.66090209220147">
        <ele>18.867076604078083</ele>
      </trkpt>
      <trkpt lat="1.3842230673536824" lon="103.66098566706393">
        <ele>19.33913514290216</ele>
      </trkpt>
      <trkpt lat="1.3841898463439566" lon="103.66106924192437">
        <ele>19.68857222784774</ele>
      </trkpt>
      <trkpt lat="1.3841566253309645" lon="103.66115281678279">
        <ele>19.8979458002899</ele>
      </trkpt>
      <trkpt lat="1.3841261935877829" lon="103.66123741840079">
        <ele>20.0</ele>
      </trkpt>
      <trkpt lat="1.3840965928067765" lon="103.66132232590434">
        <ele>20.0</ele>
      </trkpt>
      <trkpt lat="1.3840681971945725" lon="103.66140760263873">
        <ele>20.0</ele>
      </trkpt>
      <trkpt lat="1.3840445341856928" lon="103.66149432931603">
        <ele>20.0</ele>
      </trkpt>
      <trkpt lat="1.384020871173401" lon="103.66158105599197">
        <ele>20.0</ele>
      </trkpt>
      <trkpt lat="1.3839972081576966" lon="103.66166778266657">
        <ele>20.0</ele>
      </trkpt>
      <trkpt lat="1.383973545138581" lon="103.66175450933981">
        <ele>20.0</ele>
      </trkpt>
      <trkpt lat="1.3839498821160534" lon="103.6618412360117">
        <ele>20.0</ele>
      </trkpt>
      <trkpt lat="1.383926219090114" lon="103.66192796268226">
        <ele>20.0</ele>
      </trkpt>
      <trkpt lat="1.3839025560607638" lon="103.66201468935142">
        <ele>20.0</ele>
      </trkpt>
      <trkpt lat="1.3838788930280022" lon="103.66210141601927">
        <ele>20.0</ele>
      </trkpt>
      <trkpt lat="1.3838572788353067" lon="103.66218862646522">
        <ele>20.0</ele>
      </trkpt>
      <trkpt lat="1.383839143938717" lon="103.66227665845345">
        <ele>20.0</ele>
      </trkpt>
      <trkpt lat="1.3838210090386696" lon="103.66236469044074">
        <ele>20.0</ele>
      </trkpt>
      <trkpt lat="1.3838028741351653" lon="103.66245272242708">
        <ele>20.0</ele>
      </trkpt>
      <trkpt lat="1.3837847197837234" lon="103.6625407504536">
        <ele>20.0</ele>
      </trkpt>
      <trkpt lat="1.3837665467961489" lon="103.66262877468563">
        <ele>20.000000000000004</ele>
      </trkpt>
      <trkpt lat="1.3837629920062133" lon="103.66264599296717">
        <ele>20.0</ele>
      </trkpt>
      <trkpt lat="1.383840228307985" lon="103.66269273678556">
        <ele>20.0</ele>
      </trkpt>
      <trkpt lat="1.3839174646091572" lon="103.66273948060677">
        <ele>20.0</ele>
      </trkpt>
      <trkpt lat="1.3839947009097293" lon="103.66278622443083">
        <ele>20.0</ele>
      </trkpt>
      <trkpt lat="1.384071937209701" lon="103.6628329682577">
        <ele>20.0</ele>
      </trkpt>
      <trkpt lat="1.3841491735090727" lon="103.66287971208742">
        <ele>20.0</ele>
      </trkpt>
      <trkpt lat="1.3842264098078445" lon="103.66292645591996">
        <ele>20.0</ele>
      </trkpt>
      <trkpt lat="1.3843036461060152" lon="103.66297319975533">
        <ele>20.0</ele>
      </trkpt>
      <trkpt lat="1.3843808824035855" lon="103.66301994359354">
        <ele>20.0</ele>
      </trkpt>
      <trkpt lat="1.3844619001050524" lon="103.66305938761255">
        <ele>20.0</ele>
      </trkpt>
      <trkpt lat="1.3845450703592448" lon="103.66309467623226">
        <ele>20.0</ele>
      </trkpt>
      <trkpt lat="1.3846282406131558" lon="103.66312996485415">
        <ele>20.0</ele>
      </trkpt>
      <trkpt lat="1.3847114108667866" lon="103.6631652534782">
        <ele>20.0</ele>
      </trkpt>
      <trkpt lat="1.3847948908344239" lon="103.66319979730991">
        <ele>20.0</ele>
      </trkpt>
      <trkpt lat="1.3848788741590168" lon="103.66323313068071">
        <ele>20.0</ele>
      </trkpt>
      <trkpt lat="1.3849628574833703" lon="103.66326646405355">
        <ele>20.0</ele>
      </trkpt>
      <trkpt lat="1.3850309894513535" lon="103.66332552212404">
        <ele>20.0</ele>
      </trkpt>
      <trkpt lat="1.3850990565055032" lon="103.66338468554277">
        <ele>20.0</ele>
      </trkpt>
      <trkpt lat="1.3851621188526562" lon="103.66344882708675">
        <ele>20.0</ele>
      </trkpt>
      <trkpt lat="1.385221737850734" lon="103.66351639369138">
        <ele>20.0</ele>
      </trkpt>
      <trkpt lat="1.385281356847262" lon="103.66358396029946">
        <ele>20.0</ele>
      </trkpt>
      <trkpt lat="1.3853409758422406" lon="103.66365152691098">
        <ele>20.0</ele>
      </trkpt>
      <trkpt lat="1.3854005948356694" lon="103.66371909352591">
        <ele>20.0</ele>
      </trkpt>
      <trkpt lat="1.3854602138275478" lon="103.66378666014428">
        <ele>20.0</ele>
      </trkpt>
      <trkpt lat="1.385519832817876" lon="103.66385422676609">
        <ele>20.0</ele>
      </trkpt>
      <trkpt lat="1.3855794518066533" lon="103.66392179339134">
        <ele>20.0</ele>
      </trkpt>
      <trkpt lat="1.3856400580431076" lon="103.66398839809423">
        <ele>20.0</ele>
      </trkpt>
      <trkpt lat="1.3857068805883208" lon="103.66404894594201">
        <ele>20.0</ele>
      </trkpt>
      <trkpt lat="1.385773703132359" lon="103.66410949379315">
        <ele>20.0</ele>
      </trkpt>
      <trkpt lat="1.3858405256752213" lon="103.66417004164765">
        <ele>20.0</ele>
      </trkpt>
      <trkpt lat="1.3859177617403928" lon="103.66421540630581">
        <ele>20.0</ele>
      </trkpt>
      <trkpt lat="1.385998917621709" lon="103.66425505576757">
        <ele>20.0</ele>
      </trkpt>
      <trkpt lat="1.3860800735026348" lon="103.66429470523178">
        <ele>20.0</ele>
      </trkpt>
      <trkpt lat="1.3861682195234153" lon="103.66431129234981">
        <ele>20.0</ele>
      </trkpt>
      <trkpt lat="1.3862579151638563" lon="103.66432276685715">
        <ele>20.0</ele>
      </trkpt>
      <trkpt lat="1.3863477941402014" lon="103.66433140000008">
        <ele>20.0</ele>
      </trkpt>
      <trkpt lat="1.3864382301604674" lon="103.66433140000017">
        <ele>20.0</ele>
      </trkpt>
      <trkpt lat="1.386527231421792" lon="103.66432163660133">
        <ele>20.0</ele>
      </trkpt>
      <trkpt lat="1.386613891814492" lon="103.664295943814">
        <ele>20.0</ele>
      </trkpt>
      <trkpt lat="1.3867005522066171" lon="103.66427025102445">
        <ele>20.0</ele>
      </trkpt>
      <trkpt lat="1.3867872125981675" lon="103.66424455823267">
        <ele>20.0</ele>
      </trkpt>
      <trkpt lat="1.3868738729891428" lon="103.66421886543867">
        <ele>20.0</ele>
      </trkpt>
      <trkpt lat="1.3869605333795427" lon="103.66419317264247">
        <ele>20.0</ele>
      </trkpt>
      <trkpt lat="1.3870480196381738" lon="103.6641739649504">
        <ele>20.0</ele>
      </trkpt>
      <trkpt lat="1.3871383895212714" lon="103.66417740082115">
        <ele>20.0</ele>
      </trkpt>
      <trkpt lat="1.387227987022512" lon="103.66418842976377">
        <ele>20.0</ele>
      </trkpt>
      <trkpt lat="1.3873146602605981" lon="103.6642098164178">
        <ele>20.0</ele>
      </trkpt>
      <trkpt lat="1.387391555979329" lon="103.66425711141835">
        <ele>20.0</ele>
      </trkpt>
      <trkpt lat="1.387465387590467" lon="103.66430860249439">
        <ele>20.0</ele>
      </trkpt>
      <trkpt lat="1.387534494762705" lon="103.66436656334925">
        <ele>20.0</ele>
      </trkpt>
      <trkpt lat="1.3875946080173447" lon="103.66443364299325">
        <ele>20.0</ele>
      </trkpt>
      <trkpt lat="1.3876431741575739" lon="103.66450854060469">
        <ele>20.0</ele>
      </trkpt>
      <trkpt lat="1.387683203864315" lon="103.66458911604194">
        <ele>20.0</ele>
      </trkpt>
      <trkpt lat="1.3877232335686145" lon="103.66466969148213">
        <ele>20.0</ele>
      </trkpt>
      <trkpt lat="1.3877632632704717" lon="103.66475026692531">
        <ele>20.0</ele>
      </trkpt>
      <trkpt lat="1.3878032929698867" lon="103.66483084237144">
        <ele>20.0</ele>
      </trkpt>
      <trkpt lat="1.3878468976834386" lon="103.66490880551385">
        <ele>20.0</ele>
      </trkpt>
      <trkpt lat="1.3879123791491648" lon="103.664970783058">
        <ele>20.0</ele>
      </trkpt>
      <trkpt lat="1.387977860613639" lon="103.66503276060551">
        <ele>20.0</ele>
      </trkpt>
      <trkpt lat="1.3880437785276427" lon="103.66509413172395">
        <ele>20.0</ele>
      </trkpt>
      <trkpt lat="1.388123975903773" lon="103.6651356620515">
        <ele>20.0</ele>
      </trkpt>
      <trkpt lat="1.3882041732794579" lon="103.66517719238163">
        <ele>20.0</ele>
      </trkpt>
      <trkpt lat="1.3882843706546975" lon="103.6652187227143">
        <ele>20.0</ele>
      </trkpt>
      <trkpt lat="1.3883649962340638" lon="103.66525927079282">
        <ele>20.0</ele>
      </trkpt>
      <trkpt lat="1.388450343688129" lon="103.66528898738358">
        <ele>20.0</ele>
      </trkpt>
      <trkpt lat="1.3885375212474353" lon="103.66530541998499">
        <ele>20.0</ele>
      </trkpt>
      <trkpt lat="1.3886277022935647" lon="103.6652992175601">
        <ele>20.0</ele>
      </trkpt>
      <trkpt lat="1.388714669790716" lon="103.66527457046426">
        <ele>20.0</ele>
      </trkpt>
      <trkpt lat="1.388800852472062" lon="103.66524780133282">
        <ele>20.0</ele>
      </trkpt>
      <trkpt lat="1.3888831886258355" lon="103.66521063171491">
        <ele>20.0</ele>
      </trkpt>
      <trkpt lat="1.388965524778648" lon="103.66517346209413">
        <ele>20.0</ele>
      </trkpt>
      <trkpt lat="1.3890478609305" lon="103.66513629247052">
        <ele>20.0</ele>
      </trkpt>
      <trkpt lat="1.3891301970813896" lon="103.66509912284405">
        <ele>20.0</ele>
      </trkpt>
      <trkpt lat="1.3892153565575742" lon="103.66507029971874">
        <ele>20.0</ele>
      </trkpt>
      <trkpt lat="1.3893035728691676" lon="103.66505051341214">
        <ele>20.0</ele>
      </trkpt>
      <trkpt lat="1.3893933791546564" lon="103.66504490000021">
        <ele>20.0</ele>
      </trkpt>
      <trkpt lat="1.389483815175921" lon="103.66504490000011">
        <ele>20.0</ele>
      </trkpt>
      <trkpt lat="1.3895679637666623" lon="103.66507161936329">
        <ele>20.0</ele>
      </trkpt>
      <trkpt lat="1.3896490247014353" lon="103.66511146017675">
        <ele>20.0</ele>
      </trkpt>
      <trkpt lat="1.3897137040533982" lon="103.66517267586727">
        <ele>20.0</ele>
      </trkpt>
      <trkpt lat="1.3897739140305838" lon="103.66523972325021">
        <ele>20.0</ele>
      </trkpt>
      <trkpt lat="1.3898307218755515" lon="103.66530961082435">
        <ele>20.0</ele>
      </trkpt>
      <trkpt lat="1.3898868122657915" lon="103.66538009735048">
        <ele>20.0</ele>
      </trkpt>
      <trkpt lat="1.3899429026542953" lon="103.66545058388">
        <ele>20.0</ele>
      </trkpt>
      <trkpt lat="1.3899989930410623" lon="103.66552107041298">
        <ele>20.0</ele>
      </trkpt>
      <trkpt lat="1.3900550834260919" lon="103.66559155694935">
        <ele>20.0</ele>
      </trkpt>
      <trkpt lat="1.3901111738093843" lon="103.66566204348916">
        <ele>20.0</ele>
      </trkpt>
      <trkpt lat="1.3901672641909393" lon="103.6657325300324">
        <ele>20.0</ele>
      </trkpt>
      <trkpt lat="1.390223354570756" lon="103.66580301657905">
        <ele>20.0</ele>
      </trkpt>
      <trkpt lat="1.3902794449488347" lon="103.66587350312912">
        <ele>20.0</ele>
      </trkpt>
      <trkpt lat="1.3903380397913114" lon="103.66594121285814">
        <ele>20.0</ele>
      </trkpt>
      <trkpt lat="1.390414681704684" lon="103.66598891291618">
        <ele>20.0</ele>
      </trkpt>
      <trkpt lat="1.3904913236174128" lon="103.6660366129771">
        <ele>20.0</ele>
      </trkpt>
      <trkpt lat="1.3905679655294965" lon="103.66608431304091">
        <ele>20.0</ele>
      </trkpt>
      <trkpt lat="1.3906446074409347" lon="103.66613201310764">
        <ele>20.0</ele>
      </trkpt>
      <trkpt lat="1.3907131279246625" lon="103.66618874040468">
        <ele>20.0</ele>
      </trkpt>
      <trkpt lat="1.390769394878385" lon="103.66625908789618">
        <ele>20.0</ele>
      </trkpt>
      <trkpt lat="1.390825661830376" lon="103.6663294353911">
        <ele>20.0</ele>
      </trkpt>
      <trkpt lat="1.3908819287806355" lon="103.66639978288946">
        <ele>20.0</ele>
      </trkpt>
      <trkpt lat="1.390932629746614" lon="103.66647410127923">
        <ele>20.0</ele>
      </trkpt>
      <trkpt lat="1.3909817293827458" lon="103.66654956209297">
        <ele>20.0</ele>
      </trkpt>
      <trkpt lat="1.391030829016808" lon="103.66662502290997">
        <ele>20.0</ele>
      </trkpt>
      <trkpt lat="1.3910799286487996" lon="103.66670048373028">
        <ele>20.0</ele>
      </trkpt>
      <trkpt lat="1.391129028278721" lon="103.66677594455386">
        <ele>20.0</ele>
      </trkpt>
      <trkpt lat="1.3911836244896343" lon="103.6668473525982">
        <ele>20.0</ele>
      </trkpt>
      <trkpt lat="1.3912420858840187" lon="103.66691591073813">
        <ele>20.0</ele>
      </trkpt>
      <trkpt lat="1.3913260552716729" lon="103.66694876790648">
        <ele>20.0</ele>
      </trkpt>
      <trkpt lat="1.3914104749513636" lon="103.66698099484802">
        <ele>20.0</ele>
      </trkpt>
      <trkpt lat="1.3914948946308277" lon="103.66701322179155">
        <ele>20.0</ele>
      </trkpt>
      <trkpt lat="1.3915793143100659" lon="103.66704544873707">
        <ele>20.0</ele>
      </trkpt>
      <trkpt lat="1.3916626042321592" lon="103.66707995067146">
        <ele>20.0</ele>
      </trkpt>
      <trkpt lat="1.391739706602429" lon="103.66712691245532">
        <ele>20.0</ele>
      </trkpt>
      <trkpt lat="1.3918116134571539" lon="103.66718085106753">
        <ele>20.0</ele>
      </trkpt>
      <trkpt lat="1.391879358289448" lon="103.6672403786761">
        <ele>20.0</ele>
      </trkpt>
      <trkpt lat="1.3919471031206014" lon="103.667299906288">
        <ele>20.0</ele>
      </trkpt>
      <trkpt lat="1.3920148479506143" lon="103.66735943390324">
        <ele>20.0</ele>
      </trkpt>
      <trkpt lat="1.392077111401023" lon="103.6674237423786">
        <ele>20.0</ele>
      </trkpt>
      <trkpt lat="1.3921277383183246" lon="103.66749820023671">
        <ele>20.0</ele>
      </trkpt>
      <trkpt lat="1.3921783652336217" lon="103.66757265809815">
        <ele>20.0</ele>
      </trkpt>
      <trkpt lat="1.392228992146914" lon="103.66764711596292">
        <ele>20.0</ele>
      </trkpt>
      <trkpt lat="1.3922796190582012" lon="103.667721573831">
        <ele>20.0</ele>
      </trkpt>
      <trkpt lat="1.3923302459674831" lon="103.66779603170244">
        <ele>20.0</ele>
      </trkpt>
      <trkpt lat="1.3923808728747593" lon="103.66787048957718">
        <ele>20.0</ele>
      </trkpt>
      <trkpt lat="1.39243149978003" lon="103.66794494745527">
        <ele>20.0</ele>
      </trkpt>
      <trkpt lat="1.3924821266832943" lon="103.6680194053367">
        <ele>20.0</ele>
      </trkpt>
      <trkpt lat="1.3925264723894928" lon="103.66809703515982">
        <ele>20.0</ele>
      </trkpt>
      <trkpt lat="1.3925571666243965" lon="103.66818155883594">
        <ele>20.0</ele>
      </trkpt>
      <trkpt lat="1.392561805274553" lon="103.66826839835585">
        <ele>20.0</ele>
      </trkpt>
      <trkpt lat="1.3925466967064084" lon="103.6683569930242">
        <ele>20.0</ele>
      </trkpt>
      <trkpt lat="1.3925315881347757" lon="103.66844558769185">
        <ele>20.0</ele>
      </trkpt>
      <trkpt lat="1.3925164795596554" lon="103.66853418235873">
        <ele>20.0</ele>
      </trkpt>
      <trkpt lat="1.392501370981047" lon="103.66862277702488">
        <ele>20.0</ele>
      </trkpt>
      <trkpt lat="1.3924862623989513" lon="103.66871137169026">
        <ele>20.0</ele>
      </trkpt>
      <trkpt lat="1.3924711538133683" lon="103.66879996635492">
        <ele>20.0</ele>
      </trkpt>
      <trkpt lat="1.3924560452242976" lon="103.66888856101883">
        <ele>20.0</ele>
      </trkpt>
      <trkpt lat="1.3924409366317396" lon="103.668977155682">
        <ele>20.0</ele>
      </trkpt>
      <trkpt lat="1.3924258280356943" lon="103.66906575034442">
        <ele>20.0</ele>
      </trkpt>
      <trkpt lat="1.3924107194361621" lon="103.6691543450061">
        <ele>20.0</ele>
      </trkpt>
      <trkpt lat="1.3923956108331432" lon="103.66924293966704">
        <ele>20.0</ele>
      </trkpt>
      <trkpt lat="1.3923805022266371" lon="103.66933153432723">
        <ele>20.0</ele>
      </trkpt>
      <trkpt lat="1.3923653954564061" lon="103.66942012929631">
        <ele>20.0</ele>
      </trkpt>
      <trkpt lat="1.3923502960886718" lon="103.66950872551115">
        <ele>20.0</ele>
      </trkpt>
      <trkpt lat="1.3923351967174504" lon="103.66959732172523">
        <ele>20.0</ele>
      </trkpt>
      <trkpt lat="1.3923200973427428" lon="103.6696859179386">
        <ele>20.0</ele>
      </trkpt>
      <trkpt lat="1.392304997964549" lon="103.66977451415119">
        <ele>20.0</ele>
      </trkpt>
      <trkpt lat="1.392289898582869" lon="103.66986311036305">
        <ele>20.0</ele>
      </trkpt>
      <trkpt lat="1.392261281593052" lon="103.66994772591183">
        <ele>20.0</ele>
      </trkpt>
      <trkpt lat="1.3922253566108431" lon="103.67003018940304">
        <ele>20.0</ele>
      </trkpt>
      <trkpt lat="1.3921894316254244" lon="103.670112652892">
        <ele>19.999999999999996</ele>
      </trkpt>
      <trkpt lat="1.3921423682278735" lon="103.67018615667841">
        <ele>20.0</ele>
      </trkpt>
      <trkpt lat="1.392068669848335" lon="103.67023823536965">
        <ele>20.0</ele>
      </trkpt>
      <trkpt lat="1.391994971467209" lon="103.67029031405752">
        <ele>20.0</ele>
      </trkpt>
      <trkpt lat="1.3919212730844954" lon="103.67034239274204">
        <ele>20.0</ele>
      </trkpt>
      <trkpt lat="1.3918372673415624" lon="103.67037243832019">
        <ele>20.0</ele>
      </trkpt>
      <trkpt lat="1.3917496880700613" lon="103.6703948450905">
        <ele>20.0</ele>
      </trkpt>
      <trkpt lat="1.3916621087980845" lon="103.6704172518588">
        <ele>20.0</ele>
      </trkpt>
      <trkpt lat="1.3915745295256325" lon="103.67043965862509">
        <ele>20.0</ele>
      </trkpt>
      <trkpt lat="1.3914859249081009" lon="103.6704570198776">
        <ele>20.0</ele>
      </trkpt>
      <trkpt lat="1.391396457108844" lon="103.67047013358882">
        <ele>20.0</ele>
      </trkpt>
      <trkpt lat="1.3913069893093282" lon="103.67048324729865">
        <ele>20.0</ele>
      </trkpt>
      <trkpt lat="1.3912175215095544" lon="103.67049636100712">
        <ele>20.0</ele>
      </trkpt>
      <trkpt lat="1.3911280537095219" lon="103.67050947471421">
        <ele>20.140025996966187</ele>
      </trkpt>
      <trkpt lat="1.391038585909231" lon="103.67052258841993">
        <ele>20.95926043965918</ele>
      </trkpt>
      <trkpt lat="1.3909504277615683" lon="103.67054046424614">
        <ele>22.607416131995365</ele>
      </trkpt>
      <trkpt lat="1.3908666807096097" lon="103.67057437957075">
        <ele>24.831567369991223</ele>
      </trkpt>
      <trkpt lat="1.3908017528851702" lon="103.6706357650669">
        <ele>26.51509207952199</ele>
      </trkpt>
      <trkpt lat="1.3907426286286382" lon="103.67070296730927">
        <ele>27.262813113862673</ele>
      </trkpt>
      <trkpt lat="1.3907059002415076" lon="103.67078508060743">
        <ele>27.09431310440573</ele>
      </trkpt>
      <trkpt lat="1.3906792401543053" lon="103.67087033403814">
        <ele>26.498313540722805</ele>
      </trkpt>
      <trkpt lat="1.3906621521712395" lon="103.67095857284735">
        <ele>25.626988552223505</ele>
      </trkpt>
      <trkpt lat="1.3906600859978209" lon="103.67104703167396">
        <ele>24.687867805500574</ele>
      </trkpt>
      <trkpt lat="1.3906808754631492" lon="103.67113325382797">
        <ele>23.584496787654036</ele>
      </trkpt>
      <trkpt lat="1.390731235731397" lon="103.67120788997113">
        <ele>22.809577651747436</ele>
      </trkpt>
      <trkpt lat="1.3908010053863609" lon="103.67126263468016">
        <ele>22.451244183142027</ele>
      </trkpt>
      <trkpt lat="1.3908776443387467" lon="103.67131033948903">
        <ele>22.694669030530434</ele>
      </trkpt>
      <trkpt lat="1.3909542832904755" lon="103.67135804430079">
        <ele>23.058370618291537</ele>
      </trkpt>
      <trkpt lat="1.391036292368997" lon="103.67139446412256">
        <ele>23.260473833319526</ele>
      </trkpt>
      <trkpt lat="1.3911227810236533" lon="103.67141971961043">
        <ele>23.200794472717586</ele>
      </trkpt>
      <trkpt lat="1.3912126020428779" lon="103.67143018142228">
        <ele>22.961402172442423</ele>
      </trkpt>
      <trkpt lat="1.3913024230620796" lon="103.67144064323453">
        <ele>22.62182566927071</ele>
      </trkpt>
      <trkpt lat="1.3913922440812596" lon="103.67145110504718">
        <ele>22.307308775924838</ele>
      </trkpt>
      <trkpt lat="1.3914815740176525" lon="103.67146447514202">
        <ele>22.008151278216435</ele>
      </trkpt>
      <trkpt lat="1.3915699131148564" lon="103.67148371316792">
        <ele>21.676151661256394</ele>
      </trkpt>
      <trkpt lat="1.391655775457721" lon="103.67151124463507">
        <ele>21.352719441562698</ele>
      </trkpt>
      <trkpt lat="1.3917379272167567" lon="103.67154699909943">
        <ele>21.258431929725823</ele>
      </trkpt>
      <trkpt lat="1.3918052203626678" lon="103.67160703039471">
        <ele>21.59717539390196</ele>
      </trkpt>
      <trkpt lat="1.3918545225876764" lon="103.67168086480181">
        <ele>22.37058855597419</ele>
      </trkpt>
      <trkpt lat="1.3918959542720544" lon="103.67176073769677">
        <ele>23.367759067764425</ele>
      </trkpt>
      <trkpt lat="1.3919373909732853" lon="103.67184060802414">
        <ele>24.432996269514803</ele>
      </trkpt>
      <trkpt lat="1.3919788285130927" lon="103.67192047792382">
        <ele>25.43468450080148</ele>
      </trkpt>
      <trkpt lat="1.3920202660504912" lon="103.67200034782651">
        <ele>26.12287645393052</ele>
      </trkpt>
      <trkpt lat="1.3920617035854799" lon="103.67208021773223">
        <ele>26.497578035392767</ele>
      </trkpt>
      <trkpt lat="1.392103141118059" lon="103.67216008764096">
        <ele>26.622297057385623</ele>
      </trkpt>
      <trkpt lat="1.3921445786482285" lon="103.67223995755273">
        <ele>26.747016079378483</ele>
      </trkpt>
      <trkpt lat="1.3921860161759874" lon="103.6723198274675">
        <ele>26.880825436672506</ele>
      </trkpt>
      <trkpt lat="1.3922262397739773" lon="103.67240023894612">
        <ele>26.892778281102526</ele>
      </trkpt>
      <trkpt lat="1.3922587800909103" lon="103.67248407811422">
        <ele>26.84009816743125</ele>
      </trkpt>
      <trkpt lat="1.392281996454213" lon="103.67257051971838">
        <ele>26.680024923122232</ele>
      </trkpt>
      <trkpt lat="1.3922981546028061" lon="103.67265893136114">
        <ele>26.43500488473046</ele>
      </trkpt>
      <trkpt lat="1.3923143127482014" lon="103.67274734300548">
        <ele>26.0478144974941</ele>
      </trkpt>
      <trkpt lat="1.3923304708903985" lon="103.67283575465139">
        <ele>25.552123598647906</ele>
      </trkpt>
      <trkpt lat="1.3923466290293975" lon="103.67292416629886">
        <ele>25.056432699801707</ele>
      </trkpt>
      <trkpt lat="1.3923627871651991" lon="103.67301257794792">
        <ele>24.560741800955054</ele>
      </trkpt>
      <trkpt lat="1.3923789452978022" lon="103.67310098959855">
        <ele>24.183496220871955</ele>
      </trkpt>
      <trkpt lat="1.3923824480017757" lon="103.67319038706088">
        <ele>24.024870648832064</ele>
      </trkpt>
      <trkpt lat="1.3923803538562154" lon="103.67328022049692">
        <ele>24.261284104866267</ele>
      </trkpt>
      <trkpt lat="1.3923534885166333" lon="103.67336527349033">
        <ele>24.81016283044583</ele>
      </trkpt>
      <trkpt lat="1.3923215864081306" lon="103.6734493544669">
        <ele>25.35866476401363</ele>
      </trkpt>
      <trkpt lat="1.3922642676838215" lon="103.67351874362167">
        <ele>25.252681526863626</ele>
      </trkpt>
      <trkpt lat="1.3922000058634558" lon="103.67358020141073">
        <ele>24.617059645732795</ele>
      </trkpt>
      <trkpt lat="1.392121311401039" lon="103.6736244509423">
        <ele>23.72005588881501</ele>
      </trkpt>
      <trkpt lat="1.3920393716857329" lon="103.67366247574235">
        <ele>23.214793113634155</ele>
      </trkpt>
      <trkpt lat="1.3919517609915646" lon="103.67368014243384">
        <ele>23.01310075098596</ele>
      </trkpt>
      <trkpt lat="1.3918618051613505" lon="103.67368939037814">
        <ele>23.059389404954164</ele>
      </trkpt>
      <trkpt lat="1.3917718493309503" lon="103.67369863832137">
        <ele>23.17822557669002</ele>
      </trkpt>
      <trkpt lat="1.3916818935003628" lon="103.67370788626351">
        <ele>23.297061748425875</ele>
      </trkpt>
      <trkpt lat="1.3915919376695889" lon="103.67371713420455">
        <ele>23.415897920161726</ele>
      </trkpt>
      <trkpt lat="1.3915019818386283" lon="103.67372638214452">
        <ele>23.491951749779915</ele>
      </trkpt>
      <trkpt lat="1.3914130002286713" lon="103.67374065855671">
        <ele>23.397214809125288</ele>
      </trkpt>
      <trkpt lat="1.3913260177600442" lon="103.67376525360015">
        <ele>23.106695395222047</ele>
      </trkpt>
      <trkpt lat="1.3912410393188734" lon="103.6737940782841">
        <ele>22.594091858718674</ele>
      </trkpt>
      <trkpt lat="1.3911665394074406" lon="103.67384501864477">
        <ele>21.9874126277704</ele>
      </trkpt>
      <trkpt lat="1.3910920394944832" lon="103.67389595900211">
        <ele>21.31164940535289</ele>
      </trkpt>
      <trkpt lat="1.3910175395800009" lon="103.67394689935611">
        <ele>20.74969409166883</ele>
      </trkpt>
      <trkpt lat="1.3909357661348853" lon="103.6739836968399">
        <ele>20.355102051458545</ele>
      </trkpt>
      <trkpt lat="1.3908505699346787" lon="103.67401383901563">
        <ele>20.14313999048009</ele>
      </trkpt>
      <trkpt lat="1.390769584250497" lon="103.67404883823873">
        <ele>20.042624428240682</ele>
      </trkpt>
      <trkpt lat="1.3907269596944674" lon="103.67412808901655">
        <ele>20.0</ele>
      </trkpt>
      <trkpt lat="1.3906843351354143" lon="103.67420733979175">
        <ele>20.0</ele>
      </trkpt>
      <trkpt lat="1.3906426387624362" lon="103.67428707579062">
        <ele>20.0</ele>
      </trkpt>
      <trkpt lat="1.3906010474761386" lon="103.67436686672433">
        <ele>20.0</ele>
      </trkpt>
      <trkpt lat="1.3905594561867893" lon="103.67444665765548">
        <ele>20.0</ele>
      </trkpt>
      <trkpt lat="1.3905178648943883" lon="103.67452644858406">
        <ele>20.0</ele>
      </trkpt>
      <trkpt lat="1.390476273598935" lon="103.67460623951007">
        <ele>20.0</ele>
      </trkpt>
      <trkpt lat="1.3904346823004308" lon="103.67468603043352">
        <ele>20.0</ele>
      </trkpt>
      <trkpt lat="1.3903930909988758" lon="103.67476582135441">
        <ele>20.0</ele>
      </trkpt>
      <trkpt lat="1.3903514996942694" lon="103.67484561227272">
        <ele>20.0</ele>
      </trkpt>
      <trkpt lat="1.3903135394460664" lon="103.674926903062">
        <ele>20.0</ele>
      </trkpt>
      <trkpt lat="1.3903001810377664" lon="103.67501294758584">
        <ele>20.0</ele>
      </trkpt>
      <trkpt lat="1.3903225816779365" lon="103.67509996624099">
        <ele>20.0</ele>
      </trkpt>
      <trkpt lat="1.3903550162246159" lon="103.67518384580795">
        <ele>20.0</ele>
      </trkpt>
      <trkpt lat="1.390387450768551" lon="103.6752677253775">
        <ele>20.0</ele>
      </trkpt>
      <trkpt lat="1.390407640035287" lon="103.67535484622955">
        <ele>20.0</ele>
      </trkpt>
      <trkpt lat="1.3904215024853874" lon="103.67544364176791">
        <ele>20.0</ele>
      </trkpt>
      <trkpt lat="1.3904353649322443" lon="103.67553243730767">
        <ele>20.0</ele>
      </trkpt>
      <trkpt lat="1.3904333955430568" lon="103.6756218354523">
        <ele>20.0</ele>
      </trkpt>
      <trkpt lat="1.3904264106337652" lon="103.67571142450147">
        <ele>20.0</ele>
      </trkpt>
      <trkpt lat="1.3904085129345463" lon="103.67579866178373">
        <ele>20.0</ele>
      </trkpt>
      <trkpt lat="1.390377514731756" lon="103.67588307583318">
        <ele>20.0</ele>
      </trkpt>
      <trkpt lat="1.3903465165256674" lon="103.67596748988075">
        <ele>20.0</ele>
      </trkpt>
      <trkpt lat="1.3903155183162816" lon="103.67605190392639">
        <ele>20.0</ele>
      </trkpt>
      <trkpt lat="1.390284520103598" lon="103.67613631797015">
        <ele>20.0</ele>
      </trkpt>
      <trkpt lat="1.3902535218876175" lon="103.67622073201198">
        <ele>20.0</ele>
      </trkpt>
      <trkpt lat="1.39022252366834" lon="103.67630514605192">
        <ele>20.0</ele>
      </trkpt>
      <trkpt lat="1.3901915254457655" lon="103.67638956008996">
        <ele>20.0</ele>
      </trkpt>
      <trkpt lat="1.3901605272198945" lon="103.67647397412608">
        <ele>19.999999999999996</ele>
      </trkpt>
      <trkpt lat="1.390129528990727" lon="103.6765583881603">
        <ele>20.0</ele>
      </trkpt>
      <trkpt lat="1.3900985307582632" lon="103.67664280219263">
        <ele>20.0</ele>
      </trkpt>
      <trkpt lat="1.3900675325225034" lon="103.67672721622304">
        <ele>20.0</ele>
      </trkpt>
      <trkpt lat="1.3900552000009843" lon="103.67681490803493">
        <ele>20.0</ele>
      </trkpt>
      <trkpt lat="1.3900561452766869" lon="103.67690466560157">
        <ele>20.0</ele>
      </trkpt>
      <trkpt lat="1.390075166726971" lon="103.67699251298268">
        <ele>20.0</ele>
      </trkpt>
      <trkpt lat="1.390094188174124" lon="103.67708036036554">
        <ele>20.0</ele>
      </trkpt>
      <trkpt lat="1.3901132096181457" lon="103.67716820775016">
        <ele>20.0</ele>
      </trkpt>
      <trkpt lat="1.3901322310590356" lon="103.67725605513654">
        <ele>20.0</ele>
      </trkpt>
      <trkpt lat="1.3901512524967934" lon="103.67734390252467">
        <ele>20.0</ele>
      </trkpt>
      <trkpt lat="1.3901702739314188" lon="103.67743174991456">
        <ele>20.0</ele>
      </trkpt>
      <trkpt lat="1.3901892953629127" lon="103.67751959730623">
        <ele>20.0</ele>
      </trkpt>
      <trkpt lat="1.3902083167912742" lon="103.67760744469963">
        <ele>20.0</ele>
      </trkpt>
      <trkpt lat="1.3902273382165038" lon="103.6776952920948">
        <ele>20.0</ele>
      </trkpt>
      <trkpt lat="1.3902463596386" lon="103.67778313949171">
        <ele>20.0</ele>
      </trkpt>
      <trkpt lat="1.390265381057564" lon="103.6778709868904">
        <ele>20.0</ele>
      </trkpt>
      <trkpt lat="1.3902844024733947" lon="103.67795883429083">
        <ele>20.0</ele>
      </trkpt>
      <trkpt lat="1.3902939007057429" lon="103.67800270038069">
        <ele>20.0</ele>
      </trkpt>
      <trkpt lat="1.3903051963429083" lon="103.678091854188">
        <ele>20.0</ele>
      </trkpt>
      <trkpt lat="1.3903155648627668" lon="103.67818107859839">
        <ele>20.0</ele>
      </trkpt>
      <trkpt lat="1.3903180748027684" lon="103.67827090145828">
        <ele>20.0</ele>
      </trkpt>
      <trkpt lat="1.3903205847393523" lon="103.67836072431874">
        <ele>20.0</ele>
      </trkpt>
      <trkpt lat="1.3903256425451231" lon="103.6784504239299">
        <ele>20.0</ele>
      </trkpt>
      <trkpt lat="1.3903319260585791" lon="103.67854006424979">
        <ele>20.0</ele>
      </trkpt>
      <trkpt lat="1.3903382095686638" lon="103.67862970457053">
        <ele>20.0</ele>
      </trkpt>
      <trkpt lat="1.3903656883342523" lon="103.67871402641049">
        <ele>20.0</ele>
      </trkpt>
      <trkpt lat="1.3904118123463225" lon="103.67879058746347">
        <ele>20.0</ele>
      </trkpt>
      <trkpt lat="1.39046948564161" lon="103.6788589428207">
        <ele>20.0</ele>
      </trkpt>
      <trkpt lat="1.3905502698300864" lon="103.67889933491497">
        <ele>20.0</ele>
      </trkpt>
      <trkpt lat="1.3906384673566992" lon="103.67891858363244">
        <ele>20.0</ele>
      </trkpt>
      <trkpt lat="1.3907265317623134" lon="103.67893876936303">
        <ele>20.0</ele>
      </trkpt>
      <trkpt lat="1.3908133330067418" lon="103.67896398864326">
        <ele>20.0</ele>
      </trkpt>
      <trkpt lat="1.3908908169419922" lon="103.67900478487041">
        <ele>20.0</ele>
      </trkpt>
      <trkpt lat="1.3909523485554223" lon="103.67907026395982">
        <ele>20.0</ele>
      </trkpt>
      <trkpt lat="1.3910003544668648" lon="103.67914641641636">
        <ele>20.0</ele>
      </trkpt>
      <trkpt lat="1.3910330882528663" lon="103.6792297677117">
        <ele>20.0</ele>
      </trkpt>
      <trkpt lat="1.3910620810626257" lon="103.67931488239577">
        <ele>20.0</ele>
      </trkpt>
      <trkpt lat="1.391091073869522" lon="103.67939999708224">
        <ele>20.0</ele>
      </trkpt>
      <trkpt lat="1.3911200666735546" lon="103.67948511177107">
        <ele>20.0</ele>
      </trkpt>
      <trkpt lat="1.3911490594747236" lon="103.6795702264623">
        <ele>20.0</ele>
      </trkpt>
      <trkpt lat="1.3911780522730282" lon="103.67965534115591">
        <ele>20.0</ele>
      </trkpt>
      <trkpt lat="1.3912070450684686" lon="103.6797404558519">
        <ele>20.0</ele>
      </trkpt>
      <trkpt lat="1.3912360378610449" lon="103.67982557055026">
        <ele>20.0</ele>
      </trkpt>
      <trkpt lat="1.3912650306507561" lon="103.679910685251">
        <ele>20.0</ele>
      </trkpt>
      <trkpt lat="1.391294023437603" lon="103.67999579995413">
        <ele>20.0</ele>
      </trkpt>
      <trkpt lat="1.3913230162215842" lon="103.68008091465963">
        <ele>20.0</ele>
      </trkpt>
      <trkpt lat="1.3913557379519965" lon="103.68016455720738">
        <ele>20.0</ele>
      </trkpt>
      <trkpt lat="1.391393443163705" lon="103.68024623231723">
        <ele>20.0</ele>
      </trkpt>
      <trkpt lat="1.3914363839127921" lon="103.68032523025374">
        <ele>20.0</ele>
      </trkpt>
      <trkpt lat="1.3914813605361298" lon="103.68040318715454">
        <ele>20.0</ele>
      </trkpt>
      <trkpt lat="1.3915263371571873" lon="103.6804811440585">
        <ele>20.0</ele>
      </trkpt>
      <trkpt lat="1.3915713137759633" lon="103.6805591009656">
        <ele>20.0</ele>
      </trkpt>
      <trkpt lat="1.391616290392458" lon="103.68063705787584">
        <ele>20.0</ele>
      </trkpt>
      <trkpt lat="1.3916612670066715" lon="103.68071501478923">
        <ele>20.0</ele>
      </trkpt>
      <trkpt lat="1.391706243618603" lon="103.68079297170576">
        <ele>20.0</ele>
      </trkpt>
      <trkpt lat="1.3917512202282518" lon="103.68087092862542">
        <ele>20.0</ele>
      </trkpt>
      <trkpt lat="1.3917915740001716" lon="103.68095132775154">
        <ele>20.0</ele>
      </trkpt>
      <trkpt lat="1.3918314666064764" lon="103.68103197050901">
        <ele>20.0</ele>
      </trkpt>
      <trkpt lat="1.3918713592102931" lon="103.68111261326945">
        <ele>20.0</ele>
      </trkpt>
      <trkpt lat="1.3919112518116223" lon="103.6811932560328">
        <ele>20.0</ele>
      </trkpt>
      <trkpt lat="1.391951144410463" lon="103.68127389879912">
        <ele>20.0</ele>
      </trkpt>
      <trkpt lat="1.3919910370068147" lon="103.68135454156837">
        <ele>20.0</ele>
      </trkpt>
      <trkpt lat="1.3920309296006776" lon="103.68143518434054">
        <ele>20.0</ele>
      </trkpt>
      <trkpt lat="1.3920708221920512" lon="103.68151582711567">
        <ele>20.0</ele>
      </trkpt>
      <trkpt lat="1.3921107147809355" lon="103.68159646989373">
        <ele>20.0</ele>
      </trkpt>
      <trkpt lat="1.392148713908552" lon="103.68167792459931">
        <ele>20.0</ele>
      </trkpt>
      <trkpt lat="1.392180402739413" lon="103.68176208519317">
        <ele>20.0</ele>
      </trkpt>
      <trkpt lat="1.392208337148127" lon="103.68184732894633">
        <ele>20.0</ele>
      </trkpt>
      <trkpt lat="1.392226939874869" lon="103.68193526490778">
        <ele>20.0</ele>
      </trkpt>
      <trkpt lat="1.3922439755311073" lon="103.68202341170894">
        <ele>20.0</ele>
      </trkpt>
      <trkpt lat="1.3922495791705913" lon="103.68211309660917">
        <ele>20.0</ele>
      </trkpt>
      <trkpt lat="1.3922551828066885" lon="103.68220278151018">
        <ele>20.0</ele>
      </trkpt>
      <trkpt lat="1.3922607864393988" lon="103.68229246641201">
        <ele>20.0</ele>
      </trkpt>
      <trkpt lat="1.392266390068723" lon="103.68238215131461">
        <ele>20.0</ele>
      </trkpt>
      <trkpt lat="1.3922719936946604" lon="103.68247183621803">
        <ele>20.0</ele>
      </trkpt>
      <trkpt lat="1.3922775973172108" lon="103.68256152112224">
        <ele>20.0</ele>
      </trkpt>
      <trkpt lat="1.3922832009363741" lon="103.68265120602722">
        <ele>20.0</ele>
      </trkpt>
      <trkpt lat="1.3922888045521515" lon="103.682740890933">
        <ele>20.0</ele>
      </trkpt>
      <trkpt lat="1.3922944081645416" lon="103.68283057583959">
        <ele>20.0</ele>
      </trkpt>
      <trkpt lat="1.3923000117735445" lon="103.68292026074695">
        <ele>20.0</ele>
      </trkpt>
      <trkpt lat="1.3923056153791613" lon="103.68300994565513">
        <ele>20.0</ele>
      </trkpt>
      <trkpt lat="1.392306582271631" lon="103.68309979627541">
        <ele>20.0</ele>
      </trkpt>
      <trkpt lat="1.3923074780674431" lon="103.68318964943694">
        <ele>20.0</ele>
      </trkpt>
      <trkpt lat="1.3923083738598168" lon="103.68327950259891">
        <ele>20.0</ele>
      </trkpt>
      <trkpt lat="1.3923092696487525" lon="103.68336935576131">
        <ele>20.0</ele>
      </trkpt>
      <trkpt lat="1.3923101654342496" lon="103.68345920892416">
        <ele>20.0</ele>
      </trkpt>
      <trkpt lat="1.3923110612163077" lon="103.68354906208744">
        <ele>20.16025708286786</ele>
      </trkpt>
      <trkpt lat="1.3923119569949278" lon="103.68363891525117">
        <ele>20.511110685172945</ele>
      </trkpt>
      <trkpt lat="1.3923128527701087" lon="103.68372876841534">
        <ele>21.05256080691551</ele>
      </trkpt>
      <trkpt lat="1.3923137485418517" lon="103.68381862157992">
        <ele>21.62435036522739</ele>
      </trkpt>
      <trkpt lat="1.3923146443101555" lon="103.68390847474495">
        <ele>22.196139923539274</ele>
      </trkpt>
      <trkpt lat="1.3923155400750216" lon="103.68399832791044">
        <ele>22.57840087670151</ele>
      </trkpt>
      <trkpt lat="1.392316356014051" lon="103.68408017413672">
        <ele>22.769531353282648</ele>
      </trkpt>
      <trkpt lat="1.3922381071343004" lon="103.68403512324078">
        <ele>23.842483336708252</ele>
      </trkpt>
      <trkpt lat="1.3921598582539543" lon="103.68399007234763">
        <ele>24.78515765897573</ele>
      </trkpt>
      <trkpt lat="1.392081609373012" lon="103.68394502145725">
        <ele>25.59915619151656</ele>
      </trkpt>
      <trkpt lat="1.3920033604914748" lon="103.68389997056967">
        <ele>26.36928622750986</ele>
      </trkpt>
      <trkpt lat="1.3919251116093423" lon="103.68385491968486">
        <ele>27.139416263502863</ele>
      </trkpt>
      <trkpt lat="1.3918468627266145" lon="103.68380986880285">
        <ele>27.909546299495897</ele>
      </trkpt>
      <trkpt lat="1.3917686138432916" lon="103.68376481792365">
        <ele>28.679676335489194</ele>
      </trkpt>
      <trkpt lat="1.391690364959374" lon="103.6837197670472">
        <ele>29.350938320034903</ele>
      </trkpt>
      <trkpt lat="1.3916121160748622" lon="103.68367471617356">
        <ele>29.650201602109906</ele>
      </trkpt>
      <trkpt lat="1.3915338671897552" lon="103.68362966530267">
        <ele>29.577466181713827</ele>
      </trkpt>
      <trkpt lat="1.3914556183040545" lon="103.6835846144346">
        <ele>29.23160011029454</ele>
      </trkpt>
      <trkpt lat="1.3913773694177591" lon="103.68353956356928">
        <ele>28.88573403887544</ele>
      </trkpt>
      <trkpt lat="1.3912991205308698" lon="103.68349451270677">
        <ele>28.539867967456335</ele>
      </trkpt>
      <trkpt lat="1.3912208716433865" lon="103.68344946184705">
        <ele>28.099323169937303</ele>
      </trkpt>
      <trkpt lat="1.3911501026989082" lon="103.68339444726386">
        <ele>27.50057435824242</ele>
      </trkpt>
      <trkpt lat="1.3910843549992122" lon="103.68333274841261">
        <ele>26.63037792256661</ele>
      </trkpt>
      <trkpt lat="1.3910319608577744" lon="103.68326079275478">
        <ele>25.508193608979436</ele>
      </trkpt>
      <trkpt lat="1.3909884385764901" lon="103.68318202509431">
        <ele>24.197546705556377</ele>
      </trkpt>
      <trkpt lat="1.3909449162928595" lon="103.68310325743691">
        <ele>22.811680822102954</ele>
      </trkpt>
      <trkpt lat="1.390901394006883" lon="103.68302448978261">
        <ele>21.41249858691745</ele>
      </trkpt>
      <trkpt lat="1.3908757836745163" lon="103.68293841920847">
        <ele>20.47527164621651</ele>
      </trkpt>
      <trkpt lat="1.3908510787052337" lon="103.68285197950767">
        <ele>20.0</ele>
      </trkpt>
      <trkpt lat="1.3908263737329571" lon="103.68276553980901">
        <ele>20.0</ele>
      </trkpt>
      <trkpt lat="1.390798070145477" lon="103.68268035905545">
        <ele>20.0</ele>
      </trkpt>
      <trkpt lat="1.3907628206206308" lon="103.68259760827884">
        <ele>20.0</ele>
      </trkpt>
      <trkpt lat="1.3907275710931244" lon="103.68251485750497">
        <ele>20.0</ele>
      </trkpt>
      <trkpt lat="1.3906923215629574" lon="103.68243210673378">
        <ele>20.0</ele>
      </trkpt>
      <trkpt lat="1.390643873372265" lon="103.68235630130579">
        <ele>20.0</ele>
      </trkpt>
      <trkpt lat="1.3905947887314154" lon="103.68228083078999">
        <ele>20.0</ele>
      </trkpt>
      <trkpt lat="1.3905457040884597" lon="103.68220536027745">
        <ele>20.0</ele>
      </trkpt>
      <trkpt lat="1.3904966194433992" lon="103.68212988976818">
        <ele>20.0</ele>
      </trkpt>
      <trkpt lat="1.3904475347962333" lon="103.68205441926219">
        <ele>20.0</ele>
      </trkpt>
      <trkpt lat="1.390398450146963" lon="103.68197894875946">
        <ele>20.0</ele>
      </trkpt>
      <trkpt lat="1.3903493654955883" lon="103.68190347826001">
        <ele>20.0</ele>
      </trkpt>
      <trkpt lat="1.3903002808421088" lon="103.68182800776383">
        <ele>20.0</ele>
      </trkpt>
      <trkpt lat="1.3902511961865254" lon="103.68175253727092">
        <ele>20.0</ele>
      </trkpt>
      <trkpt lat="1.3902021115288385" lon="103.68167706678129">
        <ele>20.0</ele>
      </trkpt>
      <trkpt lat="1.3901498156519745" lon="103.68160376886983">
        <ele>20.0</ele>
      </trkpt>
      <trkpt lat="1.3900971301169491" lon="103.6815307345868">
        <ele>20.0</ele>
      </trkpt>
      <trkpt lat="1.390044444579985" lon="103.68145770030713">
        <ele>20.0</ele>
      </trkpt>
      <trkpt lat="1.3899917590410829" lon="103.68138466603082">
        <ele>20.0</ele>
      </trkpt>
      <trkpt lat="1.3899390735002426" lon="103.68131163175786">
        <ele>20.0</ele>
      </trkpt>
      <trkpt lat="1.3898863879574646" lon="103.68123859748829">
        <ele>20.0</ele>
      </trkpt>
      <trkpt lat="1.3898337024127487" lon="103.68116556322205">
        <ele>20.0</ele>
      </trkpt>
      <trkpt lat="1.3897810168660962" lon="103.68109252895916">
        <ele>20.0</ele>
      </trkpt>
      <trkpt lat="1.3897283313175064" lon="103.68101949469964">
        <ele>20.0</ele>
      </trkpt>
      <trkpt lat="1.3896756457669799" lon="103.68094646044348">
        <ele>20.0</ele>
      </trkpt>
      <trkpt lat="1.3896229602145171" lon="103.68087342619069">
        <ele>20.0</ele>
      </trkpt>
      <trkpt lat="1.3895702746601175" lon="103.68080039194123">
        <ele>20.0</ele>
      </trkpt>
      <trkpt lat="1.3895175891037823" lon="103.68072735769515">
        <ele>20.0</ele>
      </trkpt>
      <trkpt lat="1.3894649035455116" lon="103.68065432345242">
        <ele>20.0</ele>
      </trkpt>
      <trkpt lat="1.3894122179853052" lon="103.68058128921304">
        <ele>20.0</ele>
      </trkpt>
      <trkpt lat="1.3893595324231642" lon="103.68050825497701">
        <ele>20.0</ele>
      </trkpt>
      <trkpt lat="1.3893068468590875" lon="103.68043522074436">
        <ele>20.0</ele>
      </trkpt>
      <trkpt lat="1.3892541612930764" lon="103.68036218651507">
        <ele>20.0</ele>
      </trkpt>
      <trkpt lat="1.3892014757251308" lon="103.68028915228912">
        <ele>20.0</ele>
      </trkpt>
      <trkpt lat="1.3891487901552515" lon="103.68021611806653">
        <ele>20.0</ele>
      </trkpt>
      <trkpt lat="1.389096104583438" lon="103.68014308384728">
        <ele>20.0</ele>
      </trkpt>
      <trkpt lat="1.3890434190096912" lon="103.68007004963142">
        <ele>20.0</ele>
      </trkpt>
      <trkpt lat="1.3889907334340104" lon="103.6799970154189">
        <ele>20.0</ele>
      </trkpt>
      <trkpt lat="1.388938047856397" lon="103.67992398120975">
        <ele>20.0</ele>
      </trkpt>
      <trkpt lat="1.3888853622768504" lon="103.67985094700394">
        <ele>20.0</ele>
      </trkpt>
      <trkpt lat="1.3888326766953716" lon="103.6797779128015">
        <ele>20.0</ele>
      </trkpt>
      <trkpt lat="1.38877999111196" lon="103.67970487860241">
        <ele>20.0</ele>
      </trkpt>
      <trkpt lat="1.3887273055266165" lon="103.67963184440666">
        <ele>20.0</ele>
      </trkpt>
      <trkpt lat="1.3886746199393416" lon="103.67955881021429">
        <ele>20.0</ele>
      </trkpt>
      <trkpt lat="1.3886219343501351" lon="103.67948577602527">
        <ele>20.0</ele>
      </trkpt>
      <trkpt lat="1.3885692487589971" lon="103.6794127418396">
        <ele>20.0</ele>
      </trkpt>
      <trkpt lat="1.388516563165928" lon="103.6793397076573">
        <ele>20.0</ele>
      </trkpt>
      <trkpt lat="1.3884638775709282" lon="103.67926667347834">
        <ele>20.0</ele>
      </trkpt>
      <trkpt lat="1.388411191973998" lon="103.67919363930275">
        <ele>20.0</ele>
      </trkpt>
      <trkpt lat="1.3883585063751374" lon="103.6791206051305">
        <ele>20.0</ele>
      </trkpt>
      <trkpt lat="1.388305820774347" lon="103.67904757096164">
        <ele>20.0</ele>
      </trkpt>
      <trkpt lat="1.3882531357708474" lon="103.67897453636937">
        <ele>20.0</ele>
      </trkpt>
      <trkpt lat="1.3882004527614094" lon="103.678901500359">
        <ele>20.0</ele>
      </trkpt>
      <trkpt lat="1.3881477697500426" lon="103.678828464352">
        <ele>20.0</ele>
      </trkpt>
      <trkpt lat="1.388095086736746" lon="103.67875542834835">
        <ele>20.0</ele>
      </trkpt>
      <trkpt lat="1.388042403721521" lon="103.67868239234807">
        <ele>20.0</ele>
      </trkpt>
      <trkpt lat="1.3879897207043677" lon="103.67860935635113">
        <ele>20.0</ele>
      </trkpt>
      <trkpt lat="1.3879370376852858" lon="103.67853632035754">
        <ele>20.0</ele>
      </trkpt>
      <trkpt lat="1.3878843546642758" lon="103.67846328436731">
        <ele>20.0</ele>
      </trkpt>
      <trkpt lat="1.3878316716413384" lon="103.67839024838044">
        <ele>20.0</ele>
      </trkpt>
      <trkpt lat="1.387778988616473" lon="103.67831721239692">
        <ele>20.0</ele>
      </trkpt>
      <trkpt lat="1.3877263084124372" lon="103.67824417440691">
        <ele>20.0</ele>
      </trkpt>
      <trkpt lat="1.387673636164268" lon="103.67817113075417">
        <ele>20.0</ele>
      </trkpt>
      <trkpt lat="1.3876209639141723" lon="103.67809808710479">
        <ele>20.0</ele>
      </trkpt>
      <trkpt lat="1.3875682916621495" lon="103.67802504345875">
        <ele>20.0</ele>
      </trkpt>
      <trkpt lat="1.3875422011860212" lon="103.67798886229481">
        <ele>20.0</ele>
      </trkpt>
    </trkseg>
  </trk>
</gpx>