{
"type": "FeatureCollection",
"name": "point_to_point_05000m_015",
"crs": { "type": "name", "properties": { "name": "urn:ogc:def:crs:OGC:1.3:CRS84" } },
"features": [
{ "type": "Feature", "properties": { "route_id": "point_to_point_05000m_015", "budget_km": 5.0, "mode": "point_to_point", "rank": 15, "distance_m": 3884.0424827962597, "ascent_m": 56.589092033687955, "descent_m": 54.379307280651339, "gain_density_m_per_km": 14.569637763835029, "source_confidence": 0.65 }, "geometry": { "type": "LineString", "coordinates": [ [ 103.670170775820623, 1.392164129152437 ], [ 103.6701613, 1.3924216 ], [ 103.6703091, 1.3927113 ], [ 103.670639, 1.3928648 ], [ 103.6709347, 1.3931369 ], [ 103.6715604, 1.3938661 ], [ 103.6716738, 1.3940696 ], [ 103.6717701, 1.3942732 ], [ 103.6718204, 1.3944871 ], [ 103.6717761, 1.3946796 ], [ 103.6717105, 1.3949227 ], [ 103.6716361, 1.3951526 ], [ 103.6715663, 1.3953966 ], [ 103.6713652, 1.3956567 ], [ 103.6711962, 1.3957774 ], [ 103.671032600000018, 1.3958846 ], [ 103.6709643, 1.3959716 ], [ 103.6707885, 1.3961957 ], [ 103.670641, 1.3963941 ], [ 103.6705981, 1.3965925 ], [ 103.6705739, 1.3968392 ], [ 103.6704908, 1.3970376 ], [ 103.6703513, 1.3972736 ], [ 103.670126, 1.3975444 ], [ 103.67008580000001, 1.397649 ], [ 103.6700938, 1.3979895 ], [ 103.670126, 1.3984266 ], [ 103.6701528, 1.3987082 ], [ 103.6701287, 1.3988154 ], [ 103.67003480000001, 1.3989441 ], [ 103.6699356, 1.399038 ], [ 103.669729, 1.3991694 ], [ 103.6696003, 1.39929 ], [ 103.6695332, 1.3994107 ], [ 103.6694689, 1.3997351 ], [ 103.6694796, 1.400014 ], [ 103.669470200000021, 1.4001508 ], [ 103.669597600000017, 1.4005235 ], [ 103.6698283, 1.4010061 ], [ 103.66991950000002, 1.4013493 ], [ 103.6699087, 1.401832 ], [ 103.66978, 1.4020251 ], [ 103.6695708, 1.402143 ], [ 103.6693079, 1.4022128 ], [ 103.6692157, 1.4022533 ], [ 103.6691869, 1.4023615 ], [ 103.6692409, 1.4031181 ], [ 103.6691901, 1.4032361 ], [ 103.6690976, 1.4032813 ], [ 103.6686105, 1.4033843 ], [ 103.6684762, 1.4034686 ], [ 103.6684309, 1.403605 ], [ 103.668511, 1.4046147 ], [ 103.6685526, 1.4047165 ], [ 103.6686384, 1.4048017 ], [ 103.6688156, 1.4049307 ], [ 103.669151, 1.4052164 ], [ 103.6694958, 1.4055114 ], [ 103.6696726, 1.4056901 ], [ 103.6699093, 1.4060357 ], [ 103.6700612, 1.4063292 ], [ 103.6701907, 1.4065167 ], [ 103.6703892, 1.4065606 ], [ 103.6706443, 1.4065643 ], [ 103.6709833, 1.4067423 ], [ 103.6712372, 1.4069492 ], [ 103.6713036, 1.40709 ], [ 103.671256, 1.4072176 ], [ 103.6711279, 1.4073683 ], [ 103.6709717, 1.4075059 ], [ 103.6709195, 1.4076076 ], [ 103.6709396, 1.4077247 ], [ 103.671076, 1.4078857 ], [ 103.671618, 1.4083518 ], [ 103.6722072, 1.4088722 ], [ 103.672785, 1.409361 ], [ 103.6729337, 1.4094605 ], [ 103.67305, 1.4094914 ], [ 103.6734624, 1.4094781 ], [ 103.6736573, 1.4093591 ], [ 103.6738647, 1.4092442 ], [ 103.6742951, 1.4091615 ], [ 103.6744442, 1.4090095 ], [ 103.6745622, 1.4087169 ], [ 103.6746987, 1.4083966 ], [ 103.6748772, 1.4080826 ], [ 103.6750317, 1.4078504 ], [ 103.6751753, 1.4077965 ], [ 103.675411, 1.4077982 ], [ 103.6756322, 1.4077849 ], [ 103.6758193, 1.4076996 ], [ 103.6759318, 1.4074783 ], [ 103.675998, 1.4072989 ], [ 103.6761865, 1.407022 ], [ 103.6764491, 1.4067057 ], [ 103.6766517, 1.4065882 ], [ 103.6767907, 1.4066082 ], [ 103.6768922, 1.4066938 ], [ 103.6769108, 1.4068744 ], [ 103.676909, 1.407065 ], [ 103.6769556, 1.4072179 ], [ 103.677036300000012, 1.4072826 ], [ 103.677194, 1.4073295 ], [ 103.6773206, 1.4072766 ], [ 103.677486400000021, 1.4071684 ], [ 103.6775577, 1.4069521 ], [ 103.677723500000013, 1.4067265 ], [ 103.6779629, 1.4066391 ], [ 103.6782553, 1.4067219 ], [ 103.6784855, 1.4068462 ], [ 103.6786536, 1.4071592 ], [ 103.6787548, 1.4076333 ], [ 103.6787572, 1.4079164 ], [ 103.6787111, 1.4082662 ], [ 103.6785592, 1.4087173 ], [ 103.6782346, 1.4091362 ], [ 103.6779261, 1.4094952 ], [ 103.6777373, 1.4095804 ], [ 103.6775462, 1.4095228 ], [ 103.6774357, 1.4095113 ], [ 103.67735740000002, 1.4095643 ], [ 103.67735740000002, 1.4096724 ], [ 103.6773643, 1.4099578 ], [ 103.6772492, 1.410303 ], [ 103.677115, 1.4105081 ], [ 103.676948492169402, 1.410634982067989 ] ] } }
]
}
