{
"type": "FeatureCollection",
"name": "point_to_point_05000m_002",
"crs": { "type": "name", "properties": { "name": "urn:ogc:def:crs:OGC:1.3:CRS84" } },
"features": [
{ "type": "Feature", "properties": { "route_id": "point_to_point_05000m_002", "budget_km": 5.0, "mode": "point_to_point", "rank": 2, "distance_m": 4013.9146815268987, "ascent_m": 189.57956872197013, "descent_m": 229.69990351533141, "gain_density_m_per_km": 47.230592517191674, "source_confidence": 0.9277777777777777 }, "geometry": { "type": "LineString", "coordinates": [ [ 103.779605383267352, 1.353228732825694 ], [ 103.7796782, 1.3533532 ], [ 103.779734, 1.3534794 ], [ 103.779768374781781, 1.353591657731612 ], [ 103.779719397544028, 1.353473976275152 ], [ 103.779655208618465, 1.353351941775388 ], [ 103.77958150988222, 1.353244264745054 ], [ 103.779526830419314, 1.353165300790228 ], [ 103.779493546979893, 1.353112658826745 ], [ 103.779455509241075, 1.353060015852215 ], [ 103.779436490292667, 1.353016945091076 ], [ 103.779422226596907, 1.352971481488945 ], [ 103.779372301445349, 1.352933195930411 ], [ 103.779346149753636, 1.35288773206179 ], [ 103.779322377407524, 1.352803982900169 ], [ 103.779307440223846, 1.352739006724412 ], [ 103.779288421047411, 1.352706464568019 ], [ 103.779224905194766, 1.35266519882263 ], [ 103.779198753137351, 1.352636484678371 ], [ 103.779127432731471, 1.352497700279712 ], [ 103.779109642530457, 1.352436552211608 ], [ 103.779071603720226, 1.352392524203033 ], [ 103.779039271560478, 1.352354238129457 ], [ 103.779008841102495, 1.352300638502522 ], [ 103.778997429984955, 1.352271924688193 ], [ 103.778997430751147, 1.352237468419402 ], [ 103.778997431942969, 1.352183869477597 ], [ 103.778986021379453, 1.352130271183083 ], [ 103.778980316268203, 1.352095813881356 ], [ 103.778969615137513, 1.352061680229364 ], [ 103.778949220459467, 1.35202062616543 ], [ 103.778930868143121, 1.351982873076016 ], [ 103.778908045742327, 1.351933102696677 ], [ 103.778885223555662, 1.351873760528449 ], [ 103.778881420147357, 1.351823989673596 ], [ 103.778894736120677, 1.351735934763224 ], [ 103.778890933482941, 1.351691907524192 ], [ 103.778881423601248, 1.351668936463712 ], [ 103.7788719154712, 1.351607680057093 ], [ 103.778873819008751, 1.351550252985158 ], [ 103.77889283902023, 1.351504311722316 ], [ 103.778896645071029, 1.351435399270229 ], [ 103.77889854749607, 1.35138754308253 ], [ 103.778896647372378, 1.351332030463303 ], [ 103.778902354611645, 1.35127077439971 ], [ 103.778902355506432, 1.351230575419204 ], [ 103.778896650397925, 1.351196119021519 ], [ 103.778883337454602, 1.35114826249061 ], [ 103.77888524035184, 1.351119548975971 ], [ 103.778894750440941, 1.351092750171499 ], [ 103.778909966703139, 1.351052551533935 ], [ 103.778925183863365, 1.351012352896261 ], [ 103.778949909446283, 1.350979810818419 ], [ 103.778965126392606, 1.350949183969219 ], [ 103.77898604848491, 1.350910899093774 ], [ 103.778999363937984, 1.350845815027923 ], [ 103.778986050909168, 1.350801787574717 ], [ 103.778986051632145, 1.350769245844145 ], [ 103.778970837159832, 1.350729045616586 ], [ 103.778951817832336, 1.35070416070798 ], [ 103.778934700720242, 1.350681189476333 ], [ 103.778930897954993, 1.350642904044189 ], [ 103.778928996633908, 1.350600790481958 ], [ 103.778915683564989, 1.350558677566995 ], [ 103.778902371650574, 1.350505078324549 ], [ 103.778896666713692, 1.350462964676556 ], [ 103.778898568498434, 1.350443822046156 ], [ 103.778925197529531, 1.350397880953722 ], [ 103.778923296080862, 1.350361511007321 ], [ 103.77892710093127, 1.350305997611779 ], [ 103.778932808639382, 1.350263884220793 ], [ 103.77894802493779, 1.350221771948203 ], [ 103.778959437322087, 1.350193058647287 ], [ 103.778988713126807, 1.35016458992645 ], [ 103.779064961893184, 1.350109125185793 ], [ 103.779110896990275, 1.350083230657513 ], [ 103.779191745391188, 1.350032394550926 ], [ 103.779225726824919, 1.350010208549352 ], [ 103.779296088865223, 1.349965271370801 ], [ 103.779358855248816, 1.349925073792335 ], [ 103.779379038214884, 1.349909127592054 ], [ 103.77940881578634, 1.349904333318612 ], [ 103.779433032518838, 1.349882961928024 ], [ 103.779493895658447, 1.349846592476359 ], [ 103.77954905365435, 1.349817880146429 ], [ 103.779587680557967, 1.349799904057443 ], [ 103.77960801509623, 1.349796825150028 ], [ 103.779640348618543, 1.349771940483373 ], [ 103.779668878902612, 1.349729827596843 ], [ 103.779689922134239, 1.34969814638296 ], [ 103.779701833473325, 1.349657387864377 ], [ 103.779697070266636, 1.349613032319942 ], [ 103.779686351151611, 1.349579465706313 ], [ 103.779663720955583, 1.349533910578473 ], [ 103.77962441518595, 1.349490753453417 ], [ 103.779589874178512, 1.349461981248116 ], [ 103.779554141441182, 1.349443998983211 ], [ 103.779526746702118, 1.349415226936046 ], [ 103.77947314816393, 1.349342098866224 ], [ 103.779452899324255, 1.349330111069669 ], [ 103.779419548521588, 1.349360080046026 ], [ 103.779398108083569, 1.349393645943411 ], [ 103.779364755535084, 1.349421217449811 ], [ 103.779355396346318, 1.349451198717776 ], [ 103.779356377269806, 1.349424361736504 ], [ 103.779385299447853, 1.349499143340004 ], [ 103.779392869299301, 1.349523526067742 ], [ 103.779385569548111, 1.349556584027836 ], [ 103.779359237656351, 1.349575512683632 ], [ 103.779294135791048, 1.349580752922956 ], [ 103.779214688465487, 1.349581927723044 ], [ 103.779168315188727, 1.349593894133549 ], [ 103.779119021822282, 1.349595074127833 ], [ 103.779085734320219, 1.349606589552543 ], [ 103.779035980175408, 1.349639971224835 ], [ 103.778986325185528, 1.34965919146191 ], [ 103.778939637455537, 1.349669083249766 ], [ 103.778911994848528, 1.34967487779219 ], [ 103.778862893441215, 1.349690966226507 ], [ 103.778819867103621, 1.34971203241642 ], [ 103.778747762084052, 1.349746531372184 ], [ 103.778603340554895, 1.349829926747451 ], [ 103.778497061571329, 1.349896776735335 ], [ 103.778451194988307, 1.34991260296881 ], [ 103.778398249800475, 1.349916318701867 ], [ 103.778339807105098, 1.349924552511311 ], [ 103.778253710048048, 1.349941637604125 ], [ 103.778215451079049, 1.349940352534845 ], [ 103.77817279010597, 1.349936671704214 ], [ 103.778135620286548, 1.34993132606412 ], [ 103.778101217458428, 1.349911935713567 ], [ 103.778066006197975, 1.349880433196804 ], [ 103.778043260728538, 1.349847523774407 ], [ 103.778039133420407, 1.34981705565633 ], [ 103.778033545149242, 1.349782179634615 ], [ 103.77802823763345, 1.349769207315743 ], [ 103.778003178869895, 1.34975380632737 ], [ 103.777980245380675, 1.349730723719484 ], [ 103.777967407304018, 1.349704880319357 ], [ 103.777941650995331, 1.349661330080102 ], [ 103.777925905903402, 1.349642839996952 ], [ 103.777896177269909, 1.349629326308167 ], [ 103.777860263899512, 1.349612801849302 ], [ 103.777811224197876, 1.349602071348653 ], [ 103.777771898072658, 1.349586237744209 ], [ 103.777722104737322, 1.34956409324628 ], [ 103.777694030723652, 1.349534552454155 ], [ 103.777674810481656, 1.349494653280219 ], [ 103.777665689983309, 1.349459079007465 ], [ 103.777656503117228, 1.349417979973389 ], [ 103.777645388366892, 1.349397470550326 ], [ 103.777632986794259, 1.349380529717958 ], [ 103.777611541126376, 1.349366452797893 ], [ 103.777589442161968, 1.349354218956457 ], [ 103.77756389738029, 1.349334557493702 ], [ 103.777560691146206, 1.349302286094388 ], [ 103.777567603627006, 1.349269822298942 ], [ 103.777576045176829, 1.349210358751156 ], [ 103.7775780612061, 1.349186024170819 ], [ 103.777577070659305, 1.349161099875815 ], [ 103.777572758202751, 1.349132880906091 ], [ 103.777571635823747, 1.349096694562986 ], [ 103.777572723504719, 1.349038748368315 ], [ 103.777573793529072, 1.349006449032268 ], [ 103.777573794022089, 1.348984792227255 ], [ 103.777574906282112, 1.348952346385192 ], [ 103.777576772060513, 1.348936388020832 ], [ 103.777573486334688, 1.348922497818182 ], [ 103.777555543298476, 1.348907018309931 ], [ 103.777521536942373, 1.348879415431298 ], [ 103.77749264076941, 1.348849212623663 ], [ 103.777467766495477, 1.348821901160368 ], [ 103.777452183294045, 1.348797253263539 ], [ 103.777429349747635, 1.348765913809721 ], [ 103.777405584297966, 1.348738731695516 ], [ 103.777391601329271, 1.348718793763108 ], [ 103.777368515513459, 1.348677602161365 ], [ 103.777333691712045, 1.348639458898785 ], [ 103.77729431760406, 1.348600845261025 ], [ 103.77728750837295, 1.348597681637947 ], [ 103.777267433555437, 1.348599518840386 ], [ 103.77719330675194, 1.348596225236078 ], [ 103.777089241630762, 1.348594081284966 ], [ 103.777193888535919, 1.348578143395565 ], [ 103.777267014341732, 1.348581391758423 ], [ 103.777290672632134, 1.348579228163599 ], [ 103.777304652312424, 1.348585721821063 ], [ 103.77734659085904, 1.348626851458686 ], [ 103.777383152436158, 1.348666897543187 ], [ 103.777406809714364, 1.348709109280605 ], [ 103.77741971444371, 1.348727508864819 ], [ 103.777443372068774, 1.34875456707852 ], [ 103.777467029571, 1.348787037006278 ], [ 103.777482083538473, 1.348810848354073 ], [ 103.777505742088266, 1.348836824947887 ], [ 103.7775337010832, 1.348866048307516 ], [ 103.777567037124285, 1.348893106743383 ], [ 103.777589619346017, 1.348912589073622 ], [ 103.777594995825069, 1.348935317673951 ], [ 103.77759284424846, 1.348953716910212 ], [ 103.777591767955215, 1.348985104647238 ], [ 103.777591767462624, 1.349006750599876 ], [ 103.777590692043233, 1.349039220860627 ], [ 103.777589615158718, 1.349096583740781 ], [ 103.777590689949548, 1.349131217289776 ], [ 103.777594990726783, 1.349159357579538 ], [ 103.777596065690034, 1.349186416175569 ], [ 103.777593913940706, 1.349212391269109 ], [ 103.777585309725424, 1.34927300154678 ], [ 103.777578856459371, 1.349303305731614 ], [ 103.777581007124795, 1.349324952638178 ], [ 103.77759928805564, 1.349339023154983 ], [ 103.777620794874849, 1.349350928698564 ], [ 103.777645528333267, 1.349367164411167 ], [ 103.777660583278234, 1.349387729091186 ], [ 103.777673486991318, 1.349411540388382 ], [ 103.777683164422868, 1.349454833420788 ], [ 103.777691766496872, 1.349488385523623 ], [ 103.777708972257187, 1.349524101967523 ], [ 103.777732629942065, 1.349548996035597 ], [ 103.777778870397086, 1.349569561432086 ], [ 103.777816508138685, 1.349584714915886 ], [ 103.777865975553638, 1.349595538575734 ], [ 103.777903613247219, 1.349612857105656 ], [ 103.777936949571796, 1.349628010488985 ], [ 103.777956305890413, 1.349650739408951 ], [ 103.777983188953499, 1.349696196977564 ], [ 103.777995017990534, 1.349720008248587 ], [ 103.778014374383787, 1.349739490501304 ], [ 103.778042621202857, 1.349756850414961 ], [ 103.778050958504224, 1.349777230448757 ], [ 103.778056913337522, 1.349814392711064 ], [ 103.778060485426693, 1.349840766760509 ], [ 103.778079543316011, 1.349868339446411 ], [ 103.778111702220997, 1.349897110713896 ], [ 103.778141479307635, 1.349913894581573 ], [ 103.778174830248219, 1.349918691185432 ], [ 103.778216518978155, 1.349922287887994 ], [ 103.778252252089388, 1.349923487889447 ], [ 103.778336820684032, 1.349906706628171 ], [ 103.778396376701508, 1.349898316389129 ], [ 103.778447593950446, 1.349894720897246 ], [ 103.778489283083445, 1.349880336125296 ], [ 103.778594101881794, 1.349814404938487 ], [ 103.778739418390103, 1.349730492287734 ], [ 103.778812076929697, 1.349695729270384 ], [ 103.77885614830663, 1.34967415213847 ], [ 103.778907365843722, 1.349657370104735 ], [ 103.778935952844137, 1.349651376623508 ], [ 103.778981214548423, 1.349641786861237 ], [ 103.779027668830921, 1.349623806435425 ], [ 103.779077696142551, 1.349590241183532 ], [ 103.779115811657547, 1.349577055506849 ], [ 103.779165838250989, 1.349575857441764 ], [ 103.779212291500002, 1.34956387023271 ], [ 103.779293287048546, 1.349562673762558 ], [ 103.779352842077429, 1.349557880155202 ], [ 103.77936951786387, 1.34954589227789 ], [ 103.77937428251758, 1.349524314258346 ], [ 103.779368327268386, 1.349505133468535 ], [ 103.77934093345614, 1.349434403449882 ], [ 103.779355396346318, 1.349451198717776 ], [ 103.779375922556355, 1.349435396318474 ], [ 103.779411699470458, 1.349405819890918 ], [ 103.779433344787677, 1.349371933853115 ], [ 103.779455088630513, 1.349352394648385 ], [ 103.779460866311425, 1.349355815986304 ], [ 103.779512968787969, 1.34942690287344 ], [ 103.779543317932067, 1.349458777859523 ], [ 103.779579996845342, 1.349477236745497 ], [ 103.779612002156028, 1.349503895395808 ], [ 103.77964876954772, 1.349544267023439 ], [ 103.77966965930483, 1.349586317702117 ], [ 103.779679397256771, 1.349616810360656 ], [ 103.779683578313453, 1.349655744229765 ], [ 103.779673452551762, 1.349690390191353 ], [ 103.779653981856342, 1.349719704719319 ], [ 103.779627130141307, 1.349759340589867 ], [ 103.779600768566695, 1.349779627602377 ], [ 103.779582466583804, 1.349782399071173 ], [ 103.779541149356589, 1.349801628548754 ], [ 103.779485171862532, 1.3498307677201 ], [ 103.779422429804143, 1.349868258541029 ], [ 103.779400861187128, 1.349887294018327 ], [ 103.779371602088318, 1.349892005101756 ], [ 103.779348455611313, 1.349910290825532 ], [ 103.779286449422628, 1.34995000277726 ], [ 103.779216020888043, 1.349994982459161 ], [ 103.779182091571855, 1.350017133191586 ], [ 103.779101738286158, 1.350067659112125 ], [ 103.779055273929274, 1.35009385206848 ], [ 103.778977145339681, 1.35015068416495 ], [ 103.778944179058286, 1.350182741319029 ], [ 103.778931230045757, 1.350215318932768 ], [ 103.778915258907929, 1.350259522077853 ], [ 103.77890921058831, 1.350304150497469 ], [ 103.778905288886548, 1.350361363190328 ], [ 103.778906965789858, 1.350393434689479 ], [ 103.778881072709666, 1.350438106071206 ], [ 103.778878569651823, 1.350463290744059 ], [ 103.778884695046798, 1.350508503657072 ], [ 103.778898383424945, 1.350563618622186 ], [ 103.778911148408824, 1.350603998763412 ], [ 103.778912964408292, 1.350644215872372 ], [ 103.778917314275589, 1.350688007989379 ], [ 103.77893750438092, 1.350715102285919 ], [ 103.778954980022149, 1.350737969523751 ], [ 103.778968077604389, 1.35077257440355 ], [ 103.778968076895325, 1.350804479461826 ], [ 103.778980835551124, 1.350846677374236 ], [ 103.778968991204877, 1.350904574492211 ], [ 103.778949207637964, 1.350940775738445 ], [ 103.778934596350027, 1.35097018532723 ], [ 103.778909317236057, 1.351003453596739 ], [ 103.778893170008189, 1.351046111179085 ], [ 103.778877886349591, 1.351086487070365 ], [ 103.778867472249175, 1.351115834352189 ], [ 103.778865197221776, 1.351150154010946 ], [ 103.778879079808192, 1.351200056226191 ], [ 103.77888438061737, 1.351232072640672 ], [ 103.778884379774468, 1.351269928414006 ], [ 103.778878643773794, 1.351331495578105 ], [ 103.77888056095901, 1.351387492936829 ], [ 103.778878690001434, 1.351434535197596 ], [ 103.778875063734802, 1.351500213647978 ], [ 103.778855963746636, 1.35154634663403 ], [ 103.778853894761369, 1.351608784783192 ], [ 103.778863999451389, 1.351673882037302 ], [ 103.778873267632349, 1.351696272490702 ], [ 103.778876643562512, 1.351735349231501 ], [ 103.778863341068998, 1.351823313705652 ], [ 103.77886750469564, 1.351877804444427 ], [ 103.778891487758514, 1.351940164501714 ], [ 103.778914632727592, 1.351990639388035 ], [ 103.778933109039841, 1.352028646606618 ], [ 103.778952901707129, 1.352068488809337 ], [ 103.778962794187933, 1.352100044101372 ], [ 103.778968359141899, 1.352133654915264 ], [ 103.778979457936146, 1.352185785420031 ], [ 103.778979456786573, 1.352237468014487 ], [ 103.778979455942618, 1.352275408797789 ], [ 103.778992615566608, 1.352308523286862 ], [ 103.779024493553422, 1.352364673253101 ], [ 103.779057974047049, 1.352404316803073 ], [ 103.779093497842496, 1.352445434511922 ], [ 103.779110669878548, 1.352504460023898 ], [ 103.779183887069635, 1.352646933366403 ], [ 103.779213215472026, 1.352679136618443 ], [ 103.779275090571247, 1.352719335177839 ], [ 103.779290549773208, 1.3527457872673 ], [ 103.779304968535072, 1.352808509756397 ], [ 103.779329478544, 1.352894856268143 ], [ 103.779358546861161, 1.352945391875592 ], [ 103.779406801611074, 1.352982395913248 ], [ 103.779419654660799, 1.353023362081677 ], [ 103.779439855161243, 1.353069109786823 ], [ 103.779478681814737, 1.353122844346573 ], [ 103.779511868212424, 1.353175333470572 ], [ 103.779566735468961, 1.353254567834744 ], [ 103.779639812418594, 1.35336133687018 ], [ 103.779703731785673, 1.353482858589943 ], [ 103.779768374781781, 1.353591657731612 ], [ 103.779731372600338, 1.353642446895807 ], [ 103.779605078326767, 1.353733578653254 ], [ 103.779553265653306, 1.353759650311773 ], [ 103.779447590222205, 1.353710360112569 ], [ 103.779299194085354, 1.353633269706199 ], [ 103.779242802794244, 1.353597795667431 ], [ 103.779150701732206, 1.353559765092136 ], [ 103.779060759237481, 1.353512118459598 ], [ 103.779024478209053, 1.353499229550915 ], [ 103.778981541231218, 1.353499228582993 ], [ 103.778933812496618, 1.353446133200052 ], [ 103.778775169772132, 1.353382342108238 ], [ 103.778666007034218, 1.353333662242677 ], [ 103.778641134932059, 1.353327188240957 ], [ 103.778571331071319, 1.353319492327207 ], [ 103.778451024837267, 1.353289206058252 ], [ 103.778349041348008, 1.353253283300659 ], [ 103.778210273321804, 1.353218869985836 ], [ 103.778160856028762, 1.353213499646297 ], [ 103.778122706561305, 1.353215407885242 ], [ 103.778092710836034, 1.35320960932051 ], [ 103.778065785363452, 1.353170276105036 ], [ 103.778070900382545, 1.353192580551057 ], [ 103.778031617294431, 1.353217981425901 ], [ 103.77798815694257, 1.353236315503972 ], [ 103.777902132553407, 1.353253235986284 ], [ 103.777822672492263, 1.353256059390845 ], [ 103.777761787897589, 1.353243256715797 ], [ 103.777673091679674, 1.353238178474367 ], [ 103.777605066970125, 1.353231001678861 ], [ 103.777551811720116, 1.353234062623544 ], [ 103.777519858301716, 1.353255501640803 ], [ 103.777500076652984, 1.353284598189388 ], [ 103.777462036139397, 1.353355040931396 ], [ 103.777422473245963, 1.353434672879739 ], [ 103.777398127507951, 1.35347601983588 ], [ 103.777363130403401, 1.353508178206415 ], [ 103.77732356880415, 1.353531148132304 ], [ 103.777279443820063, 1.353535741275411 ], [ 103.777207929991363, 1.353528082361274 ], [ 103.777099898773713, 1.353509703167093 ], [ 103.777016212031029, 1.353505107044037 ], [ 103.776917309800481, 1.353505104730927 ], [ 103.776824494229103, 1.353514290894382 ], [ 103.776768836803782, 1.353530627828168 ], [ 103.776728904201207, 1.353548891425264 ], [ 103.776678966499745, 1.353588176726856 ], [ 103.776551427020991, 1.35370465309047 ], [ 103.776501507348968, 1.353741182791511 ], [ 103.776447954159451, 1.353765839915589 ], [ 103.776400754927366, 1.353781383912964 ], [ 103.776226002068242, 1.353825680950417 ], [ 103.776174256699846, 1.353853978175962 ], [ 103.776121616102941, 1.353893262496772 ], [ 103.776077136839788, 1.353946255359102 ], [ 103.776046716433157, 1.354002428298501 ], [ 103.77601766501769, 1.354076441657659 ], [ 103.775982276217988, 1.354180591889731 ], [ 103.775963212704141, 1.354239061278177 ], [ 103.775952311557134, 1.354267359470835 ], [ 103.775919627562971, 1.354327665297502 ], [ 103.775889225742802, 1.354357341275531 ], [ 103.77585382175495, 1.354381080888834 ], [ 103.775804797329513, 1.35440485635085 ], [ 103.775706765743877, 1.354444139576991 ], [ 103.775661374319554, 1.354463321858408 ], [ 103.775566063322614, 1.354513556991079 ], [ 103.775387693186488, 1.354616323719369 ], [ 103.775355010433245, 1.35462363652387 ], [ 103.775306899483496, 1.354624553294449 ], [ 103.77524471080396, 1.35462225471072 ], [ 103.775204150513019, 1.354622196757041 ], [ 103.775162270121186, 1.354626751931225 ], [ 103.775137367965144, 1.354637004103451 ], [ 103.775110201127774, 1.354659787991648 ], [ 103.775098881124833, 1.354692825036711 ], [ 103.775096085316079, 1.354708529249064 ], [ 103.775099013651115, 1.354749780071574 ], [ 103.775114519635252, 1.354772409440825 ], [ 103.77513936018515, 1.354783333853252 ], [ 103.77516765769127, 1.35478675212831 ], [ 103.775200483253215, 1.354782195831195 ], [ 103.775237835890593, 1.354773083457373 ], [ 103.775289904451128, 1.354758274849334 ], [ 103.775357819246807, 1.354741188528953 ], [ 103.775434788874136, 1.354724101520009 ], [ 103.775507231452522, 1.354710432895534 ], [ 103.775555160033818, 1.354707899113926 ], [ 103.775592733289415, 1.354716798051991 ], [ 103.775632515693985, 1.354743492211671 ], [ 103.775674508146949, 1.354787982497269 ], [ 103.775723131848721, 1.354839146242362 ], [ 103.7757839100653, 1.354905881615448 ], [ 103.775873420788102, 1.355010432746898 ], [ 103.775904522820397, 1.355047648969615 ], [ 103.775937347607297, 1.355076129981717 ], [ 103.775971303768003, 1.355101193429013 ], [ 103.776005260908349, 1.35512283928455 ], [ 103.776038085093333, 1.355138789428555 ], [ 103.776069778119847, 1.355149042956729 ], [ 103.776102253868714, 1.355156212622042 ], [ 103.776140054723115, 1.35515433425221 ], [ 103.776177531384576, 1.355144397991326 ], [ 103.776204866928992, 1.355130969739998 ], [ 103.776268711858236, 1.355087160247294 ], [ 103.776330623370441, 1.355030693229169 ], [ 103.776396403563226, 1.3549586504405 ], [ 103.776446706538607, 1.354901210048899 ], [ 103.776484433967155, 1.354849610645994 ], [ 103.776518292130632, 1.354799959151076 ], [ 103.776544030601002, 1.35476164999713 ], [ 103.776547750675022, 1.354799498620405 ], [ 103.776522028100999, 1.354849704682848 ], [ 103.77646582571235, 1.354921763980105 ], [ 103.776419853913453, 1.354975090522879 ], [ 103.776372601580604, 1.355031738763138 ], [ 103.776294826429691, 1.355104568967821 ], [ 103.776244585936453, 1.355141122167586 ], [ 103.77619564589115, 1.35516800503343 ], [ 103.776159925862771, 1.355180507016823 ], [ 103.776125456777734, 1.35518696064334 ], [ 103.7760863558007, 1.355184550488186 ], [ 103.776047578456229, 1.355175788087777 ], [ 103.776010405217946, 1.355159866779966 ], [ 103.775974502711719, 1.355137084997029 ], [ 103.775932096609353, 1.355105267558352 ], [ 103.775882705343335, 1.355061769187625 ], [ 103.775870896726943, 1.355048298404869 ], [ 103.77575460947638, 1.354914425345386 ], [ 103.775696117993107, 1.354852495816316 ], [ 103.775630008720114, 1.354780602725847 ], [ 103.775615947421841, 1.354766449997544 ], [ 103.7755920791421, 1.354754437663456 ], [ 103.775548438881046, 1.354741260033967 ], [ 103.775515441802369, 1.35474125924187 ], [ 103.775436494553119, 1.354753364969282 ], [ 103.77536051965393, 1.354769679675401 ], [ 103.775278391164832, 1.354795256726106 ], [ 103.775230960134962, 1.354808345345577 ], [ 103.775195638262488, 1.354817034525975 ], [ 103.775154359096106, 1.354817847456445 ], [ 103.775118019635059, 1.354806209223019 ], [ 103.775090931104486, 1.354785761803807 ], [ 103.775070905664109, 1.354749648258851 ], [ 103.775066710135562, 1.354717550472698 ], [ 103.775071256677904, 1.354688012248008 ], [ 103.775081995319411, 1.354654585408176 ], [ 103.775105813354671, 1.354625653573307 ], [ 103.775134739468413, 1.354607566993912 ], [ 103.775158921750375, 1.354602507662018 ], [ 103.775221724225602, 1.354601574970411 ], [ 103.775283894034743, 1.354603872649876 ], [ 103.775330853922739, 1.354602977556763 ], [ 103.77536132619592, 1.354596160290805 ], [ 103.77553865937432, 1.35449399041973 ], [ 103.775634457398866, 1.354443498460451 ], [ 103.775680278340957, 1.354424135317028 ], [ 103.775778094268716, 1.354384938001369 ], [ 103.775826272236841, 1.354361573100902 ], [ 103.77586047302826, 1.354338640151924 ], [ 103.775889305020826, 1.3543104970337 ], [ 103.775921057163984, 1.354251911285486 ], [ 103.775931661767032, 1.354224381795276 ], [ 103.775950669566441, 1.354166086043643 ], [ 103.775986143736731, 1.354061683496569 ], [ 103.776015475521717, 1.353986955696965 ], [ 103.776046596839194, 1.353929487725455 ], [ 103.776092338620344, 1.353874990936448 ], [ 103.77614632618824, 1.353834701899878 ], [ 103.776199622497813, 1.353805556418303 ], [ 103.77637517148824, 1.353761057728376 ], [ 103.776421591659158, 1.353745770552473 ], [ 103.776473864381089, 1.353721702139671 ], [ 103.776522662626192, 1.35368599357524 ], [ 103.776650086188042, 1.353569623021011 ], [ 103.776701126447577, 1.353529470460871 ], [ 103.776742250558357, 1.353510661560735 ], [ 103.77678519960827, 1.353493730162293 ], [ 103.77689388306969, 1.353477997681179 ], [ 103.776991463565125, 1.353475682983807 ], [ 103.777080223577002, 1.353481205294815 ], [ 103.777210350500894, 1.353498634517921 ], [ 103.777289641325368, 1.353509508626755 ], [ 103.777307923506228, 1.353509509051818 ], [ 103.777342081745672, 1.353499399960736 ], [ 103.77737036634035, 1.353477619011314 ], [ 103.777394728188554, 1.353439083723445 ], [ 103.777476856928786, 1.353281837532583 ], [ 103.777502735615073, 1.35324041012254 ], [ 103.777520364991389, 1.353220579637415 ], [ 103.777558735700481, 1.353210143260817 ], [ 103.777681341929409, 1.35321468057547 ], [ 103.777795021630823, 1.353227816371045 ], [ 103.777885404436248, 1.353233633512149 ], [ 103.777967958501847, 1.353219782362086 ], [ 103.778021788366189, 1.353197627584475 ], [ 103.778061627003936, 1.353161735195856 ], [ 103.778086703267832, 1.353120040068899 ], [ 103.778090087283616, 1.353079228008295 ], [ 103.778079516787813, 1.353030317952699 ], [ 103.778056784871652, 1.352992876762418 ], [ 103.777976735923289, 1.352891611481132 ], [ 103.777940513417022, 1.352834689075361 ], [ 103.777920402743504, 1.352751969152193 ], [ 103.777927106278455, 1.352661699310111 ], [ 103.777966723236901, 1.352494789897168 ], [ 103.778004485005482, 1.352391805409524 ], [ 103.778051345855047, 1.352318335952993 ], [ 103.778144944489469, 1.352209097255891 ], [ 103.778181521853895, 1.352149709412962 ], [ 103.778202451448152, 1.352098550924254 ], [ 103.778212350360207, 1.352043733126576 ], [ 103.778214339015108, 1.351997940700844 ], [ 103.778206084921649, 1.351913413226569 ], [ 103.778181869501424, 1.351835428461016 ], [ 103.778160134393048, 1.351785034088912 ], [ 103.778124958610988, 1.351693326252871 ], [ 103.778123668948936, 1.351623661255588 ], [ 103.778147420631171, 1.35154577616218 ], [ 103.778209701487995, 1.351441920423151 ], [ 103.778257115099109, 1.351320982715704 ], [ 103.778317971590127, 1.351023308168235 ], [ 103.778328946571094, 1.350866475420345 ], [ 103.778314864940057, 1.350757798580716 ], [ 103.778317166180543, 1.350637000923339 ], [ 103.778325524960039, 1.350541597040922 ], [ 103.778329984825405, 1.350488365372292 ], [ 103.778333819257853, 1.350396624060935 ], [ 103.7783092657846, 1.350327638614755 ], [ 103.778259511907152, 1.350268180068883 ], [ 103.77817067458956, 1.350229060681015 ], [ 103.778067031516301, 1.350156410751243 ], [ 103.777959686539759, 1.350076310581681 ], [ 103.777857173110007, 1.34995795411214 ], [ 103.777763506214896, 1.349871402515493 ], [ 103.777687624564209, 1.34982483235348 ], [ 103.777622222755255, 1.349782475862709 ], [ 103.777609892132091, 1.349767085111741 ], [ 103.777587063189458, 1.349730407198557 ], [ 103.777566547007822, 1.349699853691608 ], [ 103.777532573020196, 1.349631465805572 ], [ 103.777519169588672, 1.349533998569495 ], [ 103.777476773750124, 1.349252375924755 ], [ 103.777470130369608, 1.349226540804581 ], [ 103.777452113132142, 1.349154987107763 ], [ 103.777430843253697, 1.349116079067637 ], [ 103.777384567478492, 1.349029440829524 ], [ 103.777315275467785, 1.348923898136651 ], [ 103.777203028381678, 1.348749333384199 ], [ 103.777131313756442, 1.348648436348177 ], [ 103.776994805848489, 1.348459600159316 ] ] } }
]
}
