<?xml version="1.0" encoding="UTF-8"?>
<gpx xmlns="http://www.topografix.com/GPX/1/1" xmlns:xsi="http://www.w3.org/2001/XMLSchema-instance" xsi:schemaLocation="http://www.topografix.com/GPX/1/1 http://www.topografix.com/GPX/1/1/gpx.xsd" version="1.1" creator="gpx.py -- https://github.com/tkrajina/gpxpy">
  <trk>
    <name>point_to_point_05000m_001</name>
    <trkseg>
      <trkpt lat="1.3485781695519279" lon="103.77730786214853">
        <ele>40.591635171440814</ele>
      </trkpt>
      <trkpt lat="1.3485846924740172" lon="103.77721823997653">
        <ele>41.27401826779035</ele>
      </trkpt>
      <trkpt lat="1.3485912153927653" lon="103.77712861780421">
        <ele>42.36677676798951</ele>
      </trkpt>
      <trkpt lat="1.3485940812849657" lon="103.77708924163076">
        <ele>42.95852998054346</ele>
      </trkpt>
      <trkpt lat="1.3485805500917227" lon="103.77717808636373">
        <ele>41.75848649498941</ele>
      </trkpt>
      <trkpt lat="1.3485813300872886" lon="103.77726768869798">
        <ele>40.884496438151636</ele>
      </trkpt>
      <trkpt lat="1.3486218113876616" lon="103.7773414516633">
        <ele>41.05653925718253</ele>
      </trkpt>
      <trkpt lat="1.3486920076344082" lon="103.77739722521416">
        <ele>42.16063995018743</ele>
      </trkpt>
      <trkpt lat="1.3487644353128665" lon="103.77745056203776">
        <ele>43.52053449142959</ele>
      </trkpt>
      <trkpt lat="1.348836049050872" lon="103.77750503542909">
        <ele>44.541768152013105</ele>
      </trkpt>
      <trkpt lat="1.3488968243068817" lon="103.77757134620033">
        <ele>45.63230169718482</ele>
      </trkpt>
      <trkpt lat="1.3489780255814376" lon="103.77759201069813">
        <ele>47.18267514497679</ele>
      </trkpt>
      <trkpt lat="1.3490684345193342" lon="103.77759014360954">
        <ele>49.346297446867936</ele>
      </trkpt>
      <trkpt lat="1.3491585278037628" lon="103.7775948639093">
        <ele>51.74116699103161</ele>
      </trkpt>
      <trkpt lat="1.3492484762506496" lon="103.77758879132854">
        <ele>54.05786155205353</ele>
      </trkpt>
      <trkpt lat="1.3493327979911067" lon="103.77759120009466">
        <ele>55.654904330734176</ele>
      </trkpt>
      <trkpt lat="1.3493879232353696" lon="103.777660688488">
        <ele>56.96348400406573</ele>
      </trkpt>
      <trkpt lat="1.3494733854683678" lon="103.77768792078899">
        <ele>58.580675903323986</ele>
      </trkpt>
      <trkpt lat="1.3495493210770482" lon="103.7777333607845">
        <ele>60.60051198428766</ele>
      </trkpt>
      <trkpt lat="1.3495845518376126" lon="103.77781610309005">
        <ele>62.428566989089155</ele>
      </trkpt>
      <trkpt lat="1.3496117742577054" lon="103.77790125993545">
        <ele>63.947420798690594</ele>
      </trkpt>
      <trkpt lat="1.3496688552103042" lon="103.7779670193588">
        <ele>65.9480750106129</ele>
      </trkpt>
      <trkpt lat="1.349741806922822" lon="103.77801814350038">
        <ele>68.5602817167301</ele>
      </trkpt>
      <trkpt lat="1.3498162638172786" lon="103.7780571667593">
        <ele>71.58488604662301</ele>
      </trkpt>
      <trkpt lat="1.349889678398523" lon="103.77810339479669">
        <ele>73.89324121329389</ele>
      </trkpt>
      <trkpt lat="1.3499196300959704" lon="103.77818571298991">
        <ele>75.18983779090466</ele>
      </trkpt>
      <trkpt lat="1.3499189742355449" lon="103.7782749984961">
        <ele>75.39947696207417</ele>
      </trkpt>
      <trkpt lat="1.3499029613730793" lon="103.77836340544377">
        <ele>76.91354976599939</ele>
      </trkpt>
      <trkpt lat="1.3498930164812788" lon="103.7784525335926">
        <ele>78.4826868700062</ele>
      </trkpt>
      <trkpt lat="1.3498531289469469" lon="103.77853253763391">
        <ele>80.0</ele>
      </trkpt>
      <trkpt lat="1.34980576109041" lon="103.77860907094677">
        <ele>80.0</ele>
      </trkpt>
      <trkpt lat="1.3497607552691562" lon="103.77868701019536">
        <ele>80.0</ele>
      </trkpt>
      <trkpt lat="1.349717773382092" lon="103.7787660023062">
        <ele>80.0</ele>
      </trkpt>
      <trkpt lat="1.3496786290587843" lon="103.77884700417945">
        <ele>80.0</ele>
      </trkpt>
      <trkpt lat="1.3496520696594876" lon="103.7789326472829">
        <ele>80.0</ele>
      </trkpt>
      <trkpt lat="1.3496272547257055" lon="103.77901875981796">
        <ele>80.0</ele>
      </trkpt>
      <trkpt lat="1.3495836370356533" lon="103.77909678659253">
        <ele>80.0</ele>
      </trkpt>
      <trkpt lat="1.3495709336713133" lon="103.7791849190178">
        <ele>80.0</ele>
      </trkpt>
      <trkpt lat="1.3495629603966708" lon="103.77927388324889">
        <ele>80.0</ele>
      </trkpt>
      <trkpt lat="1.3495516178272364" lon="103.77936155331474">
        <ele>80.0</ele>
      </trkpt>
      <trkpt lat="1.3494693688329253" lon="103.77935447558637">
        <ele>80.0</ele>
      </trkpt>
      <trkpt lat="1.3494511987177757" lon="103.77935539634632">
        <ele>80.0</ele>
      </trkpt>
      <trkpt lat="1.3493908225731128" lon="103.77942127927753">
        <ele>80.0</ele>
      </trkpt>
      <trkpt lat="1.3493814842304197" lon="103.77947967961315">
        <ele>80.0</ele>
      </trkpt>
      <trkpt lat="1.349451449164521" lon="103.77953634005847">
        <ele>80.0</ele>
      </trkpt>
      <trkpt lat="1.3495021101052067" lon="103.77960985880739">
        <ele>80.0</ele>
      </trkpt>
      <trkpt lat="1.3495736680459796" lon="103.77966337526243">
        <ele>80.0</ele>
      </trkpt>
      <trkpt lat="1.3496606408959535" lon="103.77968214719502">
        <ele>80.0</ele>
      </trkpt>
      <trkpt lat="1.349739670737327" lon="103.77964045567884">
        <ele>80.0</ele>
      </trkpt>
      <trkpt lat="1.3497885282017672" lon="103.77956929728808">
        <ele>80.0</ele>
      </trkpt>
      <trkpt lat="1.3498288363863966" lon="103.77948888203065">
        <ele>80.0</ele>
      </trkpt>
      <trkpt lat="1.3498766940876024" lon="103.77941287170013">
        <ele>80.0</ele>
      </trkpt>
      <trkpt lat="1.3499183015264191" lon="103.77933594771396">
        <ele>79.44332230143664</ele>
      </trkpt>
      <trkpt lat="1.349966819848898" lon="103.77926011749607">
        <ele>78.5951929973614</ele>
      </trkpt>
      <trkpt lat="1.3500155932980806" lon="103.77918445029903">
        <ele>77.47015152297537</ele>
      </trkpt>
      <trkpt lat="1.3500635520414725" lon="103.7791082699165">
        <ele>76.63512734733673</ele>
      </trkpt>
      <trkpt lat="1.3501108892249716" lon="103.77903185249937">
        <ele>75.67756718226745</ele>
      </trkpt>
      <trkpt lat="1.3501663185072803" lon="103.77896106761419">
        <ele>74.0816678728746</ele>
      </trkpt>
      <trkpt lat="1.350245122863985" lon="103.77892046152037">
        <ele>72.35656780789209</ele>
      </trkpt>
      <trkpt lat="1.3503341521987227" lon="103.77890715409146">
        <ele>70.70654565861041</ele>
      </trkpt>
      <trkpt lat="1.350420250074438" lon="103.77889142266403">
        <ele>69.55961560222728</ele>
      </trkpt>
      <trkpt lat="1.3505073368706753" lon="103.77888453697189">
        <ele>68.33406459805967</ele>
      </trkpt>
      <trkpt lat="1.350594539433241" lon="103.77890815812215">
        <ele>67.36099828714045</ele>
      </trkpt>
      <trkpt lat="1.350684267451311" lon="103.77891694272826">
        <ele>66.11816284345373</ele>
      </trkpt>
      <trkpt lat="1.3507603604731064" lon="103.77896345476042">
        <ele>65.03117175965424</ele>
      </trkpt>
      <trkpt lat="1.3508480023660447" lon="103.77898056448994">
        <ele>64.22976357315581</ele>
      </trkpt>
      <trkpt lat="1.3509332069072677" lon="103.77895334391768">
        <ele>64.68295099989002</ele>
      </trkpt>
      <trkpt lat="1.35101002777835" lon="103.77890682870293">
        <ele>65.73838261671834</ele>
      </trkpt>
      <trkpt lat="1.3510946013603073" lon="103.77887500693372">
        <ele>66.31301213612211</ele>
      </trkpt>
      <trkpt lat="1.3511824074990355" lon="103.77887417000646">
        <ele>65.83360522972255</ele>
      </trkpt>
      <trkpt lat="1.351271715866052" lon="103.77888421324371">
        <ele>64.84707016439286</ele>
      </trkpt>
      <trkpt lat="1.3513618720094251" lon="103.77887968377364">
        <ele>63.872203356206846</ele>
      </trkpt>
      <trkpt lat="1.3514522282361352" lon="103.77887771312588">
        <ele>63.36991181104208</ele>
      </trkpt>
      <trkpt lat="1.3515393304760324" lon="103.77885886857784">
        <ele>63.41803449849269</ele>
      </trkpt>
      <trkpt lat="1.3516289033779139" lon="103.77885701766051">
        <ele>64.06772746253006</ele>
      </trkpt>
      <trkpt lat="1.3517168511978235" lon="103.77887504547452">
        <ele>65.54151867556556</ele>
      </trkpt>
      <trkpt lat="1.351806399560564" lon="103.77886589892334">
        <ele>67.21471544246772</ele>
      </trkpt>
      <trkpt lat="1.3518952210709112" lon="103.77887420295825">
        <ele>68.60972946576952</ele>
      </trkpt>
      <trkpt lat="1.3519785204719657" lon="103.77890907566818">
        <ele>69.15248730745645</ele>
      </trkpt>
      <trkpt lat="1.3520597520317688" lon="103.77894856148188">
        <ele>69.5266991849478</ele>
      </trkpt>
      <trkpt lat="1.3521468605707054" lon="103.77897117067904">
        <ele>70.53194367237242</ele>
      </trkpt>
      <trkpt lat="1.3522364133786937" lon="103.77897945681003">
        <ele>72.00249958798815</ele>
      </trkpt>
      <trkpt lat="1.3523222209271537" lon="103.7790003921196">
        <ele>72.91197150845271</ele>
      </trkpt>
      <trkpt lat="1.3523963263570917" lon="103.77905122580981">
        <ele>72.95389070515115</ele>
      </trkpt>
      <trkpt lat="1.3524698699616566" lon="103.77910060674175">
        <ele>73.17805495951791</ele>
      </trkpt>
      <trkpt lat="1.352552774237133" lon="103.77913549859929">
        <ele>74.1846612568076</ele>
      </trkpt>
      <trkpt lat="1.352633102199265" lon="103.7791767792188">
        <ele>75.4466702371015</ele>
      </trkpt>
      <trkpt lat="1.3526960465670161" lon="103.77923924388548">
        <ele>76.29596291621618</ele>
      </trkpt>
      <trkpt lat="1.3527621607843072" lon="103.77929431374754">
        <ele>77.4202594170805</ele>
      </trkpt>
      <trkpt lat="1.3528497239005874" lon="103.77931666743297">
        <ele>79.14679927317519</ele>
      </trkpt>
      <trkpt lat="1.3529325013661844" lon="103.77935113217988">
        <ele>80.79086244955344</ele>
      </trkpt>
      <trkpt lat="1.3529962080872329" lon="103.77941113515175">
        <ele>82.24922338847206</ele>
      </trkpt>
      <trkpt lat="1.3530787330052056" lon="103.77944680855138">
        <ele>83.25025919448865</ele>
      </trkpt>
      <trkpt lat="1.353153127141834" lon="103.77949782819783">
        <ele>83.66207846336232</ele>
      </trkpt>
      <trkpt lat="1.3532279343989846" lon="103.77954829266824">
        <ele>82.42825894963401</ele>
      </trkpt>
      <trkpt lat="1.353302309617194" lon="103.7795994118317">
        <ele>80.97722704039269</ele>
      </trkpt>
      <trkpt lat="1.353377916552908" lon="103.779648533187">
        <ele>80.0</ele>
      </trkpt>
      <trkpt lat="1.3534578439862417" lon="103.77969057432124">
        <ele>80.0</ele>
      </trkpt>
      <trkpt lat="1.353536184409884" lon="103.77973541531397">
        <ele>80.0</ele>
      </trkpt>
      <trkpt lat="1.3535916577316118" lon="103.77976837478178">
        <ele>80.0</ele>
      </trkpt>
      <trkpt lat="1.3535523818986928" lon="103.77984842979217">
        <ele>80.0</ele>
      </trkpt>
      <trkpt lat="1.3535077987853852" lon="103.77992641270774">
        <ele>80.0</ele>
      </trkpt>
      <trkpt lat="1.3534671564628618" lon="103.78000600403712">
        <ele>80.0</ele>
      </trkpt>
      <trkpt lat="1.3534240303257883" lon="103.78008099879555">
        <ele>79.22483966112407</ele>
      </trkpt>
      <trkpt lat="1.3533661034953495" lon="103.78014631049744">
        <ele>78.02061642893234</ele>
      </trkpt>
      <trkpt lat="1.353350603876182" lon="103.78023316169032">
        <ele>76.96184118369527</ele>
      </trkpt>
      <trkpt lat="1.3533217628129757" lon="103.78031668771872">
        <ele>76.53357519277452</ele>
      </trkpt>
      <trkpt lat="1.3533438983988988" lon="103.78040381091294">
        <ele>76.13993950917387</ele>
      </trkpt>
      <trkpt lat="1.3533638573270361" lon="103.78049145050835">
        <ele>75.11383022518758</ele>
      </trkpt>
      <trkpt lat="1.3533823898239357" lon="103.78057937802662">
        <ele>73.76143575199012</ele>
      </trkpt>
      <trkpt lat="1.3534041785737922" lon="103.78066643492808">
        <ele>72.3391388316637</ele>
      </trkpt>
      <trkpt lat="1.3534273509030046" lon="103.78075315964912">
        <ele>70.98094973214235</ele>
      </trkpt>
      <trkpt lat="1.353457689940385" lon="103.78083700405445">
        <ele>69.55620312808497</ele>
      </trkpt>
      <trkpt lat="1.3535068090496927" lon="103.78091163271787">
        <ele>67.98288950213903</ele>
      </trkpt>
      <trkpt lat="1.3535709724677265" lon="103.78097250236178">
        <ele>66.23437345097055</ele>
      </trkpt>
      <trkpt lat="1.3536417308801771" lon="103.78102770013345">
        <ele>64.39559777573338</ele>
      </trkpt>
      <trkpt lat="1.3537042196306288" lon="103.78109171202823">
        <ele>62.58985922065394</ele>
      </trkpt>
      <trkpt lat="1.3537791218502069" lon="103.78114197074406">
        <ele>60.83706867443626</ele>
      </trkpt>
      <trkpt lat="1.3538500949643961" lon="103.78119766041831">
        <ele>59.26981777959502</ele>
      </trkpt>
      <trkpt lat="1.3539294876365218" lon="103.78124039354222">
        <ele>58.07040326958525</ele>
      </trkpt>
      <trkpt lat="1.3540094209065987" lon="103.7812824227386">
        <ele>57.07928500993764</ele>
      </trkpt>
      <trkpt lat="1.3540884775671076" lon="103.78132605904555">
        <ele>56.08002958397892</ele>
      </trkpt>
      <trkpt lat="1.3541699727953491" lon="103.78136498958716">
        <ele>54.8476773849895</ele>
      </trkpt>
      <trkpt lat="1.354253528578645" lon="103.78139925667357">
        <ele>53.501233467431256</ele>
      </trkpt>
      <trkpt lat="1.3543344020995227" lon="103.78143926792912">
        <ele>52.152029000215215</ele>
      </trkpt>
      <trkpt lat="1.354414277013305" lon="103.78148140709351">
        <ele>50.812052498417025</ele>
      </trkpt>
      <trkpt lat="1.3544996387397932" lon="103.78151000674455">
        <ele>49.47376380730838</ele>
      </trkpt>
      <trkpt lat="1.3545816827028145" lon="103.78154780437347">
        <ele>48.13969388852558</ele>
      </trkpt>
      <trkpt lat="1.3546638725470947" lon="103.78158526599232">
        <ele>46.79313296140065</ele>
      </trkpt>
      <trkpt lat="1.3547285780410419" lon="103.78164705218956">
        <ele>45.44280029278823</ele>
      </trkpt>
      <trkpt lat="1.3547956265421588" lon="103.78170714115345">
        <ele>44.09032258841025</ele>
      </trkpt>
      <trkpt lat="1.3548731131083804" lon="103.7817519214497">
        <ele>42.729663691111206</ele>
      </trkpt>
      <trkpt lat="1.3549448692170587" lon="103.78180661094594">
        <ele>41.366894120835674</ele>
      </trkpt>
      <trkpt lat="1.3550196679212145" lon="103.7818567180398">
        <ele>40.45516228096779</ele>
      </trkpt>
      <trkpt lat="1.355108082880925" lon="103.78187248013525">
        <ele>40.0</ele>
      </trkpt>
      <trkpt lat="1.3551976596993416" lon="103.78188483968181">
        <ele>40.0</ele>
      </trkpt>
      <trkpt lat="1.355286370163748" lon="103.78190167857898">
        <ele>40.0</ele>
      </trkpt>
      <trkpt lat="1.3553666506777746" lon="103.78193906040653">
        <ele>40.0</ele>
      </trkpt>
      <trkpt lat="1.3554206992463196" lon="103.7820106907675">
        <ele>40.0</ele>
      </trkpt>
      <trkpt lat="1.3554730926851415" lon="103.78208393150534">
        <ele>40.0</ele>
      </trkpt>
      <trkpt lat="1.3555363839178303" lon="103.7821480343982">
        <ele>40.0</ele>
      </trkpt>
      <trkpt lat="1.3555969417164726" lon="103.78221477125972">
        <ele>40.0</ele>
      </trkpt>
      <trkpt lat="1.3556250359680573" lon="103.78229976238059">
        <ele>40.0</ele>
      </trkpt>
      <trkpt lat="1.355654807920112" lon="103.7823841090459">
        <ele>40.0</ele>
      </trkpt>
      <trkpt lat="1.3556872567366287" lon="103.78246571423398">
        <ele>40.0</ele>
      </trkpt>
      <trkpt lat="1.35568011625945" lon="103.78254874012295">
        <ele>40.0</ele>
      </trkpt>
      <trkpt lat="1.3556881246485653" lon="103.78256915506081">
        <ele>40.0</ele>
      </trkpt>
      <trkpt lat="1.3556907517451424" lon="103.7824873481233">
        <ele>40.0</ele>
      </trkpt>
      <trkpt lat="1.3556671459357934" lon="103.7824022695391">
        <ele>40.0</ele>
      </trkpt>
      <trkpt lat="1.3556314764328825" lon="103.78232071792296">
        <ele>40.0</ele>
      </trkpt>
      <trkpt lat="1.3556050640272888" lon="103.78223477905503">
        <ele>40.0</ele>
      </trkpt>
      <trkpt lat="1.3555511365323951" lon="103.7821643201809">
        <ele>40.0</ele>
      </trkpt>
      <trkpt lat="1.355488157268334" lon="103.78209986870641">
        <ele>40.0</ele>
      </trkpt>
      <trkpt lat="1.3554334749898358" lon="103.78202854996653">
        <ele>40.0</ele>
      </trkpt>
      <trkpt lat="1.355381081549403" lon="103.78195530923111">
        <ele>40.0</ele>
      </trkpt>
      <trkpt lat="1.3553077812518735" lon="103.78190692357607">
        <ele>40.0</ele>
      </trkpt>
      <trkpt lat="1.3552195023281992" lon="103.78188785346376">
        <ele>40.0</ele>
      </trkpt>
      <trkpt lat="1.3551299255098053" lon="103.781875493917">
        <ele>40.0</ele>
      </trkpt>
      <trkpt lat="1.3550403486913163" lon="103.78186313437104">
        <ele>40.343845800626916</ele>
      </trkpt>
      <trkpt lat="1.354962319042729" lon="103.78182000796923">
        <ele>41.14422810122428</ele>
      </trkpt>
      <trkpt lat="1.3548906705407524" lon="103.78176517895197">
        <ele>42.39709044310306</ele>
      </trkpt>
      <trkpt lat="1.3548144201138332" lon="103.78171817644375">
        <ele>43.75928718440179</ele>
      </trkpt>
      <trkpt lat="1.3547441348333906" lon="103.78166257857451">
        <ele>45.11296094148606</ele>
      </trkpt>
      <trkpt lat="1.354681504564093" lon="103.78159801237186">
        <ele>46.46349412657662</ele>
      </trkpt>
      <trkpt lat="1.3546016178355367" lon="103.78155717213511">
        <ele>47.81039959766779</ele>
      </trkpt>
      <trkpt lat="1.3545196996082132" lon="103.78151910566325">
        <ele>49.1458161705651</ele>
      </trkpt>
      <trkpt lat="1.3544342767107902" lon="103.78149037846197">
        <ele>50.48335000319184</ele>
      </trkpt>
      <trkpt lat="1.3543538973394225" lon="103.78144950862303">
        <ele>51.82407383026876</ele>
      </trkpt>
      <trkpt lat="1.3542737643297522" lon="103.7814078565048">
        <ele>53.17291419542784</ele>
      </trkpt>
      <trkpt lat="1.3541901439560533" lon="103.78137384451506">
        <ele>54.519799609923815</ele>
      </trkpt>
      <trkpt lat="1.3541082185378428" lon="103.7813358053655">
        <ele>55.807149478618406</ele>
      </trkpt>
      <trkpt lat="1.3540286982746932" lon="103.78129306312137">
        <ele>56.86392403353127</ele>
      </trkpt>
      <trkpt lat="1.3539489841097787" lon="103.78125063223395">
        <ele>57.850909638745975</ele>
      </trkpt>
      <trkpt lat="1.353868787264812" lon="103.78120910216656">
        <ele>58.95737192582925</ele>
      </trkpt>
      <trkpt lat="1.3537964620446004" lon="103.78115550755928">
        <ele>60.43608652628629</ele>
      </trkpt>
      <trkpt lat="1.3537226967123621" lon="103.78110367220293">
        <ele>62.14654323519924</ele>
      </trkpt>
      <trkpt lat="1.3536561514429426" lon="103.78104425420038">
        <ele>63.96298578683354</ele>
      </trkpt>
      <trkpt lat="1.3535900432576966" lon="103.78098350410285">
        <ele>65.78319863970101</ele>
      </trkpt>
      <trkpt lat="1.3535200979829523" lon="103.78092911829413">
        <ele>67.59571818848981</ele>
      </trkpt>
      <trkpt lat="1.3534671214714633" lon="103.78085680977986">
        <ele>69.182738344665</ele>
      </trkpt>
      <trkpt lat="1.3534310980465754" lon="103.78077475181485">
        <ele>70.65626087132304</ele>
      </trkpt>
      <trkpt lat="1.3534105156945175" lon="103.78068742153184">
        <ele>71.98507534135645</ele>
      </trkpt>
      <trkpt lat="1.3533862226333793" lon="103.78060095534248">
        <ele>73.41231693378946</ele>
      </trkpt>
      <trkpt lat="1.353368702014598" lon="103.78051282601417">
        <ele>74.8363891382121</ele>
      </trkpt>
      <trkpt lat="1.3533488339059374" lon="103.78042516487216">
        <ele>75.9490840476327</ele>
      </trkpt>
      <trkpt lat="1.3533271604082715" lon="103.78033793204976">
        <ele>76.51853309455517</ele>
      </trkpt>
      <trkpt lat="1.353341017467545" lon="103.78025289387014">
        <ele>76.84232649200237</ele>
      </trkpt>
      <trkpt lat="1.3533670412216643" lon="103.78016820147862">
        <ele>77.93637380887317</ele>
      </trkpt>
      <trkpt lat="1.3534071103345433" lon="103.7800950507515">
        <ele>79.08206979916993</ele>
      </trkpt>
      <trkpt lat="1.3534632969171192" lon="103.78002757664814">
        <ele>80.0</ele>
      </trkpt>
      <trkpt lat="1.353497713658395" lon="103.77994589792895">
        <ele>80.0</ele>
      </trkpt>
      <trkpt lat="1.3535397890339833" lon="103.77986641674667">
        <ele>80.0</ele>
      </trkpt>
      <trkpt lat="1.3535887850977666" lon="103.77979102014446">
        <ele>80.0</ele>
      </trkpt>
      <trkpt lat="1.353643363119313" lon="103.77971942268886">
        <ele>80.0</ele>
      </trkpt>
      <trkpt lat="1.3536960580305075" lon="103.77964639583655">
        <ele>80.0</ele>
      </trkpt>
      <trkpt lat="1.3537417918656975" lon="103.77956919654305">
        <ele>80.0</ele>
      </trkpt>
      <trkpt lat="1.3537097720127853" lon="103.77948775809766">
        <ele>80.0</ele>
      </trkpt>
      <trkpt lat="1.3536695793293256" lon="103.77940728473006">
        <ele>80.02955066517039</ele>
      </trkpt>
      <trkpt lat="1.3536280994148435" lon="103.77932743745377">
        <ele>81.87554345588954</ele>
      </trkpt>
      <trkpt lat="1.3535820487538055" lon="103.77925019756407">
        <ele>85.49661931724832</ele>
      </trkpt>
      <trkpt lat="1.353547721785291" lon="103.77916706576131">
        <ele>90.74462900904246</ele>
      </trkpt>
      <trkpt lat="1.353506216876999" lon="103.77908726470366">
        <ele>94.97574555180357</ele>
      </trkpt>
      <trkpt lat="1.35348446620133" lon="103.7790017776784">
        <ele>98.02133635711147</ele>
      </trkpt>
      <trkpt lat="1.3534282873719738" lon="103.77893592332813">
        <ele>99.4104426668136</ele>
      </trkpt>
      <trkpt lat="1.3533947344226285" lon="103.77885248014827">
        <ele>100.0</ele>
      </trkpt>
      <trkpt lat="1.3533605937039888" lon="103.77876928291107">
        <ele>100.0</ele>
      </trkpt>
      <trkpt lat="1.3533239583426633" lon="103.77868712951336">
        <ele>100.0</ele>
      </trkpt>
      <trkpt lat="1.3533067531743193" lon="103.77859946288656">
        <ele>100.0</ele>
      </trkpt>
      <trkpt lat="1.3532872940933631" lon="103.77851185001359">
        <ele>100.0</ele>
      </trkpt>
      <trkpt lat="1.3532620633267058" lon="103.77842565660868">
        <ele>100.0</ele>
      </trkpt>
      <trkpt lat="1.3532339349635911" lon="103.7783403284129">
        <ele>100.0</ele>
      </trkpt>
      <trkpt lat="1.353212298466643" lon="103.77825308154146">
        <ele>100.0</ele>
      </trkpt>
      <trkpt lat="1.353199043488653" lon="103.77816450786652">
        <ele>101.38219113524754</ele>
      </trkpt>
      <trkpt lat="1.3531796577946513" lon="103.7780797998888">
        <ele>103.0830531191017</ele>
      </trkpt>
      <trkpt lat="1.3531702761050357" lon="103.77806578536345">
        <ele>104.62457967865257</ele>
      </trkpt>
      <trkpt lat="1.3531802495286192" lon="103.77815460332633">
        <ele>101.70086198385417</ele>
      </trkpt>
      <trkpt lat="1.3531917639200466" lon="103.778243371183">
        <ele>100.0</ele>
      </trkpt>
      <trkpt lat="1.353213400187231" lon="103.77833061810993">
        <ele>100.0</ele>
      </trkpt>
      <trkpt lat="1.353240660002769" lon="103.7784162029988">
        <ele>100.0</ele>
      </trkpt>
      <trkpt lat="1.3532667296885041" lon="103.77850214686404">
        <ele>100.0</ele>
      </trkpt>
      <trkpt lat="1.3532871928362715" lon="103.77858958118473">
        <ele>100.0</ele>
      </trkpt>
      <trkpt lat="1.3533017208593174" lon="103.77867799810686">
        <ele>100.0</ele>
      </trkpt>
      <trkpt lat="1.3533383561335652" lon="103.77876015154213">
        <ele>100.0</ele>
      </trkpt>
      <trkpt lat="1.353372889542574" lon="103.77884318446488">
        <ele>100.0</ele>
      </trkpt>
      <trkpt lat="1.353406442483505" lon="103.77892662764732">
        <ele>99.49325684028817</ele>
      </trkpt>
      <trkpt lat="1.3534647280494048" lon="103.77899297813732">
        <ele>98.18070836882981</ele>
      </trkpt>
      <trkpt lat="1.3534835658466158" lon="103.7790791437585">
        <ele>95.53382824881868</ele>
      </trkpt>
      <trkpt lat="1.35352568754124" lon="103.77915865865562">
        <ele>91.61705531274646</ele>
      </trkpt>
      <trkpt lat="1.3535603873453526" lon="103.77924161750461">
        <ele>86.69358341932964</ele>
      </trkpt>
      <trkpt lat="1.3536055328299386" lon="103.77931926711473">
        <ele>82.6737968726741</ele>
      </trkpt>
      <trkpt lat="1.3536470126955016" lon="103.77939911441533">
        <ele>80.43064630179147</ele>
      </trkpt>
      <trkpt lat="1.3536876565829603" lon="103.7794793683247">
        <ele>80.0</ele>
      </trkpt>
      <trkpt lat="1.3537220370478362" lon="103.77956084151369">
        <ele>80.0</ele>
      </trkpt>
      <trkpt lat="1.3536752971257404" lon="103.77963743776773">
        <ele>80.0</ele>
      </trkpt>
      <trkpt lat="1.3536226024099276" lon="103.77971046475858">
        <ele>80.0</ele>
      </trkpt>
      <trkpt lat="1.3535916577316118" lon="103.77976837478178">
        <ele>80.0</ele>
      </trkpt>
      <trkpt lat="1.353508243411271" lon="103.77973365900597">
        <ele>80.0</ele>
      </trkpt>
      <trkpt lat="1.3534268835169732" lon="103.77969462722369">
        <ele>80.0</ele>
      </trkpt>
      <trkpt lat="1.3533472960905146" lon="103.77965202891411">
        <ele>80.0</ele>
      </trkpt>
      <trkpt lat="1.3532728200403024" lon="103.77960105433924">
        <ele>80.96370912387937</ele>
      </trkpt>
      <trkpt lat="1.3531985171520433" lon="103.7795498314555">
        <ele>82.13569716343962</ele>
      </trkpt>
      <trkpt lat="1.3531231602925795" lon="103.77950018664285">
        <ele>82.91661269471805</ele>
      </trkpt>
      <trkpt lat="1.3530482297672637" lon="103.77945030480683">
        <ele>82.06301747080481</ele>
      </trkpt>
      <trkpt lat="1.352966314813011" lon="103.77941548914563">
        <ele>80.89290225823656</ele>
      </trkpt>
      <trkpt lat="1.3529022218535462" lon="103.77935448456044">
        <ele>79.35920009777755</ele>
      </trkpt>
      <trkpt lat="1.3528168733758639" lon="103.7793260363915">
        <ele>77.66917502624176</ele>
      </trkpt>
      <trkpt lat="1.3527300963877122" lon="103.77930223260128">
        <ele>76.12814154118375</ele>
      </trkpt>
      <trkpt lat="1.3526722864657148" lon="103.77923581442894">
        <ele>75.07089637578797</ele>
      </trkpt>
      <trkpt lat="1.3526023630014516" lon="103.7791812182272">
        <ele>74.26165673512749</ele>
      </trkpt>
      <trkpt lat="1.3525220347935458" lon="103.77913993808029">
        <ele>72.79821679842614</ele>
      </trkpt>
      <trkpt lat="1.3524372008435193" lon="103.77910983124112">
        <ele>71.99301537555596</ele>
      </trkpt>
      <trkpt lat="1.3523685868900244" lon="103.7790513889277">
        <ele>71.86112516764875</ele>
      </trkpt>
      <trkpt lat="1.3522914721664334" lon="103.77900519832143">
        <ele>71.65491209659443</ele>
      </trkpt>
      <trkpt lat="1.352202541377096" lon="103.77899743152778">
        <ele>70.48523610465101</ele>
      </trkpt>
      <trkpt lat="1.3521135520465541" lon="103.77898325318434">
        <ele>69.0764252985714</ele>
      </trkpt>
      <trkpt lat="1.3520288892937748" lon="103.77895332538414">
        <ele>68.3780332365748</ele>
      </trkpt>
      <trkpt lat="1.351947309192906" lon="103.77891456018627">
        <ele>68.11594416577982</ele>
      </trkpt>
      <trkpt lat="1.3518626359304198" lon="103.77888437343184">
        <ele>67.25319797553472</ele>
      </trkpt>
      <trkpt lat="1.3517729019943436" lon="103.77888914580608">
        <ele>65.72991850440256</ele>
      </trkpt>
      <trkpt lat="1.3516837381246316" lon="103.77888755140035">
        <ele>64.03451151852865</ele>
      </trkpt>
      <trkpt lat="1.3515952850618935" lon="103.77887232632864">
        <ele>62.766463077526204</ele>
      </trkpt>
      <trkpt lat="1.3515083646222623" lon="103.7788911610907">
        <ele>62.33004759043066</ele>
      </trkpt>
      <trkpt lat="1.351418385978562" lon="103.77889732139971">
        <ele>62.51618229507552</ele>
      </trkpt>
      <trkpt lat="1.3513280247569235" lon="103.77889702058481">
        <ele>63.22977126237924</ele>
      </trkpt>
      <trkpt lat="1.3512378395092686" lon="103.77890235534474">
        <ele>64.38073606017352</ele>
      </trkpt>
      <trkpt lat="1.3511496646674384" lon="103.7788837275184">
        <ele>65.11544449170869</ele>
      </trkpt>
      <trkpt lat="1.3510630839224727" lon="103.77890597991173">
        <ele>65.17542578282105</ele>
      </trkpt>
      <trkpt lat="1.3509836383073124" lon="103.77894700130707">
        <ele>64.1493137106429</ele>
      </trkpt>
      <trkpt lat="1.3509033751925699" lon="103.77898758778882">
        <ele>63.47441625413049</ele>
      </trkpt>
      <trkpt lat="1.3508155183100332" lon="103.7789902028112">
        <ele>63.52286820940973</ele>
      </trkpt>
      <trkpt lat="1.3507286300519474" lon="103.77897051954726">
        <ele>64.58796719307293</ele>
      </trkpt>
      <trkpt lat="1.3506504908865888" lon="103.77893165153093">
        <ele>65.67686316201026</ele>
      </trkpt>
      <trkpt lat="1.3505620493983987" lon="103.77891674949507">
        <ele>67.12275057557356</ele>
      </trkpt>
      <trkpt lat="1.3504737187908995" lon="103.77889812352272">
        <ele>68.24496916050909</ele>
      </trkpt>
      <trkpt lat="1.350390733300264" lon="103.77892482384473">
        <ele>69.55636512169478</ele>
      </trkpt>
      <trkpt lat="1.3503005199728126" lon="103.77892784332613">
        <ele>70.91327926713817</ele>
      </trkpt>
      <trkpt lat="1.3502137398523695" lon="103.77895121737345">
        <ele>72.64728707708186</ele>
      </trkpt>
      <trkpt lat="1.3501486624094745" lon="103.77901060908353">
        <ele>74.25041903796738</ele>
      </trkpt>
      <trkpt lat="1.3500979147739456" lon="103.77908484838655">
        <ele>75.44758040583207</ele>
      </trkpt>
      <trkpt lat="1.3500512346278783" lon="103.77916178263145">
        <ele>76.3177763696624</ele>
      </trkpt>
      <trkpt lat="1.3500026473761517" lon="103.77923756601041">
        <ele>77.33364765125796</ele>
      </trkpt>
      <trkpt lat="1.3499541704489635" lon="103.77931342236549">
        <ele>78.57230896815578</ele>
      </trkpt>
      <trkpt lat="1.3499074827270259" lon="103.7793892545882">
        <ele>79.52283558621285</ele>
      </trkpt>
      <trkpt lat="1.3498635197158362" lon="103.77946556845328">
        <ele>80.0</ele>
      </trkpt>
      <trkpt lat="1.3498202781515145" lon="103.77954444695226">
        <ele>80.0</ele>
      </trkpt>
      <trkpt lat="1.3497836502025853" lon="103.77962513376883">
        <ele>80.0</ele>
      </trkpt>
      <trkpt lat="1.3497130439982543" lon="103.77968002687051">
        <ele>80.0</ele>
      </trkpt>
      <trkpt lat="1.349627530261202" lon="103.77969862715634">
        <ele>80.0</ele>
      </trkpt>
      <trkpt lat="1.3495431548443313" lon="103.77966831318385">
        <ele>80.0</ele>
      </trkpt>
      <trkpt lat="1.3494770092911925" lon="103.77960791533098">
        <ele>80.0</ele>
      </trkpt>
      <trkpt lat="1.3494247517812636" lon="103.77953581559613">
        <ele>80.0</ele>
      </trkpt>
      <trkpt lat="1.3493530656775354" lon="103.77948118618596">
        <ele>80.0</ele>
      </trkpt>
      <trkpt lat="1.349366949547447" lon="103.77941516058237">
        <ele>80.0</ele>
      </trkpt>
      <trkpt lat="1.3494357754869566" lon="103.77936021098357">
        <ele>80.0</ele>
      </trkpt>
      <trkpt lat="1.3494511987177757" lon="103.77935539634632">
        <ele>80.0</ele>
      </trkpt>
      <trkpt lat="1.3493908225731128" lon="103.77942127927753">
        <ele>80.0</ele>
      </trkpt>
      <trkpt lat="1.3493814842304197" lon="103.77947967961315">
        <ele>80.0</ele>
      </trkpt>
      <trkpt lat="1.349451449164521" lon="103.77953634005847">
        <ele>80.0</ele>
      </trkpt>
      <trkpt lat="1.3495021101052067" lon="103.77960985880739">
        <ele>80.0</ele>
      </trkpt>
      <trkpt lat="1.3495736680459796" lon="103.77966337526243">
        <ele>80.0</ele>
      </trkpt>
      <trkpt lat="1.3496606408959535" lon="103.77968214719502">
        <ele>80.0</ele>
      </trkpt>
      <trkpt lat="1.349739670737327" lon="103.77964045567884">
        <ele>80.0</ele>
      </trkpt>
      <trkpt lat="1.3497885282017672" lon="103.77956929728808">
        <ele>80.0</ele>
      </trkpt>
      <trkpt lat="1.3498288363863966" lon="103.77948888203065">
        <ele>80.0</ele>
      </trkpt>
      <trkpt lat="1.3498766940876024" lon="103.77941287170013">
        <ele>80.0</ele>
      </trkpt>
      <trkpt lat="1.3499183015264191" lon="103.77933594771396">
        <ele>79.44332230143664</ele>
      </trkpt>
      <trkpt lat="1.349966819848898" lon="103.77926011749607">
        <ele>78.5951929973614</ele>
      </trkpt>
      <trkpt lat="1.3500155932980806" lon="103.77918445029903">
        <ele>77.47015152297537</ele>
      </trkpt>
      <trkpt lat="1.3500635520414725" lon="103.7791082699165">
        <ele>76.63512734733673</ele>
      </trkpt>
      <trkpt lat="1.3501108892249716" lon="103.77903185249937">
        <ele>75.67756718226745</ele>
      </trkpt>
      <trkpt lat="1.3501663185072803" lon="103.77896106761419">
        <ele>74.0816678728746</ele>
      </trkpt>
      <trkpt lat="1.350245122863985" lon="103.77892046152037">
        <ele>72.35656780789209</ele>
      </trkpt>
      <trkpt lat="1.3503341521987227" lon="103.77890715409146">
        <ele>70.70654565861041</ele>
      </trkpt>
      <trkpt lat="1.350420250074438" lon="103.77889142266403">
        <ele>69.55961560222728</ele>
      </trkpt>
      <trkpt lat="1.3505073368706753" lon="103.77888453697189">
        <ele>68.33406459805967</ele>
      </trkpt>
      <trkpt lat="1.350594539433241" lon="103.77890815812215">
        <ele>67.36099828714045</ele>
      </trkpt>
      <trkpt lat="1.350684267451311" lon="103.77891694272826">
        <ele>66.11816284345373</ele>
      </trkpt>
      <trkpt lat="1.3507603604731064" lon="103.77896345476042">
        <ele>65.03117175965424</ele>
      </trkpt>
      <trkpt lat="1.3508480023660447" lon="103.77898056448994">
        <ele>64.22976357315581</ele>
      </trkpt>
      <trkpt lat="1.3509332069072677" lon="103.77895334391768">
        <ele>64.68295099989002</ele>
      </trkpt>
      <trkpt lat="1.35101002777835" lon="103.77890682870293">
        <ele>65.73838261671834</ele>
      </trkpt>
      <trkpt lat="1.3510946013603073" lon="103.77887500693372">
        <ele>66.31301213612211</ele>
      </trkpt>
      <trkpt lat="1.3511824074990355" lon="103.77887417000646">
        <ele>65.83360522972255</ele>
      </trkpt>
      <trkpt lat="1.351271715866052" lon="103.77888421324371">
        <ele>64.84707016439286</ele>
      </trkpt>
      <trkpt lat="1.3513618720094251" lon="103.77887968377364">
        <ele>63.872203356206846</ele>
      </trkpt>
      <trkpt lat="1.3514522282361352" lon="103.77887771312588">
        <ele>63.36991181104208</ele>
      </trkpt>
      <trkpt lat="1.3515393304760324" lon="103.77885886857784">
        <ele>63.41803449849269</ele>
      </trkpt>
      <trkpt lat="1.3516289033779139" lon="103.77885701766051">
        <ele>64.06772746253006</ele>
      </trkpt>
      <trkpt lat="1.3517168511978235" lon="103.77887504547452">
        <ele>65.54151867556556</ele>
      </trkpt>
      <trkpt lat="1.351806399560564" lon="103.77886589892334">
        <ele>67.21471544246772</ele>
      </trkpt>
      <trkpt lat="1.3518952210709112" lon="103.77887420295825">
        <ele>68.60972946576952</ele>
      </trkpt>
      <trkpt lat="1.3519785204719657" lon="103.77890907566818">
        <ele>69.15248730745645</ele>
      </trkpt>
      <trkpt lat="1.3520597520317688" lon="103.77894856148188">
        <ele>69.5266991849478</ele>
      </trkpt>
      <trkpt lat="1.3521468605707054" lon="103.77897117067904">
        <ele>70.53194367237242</ele>
      </trkpt>
      <trkpt lat="1.3522364133786937" lon="103.77897945681003">
        <ele>72.00249958798815</ele>
      </trkpt>
      <trkpt lat="1.3523222209271537" lon="103.7790003921196">
        <ele>72.91197150845271</ele>
      </trkpt>
      <trkpt lat="1.3523963263570917" lon="103.77905122580981">
        <ele>72.95389070515115</ele>
      </trkpt>
      <trkpt lat="1.3524698699616566" lon="103.77910060674175">
        <ele>73.17805495951791</ele>
      </trkpt>
      <trkpt lat="1.352552774237133" lon="103.77913549859929">
        <ele>74.1846612568076</ele>
      </trkpt>
      <trkpt lat="1.352633102199265" lon="103.7791767792188">
        <ele>75.4466702371015</ele>
      </trkpt>
      <trkpt lat="1.3526960465670161" lon="103.77923924388548">
        <ele>76.29596291621618</ele>
      </trkpt>
      <trkpt lat="1.3527621607843072" lon="103.77929431374754">
        <ele>77.4202594170805</ele>
      </trkpt>
      <trkpt lat="1.3528497239005874" lon="103.77931666743297">
        <ele>79.14679927317519</ele>
      </trkpt>
      <trkpt lat="1.3529325013661844" lon="103.77935113217988">
        <ele>80.79086244955344</ele>
      </trkpt>
      <trkpt lat="1.3529962080872329" lon="103.77941113515175">
        <ele>82.24922338847206</ele>
      </trkpt>
      <trkpt lat="1.3530787330052056" lon="103.77944680855138">
        <ele>83.25025919448865</ele>
      </trkpt>
      <trkpt lat="1.353153127141834" lon="103.77949782819783">
        <ele>83.66207846336232</ele>
      </trkpt>
      <trkpt lat="1.3532279343989846" lon="103.77954829266824">
        <ele>82.42825894963401</ele>
      </trkpt>
      <trkpt lat="1.353302309617194" lon="103.7795994118317">
        <ele>80.97722704039269</ele>
      </trkpt>
      <trkpt lat="1.353377916552908" lon="103.779648533187">
        <ele>80.0</ele>
      </trkpt>
      <trkpt lat="1.3534578439862417" lon="103.77969057432124">
        <ele>80.0</ele>
      </trkpt>
      <trkpt lat="1.353536184409884" lon="103.77973541531397">
        <ele>80.0</ele>
      </trkpt>
      <trkpt lat="1.3535916577316118" lon="103.77976837478178">
        <ele>80.0</ele>
      </trkpt>
      <trkpt lat="1.3536584452379155" lon="103.77970920141736">
        <ele>80.0</ele>
      </trkpt>
      <trkpt lat="1.353711140148773" lon="103.77963617456439">
        <ele>80.0</ele>
      </trkpt>
      <trkpt lat="1.3537567996923885" lon="103.77955893074038">
        <ele>80.0</ele>
      </trkpt>
      <trkpt lat="1.3537243040706322" lon="103.77947748528722">
        <ele>80.0</ele>
      </trkpt>
      <trkpt lat="1.35368409044886" lon="103.77939702210323">
        <ele>80.02729136169539</ele>
      </trkpt>
      <trkpt lat="1.353642610534031" lon="103.77931717482669">
        <ele>81.87084085098682</ele>
      </trkpt>
      <trkpt lat="1.3535966032421984" lon="103.77923991502207">
        <ele>85.48947341091694</ele>
      </trkpt>
      <trkpt lat="1.353562276273319" lon="103.77915678321898">
        <ele>90.83520652953719</ele>
      </trkpt>
      <trkpt lat="1.353520724099393" lon="103.77907700409334">
        <ele>95.16480900738345</ele>
      </trkpt>
      <trkpt lat="1.353499228806532" lon="103.77899145436307">
        <ele>98.21284311412</ele>
      </trkpt>
      <trkpt lat="1.3534428465520647" lon="103.77892563889701">
        <ele>99.50648530047106</ele>
      </trkpt>
      <trkpt lat="1.3534092936023452" lon="103.7788421957168">
        <ele>100.0</ele>
      </trkpt>
      <trkpt lat="1.3533751341941889" lon="103.77875900629941">
        <ele>100.0</ele>
      </trkpt>
      <trkpt lat="1.3533384988325106" lon="103.77867685290137">
        <ele>100.0</ele>
      </trkpt>
      <trkpt lat="1.3533214560812414" lon="103.77858914280934">
        <ele>100.0</ele>
      </trkpt>
      <trkpt lat="1.3533019236546284" lon="103.77850154297903">
        <ele>100.0</ele>
      </trkpt>
      <trkpt lat="1.3532766448087945" lon="103.7784153638748">
        <ele>100.0</ele>
      </trkpt>
      <trkpt lat="1.3532485663926195" lon="103.77833002091668">
        <ele>100.0</ele>
      </trkpt>
      <trkpt lat="1.3532269298952735" lon="103.77824277404484">
        <ele>100.0</ele>
      </trkpt>
      <trkpt lat="1.3532138333206891" lon="103.77815418521914">
        <ele>101.41147031789613</ele>
      </trkpt>
      <trkpt lat="1.3531865731369155" lon="103.77807694146331">
        <ele>103.1123323017503</ele>
      </trkpt>
      <trkpt lat="1.3531702761050357" lon="103.77806578536345">
        <ele>104.66849845262543</ele>
      </trkpt>
      <trkpt lat="1.353225926337443" lon="103.77801278413337">
        <ele>108.41903357221456</ele>
      </trkpt>
      <trkpt lat="1.3532485067509274" lon="103.77792617617132">
        <ele>112.47962403887043</ele>
      </trkpt>
      <trkpt lat="1.3532555568620481" lon="103.7778368153412">
        <ele>116.60892692068326</ele>
      </trkpt>
      <trkpt lat="1.3532424847176558" lon="103.7777483042271">
        <ele>119.09478578384335</ele>
      </trkpt>
      <trkpt lat="1.3532366546880945" lon="103.77765864858601">
        <ele>120.0</ele>
      </trkpt>
      <trkpt lat="1.3532330663999592" lon="103.77756914432443">
        <ele>120.0</ele>
      </trkpt>
      <trkpt lat="1.3532838197068262" lon="103.77750060591401">
        <ele>120.0</ele>
      </trkpt>
      <trkpt lat="1.3533633753690955" lon="103.77745789540863">
        <ele>120.0</ele>
      </trkpt>
      <trkpt lat="1.35344389720692" lon="103.77741704181715">
        <ele>120.0</ele>
      </trkpt>
      <trkpt lat="1.3535108774277573" lon="103.7773584814763">
        <ele>120.89626811428059</ele>
      </trkpt>
      <trkpt lat="1.3535351885181974" lon="103.77727428254144">
        <ele>122.75766670746151</ele>
      </trkpt>
      <trkpt lat="1.3535242024590948" lon="103.77718512427973">
        <ele>125.558352086551</ele>
      </trkpt>
      <trkpt lat="1.3535095155160553" lon="103.77709648200076">
        <ele>128.4699437940059</ele>
      </trkpt>
      <trkpt lat="1.3535051068228001" lon="103.77700674503379">
        <ele>131.08608063799912</ele>
      </trkpt>
      <trkpt lat="1.3535051462134573" lon="103.77691689066751">
        <ele>132.09657838988926</ele>
      </trkpt>
      <trkpt lat="1.3535139968091912" lon="103.77682746562084">
        <ele>131.7337420106305</ele>
      </trkpt>
      <trkpt lat="1.3535426590560424" lon="103.77674253101996">
        <ele>131.21534664794652</ele>
      </trkpt>
      <trkpt lat="1.3535959583698631" lon="103.77667044574422">
        <ele>132.0480729692147</ele>
      </trkpt>
      <trkpt lat="1.3536567304533251" lon="103.77660390143089">
        <ele>133.90001057196005</ele>
      </trkpt>
      <trkpt lat="1.3537158978708603" lon="103.77653606046387">
        <ele>135.61953793443743</ele>
      </trkpt>
      <trkpt lat="1.3537609180305736" lon="103.776458644078">
        <ele>136.71758168537806</ele>
      </trkpt>
      <trkpt lat="1.353788374485288" lon="103.77637317695819">
        <ele>137.00183261939094</ele>
      </trkpt>
      <trkpt lat="1.3538104618768572" lon="103.77628604167937">
        <ele>136.54421444036464</ele>
      </trkpt>
      <trkpt lat="1.3538391071861113" lon="103.77620145035029">
        <ele>136.00507354410237</ele>
      </trkpt>
      <trkpt lat="1.3538892910481584" lon="103.7761269378045">
        <ele>136.01732301606773</ele>
      </trkpt>
      <trkpt lat="1.3539588975246206" lon="103.77607029048617">
        <ele>137.09546104101955</ele>
      </trkpt>
      <trkpt lat="1.3540404299836823" lon="103.77603180017022">
        <ele>138.9979725056831</ele>
      </trkpt>
      <trkpt lat="1.3541253758287934" lon="103.77600103786764">
        <ele>141.3332096340942</ele>
      </trkpt>
      <trkpt lat="1.3542110735335322" lon="103.77597233790247">
        <ele>143.7034359956632</ele>
      </trkpt>
      <trkpt lat="1.3542942489466332" lon="103.77593773824799">
        <ele>145.40763550032008</ele>
      </trkpt>
      <trkpt lat="1.3543627454312885" lon="103.77588116627447">
        <ele>145.94748000992368</ele>
      </trkpt>
      <trkpt lat="1.354405816812807" lon="103.77580240048965">
        <ele>145.00429850343275</ele>
      </trkpt>
      <trkpt lat="1.3544392700220547" lon="103.77571891775548">
        <ele>142.8614418938528</ele>
      </trkpt>
      <trkpt lat="1.3544761835877743" lon="103.77563697179231">
        <ele>141.0595654713044</ele>
      </trkpt>
      <trkpt lat="1.3545184636917686" lon="103.77555754686213">
        <ele>140.0</ele>
      </trkpt>
      <trkpt lat="1.3545633930313625" lon="103.77547956391821">
        <ele>140.0</ele>
      </trkpt>
      <trkpt lat="1.3546083223682903" lon="103.77540158097146">
        <ele>140.0</ele>
      </trkpt>
      <trkpt lat="1.3546244057158956" lon="103.77531464422104">
        <ele>140.0</ele>
      </trkpt>
      <trkpt lat="1.3546222263061627" lon="103.77522483112482">
        <ele>140.0</ele>
      </trkpt>
      <trkpt lat="1.3546370985084524" lon="103.7751372553994">
        <ele>140.0</ele>
      </trkpt>
      <trkpt lat="1.354708529249064" lon="103.77509608531608">
        <ele>140.0</ele>
      </trkpt>
      <trkpt lat="1.3547810547937444" lon="103.77513417793004">
        <ele>140.0</ele>
      </trkpt>
      <trkpt lat="1.3547768460949812" lon="103.7752224124194">
        <ele>140.0</ele>
      </trkpt>
      <trkpt lat="1.3547534229406155" lon="103.77530918984418">
        <ele>140.0</ele>
      </trkpt>
      <trkpt lat="1.3547325754707487" lon="103.77539661737167">
        <ele>140.0</ele>
      </trkpt>
      <trkpt lat="1.3547146866367925" lon="103.77548468697726">
        <ele>140.0</ele>
      </trkpt>
      <trkpt lat="1.3547122620722638" lon="103.77557358139427">
        <ele>140.80549855869384</ele>
      </trkpt>
      <trkpt lat="1.354759814183362" lon="103.77564792129563">
        <ele>142.6529812396596</ele>
      </trkpt>
      <trkpt lat="1.3548252602450919" lon="103.77570993522671">
        <ele>145.53036503533792</ele>
      </trkpt>
      <trkpt lat="1.3548916485897577" lon="103.77577094755526">
        <ele>148.1626212920696</ele>
      </trkpt>
      <trkpt lat="1.3549597659702728" lon="103.775830042779">
        <ele>149.5499405087487</ele>
      </trkpt>
      <trkpt lat="1.3550284589883785" lon="103.77588848552864">
        <ele>149.82628324741185</ele>
      </trkpt>
      <trkpt lat="1.3550889880609194" lon="103.77595476783662">
        <ele>149.64980551344902</ele>
      </trkpt>
      <trkpt lat="1.3551355974136927" lon="103.77603151616907">
        <ele>149.98765242992445</ele>
      </trkpt>
      <trkpt lat="1.3551554173454299" lon="103.77611825824532">
        <ele>150.78110690792982</ele>
      </trkpt>
      <trkpt lat="1.3551314728440258" lon="103.77620384277313">
        <ele>152.04419789785456</ele>
      </trkpt>
      <trkpt lat="1.3550794251868015" lon="103.7762771927259">
        <ele>153.6364278252925</ele>
      </trkpt>
      <trkpt lat="1.3550175390374446" lon="103.776342634084">
        <ele>155.5239418904666</ele>
      </trkpt>
      <trkpt lat="1.3549508045355765" lon="103.77640327455353">
        <ele>157.47389328774133</ele>
      </trkpt>
      <trkpt lat="1.3548816160034878" lon="103.77646103292456">
        <ele>158.57541305744155</ele>
      </trkpt>
      <trkpt lat="1.3548078093047635" lon="103.77651293898303">
        <ele>158.74868906072626</ele>
      </trkpt>
      <trkpt lat="1.3547616499971298" lon="103.776544030601">
        <ele>158.4115543880962</ele>
      </trkpt>
      <trkpt lat="1.3547026018853623" lon="103.77647597124991">
        <ele>159.26780857975947</ele>
      </trkpt>
      <trkpt lat="1.354656017412839" lon="103.77642227759823">
        <ele>159.88975624843073</ele>
      </trkpt>
      <trkpt lat="1.3547150655260365" lon="103.7764903369467">
        <ele>159.14428694429446</ele>
      </trkpt>
      <trkpt lat="1.3547616499971298" lon="103.776544030601">
        <ele>158.71643041644168</ele>
      </trkpt>
      <trkpt lat="1.3547026018853623" lon="103.77647597124991">
        <ele>159.26780857975947</ele>
      </trkpt>
      <trkpt lat="1.354656017412839" lon="103.77642227759823">
        <ele>159.88975624843073</ele>
      </trkpt>
    </trkseg>
  </trk>
</gpx>