{
"type": "FeatureCollection",
"name": "point_to_point_05000m_008",
"crs": { "type": "name", "properties": { "name": "urn:ogc:def:crs:OGC:1.3:CRS84" } },
"features": [
{ "type": "Feature", "properties": { "route_id": "point_to_point_05000m_008", "budget_km": 5.0, "mode": "point_to_point", "rank": 8, "distance_m": 1723.0456970497555, "ascent_m": 73.424581321730869, "descent_m": 53.424581321730869, "gain_density_m_per_km": 42.61325247928734, "source_confidence": 0.65 }, "geometry": { "type": "LineString", "coordinates": [ [ 103.670161538404912, 1.337230912054735 ], [ 103.6703503, 1.3372548 ], [ 103.6705112, 1.3375256 ], [ 103.6706158, 1.3379681 ], [ 103.6706829, 1.3384937 ], [ 103.6707539, 1.3390175 ], [ 103.6707808, 1.3392534 ], [ 103.6708773, 1.3395725 ], [ 103.6709283, 1.3397254 ], [ 103.6709846, 1.3398755 ], [ 103.671116, 1.3399989 ], [ 103.6712662, 1.3400364 ], [ 103.6713923, 1.3400767 ], [ 103.6714754, 1.3401196 ], [ 103.6716256, 1.3402 ], [ 103.671749, 1.3402322 ], [ 103.671880500000015, 1.3403823 ], [ 103.671960900000016, 1.3405245 ], [ 103.6719931, 1.3407014 ], [ 103.671977, 1.3408945 ], [ 103.6719287, 1.3410581 ], [ 103.6718858, 1.3411385 ], [ 103.6718, 1.3412056 ], [ 103.6716712, 1.3412565 ], [ 103.6715345, 1.3412404 ], [ 103.6714164, 1.3412002 ], [ 103.671336, 1.3411734 ], [ 103.671228700000015, 1.3411385 ], [ 103.6711643, 1.3411171 ], [ 103.6710651, 1.3411117 ], [ 103.670939, 1.3411305 ], [ 103.6707378, 1.3411627 ], [ 103.6705796, 1.341219 ], [ 103.6705447, 1.3413128 ], [ 103.6704669, 1.3415086 ], [ 103.6704321, 1.3416614 ], [ 103.670424, 1.3420556 ], [ 103.6703945, 1.3423854 ], [ 103.6703516, 1.342616 ], [ 103.6702872, 1.3427018 ], [ 103.6701424, 1.342734 ], [ 103.6699815, 1.3427447 ], [ 103.6697991, 1.3427447 ], [ 103.6696623, 1.3427179 ], [ 103.6694879, 1.3426857 ], [ 103.669364500000015, 1.3427152 ], [ 103.6692573, 1.3428413 ], [ 103.669125800000018, 1.3430772 ], [ 103.6690078, 1.3432274 ], [ 103.6688898, 1.3432515 ], [ 103.6687396, 1.3432569 ], [ 103.668584, 1.3432381 ], [ 103.6684204, 1.3432435 ], [ 103.6682863, 1.3432596 ], [ 103.6680932, 1.343332 ], [ 103.6679192, 1.3434751 ], [ 103.6677716, 1.3434027 ], [ 103.6675423, 1.3432834 ], [ 103.6674042, 1.3432271 ], [ 103.6672151, 1.3432069 ], [ 103.6670649, 1.3432767 ], [ 103.6669053, 1.3434067 ], [ 103.6667792, 1.3435596 ], [ 103.666682, 1.343697 ], [ 103.666612200000017, 1.3439329 ], [ 103.666462, 1.3441045 ], [ 103.6662743, 1.3442976 ], [ 103.666108, 1.3445979 ], [ 103.6659649, 1.3448541 ], [ 103.6659139, 1.3449024 ], [ 103.6657861, 1.3449573 ], [ 103.6657218, 1.3450591 ], [ 103.6656466, 1.345397 ], [ 103.6655715, 1.3455794 ], [ 103.6654213, 1.3456276 ], [ 103.6652658, 1.3456491 ], [ 103.6650887, 1.3456115 ], [ 103.664205438831459, 1.345529823036034 ] ] } }
]
}
