{
"type": "FeatureCollection",
"name": "point_to_point_10000m_006",
"crs": { "type": "name", "properties": { "name": "urn:ogc:def:crs:OGC:1.3:CRS84" } },
"features": [
{ "type": "Feature", "properties": { "route_id": "point_to_point_10000m_006", "budget_km": 10.0, "mode": "point_to_point", "rank": 6, "distance_m": 8691.0117748278644, "ascent_m": 50.325622958244786, "descent_m": 31.784302334249666, "gain_density_m_per_km": 5.7905367363561702, "source_confidence": 0.65 }, "geometry": { "type": "LineString", "coordinates": [ [ 103.640711498708356, 1.356966677786252 ], [ 103.64081, 1.357175 ], [ 103.64101, 1.357566 ], [ 103.641122, 1.357717 ], [ 103.641293, 1.357898 ], [ 103.641446, 1.358004 ], [ 103.642637, 1.358666 ], [ 103.642914, 1.358847 ], [ 103.643121, 1.359057 ], [ 103.643451, 1.359505 ], [ 103.643909, 1.360313 ], [ 103.64454, 1.361471 ], [ 103.645279, 1.362886 ], [ 103.647136, 1.366317 ], [ 103.647855, 1.367714 ], [ 103.649277, 1.370369 ], [ 103.650071, 1.371801 ], [ 103.6501383, 1.3719109 ], [ 103.6502238, 1.372001 ], [ 103.6503016, 1.3720364 ], [ 103.6503841, 1.3720295 ], [ 103.6504657, 1.3719825 ], [ 103.650872, 1.371603 ], [ 103.6509626, 1.3715307 ], [ 103.651081, 1.371481 ], [ 103.651235, 1.371445 ], [ 103.651472, 1.371468 ], [ 103.651616, 1.371511 ], [ 103.651856, 1.371628 ], [ 103.652282, 1.371998 ], [ 103.653178, 1.372571 ], [ 103.653302, 1.372722 ], [ 103.653349, 1.372837 ], [ 103.653386, 1.372984 ], [ 103.653462, 1.373756 ], [ 103.653465, 1.374088 ], [ 103.653482, 1.37423 ], [ 103.653567, 1.374536 ], [ 103.656656, 1.380832 ], [ 103.657372, 1.382355 ], [ 103.657454, 1.382563 ], [ 103.657704, 1.383051 ], [ 103.658068, 1.383674 ], [ 103.658317, 1.384218 ], [ 103.658503, 1.384524 ], [ 103.658611, 1.384642 ], [ 103.658729, 1.384723 ], [ 103.658936, 1.384798 ], [ 103.659291, 1.384827 ], [ 103.66003, 1.38471 ], [ 103.6600864, 1.3846914 ], [ 103.660182, 1.38466 ], [ 103.660653, 1.384367 ], [ 103.660772, 1.384308 ], [ 103.661172, 1.384149 ], [ 103.66139, 1.384073 ], [ 103.662156, 1.383864 ], [ 103.6624958, 1.383794 ], [ 103.662645992967171, 1.383762992006213 ], [ 103.6630369, 1.3844089 ], [ 103.6631871, 1.3847629 ], [ 103.6632666, 1.3849632 ], [ 103.6634088, 1.3851268 ], [ 103.6639801, 1.3856309 ], [ 103.6641866, 1.3858588 ], [ 103.6643019, 1.3860948 ], [ 103.6643314, 1.3863254 ], [ 103.6643314, 1.3864943 ], [ 103.6641732, 1.3870279 ], [ 103.6641785, 1.3871673 ], [ 103.6642, 1.3872987 ], [ 103.6642858, 1.3874382 ], [ 103.664369, 1.3875374 ], [ 103.6644629, 1.3876205 ], [ 103.6649001, 1.3878377 ], [ 103.6650929, 1.3880414 ], [ 103.6652568, 1.3883579 ], [ 103.6653076, 1.3885038 ], [ 103.6652997, 1.388626 ], [ 103.6652541, 1.3887869 ], [ 103.6650798, 1.389173 ], [ 103.6650449, 1.3893286 ], [ 103.6650449, 1.3895136 ], [ 103.66512, 1.3896664 ], [ 103.6652514, 1.3897844 ], [ 103.6659354, 1.3903287 ], [ 103.6661607, 1.3906907 ], [ 103.6664155, 1.3908945 ], [ 103.666807100000014, 1.3911493 ], [ 103.6669171, 1.3912431 ], [ 103.6670727, 1.3916507 ], [ 103.6671478, 1.391774 ], [ 103.6673999, 1.3920609 ], [ 103.6680704, 1.3925168 ], [ 103.668218, 1.3925704 ], [ 103.6694025, 1.3923684 ], [ 103.6698942, 1.3922846 ], [ 103.6701708, 1.3921641 ], [ 103.6703558, 1.3919023 ], [ 103.6704499, 1.3915345 ], [ 103.6705327, 1.3909696 ], [ 103.6705783, 1.390857 ], [ 103.6706923, 1.3907474 ], [ 103.6708251, 1.390688 ], [ 103.6710048, 1.3906532 ], [ 103.6711201, 1.390672 ], [ 103.6712274, 1.3907444 ], [ 103.6713776, 1.3909857 ], [ 103.6714178, 1.3911063 ], [ 103.6714581, 1.3914523 ], [ 103.6714902, 1.3915997 ], [ 103.6715385, 1.3917284 ], [ 103.6716253, 1.3918257 ], [ 103.6717722, 1.3919019 ], [ 103.6723888, 1.3922218 ], [ 103.6725202, 1.3922728 ], [ 103.6731281, 1.3923839 ], [ 103.6732954, 1.39238 ], [ 103.6734509, 1.392321 ], [ 103.673566300000019, 1.3922245 ], [ 103.6736226, 1.3921253 ], [ 103.673673600000015, 1.3920154 ], [ 103.6737326, 1.3914415 ], [ 103.6737859, 1.391253 ], [ 103.6739632, 1.3909937 ], [ 103.674041, 1.3907738 ], [ 103.6742154, 1.39068 ], [ 103.6749047, 1.3903207 ], [ 103.6749878, 1.3902939 ], [ 103.6750951, 1.3903207 ], [ 103.675296300000014, 1.3903985 ], [ 103.6755538, 1.3904387 ], [ 103.6757603, 1.3904226 ], [ 103.6767608, 1.3900552 ], [ 103.6769003, 1.3900552 ], [ 103.678002700380688, 1.390293900705743 ], [ 103.6781716, 1.3903153 ], [ 103.6783899, 1.3903214 ], [ 103.6786581, 1.3903402 ], [ 103.6787564, 1.390385 ], [ 103.6788556, 1.3904628 ], [ 103.6789012, 1.390554 ], [ 103.6789317, 1.3907022 ], [ 103.678979, 1.390865 ], [ 103.6790594, 1.3909455 ], [ 103.6791614, 1.3910098 ], [ 103.6801296, 1.3913396 ], [ 103.6802691, 1.391404 ], [ 103.680878, 1.3917553 ], [ 103.6816585, 1.3921414 ], [ 103.6818221, 1.392203 ], [ 103.6820126, 1.3922433 ], [ 103.6830113, 1.3923057 ], [ 103.684080174136724, 1.392316356014051 ], [ 103.6834314, 1.3911895 ], [ 103.6833664, 1.3911202 ], [ 103.683308100000019, 1.3910581 ], [ 103.6830207, 1.3908993 ], [ 103.6827086, 1.3908101 ], [ 103.6824283, 1.3906907 ], [ 103.6816689, 1.3901968 ], [ 103.6789914, 1.3882653 ], [ 103.6782633, 1.3877401 ], [ 103.677988862294811, 1.387542201186021 ] ] } }
]
}
