<?xml version="1.0" encoding="UTF-8"?>
<gpx xmlns="http://www.topografix.com/GPX/1/1" xmlns:xsi="http://www.w3.org/2001/XMLSchema-instance" xsi:schemaLocation="http://www.topografix.com/GPX/1/1 http://www.topografix.com/GPX/1/1/gpx.xsd" version="1.1" creator="gpx.py -- https://github.com/tkrajina/gpxpy">
  <trk>
    <name>point_to_point_10000m_005</name>
    <trkseg>
      <trkpt lat="1.3911450975862034" lon="103.98847501565808">
        <ele>0.0</ele>
      </trkpt>
      <trkpt lat="1.3910584430955635" lon="103.98844942404229">
        <ele>0.0</ele>
      </trkpt>
      <trkpt lat="1.390974969782293" lon="103.9884148488166">
        <ele>0.04731260390756076</ele>
      </trkpt>
      <trkpt lat="1.3908914964681791" lon="103.98838027359363">
        <ele>0.15637969666069632</ele>
      </trkpt>
      <trkpt lat="1.3908080231532218" lon="103.98834569837337">
        <ele>0.32720127825935524</ele>
      </trkpt>
      <trkpt lat="1.3907245498374219" lon="103.98831112315578">
        <ele>0.5024114027676058</ele>
      </trkpt>
      <trkpt lat="1.3906532721652782" lon="103.9882716608528">
        <ele>0.5763743118828694</ele>
      </trkpt>
      <trkpt lat="1.3906930299339333" lon="103.9881909524327">
        <ele>0.5490900056052425</ele>
      </trkpt>
      <trkpt lat="1.3907327877001023" lon="103.98811024400969">
        <ele>0.43008877617502034</ele>
      </trkpt>
      <trkpt lat="1.3907732631071412" lon="103.98802990871805">
        <ele>0.31326299235097205</ele>
      </trkpt>
      <trkpt lat="1.3908104410530473" lon="103.98795070460145">
        <ele>0.3228358944996315</ele>
      </trkpt>
      <trkpt lat="1.3907842288824934" lon="103.987864704283">
        <ele>0.5387058919492758</ele>
      </trkpt>
      <trkpt lat="1.390758016708567" lon="103.98777870396614">
        <ele>0.8105188411574119</ele>
      </trkpt>
      <trkpt lat="1.3906884146120646" lon="103.98777948331437">
        <ele>0.9903059058233543</ele>
      </trkpt>
      <trkpt lat="1.3906036037919527" lon="103.98781068004578">
        <ele>1.0522706551841716</ele>
      </trkpt>
      <trkpt lat="1.3905168645235058" lon="103.98783564536261">
        <ele>1.1478106222699753</ele>
      </trkpt>
      <trkpt lat="1.3904290652004325" lon="103.98785718531383">
        <ele>1.3091465227024448</ele>
      </trkpt>
      <trkpt lat="1.3903542870405168" lon="103.9878563234931">
        <ele>1.5150329022498636</ele>
      </trkpt>
      <trkpt lat="1.3903291859882" lon="103.98776999655729">
        <ele>1.7617278760305164</ele>
      </trkpt>
      <trkpt lat="1.3903040849324968" lon="103.98768366962297">
        <ele>1.9701160722771174</ele>
      </trkpt>
      <trkpt lat="1.390348239802867" lon="103.98763506548794">
        <ele>2.1073771638382577</ele>
      </trkpt>
      <trkpt lat="1.3904349861351462" lon="103.98760966036387">
        <ele>2.1735111507139693</ele>
      </trkpt>
      <trkpt lat="1.390521732467295" lon="103.98758425523826">
        <ele>2.2391582849838447</ele>
      </trkpt>
      <trkpt lat="1.3906084787993125" lon="103.98755885011111">
        <ele>2.34870920472589</ele>
      </trkpt>
      <trkpt lat="1.3906770446524013" lon="103.98751249667362">
        <ele>2.6023977869598145</ele>
      </trkpt>
      <trkpt lat="1.3907171895498114" lon="103.98743213877047">
        <ele>3.013645211181059</ele>
      </trkpt>
      <trkpt lat="1.3907448530132256" lon="103.9873546205301">
        <ele>3.517826440432872</ele>
      </trkpt>
      <trkpt lat="1.390706393768241" lon="103.98727332883655">
        <ele>4.013700666136867</ele>
      </trkpt>
      <trkpt lat="1.390667190484646" lon="103.9871923530735">
        <ele>4.4878467087976945</ele>
      </trkpt>
      <trkpt lat="1.3906279871979434" lon="103.9871113773129">
        <ele>4.960760691026028</ele>
      </trkpt>
      <trkpt lat="1.3905886341119622" lon="103.98703047553724">
        <ele>5.4305260109785705</ele>
      </trkpt>
      <trkpt lat="1.3905473357632785" lon="103.98695053450433">
        <ele>5.897109308603763</ele>
      </trkpt>
      <trkpt lat="1.3905060157228857" lon="103.98687060453967">
        <ele>6.348762597001939</ele>
      </trkpt>
      <trkpt lat="1.3904576396503086" lon="103.98679479336307">
        <ele>6.79406189855501</ele>
      </trkpt>
      <trkpt lat="1.3904546354449703" lon="103.98672553894377">
        <ele>7.254014573355568</ele>
      </trkpt>
      <trkpt lat="1.3905160743092777" lon="103.98665960124494">
        <ele>7.728355596228781</ele>
      </trkpt>
      <trkpt lat="1.3905775131720803" lon="103.98659366354266">
        <ele>8.05077037421686</ele>
      </trkpt>
      <trkpt lat="1.3906389520333784" lon="103.98652772583695">
        <ele>8.200284907278906</ele>
      </trkpt>
      <trkpt lat="1.3907003908931708" lon="103.98646178812778">
        <ele>8.208763132632566</ele>
      </trkpt>
      <trkpt lat="1.3907555807264147" lon="103.98639069555891">
        <ele>8.240829522501418</ele>
      </trkpt>
      <trkpt lat="1.3908095089051349" lon="103.98631856224218">
        <ele>8.296484076885578</ele>
      </trkpt>
      <trkpt lat="1.3908634370819764" lon="103.98624642892206">
        <ele>8.35168806553336</ele>
      </trkpt>
      <trkpt lat="1.3909173652569395" lon="103.98617429559857">
        <ele>8.335105256878892</ele>
      </trkpt>
      <trkpt lat="1.3909692091896508" lon="103.98610072022966">
        <ele>8.255261709602367</ele>
      </trkpt>
      <trkpt lat="1.3910185903621899" lon="103.98602544092691">
        <ele>8.127120970498114</ele>
      </trkpt>
      <trkpt lat="1.3910647546467028" lon="103.98594843887138">
        <ele>8.051983965399671</ele>
      </trkpt>
      <trkpt lat="1.3911005599424964" lon="103.98586593034543">
        <ele>8.033126798130168</ele>
      </trkpt>
      <trkpt lat="1.3911325685699616" lon="103.98578194621972">
        <ele>8.275677539549802</ele>
      </trkpt>
      <trkpt lat="1.3911563975826737" lon="103.98569526407857">
        <ele>8.805804481218031</ele>
      </trkpt>
      <trkpt lat="1.3911857993814325" lon="103.98561031562737">
        <ele>9.618153948145554</ele>
      </trkpt>
      <trkpt lat="1.3912102240205562" lon="103.98552384336202">
        <ele>10.502893170758844</ele>
      </trkpt>
      <trkpt lat="1.3912293302846854" lon="103.98543604317742">
        <ele>11.39560809306922</ele>
      </trkpt>
      <trkpt lat="1.3912523011663416" lon="103.98534922826767">
        <ele>12.269351370632924</ele>
      </trkpt>
      <trkpt lat="1.3912892702005206" lon="103.98526737834669">
        <ele>12.806902144630477</ele>
      </trkpt>
      <trkpt lat="1.391331492122653" lon="103.98518794180045">
        <ele>12.974284391989045</ele>
      </trkpt>
      <trkpt lat="1.3913783782474118" lon="103.98511118382987">
        <ele>12.77304206780677</ele>
      </trkpt>
      <trkpt lat="1.3914288106773454" lon="103.985036633425">
        <ele>12.620623120778868</ele>
      </trkpt>
      <trkpt lat="1.391472730576479" lon="103.98495808394802">
        <ele>12.546161201135911</ele>
      </trkpt>
      <trkpt lat="1.391521343864887" lon="103.98488233530867">
        <ele>12.58901861134116</ele>
      </trkpt>
      <trkpt lat="1.3915659231658093" lon="103.98480418737975">
        <ele>12.415892012485818</ele>
      </trkpt>
      <trkpt lat="1.391608264865236" lon="103.98472479186768">
        <ele>12.01396081860858</ele>
      </trkpt>
      <trkpt lat="1.3916364509616599" lon="103.98464002057545">
        <ele>11.392371383241757</ele>
      </trkpt>
      <trkpt lat="1.391657600539412" lon="103.98455267201592">
        <ele>10.819044662987798</ele>
      </trkpt>
      <trkpt lat="1.3916695024485066" lon="103.984463596043">
        <ele>10.540912205098081</ele>
      </trkpt>
      <trkpt lat="1.3916814043543135" lon="103.98437452006884">
        <ele>10.657077209149067</ele>
      </trkpt>
      <trkpt lat="1.3916933062568326" lon="103.98428544409344">
        <ele>11.040417799912426</ele>
      </trkpt>
      <trkpt lat="1.3917183010099257" lon="103.98419975534759">
        <ele>11.367230469548213</ele>
      </trkpt>
      <trkpt lat="1.391751595752973" lon="103.98411621756125">
        <ele>11.610053090598337</ele>
      </trkpt>
      <trkpt lat="1.3917454131072982" lon="103.98402657024646">
        <ele>11.884418370046438</ele>
      </trkpt>
      <trkpt lat="1.3917343513198654" lon="103.98393798145145">
        <ele>12.413889146901768</ele>
      </trkpt>
      <trkpt lat="1.3917023640645403" lon="103.98385393239707">
        <ele>12.903430839313074</ele>
      </trkpt>
      <trkpt lat="1.3916703768059457" lon="103.98376988334469">
        <ele>13.150411983280149</ele>
      </trkpt>
      <trkpt lat="1.3916545263281697" lon="103.98368219227777">
        <ele>12.996487881185503</ele>
      </trkpt>
      <trkpt lat="1.3916455372927863" lon="103.98359293319612">
        <ele>12.727786988525423</ele>
      </trkpt>
      <trkpt lat="1.3916174760902362" lon="103.98350755013563">
        <ele>12.488849127850104</ele>
      </trkpt>
      <trkpt lat="1.3915952049769498" lon="103.98342048425924">
        <ele>12.486334975508292</ele>
      </trkpt>
      <trkpt lat="1.3915765536772584" lon="103.98333256424972">
        <ele>12.784793325289412</ele>
      </trkpt>
      <trkpt lat="1.39155883154903" lon="103.98324444892847">
        <ele>13.414899863482413</ele>
      </trkpt>
      <trkpt lat="1.3915399675020945" lon="103.98315657388692">
        <ele>13.794035206935426</ele>
      </trkpt>
      <trkpt lat="1.3915202194654925" lon="103.98306888485244">
        <ele>13.765361861931424</ele>
      </trkpt>
      <trkpt lat="1.3915004714254486" lon="103.98298119581908">
        <ele>13.327194330208235</ele>
      </trkpt>
      <trkpt lat="1.391480723381962" lon="103.98289350678685">
        <ele>12.883600353846981</ele>
      </trkpt>
      <trkpt lat="1.3914627404609299" lon="103.98280544833605">
        <ele>12.437421742202565</ele>
      </trkpt>
      <trkpt lat="1.391445211357274" lon="103.98271729490699">
        <ele>12.206077129311074</ele>
      </trkpt>
      <trkpt lat="1.3914268560750356" lon="103.98262930802144">
        <ele>12.187668021093998</ele>
      </trkpt>
      <trkpt lat="1.3914110571495317" lon="103.98254084074583">
        <ele>12.377761459428397</ele>
      </trkpt>
      <trkpt lat="1.3913958135359101" lon="103.98245226889172">
        <ele>12.673865097255964</ele>
      </trkpt>
      <trkpt lat="1.3913672756067048" lon="103.98236744070846">
        <ele>13.090660483278375</ele>
      </trkpt>
      <trkpt lat="1.3913462019650933" lon="103.98228048558337">
        <ele>13.59724163642124</ele>
      </trkpt>
      <trkpt lat="1.3913355021605098" lon="103.98219130505711">
        <ele>14.063101715387548</ele>
      </trkpt>
      <trkpt lat="1.3913295558872292" lon="103.98210164801256">
        <ele>14.479714993890573</ele>
      </trkpt>
      <trkpt lat="1.3913239636071335" lon="103.98201196243657">
        <ele>14.872716221284614</ele>
      </trkpt>
      <trkpt lat="1.3913204244089112" lon="103.98192217583609">
        <ele>15.249678871101272</ele>
      </trkpt>
      <trkpt lat="1.3913192512676518" lon="103.98183235047024">
        <ele>15.53439166628509</ele>
      </trkpt>
      <trkpt lat="1.3913397383754094" lon="103.98174538332006">
        <ele>15.679737939127621</ele>
      </trkpt>
      <trkpt lat="1.391374533655205" lon="103.98166255994842">
        <ele>15.784247211925958</ele>
      </trkpt>
      <trkpt lat="1.3913849385656367" lon="103.98157384870662">
        <ele>15.957007047278184</ele>
      </trkpt>
      <trkpt lat="1.39138644280495" lon="103.98148403394418">
        <ele>16.15394741723037</ele>
      </trkpt>
      <trkpt lat="1.3914145794855686" lon="103.981400022365">
        <ele>16.18107718505261</ele>
      </trkpt>
      <trkpt lat="1.3914683419264486" lon="103.98132878304514">
        <ele>16.20567555422545</ele>
      </trkpt>
      <trkpt lat="1.391469518476949" lon="103.98124184114333">
        <ele>16.306290296679986</ele>
      </trkpt>
      <trkpt lat="1.3914762108126526" lon="103.98115546668447">
        <ele>16.505616683019994</ele>
      </trkpt>
      <trkpt lat="1.3915060414335334" lon="103.98107065892191">
        <ele>16.601024123897375</ele>
      </trkpt>
      <trkpt lat="1.3915368243087216" lon="103.9809861676871">
        <ele>16.47620548273716</ele>
      </trkpt>
      <trkpt lat="1.3915631422643162" lon="103.98090029369287">
        <ele>16.007235681151332</ele>
      </trkpt>
      <trkpt lat="1.3915766574873134" lon="103.98081149645225">
        <ele>15.493341316462297</ele>
      </trkpt>
      <trkpt lat="1.3915855303490767" lon="103.98072208730478">
        <ele>15.120122969829426</ele>
      </trkpt>
      <trkpt lat="1.3915853719829214" lon="103.98063232569024">
        <ele>14.999177762442287</ele>
      </trkpt>
      <trkpt lat="1.3915742372109459" lon="103.98054316809555">
        <ele>14.782367106882042</ele>
      </trkpt>
      <trkpt lat="1.3915575077593914" lon="103.98045493194063">
        <ele>14.409492568357331</ele>
      </trkpt>
      <trkpt lat="1.391543480308525" lon="103.98036704113727">
        <ele>14.07089285382564</ele>
      </trkpt>
      <trkpt lat="1.3915088552261812" lon="103.98028412201181">
        <ele>13.913391666431187</ele>
      </trkpt>
      <trkpt lat="1.3914570841904312" lon="103.98021099922373">
        <ele>13.89236190312659</ele>
      </trkpt>
      <trkpt lat="1.391415013383506" lon="103.98013161151331">
        <ele>14.115339352083465</ele>
      </trkpt>
      <trkpt lat="1.3913655299443506" lon="103.98005799742401">
        <ele>14.56886680011772</ele>
      </trkpt>
      <trkpt lat="1.3913073759834576" lon="103.97998960106538">
        <ele>15.302089358847525</ele>
      </trkpt>
      <trkpt lat="1.3912447775551562" lon="103.97992571634586">
        <ele>16.079685141466083</ele>
      </trkpt>
      <trkpt lat="1.391172266893759" lon="103.97987209609828">
        <ele>16.63299880316348</ele>
      </trkpt>
      <trkpt lat="1.391097765516612" lon="103.97982135739882">
        <ele>16.89179399950751</ele>
      </trkpt>
      <trkpt lat="1.3910236871238935" lon="103.97976986655218">
        <ele>16.920201685789305</ele>
      </trkpt>
      <trkpt lat="1.3909439017942746" lon="103.97972860166679">
        <ele>16.934705941578798</ele>
      </trkpt>
      <trkpt lat="1.3908595525578267" lon="103.97969622402364">
        <ele>17.016666586017944</ele>
      </trkpt>
      <trkpt lat="1.3907745429742973" lon="103.97966556654328">
        <ele>17.11112488771064</ele>
      </trkpt>
      <trkpt lat="1.390692674327071" lon="103.97962812954303">
        <ele>17.180339055123927</ele>
      </trkpt>
      <trkpt lat="1.3906120292744517" lon="103.97958774302626">
        <ele>17.22722101949977</ele>
      </trkpt>
      <trkpt lat="1.3905300364531266" lon="103.97954985754917">
        <ele>17.527941565883335</ele>
      </trkpt>
      <trkpt lat="1.3904483581927947" lon="103.97951128725974">
        <ele>18.189958874137346</ele>
      </trkpt>
      <trkpt lat="1.3903659658740148" lon="103.97947426313328">
        <ele>19.098909763992037</ele>
      </trkpt>
      <trkpt lat="1.3902845903697716" lon="103.97943570258636">
        <ele>19.735041941388562</ele>
      </trkpt>
      <trkpt lat="1.3902077714638448" lon="103.9793884044785">
        <ele>20.0</ele>
      </trkpt>
      <trkpt lat="1.3901289068885476" lon="103.97934444338664">
        <ele>20.0</ele>
      </trkpt>
      <trkpt lat="1.3900516642088245" lon="103.97929772773583">
        <ele>20.0</ele>
      </trkpt>
      <trkpt lat="1.3899767265472187" lon="103.97924744329374">
        <ele>20.0</ele>
      </trkpt>
      <trkpt lat="1.3899032170833772" lon="103.97919510844326">
        <ele>20.0</ele>
      </trkpt>
      <trkpt lat="1.3898314171440738" lon="103.979140492445">
        <ele>20.0</ele>
      </trkpt>
      <trkpt lat="1.38976220205333" lon="103.97908268900196">
        <ele>20.0</ele>
      </trkpt>
      <trkpt lat="1.3896969066989704" lon="103.97902055142558">
        <ele>20.0</ele>
      </trkpt>
      <trkpt lat="1.389635717057844" lon="103.97895440287678">
        <ele>20.0</ele>
      </trkpt>
      <trkpt lat="1.3895775749144408" lon="103.97888558532131">
        <ele>20.0</ele>
      </trkpt>
      <trkpt lat="1.3895175413178131" lon="103.97881839229011">
        <ele>20.0</ele>
      </trkpt>
      <trkpt lat="1.3894571265241247" lon="103.97875152692238">
        <ele>20.0</ele>
      </trkpt>
      <trkpt lat="1.3894128300862825" lon="103.97867330051012">
        <ele>20.0</ele>
      </trkpt>
      <trkpt lat="1.3893568476989289" lon="103.97860300143412">
        <ele>20.0</ele>
      </trkpt>
      <trkpt lat="1.3892978975503718" lon="103.97853486558084">
        <ele>20.0</ele>
      </trkpt>
      <trkpt lat="1.3892458692869785" lon="103.97846184966646">
        <ele>20.0</ele>
      </trkpt>
      <trkpt lat="1.3892004269979086" lon="103.97838430145167">
        <ele>20.0</ele>
      </trkpt>
      <trkpt lat="1.389131819218298" lon="103.97834206663644">
        <ele>20.0</ele>
      </trkpt>
      <trkpt lat="1.3890798378298126" lon="103.97826853724074">
        <ele>20.0</ele>
      </trkpt>
      <trkpt lat="1.3890294737646314" lon="103.97819393285818">
        <ele>20.0</ele>
      </trkpt>
      <trkpt lat="1.3889855158512512" lon="103.97811546001108">
        <ele>20.0</ele>
      </trkpt>
      <trkpt lat="1.3889468138341874" lon="103.97803426879403">
        <ele>20.0</ele>
      </trkpt>
      <trkpt lat="1.3889108465088733" lon="103.97795182486713">
        <ele>20.0</ele>
      </trkpt>
      <trkpt lat="1.3888750011720175" lon="103.97786932719546">
        <ele>20.0</ele>
      </trkpt>
      <trkpt lat="1.3888394965909145" lon="103.97778669671301">
        <ele>20.0</ele>
      </trkpt>
      <trkpt lat="1.388787937567166" lon="103.97771337132383">
        <ele>20.0</ele>
      </trkpt>
      <trkpt lat="1.3887200977511447" lon="103.97765515976205">
        <ele>19.85984598573849</ele>
      </trkpt>
      <trkpt lat="1.3886472577098459" lon="103.9776029914065">
        <ele>19.401700148382826</ele>
      </trkpt>
      <trkpt lat="1.388566413908829" lon="103.97756283410362">
        <ele>18.614211166271886</ele>
      </trkpt>
      <trkpt lat="1.388478870504695" lon="103.97754150150014">
        <ele>17.67482729274349</ele>
      </trkpt>
      <trkpt lat="1.388394937306671" lon="103.97755606582618">
        <ele>16.82988542716051</ele>
      </trkpt>
      <trkpt lat="1.3883226922889225" lon="103.97760969916014">
        <ele>16.165154231495546</ele>
      </trkpt>
      <trkpt lat="1.3882678989120458" lon="103.97768052624546">
        <ele>15.628531105288493</ele>
      </trkpt>
      <trkpt lat="1.388209418818295" lon="103.97774906867834">
        <ele>15.152029752684461</ele>
      </trkpt>
      <trkpt lat="1.3881510618093122" lon="103.97781771454972">
        <ele>14.728206665176728</ele>
      </trkpt>
      <trkpt lat="1.3880945182741307" lon="103.977887764162">
        <ele>14.454266729019217</ele>
      </trkpt>
      <trkpt lat="1.388042881769228" lon="103.97796152647119">
        <ele>14.336676843815818</ele>
      </trkpt>
      <trkpt lat="1.3879931847422917" lon="103.97803660023644">
        <ele>14.322832338382982</ele>
      </trkpt>
      <trkpt lat="1.387947593321379" lon="103.97811419337562">
        <ele>14.343181988755903</ele>
      </trkpt>
      <trkpt lat="1.3879026891765274" lon="103.97819216171136">
        <ele>14.510295202553147</ele>
      </trkpt>
      <trkpt lat="1.3878572750024587" lon="103.9782696463302">
        <ele>14.803609413001134</ele>
      </trkpt>
      <trkpt lat="1.3878093258968038" lon="103.97834562358497">
        <ele>15.231786995701254</ele>
      </trkpt>
      <trkpt lat="1.387770411984317" lon="103.97842673697065">
        <ele>15.686155803758558</ele>
      </trkpt>
      <trkpt lat="1.3877368710904288" lon="103.9785101071224">
        <ele>16.177161564122596</ele>
      </trkpt>
      <trkpt lat="1.3877054307641645" lon="103.97859435955029">
        <ele>16.69022799078293</ele>
      </trkpt>
      <trkpt lat="1.3876779940448125" lon="103.97867980440198">
        <ele>17.22668084752993</ele>
      </trkpt>
      <trkpt lat="1.3876576056807042" lon="103.9787673485191">
        <ele>17.78226781356634</ele>
      </trkpt>
      <trkpt lat="1.3876372173134912" lon="103.9788548926344">
        <ele>18.351794762861804</ele>
      </trkpt>
      <trkpt lat="1.3876179526399766" lon="103.97894268464195">
        <ele>18.911479229034978</ele>
      </trkpt>
      <trkpt lat="1.3875927268330184" lon="103.97902817619955">
        <ele>19.461460062903015</ele>
      </trkpt>
      <trkpt lat="1.38756925797068" lon="103.97911395742001">
        <ele>19.82044040402864</ele>
      </trkpt>
      <trkpt lat="1.3875561053259968" lon="103.97920285943725">
        <ele>20.0</ele>
      </trkpt>
      <trkpt lat="1.3875443409255954" lon="103.97929194212516">
        <ele>20.0</ele>
      </trkpt>
      <trkpt lat="1.3875340058836574" lon="103.979381210838">
        <ele>20.0</ele>
      </trkpt>
      <trkpt lat="1.387522964166817" lon="103.97947038862314">
        <ele>20.0</ele>
      </trkpt>
      <trkpt lat="1.3875099767978096" lon="103.97955931198572">
        <ele>20.0</ele>
      </trkpt>
      <trkpt lat="1.3874921964638784" lon="103.97964741559473">
        <ele>20.0</ele>
      </trkpt>
      <trkpt lat="1.3874767331146098" lon="103.97973592042334">
        <ele>20.0</ele>
      </trkpt>
      <trkpt lat="1.3874634686233098" lon="103.97982480602752">
        <ele>20.0</ele>
      </trkpt>
      <trkpt lat="1.3874502041287533" lon="103.97991369163039">
        <ele>20.0</ele>
      </trkpt>
      <trkpt lat="1.3874369396309414" lon="103.98000257723191">
        <ele>20.0</ele>
      </trkpt>
      <trkpt lat="1.3874303274502562" lon="103.98009218054487">
        <ele>20.0</ele>
      </trkpt>
      <trkpt lat="1.3874227184537047" lon="103.98018171635398">
        <ele>20.0</ele>
      </trkpt>
      <trkpt lat="1.3874147160041421" lon="103.98027122126919">
        <ele>20.0</ele>
      </trkpt>
      <trkpt lat="1.3873496733273634" lon="103.9803156117395">
        <ele>20.0</ele>
      </trkpt>
      <trkpt lat="1.3872636809515484" lon="103.9803434326029">
        <ele>20.0</ele>
      </trkpt>
      <trkpt lat="1.387177688575886" lon="103.98037125346558">
        <ele>20.0</ele>
      </trkpt>
      <trkpt lat="1.3870916962001265" lon="103.9803990743268">
        <ele>20.0</ele>
      </trkpt>
      <trkpt lat="1.3870383976117846" lon="103.98035794992171">
        <ele>20.0</ele>
      </trkpt>
      <trkpt lat="1.3870052410811307" lon="103.98027434956819">
        <ele>20.0</ele>
      </trkpt>
      <trkpt lat="1.38697026873489" lon="103.98019165130252">
        <ele>20.0</ele>
      </trkpt>
      <trkpt lat="1.3869329251794307" lon="103.98011032874493">
        <ele>20.0</ele>
      </trkpt>
      <trkpt lat="1.386898812269895" lon="103.98002713586378">
        <ele>20.0</ele>
      </trkpt>
      <trkpt lat="1.3868616814034043" lon="103.97994549720633">
        <ele>20.0</ele>
      </trkpt>
      <trkpt lat="1.386816099293539" lon="103.97986791201605">
        <ele>20.0</ele>
      </trkpt>
      <trkpt lat="1.3867676420570807" lon="103.97979205816651">
        <ele>20.0</ele>
      </trkpt>
      <trkpt lat="1.3867128499364914" lon="103.97972067266119">
        <ele>20.0</ele>
      </trkpt>
      <trkpt lat="1.3866563097677387" lon="103.97965066577895">
        <ele>20.0</ele>
      </trkpt>
      <trkpt lat="1.3865974092696707" lon="103.97958264866925">
        <ele>19.907238868079496</ele>
      </trkpt>
      <trkpt lat="1.3865489768027384" lon="103.97950681844958">
        <ele>19.580563278677207</ele>
      </trkpt>
      <trkpt lat="1.3865087645917595" lon="103.9794263491586">
        <ele>19.026186981783923</ele>
      </trkpt>
      <trkpt lat="1.3864565712855832" lon="103.97935354921196">
        <ele>18.339804314440325</ele>
      </trkpt>
      <trkpt lat="1.386399045685097" lon="103.97928423249768">
        <ele>17.666259837200204</ele>
      </trkpt>
      <trkpt lat="1.3863380320377199" lon="103.9792179332315">
        <ele>17.00273114600618</ele>
      </trkpt>
      <trkpt lat="1.386274265400208" lon="103.97915421479544">
        <ele>16.492432607526922</ele>
      </trkpt>
      <trkpt lat="1.386209790749643" lon="103.97909122845763">
        <ele>16.177858946713105</ele>
      </trkpt>
      <trkpt lat="1.3861422801962822" lon="103.97903145596294">
        <ele>16.063027689525892</ele>
      </trkpt>
      <trkpt lat="1.3860724441932317" lon="103.97897436435767">
        <ele>16.005427884241097</ele>
      </trkpt>
      <trkpt lat="1.3860015151821374" lon="103.97891862113214">
        <ele>15.936771807368052</ele>
      </trkpt>
      <trkpt lat="1.3859389310182098" lon="103.97885582425184">
        <ele>15.916493202011656</ele>
      </trkpt>
      <trkpt lat="1.3858571588271946" lon="103.97881841579674">
        <ele>15.91860838402942</ele>
      </trkpt>
      <trkpt lat="1.3857801194709332" lon="103.97877139154198">
        <ele>15.967579615955044</ele>
      </trkpt>
      <trkpt lat="1.3857024782549805" lon="103.97872531465464">
        <ele>15.931398240386413</ele>
      </trkpt>
      <trkpt lat="1.3856233814080938" lon="103.9786818022559">
        <ele>15.84540459728352</ele>
      </trkpt>
      <trkpt lat="1.3855420700077612" lon="103.97864252613189">
        <ele>15.724833659439279</ele>
      </trkpt>
      <trkpt lat="1.3854624509030327" lon="103.97860029764084">
        <ele>15.646581477403835</ele>
      </trkpt>
      <trkpt lat="1.3853807037659343" lon="103.97856289902899">
        <ele>15.608448786379407</ele>
      </trkpt>
      <trkpt lat="1.3852967064269281" lon="103.97852983264237">
        <ele>15.60360108343283</ele>
      </trkpt>
      <trkpt lat="1.3852109666874628" lon="103.97850127780008">
        <ele>15.625480587676279</ele>
      </trkpt>
      <trkpt lat="1.3851245046994078" lon="103.97847493572078">
        <ele>15.666308456508498</ele>
      </trkpt>
      <trkpt lat="1.3850376511330553" lon="103.97844989490638">
        <ele>15.724200886775835</ele>
      </trkpt>
      <trkpt lat="1.3849501436860585" lon="103.97842722331741">
        <ele>15.858740431684618</ele>
      </trkpt>
      <trkpt lat="1.3848612369189048" lon="103.97841109850911">
        <ele>16.080140724701412</ele>
      </trkpt>
      <trkpt lat="1.3847710457759341" lon="103.97840683585544">
        <ele>16.247240149226666</ele>
      </trkpt>
      <trkpt lat="1.3846812093727707" lon="103.97839747444243">
        <ele>16.301467386170415</ele>
      </trkpt>
      <trkpt lat="1.3845914328300377" lon="103.97839097834807">
        <ele>16.211165248731362</ele>
      </trkpt>
      <trkpt lat="1.3845023265623269" lon="103.97837590824383">
        <ele>16.092451092262376</ele>
      </trkpt>
      <trkpt lat="1.3844118934073701" lon="103.97837663661069">
        <ele>15.90163158502709</ele>
      </trkpt>
      <trkpt lat="1.3843215560613846" lon="103.97838025968355">
        <ele>15.662162667228772</ele>
      </trkpt>
      <trkpt lat="1.3842312375050374" lon="103.97838451870301">
        <ele>15.39203644972158</ele>
      </trkpt>
      <trkpt lat="1.3841408090105694" lon="103.97838568604914">
        <ele>15.141737837702024</ele>
      </trkpt>
      <trkpt lat="1.3840507102176813" lon="103.97839325996686">
        <ele>14.910300716758675</ele>
      </trkpt>
      <trkpt lat="1.3839607927179551" lon="103.97840280014105">
        <ele>14.704538752193615</ele>
      </trkpt>
      <trkpt lat="1.383871422854159" lon="103.97841644135991">
        <ele>14.510322137586131</ele>
      </trkpt>
      <trkpt lat="1.3837819543661702" lon="103.97842954710876">
        <ele>14.31707034394261</ele>
      </trkpt>
      <trkpt lat="1.3836922573381543" lon="103.97844101171623">
        <ele>14.098729155251334</ele>
      </trkpt>
      <trkpt lat="1.3836027440801637" lon="103.97844689898557">
        <ele>13.82070255755439</ele>
      </trkpt>
      <trkpt lat="1.3835134211685487" lon="103.97843426059748">
        <ele>13.513415428454365</ele>
      </trkpt>
      <trkpt lat="1.3834230195118358" lon="103.97843454653035">
        <ele>13.200390764475513</ele>
      </trkpt>
      <trkpt lat="1.3833326416473684" lon="103.97843777146139">
        <ele>12.916438199473793</ele>
      </trkpt>
      <trkpt lat="1.3832422522566472" lon="103.97844045649519">
        <ele>12.642399437543864</ele>
      </trkpt>
      <trkpt lat="1.3831521673503298" lon="103.97844541214644">
        <ele>12.374882917087383</ele>
      </trkpt>
      <trkpt lat="1.3830620598251673" lon="103.9784517769881">
        <ele>12.118641886797931</ele>
      </trkpt>
      <trkpt lat="1.382972192020519" lon="103.97846132762872">
        <ele>11.792181471261081</ele>
      </trkpt>
      <trkpt lat="1.3828818879462494" lon="103.97846607110726">
        <ele>11.392025586537164</ele>
      </trkpt>
      <trkpt lat="1.3827915504652153" lon="103.97847015179688">
        <ele>10.915120563648339</ele>
      </trkpt>
      <trkpt lat="1.3827012461978743" lon="103.97847489394299">
        <ele>10.4363431477629</ele>
      </trkpt>
      <trkpt lat="1.3826108642490107" lon="103.97847799734882">
        <ele>9.95595744802828</ele>
      </trkpt>
      <trkpt lat="1.3825204677110157" lon="103.97848065585143">
        <ele>9.525203804633136</ele>
      </trkpt>
      <trkpt lat="1.3824300625937043" lon="103.97848300827398">
        <ele>9.176324010661851</ele>
      </trkpt>
      <trkpt lat="1.3823398017971482" lon="103.97848828767704">
        <ele>8.909703213809463</ele>
      </trkpt>
      <trkpt lat="1.3822495280788865" lon="103.97849351050763">
        <ele>8.673936820338838</ele>
      </trkpt>
      <trkpt lat="1.3821593310996205" lon="103.97849903214845">
        <ele>8.451687860221654</ele>
      </trkpt>
      <trkpt lat="1.3820697954790935" lon="103.97851168116064">
        <ele>8.237460663050749</ele>
      </trkpt>
      <trkpt lat="1.3819800591553064" lon="103.97852121743806">
        <ele>8.011335009551487</ele>
      </trkpt>
      <trkpt lat="1.3818896310038054" lon="103.97852002406444">
        <ele>7.765698137210383</ele>
      </trkpt>
      <trkpt lat="1.381799262023954" lon="103.97852191618225">
        <ele>7.512789338916889</ele>
      </trkpt>
      <trkpt lat="1.381709018809524" lon="103.9785275532644">
        <ele>7.276497416902952</ele>
      </trkpt>
      <trkpt lat="1.3816189565159656" lon="103.97853571369929">
        <ele>7.05041277095595</ele>
      </trkpt>
      <trkpt lat="1.3815288460612554" lon="103.97854333266949">
        <ele>6.826305013167565</ele>
      </trkpt>
      <trkpt lat="1.3814386652524226" lon="103.97855007198609">
        <ele>6.597498326097752</ele>
      </trkpt>
      <trkpt lat="1.3813484050940155" lon="103.97855564022679">
        <ele>6.36664021712826</ele>
      </trkpt>
      <trkpt lat="1.3812582110073737" lon="103.97856212597624">
        <ele>6.138558379199495</ele>
      </trkpt>
      <trkpt lat="1.3811681627703063" lon="103.97857038806363">
        <ele>5.915844673655751</ele>
      </trkpt>
      <trkpt lat="1.381078138029885" lon="103.97857891241634">
        <ele>5.694178918371359</ele>
      </trkpt>
      <trkpt lat="1.3809879846893596" lon="103.97858597816747">
        <ele>5.467720480796879</ele>
      </trkpt>
      <trkpt lat="1.3808977288048723" lon="103.97859159960993">
        <ele>5.186925679535328</ele>
      </trkpt>
      <trkpt lat="1.3808073933974805" lon="103.9785957733698">
        <ele>4.8458500137709075</ele>
      </trkpt>
      <trkpt lat="1.3807170489661316" lon="103.97859965761342">
        <ele>4.448164428818342</ele>
      </trkpt>
      <trkpt lat="1.3806267853163425" lon="103.97860520459375">
        <ele>4.0433037936661735</ele>
      </trkpt>
      <trkpt lat="1.380536558389703" lon="103.9786113086432">
        <ele>3.640272292101035</ele>
      </trkpt>
      <trkpt lat="1.3804463758841936" lon="103.97861800008455">
        <ele>3.2448821456397847</ele>
      </trkpt>
      <trkpt lat="1.3803562382982995" lon="103.97862528191791">
        <ele>2.8910141572889465</ele>
      </trkpt>
      <trkpt lat="1.3802659957564067" lon="103.97863099379649">
        <ele>2.577326780625052</ele>
      </trkpt>
      <trkpt lat="1.3801756297502858" lon="103.97863452442681">
        <ele>2.2971910156706987</ele>
      </trkpt>
      <trkpt lat="1.3800852786015811" lon="103.97863828733081">
        <ele>2.017936412173528</ele>
      </trkpt>
      <trkpt lat="1.3799950002187944" lon="103.97864358347641">
        <ele>1.7556784316261378</ele>
      </trkpt>
      <trkpt lat="1.379904691439701" lon="103.97864835026971">
        <ele>1.6241515980501402</ele>
      </trkpt>
      <trkpt lat="1.3798143826798641" lon="103.97865311447818">
        <ele>1.6501154651152528</ele>
      </trkpt>
      <trkpt lat="1.379724054458526" lon="103.9786575027348">
        <ele>1.820605322018918</ele>
      </trkpt>
      <trkpt lat="1.3796338963444934" lon="103.97866444046674">
        <ele>2.0216084709801048</ele>
      </trkpt>
      <trkpt lat="1.379543728525935" lon="103.97867133294376">
        <ele>2.2246393625948873</ele>
      </trkpt>
      <trkpt lat="1.3794535469341898" lon="103.97867805533605">
        <ele>2.425913519870327</ele>
      </trkpt>
      <trkpt lat="1.3793633060862938" lon="103.97868300399954">
        <ele>2.6214926518541</ele>
      </trkpt>
      <trkpt lat="1.3792728710666704" lon="103.97868344901913">
        <ele>2.671495478217343</ele>
      </trkpt>
      <trkpt lat="1.379267692156304" lon="103.97859399928184">
        <ele>2.577071079101527</ele>
      </trkpt>
      <trkpt lat="1.3792627734431873" lon="103.97850427518675">
        <ele>2.342195024044542</ele>
      </trkpt>
      <trkpt lat="1.3792578511147426" lon="103.97841455128729">
        <ele>2.1904746147650638</ele>
      </trkpt>
      <trkpt lat="1.3792152261079271" lon="103.97836685524858">
        <ele>2.1935128311485115</ele>
      </trkpt>
      <trkpt lat="1.3791249545951814" lon="103.97837227446463">
        <ele>2.3512665589123336</ele>
      </trkpt>
      <trkpt lat="1.3790346787789785" lon="103.9783776212342">
        <ele>2.5800563559470073</ele>
      </trkpt>
      <trkpt lat="1.3789443924286238" lon="103.97838279066984">
        <ele>2.807721913041922</ele>
      </trkpt>
      <trkpt lat="1.3788540237926814" lon="103.97838622749369">
        <ele>3.0267173015617224</ele>
      </trkpt>
      <trkpt lat="1.3787643011998945" lon="103.9783780224501">
        <ele>3.2338382551017393</ele>
      </trkpt>
      <trkpt lat="1.378674857957895" lon="103.97836474559261">
        <ele>3.4315857886412</ele>
      </trkpt>
      <trkpt lat="1.378585131999947" lon="103.97835359084343">
        <ele>3.633325781543732</ele>
      </trkpt>
      <trkpt lat="1.3784952607605132" lon="103.97834356318704">
        <ele>3.8442507256450043</ele>
      </trkpt>
      <trkpt lat="1.3784057347116643" lon="103.97833141493871">
        <ele>4.060095178641127</ele>
      </trkpt>
      <trkpt lat="1.378317264198399" lon="103.97831278235806">
        <ele>4.275079458209175</ele>
      </trkpt>
      <trkpt lat="1.378228793779159" lon="103.9782941493366">
        <ele>4.486109006440218</ele>
      </trkpt>
      <trkpt lat="1.3781409068713688" lon="103.97827303830083">
        <ele>4.692791810012039</ele>
      </trkpt>
      <trkpt lat="1.3780546986589337" lon="103.97824594837849">
        <ele>4.8942632913229485</ele>
      </trkpt>
      <trkpt lat="1.377968981757041" lon="103.9782173006091">
        <ele>5.089949053331794</ele>
      </trkpt>
      <trkpt lat="1.3778843751399146" lon="103.97818574656452">
        <ele>5.280668344137452</ele>
      </trkpt>
      <trkpt lat="1.3778012227048062" lon="103.97815041842952">
        <ele>5.4664239024139585</ele>
      </trkpt>
      <trkpt lat="1.377718650170204" lon="103.97811381013753">
        <ele>5.646836828644624</ele>
      </trkpt>
      <trkpt lat="1.377637548205306" lon="103.97807405179971">
        <ele>5.816433377648022</ele>
      </trkpt>
      <trkpt lat="1.3775581533462669" lon="103.97803108711517">
        <ele>5.970851741130901</ele>
      </trkpt>
      <trkpt lat="1.3774805132583328" lon="103.9779851491187">
        <ele>6.106650382742299</ele>
      </trkpt>
      <trkpt lat="1.3774063398992857" lon="103.97793374062968">
        <ele>6.232303327953969</ele>
      </trkpt>
      <trkpt lat="1.3773321663644582" lon="103.9778823323922">
        <ele>6.366786452112103</ele>
      </trkpt>
      <trkpt lat="1.3772579929898947" lon="103.97783092392763">
        <ele>6.512029847898927</ele>
      </trkpt>
      <trkpt lat="1.377187391389625" lon="103.97777485128371">
        <ele>6.667856927617238</ele>
      </trkpt>
      <trkpt lat="1.3771162934910681" lon="103.97771937175379">
        <ele>6.816016055688301</ele>
      </trkpt>
      <trkpt lat="1.3770496547293567" lon="103.97765862432249">
        <ele>6.967743333446488</ele>
      </trkpt>
      <trkpt lat="1.3769757478315627" lon="103.97760802618187">
        <ele>7.112436254168195</ele>
      </trkpt>
      <trkpt lat="1.3769117808105638" lon="103.97754520946303">
        <ele>7.255422053211558</ele>
      </trkpt>
      <trkpt lat="1.3768468828579568" lon="103.97748273914125">
        <ele>7.391394347235821</ele>
      </trkpt>
      <trkpt lat="1.376779704968895" lon="103.97742268548957">
        <ele>7.526452135307578</ele>
      </trkpt>
      <trkpt lat="1.3767165652002689" lon="103.97735835395264">
        <ele>7.654061435470287</ele>
      </trkpt>
      <trkpt lat="1.3766593778843899" lon="103.97728901354009">
        <ele>7.777085250214565</ele>
      </trkpt>
      <trkpt lat="1.3765968475962385" lon="103.97722417250318">
        <ele>7.899319746380921</ele>
      </trkpt>
      <trkpt lat="1.376534521333005" lon="103.97715909278591">
        <ele>8.02714453642212</ele>
      </trkpt>
      <trkpt lat="1.3764715238423322" lon="103.977094778626">
        <ele>8.15950345152694</ele>
      </trkpt>
      <trkpt lat="1.3764043875513392" lon="103.97703461265684">
        <ele>8.292786475744107</ele>
      </trkpt>
      <trkpt lat="1.3763411099291425" lon="103.97697041498516">
        <ele>8.426433553292377</ele>
      </trkpt>
      <trkpt lat="1.3762777167208549" lon="103.97690633069296">
        <ele>8.556769079737014</ele>
      </trkpt>
      <trkpt lat="1.3762139244657658" lon="103.97684263782638">
        <ele>8.687608628879252</ele>
      </trkpt>
      <trkpt lat="1.3761501321809122" lon="103.97677894499053">
        <ele>8.818838991967391</ele>
      </trkpt>
      <trkpt lat="1.3760863399071577" lon="103.97671525214501">
        <ele>8.950074225866901</ele>
      </trkpt>
      <trkpt lat="1.3760225426786663" lon="103.97665156420358">
        <ele>9.081355887692363</ele>
      </trkpt>
      <trkpt lat="1.3759587030417952" lon="103.97658791822673">
        <ele>9.212693870300816</ele>
      </trkpt>
      <trkpt lat="1.3758948533294608" lon="103.97652428223314">
        <ele>9.344104147569665</ele>
      </trkpt>
      <trkpt lat="1.375830982376647" lon="103.97646066728426">
        <ele>9.495663650393217</ele>
      </trkpt>
      <trkpt lat="1.3757671113855459" lon="103.97639705237462">
        <ele>9.66986791683545</ele>
      </trkpt>
      <trkpt lat="1.3757032403564555" lon="103.97633343750395">
        <ele>9.866696114243483</ele>
      </trkpt>
      <trkpt lat="1.375639369341574" lon="103.97626982262051">
        <ele>10.066029731399041</ele>
      </trkpt>
      <trkpt lat="1.375575498294803" lon="103.97620620776996">
        <ele>10.265362787368728</ele>
      </trkpt>
      <trkpt lat="1.3755116315299174" lon="103.9761425886769">
        <ele>10.460033130963053</ele>
      </trkpt>
      <trkpt lat="1.375447766292766" lon="103.97607896807094">
        <ele>10.63943387745462</ele>
      </trkpt>
      <trkpt lat="1.3753839012244176" lon="103.976015347299">
        <ele>10.803565647706721</ele>
      </trkpt>
      <trkpt lat="1.3753200360635913" lon="103.97595172662002">
        <ele>10.957090654220865</ele>
      </trkpt>
      <trkpt lat="1.3752561708083155" lon="103.97588810603595">
        <ele>11.11061554115657</ele>
      </trkpt>
      <trkpt lat="1.3751923059203195" lon="103.97582448508919">
        <ele>11.264140348812518</ele>
      </trkpt>
      <trkpt lat="1.375128440876948" lon="103.97576086429771">
        <ele>11.417664993234277</ele>
      </trkpt>
      <trkpt lat="1.3750645758701654" lon="103.9756972434713">
        <ele>11.571189693705994</ele>
      </trkpt>
      <trkpt lat="1.3750007108883995" lon="103.97563362262139">
        <ele>11.724697774444927</ele>
      </trkpt>
      <trkpt lat="1.3749368717742343" lon="103.97556997617649">
        <ele>11.878143301125371</ele>
      </trkpt>
      <trkpt lat="1.37487310437824" lon="103.97550625876686">
        <ele>12.032633901726058</ele>
      </trkpt>
      <trkpt lat="1.374807599177654" lon="103.97544433507349">
        <ele>12.188834643616147</ele>
      </trkpt>
      <trkpt lat="1.3747410764348245" lon="103.97538346231062">
        <ele>12.347726640189528</ele>
      </trkpt>
      <trkpt lat="1.3746730700272103" lon="103.97532425058144">
        <ele>12.507835633258926</ele>
      </trkpt>
      <trkpt lat="1.3746044784939977" lon="103.97526568883303">
        <ele>12.663591861053666</ele>
      </trkpt>
      <trkpt lat="1.374536929455576" lon="103.97520600756609">
        <ele>12.810436425018574</ele>
      </trkpt>
      <trkpt lat="1.3744734249212576" lon="103.9751420315161">
        <ele>12.948015422006065</ele>
      </trkpt>
      <trkpt lat="1.3744107327041173" lon="103.97507727235289">
        <ele>13.078667886630555</ele>
      </trkpt>
      <trkpt lat="1.3743509776200036" lon="103.9750099343383">
        <ele>13.204069881679708</ele>
      </trkpt>
      <trkpt lat="1.3742934351080884" lon="103.97494062677623">
        <ele>13.325984461518722</ele>
      </trkpt>
      <trkpt lat="1.374234699951184" lon="103.97487230037247">
        <ele>13.462287318343316</ele>
      </trkpt>
      <trkpt lat="1.3741679948847938" lon="103.97490167091301">
        <ele>13.611843215240095</ele>
      </trkpt>
      <trkpt lat="1.3741000298821842" lon="103.97488627999029">
        <ele>13.76835737306679</ele>
      </trkpt>
      <trkpt lat="1.3740334504089877" lon="103.97482551729341">
        <ele>13.911642579096807</ele>
      </trkpt>
      <trkpt lat="1.3739724177545136" lon="103.97475969650623">
        <ele>13.998229541025603</ele>
      </trkpt>
      <trkpt lat="1.3739702757226184" lon="103.97469933172302">
        <ele>13.9829810853711</ele>
      </trkpt>
      <trkpt lat="1.3740306797444257" lon="103.97463438901806">
        <ele>13.926583864629157</ele>
      </trkpt>
      <trkpt lat="1.3740186031412094" lon="103.97454629116685">
        <ele>13.91313991252297</ele>
      </trkpt>
      <trkpt lat="1.373961637526942" lon="103.97447664420898">
        <ele>13.998986684281187</ele>
      </trkpt>
      <trkpt lat="1.3738979019411899" lon="103.97441289827987">
        <ele>14.128431581605698</ele>
      </trkpt>
      <trkpt lat="1.3738340532753486" lon="103.97434926128845">
        <ele>14.263725617126267</ele>
      </trkpt>
      <trkpt lat="1.373770428621258" lon="103.97428540333196">
        <ele>14.398430584385936</ele>
      </trkpt>
      <trkpt lat="1.3737073562003674" lon="103.97422100915038">
        <ele>14.532327251203036</ele>
      </trkpt>
      <trkpt lat="1.3736444176936493" lon="103.97415648424797">
        <ele>14.665841326362019</ele>
      </trkpt>
      <trkpt lat="1.3735812238429717" lon="103.97409220604509">
        <ele>14.798906225267892</ele>
      </trkpt>
      <trkpt lat="1.3735186577837466" lon="103.97402732356743">
        <ele>14.931973251661807</ele>
      </trkpt>
      <trkpt lat="1.3734557168146386" lon="103.97396280048419">
        <ele>15.065083123548478</ele>
      </trkpt>
      <trkpt lat="1.3733924746869726" lon="103.97389856913382">
        <ele>15.199160108942957</ele>
      </trkpt>
      <trkpt lat="1.3733288190949149" lon="103.97383474437582">
        <ele>15.3347786592204</ele>
      </trkpt>
      <trkpt lat="1.373264144710798" lon="103.9737719359642">
        <ele>15.471449682160971</ele>
      </trkpt>
      <trkpt lat="1.3731997191790108" lon="103.97370887573231">
        <ele>15.608820226099278</ele>
      </trkpt>
      <trkpt lat="1.373135277326065" lon="103.9736458318494">
        <ele>15.745876975524192</ele>
      </trkpt>
      <trkpt lat="1.3730709551303526" lon="103.97358266872712">
        <ele>15.882390298066085</ele>
      </trkpt>
      <trkpt lat="1.373007140015728" lon="103.97351899853642">
        <ele>16.018129668854364</ele>
      </trkpt>
      <trkpt lat="1.372943567870846" lon="103.97345508896599">
        <ele>16.153572153437935</ele>
      </trkpt>
      <trkpt lat="1.3728795791871098" lon="103.97339159287965">
        <ele>16.2893831855102</ele>
      </trkpt>
      <trkpt lat="1.3728153499434632" lon="103.97332833516047">
        <ele>16.42566611307981</ele>
      </trkpt>
      <trkpt lat="1.3727512473517791" lon="103.97326495206616">
        <ele>16.56078557451757</ele>
      </trkpt>
      <trkpt lat="1.3726885686496835" lon="103.97320017702575">
        <ele>16.694382807900023</ele>
      </trkpt>
      <trkpt lat="1.3726260533756043" lon="103.97313524637113">
        <ele>16.82660556475003</ele>
      </trkpt>
      <trkpt lat="1.37256349846887" lon="103.9730703534088">
        <ele>16.95940164548793</ele>
      </trkpt>
      <trkpt lat="1.372500174449559" lon="103.97300621049605">
        <ele>17.09391957585468</ele>
      </trkpt>
      <trkpt lat="1.3724357213764522" lon="103.9729431804911">
        <ele>17.228582185914657</ele>
      </trkpt>
      <trkpt lat="1.3723706506238298" lon="103.97288078016611">
        <ele>17.310933549662337</ele>
      </trkpt>
      <trkpt lat="1.3722956180262744" lon="103.97283526372298">
        <ele>17.353782414390537</ele>
      </trkpt>
      <trkpt lat="1.372209540370129" lon="103.97280770449424">
        <ele>17.332723207496546</ele>
      </trkpt>
      <trkpt lat="1.3721417621095084" lon="103.9727490379332">
        <ele>17.29758802872797</ele>
      </trkpt>
      <trkpt lat="1.3720762021555497" lon="103.97268714413325">
        <ele>17.279789911837028</ele>
      </trkpt>
      <trkpt lat="1.3720111338297747" lon="103.97262473917606">
        <ele>17.304840971959347</ele>
      </trkpt>
      <trkpt lat="1.371946461083898" lon="103.97256193304501">
        <ele>17.373850426130105</ele>
      </trkpt>
      <trkpt lat="1.3718825448275613" lon="103.97249836311352">
        <ele>17.441592870513087</ele>
      </trkpt>
      <trkpt lat="1.3718186284661422" lon="103.97243479328765">
        <ele>17.508503728628877</ele>
      </trkpt>
      <trkpt lat="1.3717547121920206" lon="103.97237122337641">
        <ele>17.575414396841985</ele>
      </trkpt>
      <trkpt lat="1.3716907961032037" lon="103.97230765328257">
        <ele>17.642324861445772</ele>
      </trkpt>
      <trkpt lat="1.3716268799218472" lon="103.9722440832819">
        <ele>17.70923562945757</ele>
      </trkpt>
      <trkpt lat="1.3715629633638695" lon="103.97218051365635">
        <ele>17.776146858007355</ele>
      </trkpt>
      <trkpt lat="1.3714990468474237" lon="103.97211694399091">
        <ele>17.843058221488697</ele>
      </trkpt>
      <trkpt lat="1.3714351305363672" lon="103.9720533741229">
        <ele>17.90996921630826</ele>
      </trkpt>
      <trkpt lat="1.3713712143094763" lon="103.97198980417264">
        <ele>17.976879790558534</ele>
      </trkpt>
      <trkpt lat="1.3713072981716143" lon="103.97192623413534">
        <ele>18.032267774298475</ele>
      </trkpt>
      <trkpt lat="1.371254577945124" lon="103.9718534571364">
        <ele>18.079480841027976</ele>
      </trkpt>
      <trkpt lat="1.3711986178485078" lon="103.97178337979726">
        <ele>18.121963518984845</ele>
      </trkpt>
      <trkpt lat="1.3711392257331323" lon="103.97171589060775">
        <ele>18.18165681996129</ele>
      </trkpt>
      <trkpt lat="1.3710702645934982" lon="103.9716577945269">
        <ele>18.256663017191112</ele>
      </trkpt>
      <trkpt lat="1.3710000723649636" lon="103.97160119929208">
        <ele>18.345903358027673</ele>
      </trkpt>
      <trkpt lat="1.3709280774150434" lon="103.97154744983752">
        <ele>18.429475334851674</ele>
      </trkpt>
      <trkpt lat="1.3708641430905142" lon="103.97148389786656">
        <ele>18.50592911746365</ele>
      </trkpt>
      <trkpt lat="1.3708002087435291" lon="103.97142034591923">
        <ele>18.572898461281948</ele>
      </trkpt>
      <trkpt lat="1.3707362749146013" lon="103.97135679345868">
        <ele>18.639867962346003</ele>
      </trkpt>
      <trkpt lat="1.370672340439994" lon="103.97129324164071">
        <ele>18.706837462813507</ele>
      </trkpt>
      <trkpt lat="1.370608406087329" lon="103.97122968970294">
        <ele>18.773807945058266</ele>
      </trkpt>
      <trkpt lat="1.3705444713540302" lon="103.97116613814453">
        <ele>18.816550209187156</ele>
      </trkpt>
      <trkpt lat="1.370507897332581" lon="103.97109058424537">
        <ele>18.847461977920386</ele>
      </trkpt>
      <trkpt lat="1.370456970806308" lon="103.9710204933537">
        <ele>18.875025004772585</ele>
      </trkpt>
      <trkpt lat="1.370396210194645" lon="103.97095411238597">
        <ele>18.92390272052828</ele>
      </trkpt>
      <trkpt lat="1.3703353182277893" lon="103.97088864011236">
        <ele>18.988103019080803</ele>
      </trkpt>
      <trkpt lat="1.3702682444227554" lon="103.97082836734027">
        <ele>19.05037452419003</ele>
      </trkpt>
      <trkpt lat="1.3702095047891103" lon="103.97076072809925">
        <ele>19.114551953976257</ele>
      </trkpt>
      <trkpt lat="1.3701465123236565" lon="103.9706962998486">
        <ele>19.17333690105692</ele>
      </trkpt>
      <trkpt lat="1.3700845709633223" lon="103.97063151161757">
        <ele>19.245431914834484</ele>
      </trkpt>
      <trkpt lat="1.3700139472327477" lon="103.970576528546">
        <ele>19.318434007191364</ele>
      </trkpt>
      <trkpt lat="1.3699501047408615" lon="103.97051288551899">
        <ele>19.39323561268561</ele>
      </trkpt>
      <trkpt lat="1.3698862626972228" lon="103.97044924204938">
        <ele>19.457816043614383</ele>
      </trkpt>
      <trkpt lat="1.3698244532402073" lon="103.97038393914077">
        <ele>19.523629105525885</ele>
      </trkpt>
      <trkpt lat="1.3697603925456323" lon="103.97032316824172">
        <ele>19.597935502820736</ele>
      </trkpt>
      <trkpt lat="1.3696893864032755" lon="103.9702684087146">
        <ele>19.68208957819904</ele>
      </trkpt>
      <trkpt lat="1.3696189616878216" lon="103.97021281146398">
        <ele>19.772055913129005</ele>
      </trkpt>
      <trkpt lat="1.3695493078323062" lon="103.9701567896938">
        <ele>19.84982999906646</ele>
      </trkpt>
      <trkpt lat="1.3694853030290424" lon="103.97009330782541">
        <ele>19.925573045169916</ele>
      </trkpt>
      <trkpt lat="1.369421298719864" lon="103.97002982546654">
        <ele>19.972048280174857</ele>
      </trkpt>
      <trkpt lat="1.369356877471112" lon="103.96996676282552">
        <ele>20.0</ele>
      </trkpt>
      <trkpt lat="1.3692921550083657" lon="103.96990400340604">
        <ele>20.0</ele>
      </trkpt>
      <trkpt lat="1.3692323729952969" lon="103.96983820697513">
        <ele>20.0</ele>
      </trkpt>
      <trkpt lat="1.369178124997553" lon="103.96977419327472">
        <ele>20.0</ele>
      </trkpt>
      <trkpt lat="1.3691215922553739" lon="103.9697045422044">
        <ele>20.0</ele>
      </trkpt>
      <trkpt lat="1.3690579396481177" lon="103.96964073916419">
        <ele>20.0</ele>
      </trkpt>
      <trkpt lat="1.368992071728027" lon="103.96957920786532">
        <ele>20.0</ele>
      </trkpt>
      <trkpt lat="1.3689260271490111" lon="103.96951782331598">
        <ele>20.0</ele>
      </trkpt>
      <trkpt lat="1.3688544630478958" lon="103.96946314187407">
        <ele>20.0</ele>
      </trkpt>
      <trkpt lat="1.368792077279229" lon="103.9693984155402">
        <ele>20.0</ele>
      </trkpt>
      <trkpt lat="1.3687309079296055" lon="103.96933224156624">
        <ele>20.0</ele>
      </trkpt>
      <trkpt lat="1.3686681136980627" lon="103.96926757969138">
        <ele>20.0</ele>
      </trkpt>
      <trkpt lat="1.3686034378975858" lon="103.96920477281358">
        <ele>20.0</ele>
      </trkpt>
      <trkpt lat="1.3685413909717026" lon="103.96913941045366">
        <ele>20.0</ele>
      </trkpt>
      <trkpt lat="1.3684760751814962" lon="103.96907728001726">
        <ele>20.0</ele>
      </trkpt>
      <trkpt lat="1.3684130659555223" lon="103.96901284624994">
        <ele>20.0</ele>
      </trkpt>
      <trkpt lat="1.368345563217387" lon="103.968953225864">
        <ele>20.0</ele>
      </trkpt>
      <trkpt lat="1.3682766841604153" lon="103.96889506696363">
        <ele>20.0</ele>
      </trkpt>
      <trkpt lat="1.3682141500253666" lon="103.96883015422232">
        <ele>20.0</ele>
      </trkpt>
      <trkpt lat="1.3681516158881815" lon="103.96876524148433">
        <ele>20.0</ele>
      </trkpt>
      <trkpt lat="1.3680878406547807" lon="103.96870153781077">
        <ele>20.0</ele>
      </trkpt>
      <trkpt lat="1.3680237551148746" lon="103.96863813643594">
        <ele>20.0</ele>
      </trkpt>
      <trkpt lat="1.3679596695729108" lon="103.9685747350645">
        <ele>20.0</ele>
      </trkpt>
      <trkpt lat="1.3679010776752143" lon="103.96850666577129">
        <ele>20.0</ele>
      </trkpt>
      <trkpt lat="1.3678398425912017" lon="103.96844089221989">
        <ele>20.0</ele>
      </trkpt>
      <trkpt lat="1.3677732386218089" lon="103.96838024742738">
        <ele>20.0</ele>
      </trkpt>
      <trkpt lat="1.3677085064016132" lon="103.96831749890913">
        <ele>20.0</ele>
      </trkpt>
      <trkpt lat="1.3676433963373609" lon="103.96825514225038">
        <ele>20.0</ele>
      </trkpt>
      <trkpt lat="1.3675769561817281" lon="103.96819420247407">
        <ele>20.0</ele>
      </trkpt>
      <trkpt lat="1.3675087482979087" lon="103.96813520082668">
        <ele>20.0</ele>
      </trkpt>
      <trkpt lat="1.3674425023427683" lon="103.96807403717737">
        <ele>20.0</ele>
      </trkpt>
      <trkpt lat="1.3673770882552707" lon="103.96801199159843">
        <ele>20.0</ele>
      </trkpt>
      <trkpt lat="1.3673148652886968" lon="103.96794690007914">
        <ele>20.0</ele>
      </trkpt>
      <trkpt lat="1.367256283070101" lon="103.96787844495503">
        <ele>20.0</ele>
      </trkpt>
      <trkpt lat="1.3671966406092144" lon="103.96781097561248">
        <ele>20.0</ele>
      </trkpt>
      <trkpt lat="1.367130324426534" lon="103.96774990844807">
        <ele>20.0</ele>
      </trkpt>
      <trkpt lat="1.3670605414311598" lon="103.96769275725474">
        <ele>20.0</ele>
      </trkpt>
      <trkpt lat="1.3669918064147673" lon="103.96763436896516">
        <ele>20.0</ele>
      </trkpt>
      <trkpt lat="1.3669261738526237" lon="103.96757258461861">
        <ele>20.0</ele>
      </trkpt>
      <trkpt lat="1.366861337032748" lon="103.96750994439408">
        <ele>20.0</ele>
      </trkpt>
      <trkpt lat="1.366796540860083" lon="103.96744727137049">
        <ele>20.0</ele>
      </trkpt>
      <trkpt lat="1.3667330471925156" lon="103.96738328665494">
        <ele>20.0</ele>
      </trkpt>
      <trkpt lat="1.366668492417058" lon="103.96732035701721">
        <ele>20.0</ele>
      </trkpt>
      <trkpt lat="1.3666037271578952" lon="103.96725764145238">
        <ele>20.0</ele>
      </trkpt>
      <trkpt lat="1.3665393426588033" lon="103.96719454153681">
        <ele>20.0</ele>
      </trkpt>
      <trkpt lat="1.3664760490382486" lon="103.96713037094236">
        <ele>20.0</ele>
      </trkpt>
      <trkpt lat="1.366414073039436" lon="103.96706493650589">
        <ele>20.0</ele>
      </trkpt>
      <trkpt lat="1.3663520360538226" lon="103.96699958885958">
        <ele>20.0</ele>
      </trkpt>
      <trkpt lat="1.3662870166096248" lon="103.96693713556925">
        <ele>20.0</ele>
      </trkpt>
      <trkpt lat="1.3662206754171269" lon="103.9668760680852">
        <ele>20.0</ele>
      </trkpt>
      <trkpt lat="1.3661551893732533" lon="103.96681409635765">
        <ele>20.0</ele>
      </trkpt>
      <trkpt lat="1.366090234558985" lon="103.9667517329623">
        <ele>20.0</ele>
      </trkpt>
      <trkpt lat="1.3660460502643594" lon="103.96667432785728">
        <ele>20.0</ele>
      </trkpt>
      <trkpt lat="1.3660513069808027" lon="103.96662421780874">
        <ele>20.0</ele>
      </trkpt>
      <trkpt lat="1.3660927064090238" lon="103.96654528544516">
        <ele>20.0</ele>
      </trkpt>
      <trkpt lat="1.3661425035730779" lon="103.96647102978376">
        <ele>20.0</ele>
      </trkpt>
      <trkpt lat="1.3662059379987461" lon="103.96640700498257">
        <ele>20.0</ele>
      </trkpt>
      <trkpt lat="1.3662702896114942" lon="103.96634387026259">
        <ele>20.0</ele>
      </trkpt>
      <trkpt lat="1.3663346440217654" lon="103.96628073836348">
        <ele>20.0</ele>
      </trkpt>
      <trkpt lat="1.3663991716759591" lon="103.96621778127398">
        <ele>20.0</ele>
      </trkpt>
      <trkpt lat="1.3664636993287884" lon="103.96615482418115">
        <ele>20.0</ele>
      </trkpt>
      <trkpt lat="1.366528378338763" lon="103.96609202065345">
        <ele>19.999999999999996</ele>
      </trkpt>
      <trkpt lat="1.3665930775840773" lon="103.96602923765458">
        <ele>20.0</ele>
      </trkpt>
      <trkpt lat="1.3666590459123342" lon="103.96596790541525">
        <ele>20.0</ele>
      </trkpt>
      <trkpt lat="1.3667308746055007" lon="103.96591330900411">
        <ele>20.0</ele>
      </trkpt>
      <trkpt lat="1.3668029580235426" lon="103.96585906891397">
        <ele>20.000000000000004</ele>
      </trkpt>
      <trkpt lat="1.366878415043365" lon="103.96580953914763">
        <ele>20.000000000000004</ele>
      </trkpt>
      <trkpt lat="1.3669539066223901" lon="103.96576006326595">
        <ele>20.0</ele>
      </trkpt>
      <trkpt lat="1.367034061866366" lon="103.96571908142673">
        <ele>20.0</ele>
      </trkpt>
      <trkpt lat="1.3671181196445148" lon="103.96568593363529">
        <ele>20.0</ele>
      </trkpt>
      <trkpt lat="1.3672022864868836" lon="103.96565306470187">
        <ele>20.0</ele>
      </trkpt>
      <trkpt lat="1.3672833967693367" lon="103.9656141328702">
        <ele>20.0</ele>
      </trkpt>
      <trkpt lat="1.3673607964512025" lon="103.96556765660426">
        <ele>20.0</ele>
      </trkpt>
      <trkpt lat="1.367430718987216" lon="103.96551073022177">
        <ele>20.0</ele>
      </trkpt>
      <trkpt lat="1.367500087696656" lon="103.9654530808911">
        <ele>20.0</ele>
      </trkpt>
      <trkpt lat="1.3675723248827778" lon="103.96539929157937">
        <ele>20.0</ele>
      </trkpt>
      <trkpt lat="1.367648518275788" lon="103.96535088750113">
        <ele>20.0</ele>
      </trkpt>
      <trkpt lat="1.3677247116680653" lon="103.96530248341998">
        <ele>20.0</ele>
      </trkpt>
      <trkpt lat="1.3678017355171033" lon="103.96525540587251">
        <ele>20.0</ele>
      </trkpt>
      <trkpt lat="1.3678791148965301" lon="103.96520889623204">
        <ele>20.0</ele>
      </trkpt>
      <trkpt lat="1.367957163918087" lon="103.96516351535843">
        <ele>20.0</ele>
      </trkpt>
      <trkpt lat="1.3680350297087243" lon="103.96511781417055">
        <ele>20.0</ele>
      </trkpt>
      <trkpt lat="1.3681128109754654" lon="103.96507197245968">
        <ele>20.0</ele>
      </trkpt>
      <trkpt lat="1.368190200768188" lon="103.96502547992014">
        <ele>20.0</ele>
      </trkpt>
      <trkpt lat="1.368267788355021" lon="103.96497931446672">
        <ele>20.0</ele>
      </trkpt>
      <trkpt lat="1.368345220568761" lon="103.96493289368742">
        <ele>20.0</ele>
      </trkpt>
      <trkpt lat="1.3684229058607589" lon="103.96488689581894">
        <ele>20.0</ele>
      </trkpt>
      <trkpt lat="1.3685008756751977" lon="103.96484137004641">
        <ele>20.0</ele>
      </trkpt>
      <trkpt lat="1.368578802455199" lon="103.96479577216893">
        <ele>20.0</ele>
      </trkpt>
      <trkpt lat="1.3686564051801653" lon="103.96474963134264">
        <ele>20.0</ele>
      </trkpt>
      <trkpt lat="1.3687341033558817" lon="103.96470365178901">
        <ele>20.0</ele>
      </trkpt>
      <trkpt lat="1.3688116392609189" lon="103.96465741412474">
        <ele>20.0</ele>
      </trkpt>
      <trkpt lat="1.368889325831206" lon="103.96461141280375">
        <ele>19.883186065026862</ele>
      </trkpt>
      <trkpt lat="1.368966994576985" lon="103.96456538184204">
        <ele>19.599995162234098</ele>
      </trkpt>
      <trkpt lat="1.369044593523209" lon="103.96451923473545">
        <ele>19.15034593028062</ele>
      </trkpt>
      <trkpt lat="1.3691222119693272" lon="103.96447312007567">
        <ele>18.65077998313569</ele>
      </trkpt>
      <trkpt lat="1.3691998956900988" lon="103.96442711400627">
        <ele>18.150735048274274</ele>
      </trkpt>
      <trkpt lat="1.3692776094154795" lon="103.96438115799269">
        <ele>17.650525252596065</ele>
      </trkpt>
      <trkpt lat="1.3693552673902392" lon="103.96433510902567">
        <ele>17.14212017528742</ele>
      </trkpt>
      <trkpt lat="1.3694347756354526" lon="103.96429278816261">
        <ele>16.605579737401097</ele>
      </trkpt>
      <trkpt lat="1.3695187611735156" lon="103.9642594600494">
        <ele>16.040763636169988</ele>
      </trkpt>
      <trkpt lat="1.3696027278804395" lon="103.96422608512385">
        <ele>15.46205716720769</ele>
      </trkpt>
      <trkpt lat="1.3696853686489368" lon="103.96418989083108">
        <ele>14.903913730066554</ele>
      </trkpt>
      <trkpt lat="1.3697648651409082" lon="103.96414705079549">
        <ele>14.375998314922535</ele>
      </trkpt>
      <trkpt lat="1.3698420441706172" lon="103.96410025596477">
        <ele>13.874303105673027</ele>
      </trkpt>
      <trkpt lat="1.3699187290758503" lon="103.96405262427379">
        <ele>13.384893621778923</ele>
      </trkpt>
      <trkpt lat="1.3699953034047065" lon="103.96400481728188">
        <ele>12.859512631860346</ele>
      </trkpt>
      <trkpt lat="1.3700803055221777" lon="103.96397475057553">
        <ele>12.288369847327779</ele>
      </trkpt>
      <trkpt lat="1.370166850298012" lon="103.96394867548273">
        <ele>11.660581040330449</ele>
      </trkpt>
      <trkpt lat="1.3702550863144065" lon="103.96392917261605">
        <ele>11.012889913400043</ele>
      </trkpt>
      <trkpt lat="1.3703436069810933" lon="103.96391077646807">
        <ele>10.344005269628214</ele>
      </trkpt>
      <trkpt lat="1.3704332471741574" lon="103.96389907186207">
        <ele>9.66255870441716</ele>
      </trkpt>
      <trkpt lat="1.3705230679785019" lon="103.96388883217848">
        <ele>8.95958629462502</ele>
      </trkpt>
      <trkpt lat="1.3706125145115122" lon="103.96389164719687">
        <ele>8.250418653828495</ele>
      </trkpt>
      <trkpt lat="1.3707015566959257" lon="103.96388862551453">
        <ele>7.524093519452431</ele>
      </trkpt>
      <trkpt lat="1.3707914448467298" lon="103.96389729262503">
        <ele>6.794298059871461</ele>
      </trkpt>
      <trkpt lat="1.3708817845197456" lon="103.96390130866946">
        <ele>6.054901719340552</ele>
      </trkpt>
      <trkpt lat="1.3709721420247818" lon="103.96390505624902">
        <ele>5.318665858188845</ele>
      </trkpt>
      <trkpt lat="1.3710624995297167" lon="103.96390880382918">
        <ele>4.582623307064485</ele>
      </trkpt>
      <trkpt lat="1.3711528570345497" lon="103.96391255140995">
        <ele>3.8425914875257603</ele>
      </trkpt>
      <trkpt lat="1.3712385843975432" lon="103.96393455085348">
        <ele>3.096739340795582</ele>
      </trkpt>
      <trkpt lat="1.3713178927953615" lon="103.96397773371798">
        <ele>2.3424787440089276</ele>
      </trkpt>
      <trkpt lat="1.3714036402497392" lon="103.96400459471683">
        <ele>1.5878564628737692</ele>
      </trkpt>
      <trkpt lat="1.3714929245201923" lon="103.96401638865973">
        <ele>0.8436112891850555</ele>
      </trkpt>
      <trkpt lat="1.37158322889893" lon="103.9640212383532">
        <ele>0.315678300658315</ele>
      </trkpt>
      <trkpt lat="1.3716735613733417" lon="103.96402552394073">
        <ele>0.03744378193587818</ele>
      </trkpt>
      <trkpt lat="1.3717638778834067" lon="103.96403011999129">
        <ele>0.0</ele>
      </trkpt>
      <trkpt lat="1.3718541759393252" lon="103.96403508345708">
        <ele>0.0</ele>
      </trkpt>
      <trkpt lat="1.3719444871926665" lon="103.96403980507421">
        <ele>0.0</ele>
      </trkpt>
      <trkpt lat="1.3720347984682253" lon="103.96404452627034">
        <ele>0.0</ele>
      </trkpt>
      <trkpt lat="1.3721251117219764" lon="103.96404920980699">
        <ele>0.0</ele>
      </trkpt>
      <trkpt lat="1.3722154253022985" lon="103.96405388721847">
        <ele>0.0</ele>
      </trkpt>
      <trkpt lat="1.3723057380485415" lon="103.9640585805546">
        <ele>0.0</ele>
      </trkpt>
      <trkpt lat="1.3723960494515957" lon="103.96406329931128">
        <ele>0.0</ele>
      </trkpt>
      <trkpt lat="1.3724863603563684" lon="103.96406802749725">
        <ele>0.02632480538575464</ele>
      </trkpt>
      <trkpt lat="1.3725766873704768" lon="103.9640724382376">
        <ele>0.09614993824517516</ele>
      </trkpt>
      <trkpt lat="1.3726670111856316" lon="103.96407691271261">
        <ele>0.21844804759649641</ele>
      </trkpt>
      <trkpt lat="1.3727571063226418" lon="103.96407703038791">
        <ele>0.398389485604963</ele>
      </trkpt>
      <trkpt lat="1.3728460379937044" lon="103.96406175413055">
        <ele>0.6063329030448394</ele>
      </trkpt>
      <trkpt lat="1.3729360173155654" lon="103.96405273518627">
        <ele>0.8318694101651958</ele>
      </trkpt>
      <trkpt lat="1.3730260641663787" lon="103.96404442228676">
        <ele>1.0090245539230975</ele>
      </trkpt>
      <trkpt lat="1.3731159780604094" lon="103.964052568086">
        <ele>1.0768319402419537</ele>
      </trkpt>
      <trkpt lat="1.3732060381240314" lon="103.96405671329234">
        <ele>1.0260432927227663</ele>
      </trkpt>
      <trkpt lat="1.3732962302333618" lon="103.96405011856069">
        <ele>0.927352969086695</ele>
      </trkpt>
      <trkpt lat="1.373378404774192" lon="103.96401326672918">
        <ele>0.8505995553124905</ele>
      </trkpt>
      <trkpt lat="1.373461811350555" lon="103.96397915835155">
        <ele>0.788101381702055</ele>
      </trkpt>
      <trkpt lat="1.3735501304733388" lon="103.96395989235334">
        <ele>0.7090165369216027</ele>
      </trkpt>
      <trkpt lat="1.3736373008003542" lon="103.96393611299139">
        <ele>0.6194553950443802</ele>
      </trkpt>
      <trkpt lat="1.3737239057327013" lon="103.96391023581009">
        <ele>0.5423994707405314</ele>
      </trkpt>
      <trkpt lat="1.3738092091510128" lon="103.96388066857722">
        <ele>0.47778964432710236</ele>
      </trkpt>
      <trkpt lat="1.373892999994482" lon="103.96384686098794">
        <ele>0.42546290312450813</ele>
      </trkpt>
      <trkpt lat="1.3739760012330269" lon="103.96381124622195">
        <ele>0.3876107145918229</ele>
      </trkpt>
      <trkpt lat="1.3740565846339015" lon="103.96377048496706">
        <ele>0.36354573564645</ele>
      </trkpt>
      <trkpt lat="1.3741353388994462" lon="103.96372633574059">
        <ele>0.3560451930661201</ele>
      </trkpt>
      <trkpt lat="1.3742119007076703" lon="103.96367852657421">
        <ele>0.36467681061049806</ele>
      </trkpt>
      <trkpt lat="1.3742854615010287" lon="103.96362633489129">
        <ele>0.3894090354479644</ele>
      </trkpt>
      <trkpt lat="1.3743567526684644" lon="103.96357104710856">
        <ele>0.42506694338173795</ele>
      </trkpt>
      <trkpt lat="1.3744280660124741" lon="103.9635157886769">
        <ele>0.4727016621941836</ele>
      </trkpt>
      <trkpt lat="1.3744953403156557" lon="103.96345574736533">
        <ele>0.5327432520526152</ele>
      </trkpt>
      <trkpt lat="1.3745596663587716" lon="103.96339259682095">
        <ele>0.6097169420629042</ele>
      </trkpt>
      <trkpt lat="1.3746212055731906" lon="103.96332676716139">
        <ele>0.7013686048750168</ele>
      </trkpt>
      <trkpt lat="1.3746793477714543" lon="103.9632579530666">
        <ele>0.8073516238576008</ele>
      </trkpt>
      <trkpt lat="1.3747342306982167" lon="103.96318654940272">
        <ele>0.9272791361241816</ele>
      </trkpt>
      <trkpt lat="1.3747861184954089" lon="103.96311296425583">
        <ele>1.0603079192539415</ele>
      </trkpt>
      <trkpt lat="1.3748346776460716" lon="103.96303716937193">
        <ele>1.2050133913934336</ele>
      </trkpt>
      <trkpt lat="1.374880623457392" lon="103.96295977900371">
        <ele>1.362061127426167</ele>
      </trkpt>
      <trkpt lat="1.3749225451808682" lon="103.9628801741798">
        <ele>1.5314047317950887</ele>
      </trkpt>
      <trkpt lat="1.3749606543292014" lon="103.9627986916169">
        <ele>1.7134175944932186</ele>
      </trkpt>
      <trkpt lat="1.3749953591535071" lon="103.9627157218926">
        <ele>1.9069575567146548</ele>
      </trkpt>
      <trkpt lat="1.3750265000472637" lon="103.96263136896852">
        <ele>2.112494123727089</ele>
      </trkpt>
      <trkpt lat="1.375052618718627" lon="103.96254540211486">
        <ele>2.329611156166525</ele>
      </trkpt>
      <trkpt lat="1.375075244789071" lon="103.96245840282235">
        <ele>2.552486778681409</ele>
      </trkpt>
      <trkpt lat="1.3751002192189594" lon="103.96237214110955">
        <ele>2.769960115727636</ele>
      </trkpt>
      <trkpt lat="1.3751320233130704" lon="103.9622880239567">
        <ele>2.9788585121264894</ele>
      </trkpt>
      <trkpt lat="1.3751637887928192" lon="103.96220389239876">
        <ele>3.188310157124013</ele>
      </trkpt>
      <trkpt lat="1.3751878267549187" lon="103.96211765142448">
        <ele>3.412602337935103</ele>
      </trkpt>
      <trkpt lat="1.3752029627378892" lon="103.96202907583059">
        <ele>3.66229178569608</ele>
      </trkpt>
      <trkpt lat="1.3752029890478328" lon="103.96193922156644">
        <ele>3.9305150117351957</ele>
      </trkpt>
      <trkpt lat="1.3752029211240753" lon="103.96184936458795">
        <ele>4.209045369344471</ele>
      </trkpt>
      <trkpt lat="1.3752033478198313" lon="103.96175955138601">
        <ele>4.47659342333747</ele>
      </trkpt>
      <trkpt lat="1.3752189911635302" lon="103.96167104888599">
        <ele>4.721556372404698</ele>
      </trkpt>
      <trkpt lat="1.375247627908362" lon="103.96158599619557">
        <ele>4.944222036200701</ele>
      </trkpt>
      <trkpt lat="1.3752763408487865" lon="103.96150095727616">
        <ele>5.166489321926979</ele>
      </trkpt>
      <trkpt lat="1.3752924839311973" lon="103.9614125434138">
        <ele>5.3999005156375075</ele>
      </trkpt>
      <trkpt lat="1.375308626859193" lon="103.96132412952272">
        <ele>5.648252625261054</ele>
      </trkpt>
      <trkpt lat="1.3753180170646229" lon="103.96123611024659">
        <ele>5.903582717310305</ele>
      </trkpt>
      <trkpt lat="1.3753125466747662" lon="103.96115377418009">
        <ele>6.159313638604854</ele>
      </trkpt>
      <trkpt lat="1.375328186695389" lon="103.96106527114195">
        <ele>6.411757913683247</ele>
      </trkpt>
      <trkpt lat="1.3753437656451482" lon="103.96097675742202">
        <ele>6.6576562693951535</ele>
      </trkpt>
      <trkpt lat="1.3753593665299568" lon="103.96088824751729">
        <ele>6.903573571928593</ele>
      </trkpt>
      <trkpt lat="1.3753749827409363" lon="103.96079974027802">
        <ele>7.149457837149637</ele>
      </trkpt>
      <trkpt lat="1.3753906033068732" lon="103.96071123379691">
        <ele>7.395314610936212</ele>
      </trkpt>
      <trkpt lat="1.37540623881362" lon="103.96062272991907">
        <ele>7.641173170416437</ele>
      </trkpt>
      <trkpt lat="1.3754218527374755" lon="103.96053422230035">
        <ele>7.887174956696818</ele>
      </trkpt>
      <trkpt lat="1.3754372926437461" lon="103.96044568452612">
        <ele>8.133331834954575</ele>
      </trkpt>
      <trkpt lat="1.3754527325468155" lon="103.96035714675044">
        <ele>8.379626694050822</ele>
      </trkpt>
      <trkpt lat="1.3754681724466842" lon="103.96026860897334">
        <ele>8.625921553147002</ele>
      </trkpt>
      <trkpt lat="1.3754836123433518" lon="103.96018007119478">
        <ele>8.872155805354723</ele>
      </trkpt>
      <trkpt lat="1.375499128731487" lon="103.9600915466239">
        <ele>9.118318493798261</ele>
      </trkpt>
      <trkpt lat="1.3755146589455864" lon="103.9600030244396">
        <ele>9.364402525329433</ele>
      </trkpt>
      <trkpt lat="1.3755301981018848" lon="103.95991450380406">
        <ele>9.610462331719136</ele>
      </trkpt>
      <trkpt lat="1.3755457450426236" lon="103.95982598451663">
        <ele>9.856462388152059</ele>
      </trkpt>
      <trkpt lat="1.3755613505317248" lon="103.95973747542656">
        <ele>10.102702899824395</ele>
      </trkpt>
      <trkpt lat="1.3755765830250035" lon="103.95964890425765">
        <ele>10.30028554734665</ele>
      </trkpt>
      <trkpt lat="1.3755910157885787" lon="103.95956019889734">
        <ele>10.403697427120228</ele>
      </trkpt>
      <trkpt lat="1.3756047612566997" lon="103.95947139064275">
        <ele>10.417928585194572</ele>
      </trkpt>
      <trkpt lat="1.3756171230858965" lon="103.95938237741981">
        <ele>10.396845857620512</ele>
      </trkpt>
      <trkpt lat="1.375628827599748" lon="103.95929327765901">
        <ele>10.386667705687456</ele>
      </trkpt>
      <trkpt lat="1.3756394663731737" lon="103.95920404462214">
        <ele>10.383006038104783</ele>
      </trkpt>
      <trkpt lat="1.3756486553634202" lon="103.95911465618131">
        <ele>10.381226123363811</ele>
      </trkpt>
      <trkpt lat="1.3756573136055241" lon="103.95902521190912">
        <ele>10.376091148635807</ele>
      </trkpt>
      <trkpt lat="1.3756724878743307" lon="103.95893663205729">
        <ele>10.35943229197232</ele>
      </trkpt>
      <trkpt lat="1.3756988823079794" lon="103.95885124293845">
        <ele>10.324058530882533</ele>
      </trkpt>
      <trkpt lat="1.375736225156682" lon="103.9587694703199">
        <ele>10.293815605412739</ele>
      </trkpt>
      <trkpt lat="1.375742639305831" lon="103.95867994225327">
        <ele>10.282469264052066</ele>
      </trkpt>
      <trkpt lat="1.3757384115189961" lon="103.95859055231783">
        <ele>10.302178273915283</ele>
      </trkpt>
      <trkpt lat="1.3757248348216449" lon="103.95850171361909">
        <ele>10.333886177297005</ele>
      </trkpt>
      <trkpt lat="1.3757106359695281" lon="103.95841297226218">
        <ele>10.371317425218189</ele>
      </trkpt>
      <trkpt lat="1.375696078264094" lon="103.95832428705134">
        <ele>10.402813656423628</ele>
      </trkpt>
      <trkpt lat="1.3756920070623277" lon="103.95823484375919">
        <ele>10.424810462571442</ele>
      </trkpt>
      <trkpt lat="1.3756934616944891" lon="103.95814499851457">
        <ele>10.437236426233754</ele>
      </trkpt>
      <trkpt lat="1.3756946787885649" lon="103.95805514961353">
        <ele>10.44639802098227</ele>
      </trkpt>
      <trkpt lat="1.3756959884827473" lon="103.9579653019956">
        <ele>10.455853301580243</ele>
      </trkpt>
      <trkpt lat="1.3756969620172275" lon="103.95787545033104">
        <ele>10.465448994756526</ele>
      </trkpt>
      <trkpt lat="1.375697949069848" lon="103.95778559865903">
        <ele>10.46927100859522</ele>
      </trkpt>
      <trkpt lat="1.3756981751254296" lon="103.95769574452054">
        <ele>10.459908501033954</ele>
      </trkpt>
      <trkpt lat="1.3756978154696888" lon="103.95760588818864">
        <ele>10.437433158621312</ele>
      </trkpt>
      <trkpt lat="1.3756973437544813" lon="103.957516032644">
        <ele>10.40834899973956</ele>
      </trkpt>
      <trkpt lat="1.3756959304578749" lon="103.95742618657407">
        <ele>10.380005435870126</ele>
      </trkpt>
      <trkpt lat="1.3756942637323328" lon="103.95733634481802">
        <ele>10.352634123853294</ele>
      </trkpt>
      <trkpt lat="1.375692077391995" lon="103.957246514889">
        <ele>10.326128519531329</ele>
      </trkpt>
      <trkpt lat="1.3756891400930271" lon="103.95715670531844">
        <ele>10.300469722047035</ele>
      </trkpt>
      <trkpt lat="1.3756859834004442" lon="103.95706690309211">
        <ele>10.275676907330533</ele>
      </trkpt>
      <trkpt lat="1.3756822749542272" lon="103.9569771216275">
        <ele>10.251264506969406</ele>
      </trkpt>
      <trkpt lat="1.3756786695460044" lon="103.95688733604158">
        <ele>10.227085516500063</ele>
      </trkpt>
      <trkpt lat="1.3756751029930063" lon="103.95679754890138">
        <ele>10.206867720892431</ele>
      </trkpt>
      <trkpt lat="1.375671536436584" lon="103.95670776176115">
        <ele>10.206859507911402</ele>
      </trkpt>
      <trkpt lat="1.3756679698767373" lon="103.9566179746209">
        <ele>10.214416354416466</ele>
      </trkpt>
      <trkpt lat="1.3756644033134666" lon="103.9565281874806">
        <ele>10.217124082968047</ele>
      </trkpt>
      <trkpt lat="1.3756749396943213" lon="103.9564424199946">
        <ele>10.169161412528092</ele>
      </trkpt>
      <trkpt lat="1.3757361533775305" lon="103.9563862806359">
        <ele>10.067207459292142</ele>
      </trkpt>
      <trkpt lat="1.3758264542631884" lon="103.95638136671235">
        <ele>9.919634342741482</ele>
      </trkpt>
      <trkpt lat="1.3759167551488003" lon="103.95637645278876">
        <ele>9.756073675277513</ele>
      </trkpt>
      <trkpt lat="1.3760070560343671" lon="103.9563715388651">
        <ele>9.59251300781355</ele>
      </trkpt>
      <trkpt lat="1.3760973569198887" lon="103.95636662494137">
        <ele>9.428952340349582</ele>
      </trkpt>
      <trkpt lat="1.3761876578053653" lon="103.95636171101758">
        <ele>9.260821725030977</ele>
      </trkpt>
      <trkpt lat="1.3762779586907967" lon="103.9563567970937">
        <ele>9.086150671710799</ele>
      </trkpt>
      <trkpt lat="1.3763682595761817" lon="103.95635188316977">
        <ele>8.904959549718479</ele>
      </trkpt>
      <trkpt lat="1.376458560461522" lon="103.95634696924579">
        <ele>8.731253153411254</ele>
      </trkpt>
      <trkpt lat="1.3765488613468169" lon="103.95634205532171">
        <ele>8.567001972936135</ele>
      </trkpt>
      <trkpt lat="1.3766391622320666" lon="103.95633714139758">
        <ele>8.412185638963658</ele>
      </trkpt>
      <trkpt lat="1.3767294631172708" lon="103.95633222747338">
        <ele>8.257349431570107</ele>
      </trkpt>
      <trkpt lat="1.3768197500012944" lon="103.95632706676312">
        <ele>8.10249013823678</ele>
      </trkpt>
      <trkpt lat="1.3769100346220038" lon="103.95632186616008">
        <ele>7.967938482427475</ele>
      </trkpt>
      <trkpt lat="1.3769565690288612" lon="103.95627755756938">
        <ele>7.877340235008333</ele>
      </trkpt>
      <trkpt lat="1.376952262248601" lon="103.95618780242557">
        <ele>7.834206116138666</ele>
      </trkpt>
      <trkpt lat="1.376947955464911" lon="103.95609804728178">
        <ele>7.837321872065476</ele>
      </trkpt>
      <trkpt lat="1.3769436486777917" lon="103.95600829213801">
        <ele>7.823049107593401</ele>
      </trkpt>
      <trkpt lat="1.376985553929738" lon="103.95595717901872">
        <ele>7.756349290024111</ele>
      </trkpt>
      <trkpt lat="1.37707529591202" lon="103.9559460664712">
        <ele>7.614848061637986</ele>
      </trkpt>
      <trkpt lat="1.3771650378942575" lon="103.95593495392312">
        <ele>7.438557920185306</ele>
      </trkpt>
      <trkpt lat="1.3772547798764496" lon="103.9559238413745">
        <ele>7.258268711701652</ele>
      </trkpt>
      <trkpt lat="1.377344820335898" lon="103.95591674385852">
        <ele>7.0851730698066016</ele>
      </trkpt>
      <trkpt lat="1.3774352316364085" lon="103.95591463479346">
        <ele>6.920574742241179</ele>
      </trkpt>
      <trkpt lat="1.3775256429368623" lon="103.95591252572854">
        <ele>6.765214908027484</ele>
      </trkpt>
      <trkpt lat="1.3776160542372597" lon="103.95591041666376">
        <ele>6.611158820952209</ele>
      </trkpt>
      <trkpt lat="1.3777064655374578" lon="103.95590830759305">
        <ele>6.457102731140963</ele>
      </trkpt>
      <trkpt lat="1.3777968768370914" lon="103.95590619850098">
        <ele>6.303046638593738</ele>
      </trkpt>
      <trkpt lat="1.3778872881366684" lon="103.95590408940906">
        <ele>6.148714384503694</ele>
      </trkpt>
      <trkpt lat="1.3779775356860295" lon="103.95589870568192">
        <ele>5.993986023931025</ele>
      </trkpt>
      <trkpt lat="1.3780677121121043" lon="103.95589189964954">
        <ele>5.8830971698128485</ele>
      </trkpt>
      <trkpt lat="1.3780808034558756" lon="103.9558909115852">
        <ele>5.827592769217197</ele>
      </trkpt>
      <trkpt lat="1.3781711324902237" lon="103.95588653813303">
        <ele>5.661642487058998</ele>
      </trkpt>
      <trkpt lat="1.3782614615245254" lon="103.95588216468083">
        <ele>5.506960992559409</ele>
      </trkpt>
      <trkpt lat="1.3783517905587792" lon="103.9558777912286">
        <ele>5.374386506058504</ele>
      </trkpt>
      <trkpt lat="1.3784033902410124" lon="103.95587529293171">
        <ele>5.308099262808056</ele>
      </trkpt>
      <trkpt lat="1.3783149523858818" lon="103.95587333041995">
        <ele>5.415220451559345</ele>
      </trkpt>
      <trkpt lat="1.3782247732986581" lon="103.95588010155265">
        <ele>5.5684897326112806</ele>
      </trkpt>
      <trkpt lat="1.3781345942113925" lon="103.95588687268513">
        <ele>5.702846861627319</ele>
      </trkpt>
      <trkpt lat="1.3780808034558756" lon="103.9558909115852">
        <ele>5.7700254261353425</ele>
      </trkpt>
      <trkpt lat="1.378103085029557" lon="103.95580653901976">
        <ele>5.812365446883942</ele>
      </trkpt>
      <trkpt lat="1.378029154768442" lon="103.95579268470382">
        <ele>5.881957747776568</ele>
      </trkpt>
      <trkpt lat="1.377938774615252" lon="103.95579584815698">
        <ele>6.025100884236461</ele>
      </trkpt>
      <trkpt lat="1.3778483944620108" lon="103.95579901161022">
        <ele>6.153101939868335</ele>
      </trkpt>
      <trkpt lat="1.3777965849952887" lon="103.95576174811471">
        <ele>6.2289275864756375</ele>
      </trkpt>
      <trkpt lat="1.3777949400622431" lon="103.9556719058523">
        <ele>6.266444495898043</ele>
      </trkpt>
      <trkpt lat="1.3777932951257776" lon="103.95558206358969">
        <ele>6.278247027961357</ele>
      </trkpt>
      <trkpt lat="1.3777916501858918" lon="103.9554922213269">
        <ele>6.289084136335341</ele>
      </trkpt>
      <trkpt lat="1.3777900052425855" lon="103.95540237906395">
        <ele>6.285089149180326</ele>
      </trkpt>
      <trkpt lat="1.3777883602958587" lon="103.95531253680082">
        <ele>6.280698362332451</ele>
      </trkpt>
      <trkpt lat="1.3777873705922237" lon="103.95525848212228">
        <ele>6.278502968908514</ele>
      </trkpt>
    </trkseg>
  </trk>
</gpx>