<?xml version="1.0" encoding="UTF-8"?>
<gpx xmlns="http://www.topografix.com/GPX/1/1" xmlns:xsi="http://www.w3.org/2001/XMLSchema-instance" xsi:schemaLocation="http://www.topografix.com/GPX/1/1 http://www.topografix.com/GPX/1/1/gpx.xsd" version="1.1" creator="gpx.py -- https://github.com/tkrajina/gpxpy">
  <trk>
    <name>point_to_point_05000m_003</name>
    <trkseg>
      <trkpt lat="1.3535189816236997" lon="103.77731925058491">
        <ele>122.38045351804706</ele>
      </trkpt>
      <trkpt lat="1.3535919937367475" lon="103.77726622643998">
        <ele>123.88353280356267</ele>
      </trkpt>
      <trkpt lat="1.3536650058484505" lon="103.77721320229183">
        <ele>126.86665804700185</ele>
      </trkpt>
      <trkpt lat="1.353739996567328" lon="103.77716310998784">
        <ele>129.76855492934348</ele>
      </trkpt>
      <trkpt lat="1.3538061126111367" lon="103.77712281790679">
        <ele>131.20798670671826</ele>
      </trkpt>
      <trkpt lat="1.3538832101252654" lon="103.77707584830705">
        <ele>136.02741827736608</ele>
      </trkpt>
      <trkpt lat="1.3539603076383047" lon="103.7770288787043">
        <ele>139.2154458483471</ele>
      </trkpt>
      <trkpt lat="1.354037405150253" lon="103.77698190909851">
        <ele>141.62470724139473</ele>
      </trkpt>
      <trkpt lat="1.3540707257416986" lon="103.77696160941446">
        <ele>142.7042543100194</ele>
      </trkpt>
      <trkpt lat="1.3541555009888073" lon="103.7769303169617">
        <ele>145.5750808802177</ele>
      </trkpt>
      <trkpt lat="1.3542361678721626" lon="103.77689017729071">
        <ele>147.97522578647653</ele>
      </trkpt>
      <trkpt lat="1.3543148241060596" lon="103.7768458584407">
        <ele>150.02811597689066</ele>
      </trkpt>
      <trkpt lat="1.354391602128387" lon="103.77679837499593">
        <ele>151.6650986751264</ele>
      </trkpt>
      <trkpt lat="1.3544683801496025" lon="103.77675089154813">
        <ele>152.85513333114463</ele>
      </trkpt>
      <trkpt lat="1.3545455600691332" lon="103.77670405674917">
        <ele>154.02482944347892</ele>
      </trkpt>
      <trkpt lat="1.3546228059156018" lon="103.77665732835273">
        <ele>155.22230386468217</ele>
      </trkpt>
      <trkpt lat="1.3546973910755495" lon="103.77660660549778">
        <ele>156.21790546264245</ele>
      </trkpt>
      <trkpt lat="1.3547288225325687" lon="103.77658419719063">
        <ele>156.73283014242273</ele>
      </trkpt>
      <trkpt lat="1.3546773725247656" lon="103.7766571080669">
        <ele>155.4772918274803</ele>
      </trkpt>
      <trkpt lat="1.3545960534526702" lon="103.77669470288829">
        <ele>154.28312416468026</ele>
      </trkpt>
      <trkpt lat="1.354512082237772" lon="103.77672791785494">
        <ele>153.44058222696628</ele>
      </trkpt>
      <trkpt lat="1.354432550918845" lon="103.77675982814385">
        <ele>152.63298021484067</ele>
      </trkpt>
      <trkpt lat="1.354356504826418" lon="103.77679323319187">
        <ele>151.51030704211396</ele>
      </trkpt>
      <trkpt lat="1.3542773750499562" lon="103.77683673363366">
        <ele>149.8215650836008</ele>
      </trkpt>
      <trkpt lat="1.3541979171912903" lon="103.77687964091734">
        <ele>147.53048102478</ele>
      </trkpt>
      <trkpt lat="1.3541243836242312" lon="103.77693194800769">
        <ele>145.01483314129845</ele>
      </trkpt>
      <trkpt lat="1.3540438876537315" lon="103.7769723870508">
        <ele>142.4639349873444</ele>
      </trkpt>
      <trkpt lat="1.353967743168353" lon="103.77702070486957">
        <ele>139.6751140415981</ele>
      </trkpt>
      <trkpt lat="1.353888650962289" lon="103.77706375768045">
        <ele>136.52380432019677</ele>
      </trkpt>
      <trkpt lat="1.3538142037842076" lon="103.77711477387841">
        <ele>133.06189496120928</ele>
      </trkpt>
      <trkpt lat="1.3537508571054273" lon="103.77717647566485">
        <ele>129.968897186944</ele>
      </trkpt>
      <trkpt lat="1.3536646296494392" lon="103.77720100197737">
        <ele>127.01458681846402</ele>
      </trkpt>
      <trkpt lat="1.3535955812666922" lon="103.7772587761119">
        <ele>124.20940669809534</ele>
      </trkpt>
      <trkpt lat="1.3535250424962992" lon="103.77731487827268">
        <ele>122.06716810204198</ele>
      </trkpt>
      <trkpt lat="1.3535189816236997" lon="103.77731925058491">
        <ele>121.00164239778678</ele>
      </trkpt>
      <trkpt lat="1.3535899185659601" lon="103.77726364698749">
        <ele>123.96200493245226</ele>
      </trkpt>
      <trkpt lat="1.3536582923713774" lon="103.77720483400644">
        <ele>126.77081480462361</ele>
      </trkpt>
      <trkpt lat="1.3537448652743875" lon="103.77718056435963">
        <ele>129.71432686050255</ele>
      </trkpt>
      <trkpt lat="1.3538080380883457" lon="103.77711899902644">
        <ele>132.7882222383182</ele>
      </trkpt>
      <trkpt lat="1.353882485266531" lon="103.77706798282874">
        <ele>136.23792062902007</ele>
      </trkpt>
      <trkpt lat="1.353961118199865" lon="103.77702414763314">
        <ele>139.42042018748032</ele>
      </trkpt>
      <trkpt lat="1.354037095219252" lon="103.77697552302789">
        <ele>142.23373575619223</ele>
      </trkpt>
      <trkpt lat="1.3541183118047393" lon="103.77693630530105">
        <ele>144.8035224831193</ele>
      </trkpt>
      <trkpt lat="1.3541918155452468" lon="103.77688395688263">
        <ele>147.31669613085967</ele>
      </trkpt>
      <trkpt lat="1.354270793092997" lon="103.77684028516462">
        <ele>149.65034672033997</ele>
      </trkpt>
      <trkpt lat="1.3543499753032837" lon="103.77679687902076">
        <ele>151.36785944617384</ele>
      </trkpt>
      <trkpt lat="1.3544272225023781" lon="103.77676505811777">
        <ele>152.55232003830508</ele>
      </trkpt>
      <trkpt lat="1.3545046471192563" lon="103.77672881643">
        <ele>153.36873644700032</ele>
      </trkpt>
      <trkpt lat="1.3545890438906887" lon="103.7766973177219">
        <ele>154.21382234836972</ele>
      </trkpt>
      <trkpt lat="1.3546717658259995" lon="103.77666204248561">
        <ele>155.36023076398885</ele>
      </trkpt>
      <trkpt lat="1.3547251193004373" lon="103.7765906658127">
        <ele>156.30389757727474</ele>
      </trkpt>
      <trkpt lat="1.3547288225325687" lon="103.77658419719063">
        <ele>156.93081882414072</ele>
      </trkpt>
    </trkseg>
  </trk>
</gpx>