{
"type": "FeatureCollection",
"name": "point_to_point_20000m_001",
"crs": { "type": "name", "properties": { "name": "urn:ogc:def:crs:OGC:1.3:CRS84" } },
"features": [
{ "type": "Feature", "properties": { "route_id": "point_to_point_20000m_001", "budget_km": 20.0, "mode": "point_to_point", "rank": 1, "distance_m": 15743.859211387244, "ascent_m": 50.825199410450125, "descent_m": 41.372568916220445, "gain_density_m_per_km": 3.2282554568125961, "source_confidence": 1.0 }, "geometry": { "type": "LineString", "coordinates": [ [ 103.832304761697259, 1.27300069647585 ], [ 103.832023382510329, 1.273156167540871 ], [ 103.831871230726648, 1.273247094123698 ], [ 103.831643001663068, 1.273414590519131 ], [ 103.831153260713606, 1.273830938085708 ], [ 103.830235591454453, 1.274567920444956 ], [ 103.829617471556944, 1.275079980117544 ], [ 103.829222824971424, 1.275371901293474 ], [ 103.828528628198185, 1.275931815951873 ], [ 103.827358954199099, 1.276888935486562 ], [ 103.826551983666704, 1.277545578398593 ], [ 103.825823160531158, 1.278128403396438 ], [ 103.825661497976881, 1.278267185856472 ], [ 103.82541900446698, 1.278506465611375 ], [ 103.824921714774575, 1.278911494713229 ], [ 103.824672502988221, 1.279085521729356 ], [ 103.824525104794489, 1.279166876085863 ], [ 103.824130458354475, 1.279334371218152 ], [ 103.82386894576112, 1.279434867814519 ], [ 103.823531356700229, 1.279521007299082 ], [ 103.823241314795453, 1.279568862446639 ], [ 103.823032105497887, 1.279578432503937 ], [ 103.822613685081578, 1.279602359370536 ], [ 103.822214284276654, 1.279564072274702 ], [ 103.821467785888615, 1.279444428664151 ], [ 103.821149215697147, 1.279425285373495 ], [ 103.820840155657692, 1.279401355286141 ], [ 103.820569134227199, 1.279396568948882 ], [ 103.820331395294332, 1.279439638127186 ], [ 103.81997003158331, 1.279549704704904 ], [ 103.819624121699249, 1.279677718436012 ], [ 103.819490052210867, 1.279761919511753 ], [ 103.819243738819694, 1.279907425051373 ], [ 103.818937055113082, 1.280091669601945 ], [ 103.818822939444544, 1.28017063086416 ], [ 103.818385499030398, 1.280438622407456 ], [ 103.817646128755371, 1.280898036238763 ], [ 103.817256236156425, 1.281149278133777 ], [ 103.81646456230952, 1.281630226924669 ], [ 103.81547949388704, 1.282241305890273 ], [ 103.814983093070339, 1.282549495439902 ], [ 103.814621727931481, 1.282765802415956 ], [ 103.814243246548415, 1.282970623777057 ], [ 103.813971272210921, 1.283098876033452 ], [ 103.813784884041866, 1.283181187184458 ], [ 103.813341737530962, 1.283364950679002 ], [ 103.812972765730265, 1.283502772955329 ], [ 103.812763554758504, 1.283565941156224 ], [ 103.812677968732444, 1.283586997693467 ], [ 103.812529618781767, 1.283615710067644 ], [ 103.812299487195716, 1.283667392624894 ], [ 103.812229116190153, 1.283680792015537 ], [ 103.81199327902722, 1.283713331806521 ], [ 103.811698482280718, 1.283761185588632 ], [ 103.811449331480929, 1.283789897039072 ], [ 103.81059727483742, 1.283860716699284 ], [ 103.810060934620736, 1.28389708268404 ], [ 103.809743315186182, 1.283916221541015 ], [ 103.809146115049629, 1.283956414942689 ], [ 103.808712547108257, 1.283984428000443 ], [ 103.808674440031382, 1.283987038532114 ], [ 103.808663028508818, 1.28399469567836 ], [ 103.808655421254798, 1.284017666471235 ], [ 103.80864210688145, 1.284092321658757 ], [ 103.808621186024538, 1.284109549605378 ], [ 103.808254116285795, 1.284134431414881 ], [ 103.808244607193132, 1.284119116806972 ], [ 103.808238902569627, 1.284006176957617 ], [ 103.808109572119179, 1.284015746569796 ], [ 103.807791952698068, 1.284031057005903 ], [ 103.807061617641182, 1.284080820371593 ], [ 103.8056522999603, 1.284172688870158 ], [ 103.805161606348136, 1.284207139774488 ], [ 103.804425566422921, 1.2842530732362 ], [ 103.803295829317179, 1.28432771544054 ], [ 103.802706236141901, 1.284360251061565 ], [ 103.802327755753865, 1.284387045510757 ], [ 103.802063389127611, 1.28440044224243 ], [ 103.801555578240595, 1.28443680677728 ], [ 103.80132354457777, 1.284455945648004 ], [ 103.801203723964946, 1.284486572256592 ], [ 103.800907024457587, 1.284557395620918 ], [ 103.800804320915262, 1.284595678781024 ], [ 103.80064075625566, 1.284660761099437 ], [ 103.800475288114512, 1.284754556963643 ], [ 103.800307918455189, 1.284863666400442 ], [ 103.80021662604878, 1.284924921453785 ], [ 103.800073981407564, 1.285039773913074 ], [ 103.79989519953763, 1.285204396697967 ], [ 103.799714515160915, 1.285390075768735 ], [ 103.799503398424633, 1.285688694202798 ], [ 103.799438732668591, 1.285797805850631 ], [ 103.799332221978531, 1.286037084866594 ], [ 103.799240927145007, 1.286276363177342 ], [ 103.799191474679617, 1.286442902183073 ], [ 103.799161043014735, 1.28657115606712 ], [ 103.799138217514724, 1.286697495513036 ], [ 103.799128707040211, 1.286789378841869 ], [ 103.799111587374583, 1.286975060064983 ], [ 103.799103976626697, 1.287185626820444 ], [ 103.799092558907731, 1.287654615745524 ], [ 103.799090652384393, 1.288045121313381 ], [ 103.79906021247848, 1.28872084865732 ], [ 103.799037381575317, 1.289316178076763 ], [ 103.799022160888825, 1.289741139754186 ], [ 103.799008842586431, 1.290085703433051 ], [ 103.799014547349387, 1.290158444277229 ], [ 103.799014545169015, 1.290321154862657 ], [ 103.799010738333166, 1.290568092498867 ], [ 103.79900122503787, 1.290801629180853 ], [ 103.798980301852978, 1.290983482168762 ], [ 103.79897079040289, 1.291079194573455 ], [ 103.798978397584662, 1.291136621835544 ], [ 103.79898600188902, 1.291408444124299 ], [ 103.798947958362689, 1.291754922001562 ], [ 103.798917521952973, 1.292229653364317 ], [ 103.798915614095847, 1.292648872496062 ], [ 103.798927022284332, 1.292893895794722 ], [ 103.798932725503022, 1.293081490953054 ], [ 103.798922751863572, 1.293468335524977 ], [ 103.798904186487974, 1.293845273567544 ], [ 103.798862340355896, 1.294119009714949 ], [ 103.7988182066523, 1.29425032647991 ], [ 103.798799574294932, 1.294329575701462 ], [ 103.798706375737879, 1.294653081041536 ], [ 103.798569434192089, 1.294917244981083 ], [ 103.798457218422143, 1.29507229675266 ], [ 103.798383042193976, 1.29518140732173 ], [ 103.798303160262776, 1.295286689633356 ], [ 103.798187141190326, 1.295422599556163 ], [ 103.797795340031726, 1.295836070483619 ], [ 103.797195356851589, 1.296513298122455 ], [ 103.796815834253266, 1.296969287764589 ], [ 103.796540050977214, 1.297310019400321 ], [ 103.796399305429873, 1.29751866963175 ], [ 103.796309913467084, 1.297664150741837 ], [ 103.796174873216643, 1.29790151461993 ], [ 103.796081676006949, 1.29810059464262 ], [ 103.795921909004321, 1.29849875416774 ], [ 103.795862946517531, 1.298682521083778 ], [ 103.795741217525986, 1.29908068116084 ], [ 103.795640410179573, 1.299480756083764 ], [ 103.795486345111811, 1.300064597989768 ], [ 103.795406460704811, 1.300317276253371 ], [ 103.7952733211241, 1.300642696272273 ], [ 103.795239085323786, 1.30072500740064 ], [ 103.795182025153125, 1.300895374353163 ], [ 103.795151593118078, 1.30096237283654 ], [ 103.795058395912193, 1.301148052840596 ], [ 103.794963297486291, 1.301326075556431 ], [ 103.794905573837909, 1.301398734940657 ], [ 103.794845456187062, 1.301489492430782 ], [ 103.794780110734976, 1.301584196485888 ], [ 103.794706924690928, 1.30167100712416 ], [ 103.794648113471339, 1.301764395425635 ], [ 103.794589302106814, 1.301866991965719 ], [ 103.794554015603325, 1.301907766505698 ], [ 103.79448605721943, 1.3019985238647 ], [ 103.794429859973917, 1.302084020715572 ], [ 103.794110972672925, 1.302650927527961 ], [ 103.794075685539951, 1.302731163104003 ], [ 103.794015567174526, 1.302864011507108 ], [ 103.79393453853757, 1.303010013562063 ], [ 103.793865272164254, 1.303136285277724 ], [ 103.79370452141363, 1.303423026896417 ], [ 103.79347973185142, 1.303842617732665 ], [ 103.79333597097245, 1.304113575719482 ], [ 103.793051062323514, 1.304641023681805 ], [ 103.79277138234383, 1.305159263450886 ], [ 103.792622393651129, 1.305424959711407 ], [ 103.792456414375067, 1.305741954857137 ], [ 103.792240772947139, 1.306133922800972 ], [ 103.792055190421195, 1.306478539598089 ], [ 103.792009447285977, 1.306582450324669 ], [ 103.791965012431518, 1.306686361976247 ], [ 103.791861764151093, 1.306949429048298 ], [ 103.79177027733563, 1.307242748208035 ], [ 103.791744138810628, 1.307338767770072 ], [ 103.791694473636682, 1.307542645067922 ], [ 103.79159122411717, 1.30787674000876 ], [ 103.791549402088975, 1.30798722823299 ], [ 103.791512807894293, 1.308092454951285 ], [ 103.791401717096136, 1.308456802550974 ], [ 103.791207516114738, 1.309082010869328 ], [ 103.790970421987595, 1.309918139748077 ], [ 103.790842339208481, 1.310404814075518 ], [ 103.790765229126521, 1.310632367138764 ], [ 103.790728634101797, 1.310782315568585 ], [ 103.79067112497593, 1.311113780440758 ], [ 103.790630609502614, 1.311267674543068 ], [ 103.790566568403037, 1.311463659171007 ], [ 103.790510369778957, 1.311609661516485 ], [ 103.790441102137294, 1.311785916434937 ], [ 103.790352231583313, 1.311971377442277 ], [ 103.790259438961655, 1.31215026274382 ], [ 103.790186251908395, 1.31226864187767 ], [ 103.790111757188171, 1.312402805763476 ], [ 103.79000981777709, 1.31255406798706 ], [ 103.789902650684738, 1.312700069426513 ], [ 103.789697465300478, 1.312951295562006 ], [ 103.789607288881939, 1.313043368224965 ], [ 103.789385115920481, 1.313216989616006 ], [ 103.789226980985987, 1.313326159879271 ], [ 103.789074073382537, 1.313459006485981 ], [ 103.788927700456611, 1.313566861992714 ], [ 103.788517333178035, 1.313852283790168 ], [ 103.788381416200423, 1.313933832394825 ], [ 103.788258567105572, 1.313999597356783 ], [ 103.78794099125038, 1.314178478469044 ], [ 103.787856043248311, 1.314228459326522 ], [ 103.787810301029893, 1.314263972878471 ], [ 103.787679610815388, 1.314398135651382 ], [ 103.787547612609742, 1.314515198670415 ], [ 103.787227617944069, 1.314830131318178 ], [ 103.787017007873715, 1.31506500168165 ], [ 103.786800059523756, 1.315341218542104 ], [ 103.786470717007347, 1.315754230129495 ], [ 103.786278600963357, 1.315977834201305 ], [ 103.786206719523832, 1.316079114411281 ], [ 103.786086482971456, 1.316255368217399 ], [ 103.785849930813782, 1.316574991387472 ], [ 103.785661735327253, 1.31678281160956 ], [ 103.785562410128279, 1.316893298603713 ], [ 103.785302759996398, 1.317244119126852 ], [ 103.785245700023196, 1.317348204930814 ], [ 103.785186016099345, 1.317461518816063 ], [ 103.78497109968707, 1.317793260793725 ], [ 103.78473904607273, 1.318216515945611 ], [ 103.784567218345558, 1.318564564416613 ], [ 103.7843790968071, 1.319067416210825 ], [ 103.784293503806239, 1.319372496395633 ], [ 103.784229308503811, 1.319605793082713 ], [ 103.784133017729857, 1.319889338323427 ], [ 103.784033160863487, 1.3201585267042 ], [ 103.783908339766271, 1.320460017569215 ], [ 103.783769254834723, 1.320725615729012 ], [ 103.783640870502026, 1.320912251333742 ], [ 103.783394800586493, 1.321253220652425 ], [ 103.783255717351281, 1.321429088656411 ], [ 103.783123766660879, 1.321612135640471 ], [ 103.782945455964324, 1.321798770187835 ], [ 103.782471150740719, 1.322276124623852 ], [ 103.78228214051471, 1.322480705102654 ], [ 103.782125226708743, 1.322678108292831 ], [ 103.781971876933042, 1.322943706038209 ], [ 103.781829225083214, 1.323263142609266 ], [ 103.781725799611834, 1.323622060013403 ], [ 103.781672303614869, 1.323826644175684 ], [ 103.781640204403828, 1.324009692254724 ], [ 103.781622369423346, 1.324207098319288 ], [ 103.781611666039836, 1.324458342241538 ], [ 103.781562314158478, 1.325441184375965 ], [ 103.781550332040879, 1.325825823802826 ], [ 103.781520626123807, 1.326460836094762 ], [ 103.78148619776654, 1.327293211306839 ], [ 103.781457653403123, 1.328025408402152 ], [ 103.781433873603874, 1.328262295256224 ], [ 103.781412470225888, 1.328597286686102 ], [ 103.781362535770754, 1.328982526699783 ], [ 103.781333997239841, 1.329432373134898 ], [ 103.781329238828818, 1.329630975937142 ], [ 103.781343499188026, 1.329831971185534 ], [ 103.781343493179477, 1.330119107726561 ], [ 103.781322084655457, 1.330655094998485 ], [ 103.781279275592055, 1.331387290861037 ], [ 103.78122458648204, 1.331786887540701 ], [ 103.781219828760314, 1.331908920535191 ], [ 103.781234086653768, 1.332227163885096 ], [ 103.781226949987271, 1.332456872237819 ], [ 103.78121954358771, 1.333207293586988 ], [ 103.781212784662941, 1.333889936467959 ], [ 103.781123300566307, 1.33540127992883 ], [ 103.781107725133239, 1.336074715275325 ], [ 103.781075866021496, 1.336790574895962 ], [ 103.781052217427117, 1.337274328723452 ], [ 103.781020691798389, 1.337643091573585 ], [ 103.780997049396774, 1.337833419927463 ], [ 103.780961587775892, 1.338003922555989 ], [ 103.780914307411948, 1.33817442492945 ], [ 103.780835507942243, 1.33840440484366 ], [ 103.780752768784936, 1.338610593561909 ], [ 103.780654270947139, 1.338804885929948 ], [ 103.780473037168235, 1.339094340928043 ], [ 103.780146028621601, 1.339538436283022 ], [ 103.779692945777853, 1.340109414715378 ], [ 103.77860160588061, 1.34150513893066 ], [ 103.778000892135765, 1.342294214641467 ], [ 103.777204581715807, 1.343298900529765 ], [ 103.777125033473254, 1.343399867318802 ], [ 103.776462349242394, 1.344241542590437 ], [ 103.775778706434679, 1.34512527460747 ], [ 103.775026697603707, 1.346097379209782 ], [ 103.772868357247503, 1.34883692235864 ], [ 103.771911272309694, 1.350034850338832 ], [ 103.771657314265013, 1.350427643480791 ], [ 103.771413144774954, 1.350761503968515 ], [ 103.771090806528548, 1.351272139327719 ], [ 103.770797718461012, 1.351841727257608 ], [ 103.770465471982988, 1.352647048321943 ], [ 103.770074550397638, 1.353678269737325 ], [ 103.769615257743382, 1.354807686890947 ], [ 103.769283054090366, 1.355524599841467 ], [ 103.769009533893509, 1.355995965960717 ], [ 103.768677434205713, 1.356506595231185 ], [ 103.768267115971923, 1.35698789381331 ], [ 103.768208673267139, 1.357056445719326 ], [ 103.767706295264119, 1.35766287670537 ], [ 103.767652618650558, 1.357726480952113 ], [ 103.767183771411652, 1.358293489703435 ], [ 103.767075174117082, 1.358435173380941 ], [ 103.766940800684907, 1.358638020270037 ], [ 103.766792526939938, 1.358887499377667 ], [ 103.76667436936664, 1.359141642210236 ], [ 103.766574746291781, 1.359370137795022 ], [ 103.766512192506625, 1.359538013096341 ], [ 103.766447319000235, 1.35975718384226 ], [ 103.766400980011923, 1.359950707347001 ], [ 103.766359274022591, 1.360144230979535 ], [ 103.766324517790395, 1.360393713215503 ], [ 103.76630829480456, 1.360598894806407 ], [ 103.766301340465631, 1.360773766001026 ], [ 103.766303653429674, 1.360902004843009 ], [ 103.76630828193241, 1.361065219112563 ], [ 103.766324493081711, 1.361289055015383 ], [ 103.76635691893037, 1.36154320202587 ], [ 103.766402459817968, 1.361813553791468 ], [ 103.766435971756579, 1.362013031139474 ], [ 103.766519890426508, 1.362512702579726 ], [ 103.766618658534483, 1.363187000734955 ], [ 103.766639502409589, 1.363422495820049 ], [ 103.766653394841512, 1.36366265180156 ], [ 103.766651071019112, 1.363928456894288 ], [ 103.766637165556503, 1.3641616195595 ], [ 103.766611675433865, 1.36440643734029 ], [ 103.766557488827175, 1.364774897116084 ], [ 103.766516676119736, 1.364961361301969 ], [ 103.766463387492081, 1.365154884600508 ], [ 103.766364753861325, 1.365465802078395 ], [ 103.766303668577777, 1.365618031906434 ], [ 103.76622505628319, 1.365818143680075 ], [ 103.766120233610906, 1.366051477417109 ], [ 103.765979005218171, 1.366324251230375 ], [ 103.765856321495576, 1.366530987112637 ], [ 103.765519182395138, 1.367036097227533 ], [ 103.765317566106305, 1.367321313319924 ], [ 103.764509981770502, 1.36849291315863 ], [ 103.764026300382753, 1.36916592655755 ], [ 103.763750810939243, 1.369561693370089 ], [ 103.763630941215325, 1.369766984023421 ], [ 103.763447981926248, 1.370067513158911 ], [ 103.763283948453804, 1.37036169239302 ], [ 103.763157769454892, 1.370609312473971 ], [ 103.763040954271645, 1.370893096514451 ], [ 103.762918256864381, 1.371243676667738 ], [ 103.762838008816374, 1.371500900617463 ], [ 103.762717951961079, 1.371953044481364 ], [ 103.762454593557678, 1.373173158756626 ], [ 103.762296471722266, 1.373914021323114 ], [ 103.762178999675342, 1.37446188848082 ], [ 103.762122523659158, 1.374671031710019 ], [ 103.762000539287655, 1.375084772558998 ], [ 103.761827360899233, 1.375577039549575 ], [ 103.761748747457887, 1.375791110878466 ], [ 103.761596146261127, 1.376102910914851 ], [ 103.761219954582302, 1.376851417669785 ], [ 103.760000809623165, 1.379285462797682 ] ] } }
]
}
