<?xml version="1.0" encoding="UTF-8"?>
<gpx xmlns="http://www.topografix.com/GPX/1/1" xmlns:xsi="http://www.w3.org/2001/XMLSchema-instance" xsi:schemaLocation="http://www.topografix.com/GPX/1/1 http://www.topografix.com/GPX/1/1/gpx.xsd" version="1.1" creator="gpx.py -- https://github.com/tkrajina/gpxpy">
  <trk>
    <name>point_to_point_10000m_004</name>
    <trkseg>
      <trkpt lat="1.3947752414916412" lon="104.04753032135542">
        <ele>13.182372623013102</ele>
      </trkpt>
      <trkpt lat="1.3946926789289193" lon="104.0475669912964">
        <ele>12.38411944565542</ele>
      </trkpt>
      <trkpt lat="1.3946296863042733" lon="104.04762976778117">
        <ele>10.793323720274046</ele>
      </trkpt>
      <trkpt lat="1.394570682483754" lon="104.0476978653797">
        <ele>9.353942286775043</ele>
      </trkpt>
      <trkpt lat="1.3945392000012586" lon="104.0477761124376">
        <ele>8.17258221150589</ele>
      </trkpt>
      <trkpt lat="1.3945392000014258" lon="104.04786596976912">
        <ele>7.34334072832947</ele>
      </trkpt>
      <trkpt lat="1.394555809945151" lon="104.04795218641732">
        <ele>6.428548436988301</ele>
      </trkpt>
      <trkpt lat="1.3945938582648187" lon="104.04803370405514">
        <ele>5.605855456435594</ele>
      </trkpt>
      <trkpt lat="1.3946368961293032" lon="104.0481124984395">
        <ele>4.97622259357173</ele>
      </trkpt>
      <trkpt lat="1.3946857269959254" lon="104.04818813105032">
        <ele>4.859633162710207</ele>
      </trkpt>
      <trkpt lat="1.3947345578595958" lon="104.04826376366405">
        <ele>4.943812401945938</ele>
      </trkpt>
      <trkpt lat="1.3947833887203125" lon="104.04833939628067">
        <ele>5.027991641181532</ele>
      </trkpt>
      <trkpt lat="1.3948322195780771" lon="104.04841502890018">
        <ele>5.135899761360815</ele>
      </trkpt>
      <trkpt lat="1.3948854022430521" lon="104.04848739235474">
        <ele>5.3043131205432825</ele>
      </trkpt>
      <trkpt lat="1.3949453295862355" lon="104.0485546890718">
        <ele>5.521301788576725</ele>
      </trkpt>
      <trkpt lat="1.3950031253692239" lon="104.04862373196033">
        <ele>5.747838609998933</ele>
      </trkpt>
      <trkpt lat="1.3950581877593047" lon="104.04869501404033">
        <ele>5.947147226750779</ele>
      </trkpt>
      <trkpt lat="1.395113250146669" lon="104.0487662961235">
        <ele>6.1184256386543</ele>
      </trkpt>
      <trkpt lat="1.3951658111618246" lon="104.04883902954722">
        <ele>6.189732956162264</ele>
      </trkpt>
      <trkpt lat="1.3952012327946077" lon="104.04892170753465">
        <ele>6.1610691792748105</ele>
      </trkpt>
      <trkpt lat="1.3952366544240689" lon="104.04900438552416">
        <ele>6.045166238321996</ele>
      </trkpt>
      <trkpt lat="1.3952720760502089" lon="104.04908706351576">
        <ele>5.82270909470741</ele>
      </trkpt>
      <trkpt lat="1.3953098716313823" lon="104.04916865483473">
        <ele>5.468067011862353</ele>
      </trkpt>
      <trkpt lat="1.3953500990017218" lon="104.04924913300786">
        <ele>4.981239989787049</ele>
      </trkpt>
      <trkpt lat="1.3953903263688483" lon="104.04932961118341">
        <ele>4.468782231143595</ele>
      </trkpt>
      <trkpt lat="1.395430553732762" lon="104.04941008936137">
        <ele>3.9579841362166177</ele>
      </trkpt>
      <trkpt lat="1.3954717260607157" lon="104.049490070495">
        <ele>3.4544579298919835</ele>
      </trkpt>
      <trkpt lat="1.3955160938333027" lon="104.04956837084602">
        <ele>2.9582036121694713</ele>
      </trkpt>
      <trkpt lat="1.39556046160279" lon="104.04964667119971">
        <ele>2.46756151933276</ele>
      </trkpt>
      <trkpt lat="1.3956048293691767" lon="104.04972497155606">
        <ele>1.998864269593969</ele>
      </trkpt>
      <trkpt lat="1.3956467123039222" lon="104.04980427482319">
        <ele>1.6679035435128222</ele>
      </trkpt>
      <trkpt lat="1.3956698671581331" lon="104.04989113698028">
        <ele>1.4746793410892831</ele>
      </trkpt>
      <trkpt lat="1.395693022008844" lon="104.04997799913859">
        <ele>1.3972468192254002</ele>
      </trkpt>
      <trkpt lat="1.3957161768560555" lon="104.05006486129814">
        <ele>1.3198142973614797</ele>
      </trkpt>
      <trkpt lat="1.395739331699767" lon="104.05015172345894">
        <ele>1.2423817754975603</ele>
      </trkpt>
      <trkpt lat="1.3957624865399785" lon="104.05023858562095">
        <ele>1.1776438522013721</ele>
      </trkpt>
      <trkpt lat="1.395795642096231" lon="104.05032165044584">
        <ele>1.1356192270500953</ele>
      </trkpt>
      <trkpt lat="1.3958366903134996" lon="104.05040171837688">
        <ele>1.1163079000437337</ele>
      </trkpt>
      <trkpt lat="1.3958777385275736" lon="104.05048178631037">
        <ele>1.107015272614554</ele>
      </trkpt>
      <trkpt lat="1.3959187867384522" lon="104.05056185424634">
        <ele>1.097722645185376</ele>
      </trkpt>
      <trkpt lat="1.3959598349461357" lon="104.05064192218475">
        <ele>1.0900572100327335</ele>
      </trkpt>
      <trkpt lat="1.3960020806617204" lon="104.05072134982629">
        <ele>1.0872732032449042</ele>
      </trkpt>
      <trkpt lat="1.3960467212871088" lon="104.05079949693015">
        <ele>1.089370624821924</ele>
      </trkpt>
      <trkpt lat="1.3960913619094015" lon="104.05087764403667">
        <ele>1.1113135550013642</ele>
      </trkpt>
      <trkpt lat="1.3961468893032571" lon="104.05094685420703">
        <ele>1.1700998434958871</ele>
      </trkpt>
      <trkpt lat="1.3962157056028162" lon="104.05100515553364">
        <ele>1.2697382500742853</ele>
      </trkpt>
      <trkpt lat="1.3962867595268982" lon="104.05106058266769">
        <ele>1.3990691963385087</ele>
      </trkpt>
      <trkpt lat="1.3963608453352794" lon="104.05111211539521">
        <ele>1.5378405964876578</ele>
      </trkpt>
      <trkpt lat="1.3964349311419684" lon="104.05116364812613">
        <ele>1.7045608284837623</ele>
      </trkpt>
      <trkpt lat="1.3965096513524748" lon="104.05121412567556">
        <ele>2.0099977722314537</ele>
      </trkpt>
      <trkpt lat="1.396590435288842" lon="104.05125451763861">
        <ele>2.4541514277306913</ele>
      </trkpt>
      <trkpt lat="1.3966712192240194" lon="104.05129490960474">
        <ele>3.014504657250537</ele>
      </trkpt>
      <trkpt lat="1.3967520031580063" lon="104.05133530157396">
        <ele>3.5586967179328144</ele>
      </trkpt>
      <trkpt lat="1.396822557831856" lon="104.05138112001536">
        <ele>3.9576178786774157</ele>
      </trkpt>
      <trkpt lat="1.396811392122531" lon="104.05147028989903">
        <ele>4.2172641409830325</ele>
      </trkpt>
      <trkpt lat="1.3968032539325415" lon="104.05155956052005">
        <ele>4.38008749614889</ele>
      </trkpt>
      <trkpt lat="1.3968083905956272" lon="104.05164927285213">
        <ele>4.57519767527518</ele>
      </trkpt>
      <trkpt lat="1.3968135272552045" lon="104.05173898518406">
        <ele>4.796598676863291</ele>
      </trkpt>
      <trkpt lat="1.3968186639112739" lon="104.05182869751583">
        <ele>5.018003190108298</ele>
      </trkpt>
      <trkpt lat="1.3968238024647546" lon="104.05191840955452">
        <ele>5.169490749295113</ele>
      </trkpt>
      <trkpt lat="1.3968462568784659" lon="104.0520054531001">
        <ele>5.153872852373769</ele>
      </trkpt>
      <trkpt lat="1.396868711288667" lon="104.05209249664686">
        <ele>4.971145987687559</ele>
      </trkpt>
      <trkpt lat="1.3968911656953575" lon="104.05217954019479">
        <ele>4.705367728971544</ele>
      </trkpt>
      <trkpt lat="1.3969168443555895" lon="104.05226538737745">
        <ele>4.518552784213193</ele>
      </trkpt>
      <trkpt lat="1.3969573079565758" lon="104.05234574858149">
        <ele>4.41070115341216</ele>
      </trkpt>
      <trkpt lat="1.3969977715543467" lon="104.05242610978794">
        <ele>4.367654119796048</ele>
      </trkpt>
      <trkpt lat="1.397038235148901" lon="104.05250647099683">
        <ele>4.324518957851063</ele>
      </trkpt>
      <trkpt lat="1.397078698740239" lon="104.05258683220815">
        <ele>4.2812956675776865</ele>
      </trkpt>
      <trkpt lat="1.3971191623283596" lon="104.05266719342188">
        <ele>4.238005857727885</ele>
      </trkpt>
      <trkpt lat="1.3971596259132637" lon="104.05274755463805">
        <ele>4.194716047878085</ele>
      </trkpt>
      <trkpt lat="1.3972000894949503" lon="104.05282791585664">
        <ele>4.151426238028284</ele>
      </trkpt>
      <trkpt lat="1.3972405530734198" lon="104.05290827707763">
        <ele>4.108136428178483</ele>
      </trkpt>
      <trkpt lat="1.3972810166486713" lon="104.05298863830107">
        <ele>4.064846618328922</ele>
      </trkpt>
      <trkpt lat="1.3973214802207048" lon="104.05306899952693">
        <ele>4.268661773718932</ele>
      </trkpt>
      <trkpt lat="1.3973619437895197" lon="104.05314936075521">
        <ele>4.491220996105472</ele>
      </trkpt>
      <trkpt lat="1.3974024073551163" lon="104.05322972198593">
        <ele>4.710855537228809</ele>
      </trkpt>
      <trkpt lat="1.3974428709174949" lon="104.05331008321905">
        <ele>4.680460431849657</ele>
      </trkpt>
      <trkpt lat="1.3974833344766537" lon="104.0533904444546">
        <ele>4.628396578210985</ele>
      </trkpt>
      <trkpt lat="1.3975237980325939" lon="104.05347080569258">
        <ele>4.576332724572599</ele>
      </trkpt>
      <trkpt lat="1.397564261585314" lon="104.05355116693299">
        <ele>4.524268870933927</ele>
      </trkpt>
      <trkpt lat="1.3976047251348152" lon="104.05363152817581">
        <ele>4.484553581485939</ele>
      </trkpt>
      <trkpt lat="1.397647296784029" lon="104.05371059918964">
        <ele>4.592971600076242</ele>
      </trkpt>
      <trkpt lat="1.397701324589297" lon="104.05378265864329">
        <ele>4.976617674567852</ele>
      </trkpt>
      <trkpt lat="1.3977553523917896" lon="104.05385471810008">
        <ele>5.547240314591444</ele>
      </trkpt>
      <trkpt lat="1.39779471188594" lon="104.05392911016818">
        <ele>5.816900705447645</ele>
      </trkpt>
      <trkpt lat="1.397766017301168" lon="104.0540143244468">
        <ele>5.658504099273728</ele>
      </trkpt>
      <trkpt lat="1.397737322713608" lon="104.05409953872291">
        <ele>5.147953422248492</ele>
      </trkpt>
      <trkpt lat="1.3977086281232607" lon="104.05418475299652">
        <ele>4.637402745222919</ele>
      </trkpt>
      <trkpt lat="1.397679933530126" lon="104.05426996726763">
        <ele>4.126852068197346</ele>
      </trkpt>
      <trkpt lat="1.3976512389342042" lon="104.05435518153624">
        <ele>3.6163013911717736</ele>
      </trkpt>
      <trkpt lat="1.3976225443354953" lon="104.05444039580232">
        <ele>3.108773556222255</ele>
      </trkpt>
      <trkpt lat="1.3975938497339997" lon="104.05452561006592">
        <ele>2.6281275052653026</ele>
      </trkpt>
      <trkpt lat="1.3975651551297175" lon="104.054610824327">
        <ele>2.174363238300531</ele>
      </trkpt>
      <trkpt lat="1.397536460522649" lon="104.05469603858558">
        <ele>1.942501903377982</ele>
      </trkpt>
      <trkpt lat="1.3975077659127941" lon="104.05478125284165">
        <ele>1.995667291559067</ele>
      </trkpt>
      <trkpt lat="1.3974790713001535" lon="104.05486646709521">
        <ele>2.190598077933816</ele>
      </trkpt>
      <trkpt lat="1.3974512071900373" lon="104.05495193724691">
        <ele>2.3538678988015085</ele>
      </trkpt>
      <trkpt lat="1.3974263418862438" lon="104.05503833140864">
        <ele>2.398494021183725</ele>
      </trkpt>
      <trkpt lat="1.39740147657954" lon="104.05512472556806">
        <ele>2.467737769990979</ele>
      </trkpt>
      <trkpt lat="1.3973766112699255" lon="104.05521111972521">
        <ele>2.536981518798075</ele>
      </trkpt>
      <trkpt lat="1.3973517459574005" lon="104.05529751388008">
        <ele>2.606225267605329</ele>
      </trkpt>
      <trkpt lat="1.3973268806419654" lon="104.05538390803267">
        <ele>2.675469016412425</ele>
      </trkpt>
      <trkpt lat="1.3973020153236202" lon="104.05547030218297">
        <ele>2.744712765219679</ele>
      </trkpt>
      <trkpt lat="1.397277150002365" lon="104.05555669633097">
        <ele>2.5504931239276485</ele>
      </trkpt>
      <trkpt lat="1.397253005349788" lon="104.0556431510394">
        <ele>2.2929589096345153</ele>
      </trkpt>
      <trkpt lat="1.3972629138931651" lon="104.05573246745746">
        <ele>1.972110122340214</ele>
      </trkpt>
      <trkpt lat="1.3972728224330044" lon="104.05582178387571">
        <ele>1.851631989907161</ele>
      </trkpt>
      <trkpt lat="1.3972827558070589" lon="104.05591109755153">
        <ele>1.7596608624788288</ele>
      </trkpt>
      <trkpt lat="1.3972958451251924" lon="104.05599999398142">
        <ele>1.703960625284755</ele>
      </trkpt>
      <trkpt lat="1.3973098005686144" lon="104.0560887750521">
        <ele>1.6843094405622925</ele>
      </trkpt>
      <trkpt lat="1.3973237560084888" lon="104.05617755612332">
        <ele>1.6724221410693678</ele>
      </trkpt>
      <trkpt lat="1.397337711444816" lon="104.05626633719505">
        <ele>1.660534841577021</ele>
      </trkpt>
      <trkpt lat="1.3973516668775965" lon="104.05635511826732">
        <ele>2.350347831456137</ele>
      </trkpt>
      <trkpt lat="1.3973656223068294" lon="104.0564438993401">
        <ele>3.205706028036529</ele>
      </trkpt>
      <trkpt lat="1.3973795777325142" lon="104.05653268041341">
        <ele>4.043650733216207</ele>
      </trkpt>
      <trkpt lat="1.397393533154652" lon="104.05662146148723">
        <ele>4.162481657622539</ele>
      </trkpt>
      <trkpt lat="1.397407488573242" lon="104.05671024256158">
        <ele>4.098353883927552</ele>
      </trkpt>
      <trkpt lat="1.3974214439882837" lon="104.05679902363644">
        <ele>4.039615535639989</ele>
      </trkpt>
      <trkpt lat="1.3974356251584945" lon="104.05688775584193">
        <ele>4.232085256059096</ele>
      </trkpt>
      <trkpt lat="1.397460103471397" lon="104.05697425902791">
        <ele>4.675763045183358</ele>
      </trkpt>
      <trkpt lat="1.3974845817807988" lon="104.0570607622152">
        <ele>5.246002653691455</ele>
      </trkpt>
      <trkpt lat="1.3975090600866988" lon="104.05714726540383">
        <ele>5.47980473447774</ele>
      </trkpt>
      <trkpt lat="1.3975335383890979" lon="104.05723376859376">
        <ele>5.377169287543889</ele>
      </trkpt>
      <trkpt lat="1.3975580166879953" lon="104.05732027178503">
        <ele>5.235024334406042</ele>
      </trkpt>
      <trkpt lat="1.397582494983391" lon="104.05740677497761">
        <ele>5.273590642738853</ele>
      </trkpt>
      <trkpt lat="1.3976021289063851" lon="104.05749431883513">
        <ele>5.400546378241569</ele>
      </trkpt>
      <trkpt lat="1.397615800770206" lon="104.05758314345762">
        <ele>5.438220343312929</ele>
      </trkpt>
      <trkpt lat="1.3976294726304774" lon="104.05767196808061">
        <ele>5.383572474085775</ele>
      </trkpt>
      <trkpt lat="1.3976431444872006" lon="104.0577607927041">
        <ele>5.328924604859606</ele>
      </trkpt>
      <trkpt lat="1.3976568163403746" lon="104.05784961732807">
        <ele>5.404973789868246</ele>
      </trkpt>
      <trkpt lat="1.3976789233741433" lon="104.05793659835615">
        <ele>5.3402166789244205</ele>
      </trkpt>
      <trkpt lat="1.3977040268611498" lon="104.05802292447895">
        <ele>4.8152850625266455</ele>
      </trkpt>
      <trkpt lat="1.3977291303446597" lon="104.05810925060312">
        <ele>4.254296026899778</ele>
      </trkpt>
      <trkpt lat="1.3977542338246725" lon="104.05819557672866">
        <ele>4.494568946724679</ele>
      </trkpt>
      <trkpt lat="1.3977793373011884" lon="104.05828190285555">
        <ele>5.855472031502113</ele>
      </trkpt>
      <trkpt lat="1.3978044407742063" lon="104.05836822898382">
        <ele>7.698610462683028</ele>
      </trkpt>
      <trkpt lat="1.3978295442437267" lon="104.05845455511346">
        <ele>8.801685855425854</ele>
      </trkpt>
      <trkpt lat="1.3978652827058473" lon="104.05853701521204">
        <ele>9.170938360541836</ele>
      </trkpt>
      <trkpt lat="1.3979021743477638" lon="104.05861905610782">
        <ele>8.85589064847123</ele>
      </trkpt>
      <trkpt lat="1.397932516353501" lon="104.0587030244106">
        <ele>8.42816795464399</ele>
      </trkpt>
      <trkpt lat="1.3979465396380129" lon="104.05879179493415">
        <ele>7.881530128249724</ele>
      </trkpt>
      <trkpt lat="1.3979605629189749" lon="104.05888056545822">
        <ele>7.250035176937556</ele>
      </trkpt>
      <trkpt lat="1.3979745861963857" lon="104.05896933598281">
        <ele>6.618540225625388</ele>
      </trkpt>
      <trkpt lat="1.3979886094702456" lon="104.05905810650792">
        <ele>5.98704527431322</ele>
      </trkpt>
      <trkpt lat="1.3980026327405544" lon="104.05914687703354">
        <ele>5.355550323001051</ele>
      </trkpt>
      <trkpt lat="1.3980166560073122" lon="104.05923564755969">
        <ele>4.767165109216397</ele>
      </trkpt>
      <trkpt lat="1.3980390294254326" lon="104.05932206275658">
        <ele>4.287134410242136</ele>
      </trkpt>
      <trkpt lat="1.3980740404489238" lon="104.05940491326233">
        <ele>3.915458226077979</ele>
      </trkpt>
      <trkpt lat="1.3981090514690602" lon="104.05948776377014">
        <ele>3.61095950430258</ele>
      </trkpt>
      <trkpt lat="1.3981443943425493" lon="104.05957044876197">
        <ele>3.3701465887933666</ele>
      </trkpt>
      <trkpt lat="1.398190340692606" lon="104.05964784512727">
        <ele>3.2022452751892367</ele>
      </trkpt>
      <trkpt lat="1.398236287039584" lon="104.05972524149533">
        <ele>3.188583507309241</ele>
      </trkpt>
      <trkpt lat="1.3982822333834826" lon="104.0598026378661">
        <ele>3.267408163992801</ele>
      </trkpt>
      <trkpt lat="1.3983281797243015" lon="104.05988003423963">
        <ele>3.443453612035878</ele>
      </trkpt>
      <trkpt lat="1.3983909264395766" lon="104.05994195637146">
        <ele>3.642971828619265</ele>
      </trkpt>
      <trkpt lat="1.398465121112348" lon="104.05999333418858">
        <ele>3.9619090681441294</ele>
      </trkpt>
      <trkpt lat="1.3985490568703483" lon="104.06002331002017">
        <ele>4.525337642527486</ele>
      </trkpt>
      <trkpt lat="1.3986368840232024" lon="104.06004473613007">
        <ele>5.323744945663886</ele>
      </trkpt>
      <trkpt lat="1.398724711175532" lon="104.06006616224207">
        <ele>6.2797088003227515</ele>
      </trkpt>
      <trkpt lat="1.3988135101682015" lon="104.06008288708549">
        <ele>7.262153143738732</ele>
      </trkpt>
      <trkpt lat="1.3989027265829632" lon="104.06009759265356">
        <ele>8.271077975911258</ele>
      </trkpt>
      <trkpt lat="1.3989919429973818" lon="104.06011229822327">
        <ele>9.28795921967002</ele>
      </trkpt>
      <trkpt lat="1.3990811594114572" lon="104.06012700379463">
        <ele>10.3048404634285</ele>
      </trkpt>
      <trkpt lat="1.399170375825189" lon="104.06014170936763">
        <ele>11.266275431483052</ele>
      </trkpt>
      <trkpt lat="1.3992557972771134" lon="104.0601692373382">
        <ele>12.137263967300973</ele>
      </trkpt>
      <trkpt lat="1.3993388231796045" lon="104.06020485937835">
        <ele>12.713436885552076</ele>
      </trkpt>
      <trkpt lat="1.3993962740924109" lon="104.06027140388808">
        <ele>13.000785128645996</ele>
      </trkpt>
      <trkpt lat="1.3994475361067196" lon="104.06034543133372">
        <ele>12.950427077887781</ele>
      </trkpt>
      <trkpt lat="1.3994847778580601" lon="104.06042718245492">
        <ele>12.759509457488853</ele>
      </trkpt>
      <trkpt lat="1.3995208124215281" lon="104.0605095986086">
        <ele>12.477487600743023</ele>
      </trkpt>
      <trkpt lat="1.3995568469816575" lon="104.06059201476442">
        <ele>12.188243282877872</ele>
      </trkpt>
      <trkpt lat="1.3995928815384482" lon="104.06067443092238">
        <ele>11.862523732020456</ele>
      </trkpt>
      <trkpt lat="1.3996222037700832" lon="104.06075933737178">
        <ele>11.488510373114119</ele>
      </trkpt>
      <trkpt lat="1.3996493510956498" lon="104.06084505071746">
        <ele>11.066203206158667</ele>
      </trkpt>
      <trkpt lat="1.3996764984177337" lon="104.06093076406465">
        <ele>10.632077464146358</ele>
      </trkpt>
      <trkpt lat="1.3997036457363348" lon="104.06101647741335">
        <ele>10.197951722134048</ele>
      </trkpt>
      <trkpt lat="1.3997307930514518" lon="104.06110219076356">
        <ele>9.76382598012174</ele>
      </trkpt>
      <trkpt lat="1.399757940363085" lon="104.06118790411527">
        <ele>9.32970023810943</ele>
      </trkpt>
      <trkpt lat="1.399785087671235" lon="104.0612736174685">
        <ele>8.89557449609712</ele>
      </trkpt>
      <trkpt lat="1.3998122349759006" lon="104.06135933082324">
        <ele>8.576041201493958</ele>
      </trkpt>
      <trkpt lat="1.3998393822770827" lon="104.0614450441795">
        <ele>8.43843273722924</ele>
      </trkpt>
      <trkpt lat="1.3998665295747799" lon="104.06153075753723">
        <ele>8.482749103303185</ele>
      </trkpt>
      <trkpt lat="1.3998936768689927" lon="104.0616164708965">
        <ele>8.59439785230665</ele>
      </trkpt>
      <trkpt lat="1.3999208241597203" lon="104.06170218425727">
        <ele>8.705752662409697</ele>
      </trkpt>
      <trkpt lat="1.3999476497970897" lon="104.06178799246446">
        <ele>8.814509464668355</ele>
      </trkpt>
      <trkpt lat="1.3999719541468227" lon="104.06187454412421">
        <ele>8.92066825908261</ele>
      </trkpt>
      <trkpt lat="1.399996258493041" lon="104.06196109578524">
        <ele>9.024522984552766</ele>
      </trkpt>
      <trkpt lat="1.4000205628357443" lon="104.06204764744759">
        <ele>9.12837771002291</ele>
      </trkpt>
      <trkpt lat="1.4000448671749326" lon="104.06213419911121">
        <ele>9.232232435493065</ele>
      </trkpt>
      <trkpt lat="1.400069171510606" lon="104.06222075077615">
        <ele>9.336087160963283</ele>
      </trkpt>
      <trkpt lat="1.4000934758427634" lon="104.06230730244238">
        <ele>9.439941886433436</ele>
      </trkpt>
      <trkpt lat="1.400117780171406" lon="104.06239385410991">
        <ele>9.543796611903593</ele>
      </trkpt>
      <trkpt lat="1.4001420844965322" lon="104.06248040577874">
        <ele>9.64765133737374</ele>
      </trkpt>
      <trkpt lat="1.4001663888181435" lon="104.06256695744887">
        <ele>9.751506062843893</ele>
      </trkpt>
      <trkpt lat="1.4001906931362378" lon="104.0626535091203">
        <ele>9.855360788314039</ele>
      </trkpt>
      <trkpt lat="1.4002149974508165" lon="104.062740060793">
        <ele>9.959215513784194</ele>
      </trkpt>
      <trkpt lat="1.4002393017618788" lon="104.06282661246702">
        <ele>10.063070239254339</ele>
      </trkpt>
      <trkpt lat="1.4002636060694242" lon="104.06291316414234">
        <ele>10.166924964724494</ele>
      </trkpt>
      <trkpt lat="1.4002879103734531" lon="104.06299971581895">
        <ele>10.270779690194649</ele>
      </trkpt>
      <trkpt lat="1.4003122146739653" lon="104.06308626749686">
        <ele>10.374634415664866</ele>
      </trkpt>
      <trkpt lat="1.40033651897096" lon="104.06317281917606">
        <ele>10.477541328003356</ele>
      </trkpt>
      <trkpt lat="1.4003597904093894" lon="104.06325964564451">
        <ele>10.578769636253606</ele>
      </trkpt>
      <trkpt lat="1.4003822654835907" lon="104.0633466839835">
        <ele>10.678319340415632</ele>
      </trkpt>
      <trkpt lat="1.4004047405542595" lon="104.06343372232364">
        <ele>10.777138253621146</ele>
      </trkpt>
      <trkpt lat="1.4004272156213953" lon="104.06352076066494">
        <ele>10.875957166826668</ele>
      </trkpt>
      <trkpt lat="1.4004496906849992" lon="104.06360779900741">
        <ele>10.974776080032184</ele>
      </trkpt>
      <trkpt lat="1.4004721657450698" lon="104.06369483735104">
        <ele>11.073594993237707</ele>
      </trkpt>
      <trkpt lat="1.400494640801608" lon="104.06378187569581">
        <ele>11.183496878287343</ele>
      </trkpt>
      <trkpt lat="1.4005171158546126" lon="104.06386891404175">
        <ele>11.312040852259843</ele>
      </trkpt>
      <trkpt lat="1.4005395909040848" lon="104.06395595238885">
        <ele>11.459226915155163</ele>
      </trkpt>
      <trkpt lat="1.400562065950023" lon="104.06404299073712">
        <ele>11.613972095129226</ele>
      </trkpt>
      <trkpt lat="1.4005845409924276" lon="104.06413002908653">
        <ele>11.768717275103254</ele>
      </trkpt>
      <trkpt lat="1.4006070160312987" lon="104.0642170674371">
        <ele>11.923462455077315</ele>
      </trkpt>
      <trkpt lat="1.4006294910666357" lon="104.06430410578882">
        <ele>12.078207635051378</ele>
      </trkpt>
      <trkpt lat="1.400651966098439" lon="104.06439114414171">
        <ele>12.232952815025437</ele>
      </trkpt>
      <trkpt lat="1.400674441126708" lon="104.06447818249576">
        <ele>12.387697994999499</ele>
      </trkpt>
      <trkpt lat="1.4006969161514424" lon="104.06456522085097">
        <ele>12.542443174973528</ele>
      </trkpt>
      <trkpt lat="1.4007193911726428" lon="104.06465225920732">
        <ele>12.69718835494759</ele>
      </trkpt>
      <trkpt lat="1.4007418661903084" lon="104.06473929756484">
        <ele>12.851933534921619</ele>
      </trkpt>
      <trkpt lat="1.400764341204439" lon="104.06482633592351">
        <ele>13.00667871489568</ele>
      </trkpt>
      <trkpt lat="1.400786816215035" lon="104.06491337428332">
        <ele>13.161423894869708</ele>
      </trkpt>
      <trkpt lat="1.4008092912220955" lon="104.06500041264431">
        <ele>13.31616907484377</ele>
      </trkpt>
      <trkpt lat="1.4008317662256211" lon="104.06508745100646">
        <ele>13.4709142548178</ele>
      </trkpt>
      <trkpt lat="1.4008542412256109" lon="104.06517448936975">
        <ele>13.625659434791862</ele>
      </trkpt>
      <trkpt lat="1.4008767162220654" lon="104.06526152773421">
        <ele>13.78040461476589</ele>
      </trkpt>
      <trkpt lat="1.4008991912149837" lon="104.06534856609981">
        <ele>13.935149794739951</ele>
      </trkpt>
      <trkpt lat="1.4009216662043669" lon="104.06543560446657">
        <ele>14.08989497471398</ele>
      </trkpt>
      <trkpt lat="1.4009441411902133" lon="104.0655226428345">
        <ele>14.244640154688065</ele>
      </trkpt>
      <trkpt lat="1.400966616172524" lon="104.06560968120357">
        <ele>14.399480543111693</ele>
      </trkpt>
      <trkpt lat="1.4009894703922368" lon="104.06569662154399">
        <ele>14.554468594600863</ele>
      </trkpt>
      <trkpt lat="1.4010125335493022" lon="104.06578350787657">
        <ele>14.709604309155539</ele>
      </trkpt>
      <trkpt lat="1.4010355967028352" lon="104.06587039421038">
        <ele>14.864792478326189</ele>
      </trkpt>
      <trkpt lat="1.401058659852836" lon="104.06595728054535">
        <ele>15.019980647496865</ele>
      </trkpt>
      <trkpt lat="1.4010817229993042" lon="104.06604416688154">
        <ele>15.175168816667513</ele>
      </trkpt>
      <trkpt lat="1.401104786142239" lon="104.06613105321892">
        <ele>15.330356985838158</ele>
      </trkpt>
      <trkpt lat="1.4011278492816412" lon="104.0662179395575">
        <ele>15.485545155008772</ele>
      </trkpt>
      <trkpt lat="1.4011509124175103" lon="104.06630482589728">
        <ele>15.640733324179415</ele>
      </trkpt>
      <trkpt lat="1.4011739755498462" lon="104.06639171223826">
        <ele>15.795921493350065</ele>
      </trkpt>
      <trkpt lat="1.4011970386786483" lon="104.06647859858042">
        <ele>15.951109662520738</ele>
      </trkpt>
      <trkpt lat="1.401220101803917" lon="104.0665654849238">
        <ele>16.10629783169139</ele>
      </trkpt>
      <trkpt lat="1.4012431649256518" lon="104.06665237126838">
        <ele>16.261486000862064</ele>
      </trkpt>
      <trkpt lat="1.4012662280438526" lon="104.06673925761413">
        <ele>16.416674669102136</ele>
      </trkpt>
      <trkpt lat="1.4012892931605947" lon="104.06682614343642">
        <ele>16.57186405712088</ele>
      </trkpt>
      <trkpt lat="1.4013123591592036" lon="104.06691302902784">
        <ele>16.727054164918247</ele>
      </trkpt>
      <trkpt lat="1.4013354251542773" lon="104.06699991462047">
        <ele>16.882244493424892</ele>
      </trkpt>
      <trkpt lat="1.4013584911458175" lon="104.06708680021428">
        <ele>17.037434821931537</ele>
      </trkpt>
      <trkpt lat="1.4013815571338222" lon="104.0671736858093">
        <ele>17.192625150438204</ele>
      </trkpt>
      <trkpt lat="1.401404623118292" lon="104.06726057140551">
        <ele>17.347815478944874</ele>
      </trkpt>
      <trkpt lat="1.4014276890992268" lon="104.06734745700292">
        <ele>17.503005807451522</ele>
      </trkpt>
      <trkpt lat="1.4014507550766269" lon="104.06743434260153">
        <ele>17.6581961359582</ele>
      </trkpt>
      <trkpt lat="1.4014738210504911" lon="104.06752122820133">
        <ele>17.813386464464845</ele>
      </trkpt>
      <trkpt lat="1.4014968870208202" lon="104.06760811380234">
        <ele>17.968576792971515</ele>
      </trkpt>
      <trkpt lat="1.4015199529876137" lon="104.06769499940454">
        <ele>18.123767121478185</ele>
      </trkpt>
      <trkpt lat="1.4015430189508706" lon="104.06778188500792">
        <ele>18.27895744998483</ele>
      </trkpt>
      <trkpt lat="1.401566084910592" lon="104.0678687706125">
        <ele>18.434147778491507</ele>
      </trkpt>
      <trkpt lat="1.401589150866777" lon="104.06795565621829">
        <ele>18.54346939248575</ele>
      </trkpt>
      <trkpt lat="1.4016122168194258" lon="104.06804254182526">
        <ele>18.598241433128525</ele>
      </trkpt>
      <trkpt lat="1.4016352827685383" lon="104.06812942743343">
        <ele>18.59813792993996</ele>
      </trkpt>
      <trkpt lat="1.4016583487141139" lon="104.0682163130428">
        <ele>18.5873377620437</ele>
      </trkpt>
      <trkpt lat="1.401682919447182" lon="104.0683027886321">
        <ele>18.50012160463553</ele>
      </trkpt>
      <trkpt lat="1.401707685606464" lon="104.06838921097257">
        <ele>18.302337552407778</ele>
      </trkpt>
      <trkpt lat="1.4017324517622238" lon="104.06847563331435">
        <ele>17.99567544074922</ele>
      </trkpt>
      <trkpt lat="1.4017572179144602" lon="104.06856205565747">
        <ele>17.65453545330324</ele>
      </trkpt>
      <trkpt lat="1.4017819840631731" lon="104.0686484780019">
        <ele>17.31339546585726</ele>
      </trkpt>
      <trkpt lat="1.4018067502083629" lon="104.06873490034765">
        <ele>16.972255478411274</ele>
      </trkpt>
      <trkpt lat="1.4018315163500288" lon="104.06882132269472">
        <ele>16.63111549096521</ele>
      </trkpt>
      <trkpt lat="1.4018562824881704" lon="104.0689077450431">
        <ele>16.289975503519152</ele>
      </trkpt>
      <trkpt lat="1.4018810486227893" lon="104.06899416739283">
        <ele>15.948835516073087</ele>
      </trkpt>
      <trkpt lat="1.401905814753883" lon="104.06908058974386">
        <ele>15.60769552862702</ele>
      </trkpt>
      <trkpt lat="1.4019305808814526" lon="104.06916701209622">
        <ele>15.266555541181036</ele>
      </trkpt>
      <trkpt lat="1.4019553470054977" lon="104.06925343444989">
        <ele>14.925415553735055</ele>
      </trkpt>
      <trkpt lat="1.401980113126018" lon="104.06933985680487">
        <ele>14.584275566289074</ele>
      </trkpt>
      <trkpt lat="1.4020048792430142" lon="104.0694262791612">
        <ele>14.243135578843008</ele>
      </trkpt>
      <trkpt lat="1.4020296453564844" lon="104.06951270151883">
        <ele>13.90199559139694</ele>
      </trkpt>
      <trkpt lat="1.4020544114664302" lon="104.06959912387778">
        <ele>13.560855603950884</ele>
      </trkpt>
      <trkpt lat="1.40207917757285" lon="104.06968554623806">
        <ele>13.21971561650482</ele>
      </trkpt>
      <trkpt lat="1.4021039436757448" lon="104.06977196859965">
        <ele>12.878575629058753</ele>
      </trkpt>
      <trkpt lat="1.4021287097751136" lon="104.06985839096257">
        <ele>12.544879337815736</ele>
      </trkpt>
      <trkpt lat="1.4021671408732794" lon="104.06993745064824">
        <ele>12.23004083289912</ele>
      </trkpt>
      <trkpt lat="1.4022265257479583" lon="104.07000522047817">
        <ele>11.934060114308906</ele>
      </trkpt>
      <trkpt lat="1.402285910620049" lon="104.07007299031146">
        <ele>11.649493485842036</ele>
      </trkpt>
      <trkpt lat="1.402345295489551" lon="104.07014076014806">
        <ele>11.364926857375167</ele>
      </trkpt>
      <trkpt lat="1.402404680356464" lon="104.07020852998801">
        <ele>11.080360228908297</ele>
      </trkpt>
      <trkpt lat="1.4024640652207887" lon="104.07027629983129">
        <ele>10.795793600441428</ele>
      </trkpt>
      <trkpt lat="1.4025234500825232" lon="104.07034406967792">
        <ele>10.511226971974557</ele>
      </trkpt>
      <trkpt lat="1.4025828349416687" lon="104.07041183952788">
        <ele>10.226660343507687</ele>
      </trkpt>
      <trkpt lat="1.4026422197982242" lon="104.07047960938117">
        <ele>9.942093715040732</ele>
      </trkpt>
      <trkpt lat="1.40270160465219" lon="104.0705473792378">
        <ele>9.65752708657378</ele>
      </trkpt>
      <trkpt lat="1.402760989503565" lon="104.07061514909775">
        <ele>9.372960458106824</ele>
      </trkpt>
      <trkpt lat="1.4028203743523495" lon="104.07068291896105">
        <ele>9.088393829639955</ele>
      </trkpt>
      <trkpt lat="1.4028797591985438" lon="104.07075068882769">
        <ele>8.803827201173085</ele>
      </trkpt>
      <trkpt lat="1.4029391440421468" lon="104.07081845869767">
        <ele>8.519260572706216</ele>
      </trkpt>
      <trkpt lat="1.402998528883158" lon="104.07088622857097">
        <ele>8.234693944239345</ele>
      </trkpt>
      <trkpt lat="1.403057913721578" lon="104.07095399844762">
        <ele>7.950127315772474</ele>
      </trkpt>
      <trkpt lat="1.4031172985574063" lon="104.07102176832761">
        <ele>7.665560687305605</ele>
      </trkpt>
      <trkpt lat="1.403176683390642" lon="104.07108953821093">
        <ele>7.380994058838735</ele>
      </trkpt>
      <trkpt lat="1.403236068221286" lon="104.07115730809758">
        <ele>7.096427430371865</ele>
      </trkpt>
      <trkpt lat="1.4032954530493373" lon="104.07122507798756">
        <ele>6.811860801904911</ele>
      </trkpt>
      <trkpt lat="1.4033548378747955" lon="104.0712928478809">
        <ele>6.515937558562816</ele>
      </trkpt>
      <trkpt lat="1.403415882087575" lon="104.07135856535996">
        <ele>6.214148127975772</ele>
      </trkpt>
      <trkpt lat="1.4034952849110285" lon="104.07140157597904">
        <ele>5.906492510143811</ele>
      </trkpt>
      <trkpt lat="1.4035746877331343" lon="104.07144458660133">
        <ele>5.604327319942041</ele>
      </trkpt>
      <trkpt lat="1.4036540905538912" lon="104.07148759722683">
        <ele>5.302162129740271</ele>
      </trkpt>
      <trkpt lat="1.4037334933733" lon="104.07153060785558">
        <ele>4.9999969395385016</ele>
      </trkpt>
      <trkpt lat="1.4038128961913596" lon="104.07157361848752">
        <ele>4.692347685049717</ele>
      </trkpt>
      <trkpt lat="1.4038922990080704" lon="104.0716166291227">
        <ele>4.37988916195495</ele>
      </trkpt>
      <trkpt lat="1.4039717018234321" lon="104.07165963976111">
        <ele>4.08240113738282</ele>
      </trkpt>
      <trkpt lat="1.4040511046374449" lon="104.07170265040273">
        <ele>3.8053676756203494</ele>
      </trkpt>
      <trkpt lat="1.4041305074501083" lon="104.07174566104756">
        <ele>3.5598974732801665</ele>
      </trkpt>
      <trkpt lat="1.404198999136398" lon="104.07178276139383">
        <ele>3.4371623721101026</ele>
      </trkpt>
      <trkpt lat="1.404262818849678" lon="104.07184642712213">
        <ele>3.1009376020764776</ele>
      </trkpt>
      <trkpt lat="1.4042720636309247" lon="104.07185564327315">
        <ele>3.1009376020764776</ele>
      </trkpt>
      <trkpt lat="1.404309307528428" lon="104.07193693629782">
        <ele>2.8248747497745366</ele>
      </trkpt>
      <trkpt lat="1.4043312157951813" lon="104.07202409042621">
        <ele>2.7166082326012724</ele>
      </trkpt>
      <trkpt lat="1.404357173641069" lon="104.07211016688352">
        <ele>2.640690958241204</ele>
      </trkpt>
      <trkpt lat="1.4043831314834336" lon="104.07219624334225">
        <ele>2.572178215774081</ele>
      </trkpt>
      <trkpt lat="1.4044090893222765" lon="104.07228231980237">
        <ele>2.5036654733069583</ele>
      </trkpt>
      <trkpt lat="1.4044350471575962" lon="104.07236839626391">
        <ele>2.4489007741089033</ele>
      </trkpt>
      <trkpt lat="1.404468202347122" lon="104.07245177976812">
        <ele>2.4215920645070876</ele>
      </trkpt>
      <trkpt lat="1.4045083485484866" lon="104.07253207923232">
        <ele>2.4437944907303617</ele>
      </trkpt>
      <trkpt lat="1.4045592485769713" lon="104.07260635292934">
        <ele>2.8630796174056172</ele>
      </trkpt>
      <trkpt lat="1.4046101486025044" lon="104.07268062662938">
        <ele>3.793587915979534</ele>
      </trkpt>
      <trkpt lat="1.4046610941861286" lon="104.07275486947658">
        <ele>5.21324556463108</ele>
      </trkpt>
      <trkpt lat="1.4047120631256063" lon="104.07282909650722">
        <ele>6.574793654071222</ele>
      </trkpt>
      <trkpt lat="1.4047648633230927" lon="104.07290198321822">
        <ele>7.38646336666891</ele>
      </trkpt>
      <trkpt lat="1.4048210960225878" lon="104.07297235763944">
        <ele>7.648273378016023</ele>
      </trkpt>
      <trkpt lat="1.404877328719342" lon="104.0730427320639">
        <ele>7.5461629895055955</ele>
      </trkpt>
      <trkpt lat="1.404933561413354" lon="104.07311310649158">
        <ele>7.444052600995168</ele>
      </trkpt>
      <trkpt lat="1.4049897941046245" lon="104.0731834809225">
        <ele>7.341942212484741</ele>
      </trkpt>
      <trkpt lat="1.4050460267931535" lon="104.07325385535664">
        <ele>7.322058414691207</ele>
      </trkpt>
      <trkpt lat="1.4051022594789395" lon="104.07332422979401">
        <ele>7.431939838784859</ele>
      </trkpt>
      <trkpt lat="1.4051584921619829" lon="104.07339460423462">
        <ele>7.671586484766202</ele>
      </trkpt>
      <trkpt lat="1.405214724842284" lon="104.07346497867846">
        <ele>7.958771761917807</ele>
      </trkpt>
      <trkpt lat="1.4052709575198417" lon="104.07353535312554">
        <ele>8.242284113737368</ele>
      </trkpt>
      <trkpt lat="1.40532673226572" lon="104.07360608384103">
        <ele>8.518086987673483</ele>
      </trkpt>
      <trkpt lat="1.4053820037439742" lon="104.07367720609588">
        <ele>8.745705808498462</ele>
      </trkpt>
      <trkpt lat="1.405429887268543" lon="104.07375328858548">
        <ele>8.950756121062781</ele>
      </trkpt>
      <trkpt lat="1.4054756789762228" lon="104.07383077551066">
        <ele>9.125591840902308</ele>
      </trkpt>
      <trkpt lat="1.4055199522813409" lon="104.07390910930488">
        <ele>9.298772836242842</ele>
      </trkpt>
      <trkpt lat="1.4055626770215532" lon="104.07398830679058">
        <ele>9.448356487565368</ele>
      </trkpt>
      <trkpt lat="1.4056054017585484" lon="104.07406750427884">
        <ele>9.43468563707276</ele>
      </trkpt>
      <trkpt lat="1.4056481264923255" lon="104.07414670176965">
        <ele>9.043983089308176</ele>
      </trkpt>
      <trkpt lat="1.405690851222885" lon="104.07422589926301">
        <ele>8.276248844272036</ele>
      </trkpt>
      <trkpt lat="1.4057335759502265" lon="104.07430509675892">
        <ele>7.271615469772601</ele>
      </trkpt>
      <trkpt lat="1.4057612368706545" lon="104.07439006377508">
        <ele>6.3779932749007076</ele>
      </trkpt>
      <trkpt lat="1.4057694259230098" lon="104.07447938044709">
        <ele>5.661338237113893</ele>
      </trkpt>
      <trkpt lat="1.405777589239842" lon="104.07456845978311">
        <ele>5.247105074999097</ele>
      </trkpt>
      <trkpt lat="1.4058173249449697" lon="104.07464917891915">
        <ele>5.013075381924455</ele>
      </trkpt>
      <trkpt lat="1.405857060646801" lon="104.07472989805753">
        <ele>4.893293180432235</ele>
      </trkpt>
      <trkpt lat="1.4058967963453366" lon="104.0748106171983">
        <ele>4.773510978940013</ele>
      </trkpt>
      <trkpt lat="1.4059365320405754" lon="104.07489133634141">
        <ele>4.6311886777278675</ele>
      </trkpt>
      <trkpt lat="1.4059705913630738" lon="104.07497455167758">
        <ele>4.486906488566871</ele>
      </trkpt>
      <trkpt lat="1.4060040032835646" lon="104.07505805171007">
        <ele>4.7138333410006945</ele>
      </trkpt>
      <trkpt lat="1.4060374152006268" lon="104.0751415517445">
        <ele>5.20870284760613</ele>
      </trkpt>
      <trkpt lat="1.4060708271142608" lon="104.07522505178086">
        <ele>5.730475157982414</ele>
      </trkpt>
      <trkpt lat="1.4061042390244662" lon="104.07530855181918">
        <ele>5.90598134258542</ele>
      </trkpt>
      <trkpt lat="1.4061376509312433" lon="104.07539205185942">
        <ele>5.861027888558738</ele>
      </trkpt>
      <trkpt lat="1.4061710628345914" lon="104.07547555190162">
        <ele>5.816074434532055</ele>
      </trkpt>
      <trkpt lat="1.4062044747345102" lon="104.07555905194573">
        <ele>5.771120980505496</ele>
      </trkpt>
      <trkpt lat="1.4062378866309995" lon="104.0756425519918">
        <ele>5.726167526478814</ele>
      </trkpt>
      <trkpt lat="1.406271298524059" lon="104.07572605203981">
        <ele>5.681214072452132</ele>
      </trkpt>
      <trkpt lat="1.4063047104136894" lon="104.07580955208975">
        <ele>5.6362606184254505</ele>
      </trkpt>
      <trkpt lat="1.4063381222998887" lon="104.07589305214162">
        <ele>5.591307164398892</ele>
      </trkpt>
      <trkpt lat="1.4063715341826588" lon="104.07597655219546">
        <ele>5.552890867762287</ele>
      </trkpt>
      <trkpt lat="1.4064062512900848" lon="104.07605950944298">
        <ele>5.52949023018384</ele>
      </trkpt>
      <trkpt lat="1.4064426612367218" lon="104.07614176268622">
        <ele>5.521105251663674</ele>
      </trkpt>
      <trkpt lat="1.4064790711799844" lon="104.07622401593161">
        <ele>5.521198774811836</ele>
      </trkpt>
      <trkpt lat="1.4065154811198726" lon="104.07630626917914">
        <ele>5.508308518494988</ele>
      </trkpt>
      <trkpt lat="1.406549299124026" lon="104.07638960153822">
        <ele>5.480732860809982</ele>
      </trkpt>
      <trkpt lat="1.4065827774325323" lon="104.07647307532467">
        <ele>5.43847180175694</ele>
      </trkpt>
      <trkpt lat="1.406616255737608" lon="104.07655654911305">
        <ele>5.394509120800873</ele>
      </trkpt>
      <trkpt lat="1.4066497340392532" lon="104.07664002290338">
        <ele>5.350546439844926</ele>
      </trkpt>
      <trkpt lat="1.4066832123374668" lon="104.07672349669564">
        <ele>5.306583758888859</ele>
      </trkpt>
      <trkpt lat="1.4067166906322495" lon="104.07680697048984">
        <ele>5.262621077932913</ele>
      </trkpt>
      <trkpt lat="1.4067501689236002" lon="104.076890444286">
        <ele>5.218658396976846</ele>
      </trkpt>
      <trkpt lat="1.40678364721152" lon="104.07697391808408">
        <ele>5.174695716021177</ele>
      </trkpt>
      <trkpt lat="1.4068171254960078" lon="104.07705739188411">
        <ele>5.130733035065389</ele>
      </trkpt>
      <trkpt lat="1.406850603777063" lon="104.07714086568609">
        <ele>5.086770354109723</ele>
      </trkpt>
      <trkpt lat="1.4068840820546857" lon="104.07722433949">
        <ele>5.042807673153656</ele>
      </trkpt>
      <trkpt lat="1.4069175603288764" lon="104.07730781329586">
        <ele>4.998844992197588</ele>
      </trkpt>
      <trkpt lat="1.4069510385996342" lon="104.07739128710367">
        <ele>4.95488231124152</ele>
      </trkpt>
      <trkpt lat="1.406984516866959" lon="104.07747476091339">
        <ele>4.910919630285452</ele>
      </trkpt>
      <trkpt lat="1.4070179951308508" lon="104.07755823472507">
        <ele>4.866956949329507</ele>
      </trkpt>
      <trkpt lat="1.4070514733913089" lon="104.0776417085387">
        <ele>4.848795065345719</ele>
      </trkpt>
      <trkpt lat="1.407084951648334" lon="104.07772518235427">
        <ele>4.860358378512434</ele>
      </trkpt>
      <trkpt lat="1.4071184299019248" lon="104.07780865617177">
        <ele>4.901646888829414</ele>
      </trkpt>
      <trkpt lat="1.4071519081520811" lon="104.07789212999123">
        <ele>4.968514294571269</ele>
      </trkpt>
      <trkpt lat="1.4071891612563874" lon="104.07797373389569">
        <ele>5.112616273755509</ele>
      </trkpt>
      <trkpt lat="1.4072361031946978" lon="104.07805053833133">
        <ele>5.376748349036458</ele>
      </trkpt>
      <trkpt lat="1.4072898951408133" lon="104.0781219705252">
        <ele>5.804785686630215</ele>
      </trkpt>
      <trkpt lat="1.4073541760062616" lon="104.07818517659622">
        <ele>6.341148208340729</ele>
      </trkpt>
      <trkpt lat="1.4074184568693417" lon="104.07824838267072">
        <ele>6.836929916893485</ele>
      </trkpt>
      <trkpt lat="1.4074657499471281" lon="104.07832489991158">
        <ele>7.129504742852158</ele>
      </trkpt>
      <trkpt lat="1.4074955024640956" lon="104.07840811306554">
        <ele>7.138286797985532</ele>
      </trkpt>
      <trkpt lat="1.407510631484669" lon="104.07849670334515">
        <ele>6.966268034573112</ele>
      </trkpt>
      <trkpt lat="1.4075251556061066" lon="104.078585394559">
        <ele>6.710544860588562</ele>
      </trkpt>
      <trkpt lat="1.4075396797239548" lon="104.07867408577336">
        <ele>6.951366213728359</ele>
      </trkpt>
      <trkpt lat="1.4075542038382134" lon="104.07876277698824">
        <ele>7.695405695624139</ele>
      </trkpt>
      <trkpt lat="1.4075687279488822" lon="104.07885146820364">
        <ele>8.446604493967982</ele>
      </trkpt>
      <trkpt lat="1.407583252055961" lon="104.07894015941957">
        <ele>8.648887709827738</ele>
      </trkpt>
      <trkpt lat="1.4075977761594496" lon="104.07902885063602">
        <ele>8.298700263913066</ele>
      </trkpt>
      <trkpt lat="1.4076123002593484" lon="104.079117541853">
        <ele>7.896264645083217</ele>
      </trkpt>
      <trkpt lat="1.4076273477075956" lon="104.07920614671129">
        <ele>7.5139245894799025</ele>
      </trkpt>
      <trkpt lat="1.4076424554156612" lon="104.07929474162596">
        <ele>7.226686087165198</ele>
      </trkpt>
      <trkpt lat="1.4076575631201365" lon="104.07938333654121">
        <ele>7.0303854615879215</ele>
      </trkpt>
      <trkpt lat="1.407672670821021" lon="104.07947193145702">
        <ele>6.909090826073213</ele>
      </trkpt>
      <trkpt lat="1.4076877785183146" lon="104.07956052637341">
        <ele>6.78779619055886</ele>
      </trkpt>
      <trkpt lat="1.4077028862120171" lon="104.07964912129034">
        <ele>6.666501555044152</ele>
      </trkpt>
      <trkpt lat="1.407717993902128" lon="104.07973771620787">
        <ele>6.545206919529799</ele>
      </trkpt>
      <trkpt lat="1.4077331015886483" lon="104.07982631112594">
        <ele>6.446082197516534</ele>
      </trkpt>
      <trkpt lat="1.4077482092715765" lon="104.07991490604458">
        <ele>6.380986492567392</ele>
      </trkpt>
      <trkpt lat="1.4077633169509136" lon="104.08000350096378">
        <ele>6.349919804681632</ele>
      </trkpt>
      <trkpt lat="1.407778424626659" lon="104.08009209588356">
        <ele>6.330712220358076</ele>
      </trkpt>
      <trkpt lat="1.4077935322988127" lon="104.08018069080389">
        <ele>6.311504636034606</ele>
      </trkpt>
      <trkpt lat="1.4078086399673746" lon="104.08026928572478">
        <ele>6.292297051711134</ele>
      </trkpt>
      <trkpt lat="1.4078237476323443" lon="104.08035788064625">
        <ele>6.2730894673881386</ele>
      </trkpt>
      <trkpt lat="1.4078388552937222" lon="104.08044647556827">
        <ele>5.894426332599743</ele>
      </trkpt>
      <trkpt lat="1.407857581195565" lon="104.08053392492609">
        <ele>5.318686606666033</ele>
      </trkpt>
      <trkpt lat="1.407896844554217" lon="104.08061487196265">
        <ele>4.867466979681777</ele>
      </trkpt>
      <trkpt lat="1.4079361079095454" lon="104.08069581900156">
        <ele>4.900223002112603</ele>
      </trkpt>
      <trkpt lat="1.407975371261551" lon="104.08077676604279">
        <ele>5.254575714638956</ele>
      </trkpt>
      <trkpt lat="1.408014634610233" lon="104.08085771308635">
        <ele>5.60892842716531</ele>
      </trkpt>
      <trkpt lat="1.4080538979555908" lon="104.08093866013223">
        <ele>5.963281139691663</ele>
      </trkpt>
      <trkpt lat="1.4080931612976253" lon="104.08101960718044">
        <ele>6.076201300747286</ele>
      </trkpt>
      <trkpt lat="1.40812861247081" lon="104.08110215113514">
        <ele>5.856504053285619</ele>
      </trkpt>
      <trkpt lat="1.4081595253804424" lon="104.08118659615465">
        <ele>5.303645023953134</ele>
      </trkpt>
      <trkpt lat="1.4081900672760292" lon="104.08127117078189">
        <ele>4.656903576093414</ele>
      </trkpt>
      <trkpt lat="1.408219141690818" lon="104.08135625804796">
        <ele>4.0074645667532085</ele>
      </trkpt>
      <trkpt lat="1.4082482161020984" lon="104.08144134531567">
        <ele>3.3558723692859096</ele>
      </trkpt>
      <trkpt lat="1.4082772905098695" lon="104.081526432585">
        <ele>2.743340631474547</ele>
      </trkpt>
      <trkpt lat="1.4083063649141314" lon="104.08161151985594">
        <ele>2.3722211276922436</ele>
      </trkpt>
      <trkpt lat="1.408335439314884" lon="104.0816966071285">
        <ele>2.2425138579388064</ele>
      </trkpt>
      <trkpt lat="1.408364513712127" lon="104.08178169440271">
        <ele>2.3363183647479207</ele>
      </trkpt>
      <trkpt lat="1.4084084611000727" lon="104.08186009908">
        <ele>2.4529186259374307</ele>
      </trkpt>
      <trkpt lat="1.4084535582263438" lon="104.08193798716856">
        <ele>2.5958802074200684</ele>
      </trkpt>
      <trkpt lat="1.4085011035268007" lon="104.08201430303448">
        <ele>2.7519177946174636</ele>
      </trkpt>
      <trkpt lat="1.408554055716851" lon="104.08208714658409">
        <ele>2.919395635338832</ele>
      </trkpt>
      <trkpt lat="1.4086070079039983" lon="104.08215999013682">
        <ele>3.0947481636714524</ele>
      </trkpt>
      <trkpt lat="1.408659960088242" lon="104.08223283369261">
        <ele>3.188537100361387</ele>
      </trkpt>
      <trkpt lat="1.4087207483702224" lon="104.08229896593298">
        <ele>3.1748001913485955</ele>
      </trkpt>
      <trkpt lat="1.4087854510999342" lon="104.08236174560086">
        <ele>3.053537436632984</ele>
      </trkpt>
      <trkpt lat="1.4088501538272882" lon="104.08242452527224">
        <ele>2.9499660062566533</ele>
      </trkpt>
      <trkpt lat="1.4088573016810826" lon="104.08243146068212">
        <ele>2.8981802910684396</ele>
      </trkpt>
      <trkpt lat="1.4089095282218786" lon="104.08235810173946">
        <ele>3.3172675842194006</ele>
      </trkpt>
      <trkpt lat="1.4089617547609117" lon="104.0822847427933">
        <ele>3.74448701415916</ele>
      </trkpt>
      <trkpt lat="1.409013981298181" lon="104.08221138384368">
        <ele>4.17170644409892</ele>
      </trkpt>
      <trkpt lat="1.4090662078336875" lon="104.0821380248906">
        <ele>4.59892587403868</ele>
      </trkpt>
      <trkpt lat="1.4091184343674297" lon="104.08206466593403">
        <ele>5.0261453039784385</ele>
      </trkpt>
      <trkpt lat="1.4091706608994086" lon="104.08199130697398">
        <ele>5.394913082586753</ele>
      </trkpt>
      <trkpt lat="1.4092228874296224" lon="104.08191794801049">
        <ele>5.704295443199844</ele>
      </trkpt>
      <trkpt lat="1.4092751139580721" lon="104.08184458904348">
        <ele>5.954292385817543</ele>
      </trkpt>
      <trkpt lat="1.409327340484757" lon="104.08177123007303">
        <ele>6.203355561771294</ele>
      </trkpt>
      <trkpt lat="1.409379567009677" lon="104.0816978710991">
        <ele>6.4524187377249556</ele>
      </trkpt>
      <trkpt lat="1.4094317935328315" lon="104.0816245121217">
        <ele>6.701481913678619</ele>
      </trkpt>
      <trkpt lat="1.409484020054221" lon="104.08155115314082">
        <ele>6.950545089632282</ele>
      </trkpt>
      <trkpt lat="1.409536246573844" lon="104.08147779415648">
        <ele>7.1996082655859555</ele>
      </trkpt>
      <trkpt lat="1.409588473091701" lon="104.08140443516865">
        <ele>7.453418334033369</ele>
      </trkpt>
      <trkpt lat="1.4096446891391567" lon="104.08133460084468">
        <ele>7.725064420435101</ele>
      </trkpt>
      <trkpt lat="1.409711905956189" lon="104.08127448546773">
        <ele>8.014546524791164</ele>
      </trkpt>
      <trkpt lat="1.4097791227722343" lon="104.08121437008741">
        <ele>8.31867870461115</ele>
      </trkpt>
      <trkpt lat="1.4098477039055604" lon="104.08115581698411">
        <ele>8.625277342008284</ele>
      </trkpt>
      <trkpt lat="1.4099170764794386" lon="104.08109817015685">
        <ele>8.958863243517948</ele>
      </trkpt>
      <trkpt lat="1.4099864490524467" lon="104.08104052332631">
        <ele>9.382980684479504</ele>
      </trkpt>
      <trkpt lat="1.4100558216245844" lon="104.08098287649246">
        <ele>9.802627283257534</ele>
      </trkpt>
      <trkpt lat="1.4100913628573613" lon="104.0809533426351">
        <ele>10.045003195317893</ele>
      </trkpt>
      <trkpt lat="1.4100263192901057" lon="104.08089091160411">
        <ele>10.603949093919477</ele>
      </trkpt>
      <trkpt lat="1.4099612757205127" lon="104.08082848057661">
        <ele>11.037827396240063</ele>
      </trkpt>
      <trkpt lat="1.4099044453053937" lon="104.08075908983629">
        <ele>11.511789559479014</ele>
      </trkpt>
      <trkpt lat="1.409853774329362" lon="104.08068467574783">
        <ele>12.039257826556105</ele>
      </trkpt>
      <trkpt lat="1.4098097186104754" lon="104.08060658878514">
        <ele>12.614714419138815</ele>
      </trkpt>
      <trkpt lat="1.409774735337401" lon="104.08052372644562">
        <ele>13.218750188932347</ele>
      </trkpt>
      <trkpt lat="1.4097382450410867" lon="104.08044150987085">
        <ele>13.837693159369481</ele>
      </trkpt>
      <trkpt lat="1.409701606379642" lon="104.08035935687171">
        <ele>14.453849667065017</ele>
      </trkpt>
      <trkpt lat="1.4096649677148128" lon="104.08027720387474">
        <ele>15.069756441113142</ele>
      </trkpt>
      <trkpt lat="1.4096283290466" lon="104.08019505087992">
        <ele>15.685663215161265</ele>
      </trkpt>
      <trkpt lat="1.4095916903750036" lon="104.08011289788726">
        <ele>16.30156998920939</ele>
      </trkpt>
      <trkpt lat="1.409555051700024" lon="104.08003074489675">
        <ele>16.917476763257515</ele>
      </trkpt>
      <trkpt lat="1.4095184130216616" lon="104.07994859190842">
        <ele>17.533383537305678</ele>
      </trkpt>
      <trkpt lat="1.4094817743399162" lon="104.07986643892222">
        <ele>18.1492903113538</ele>
      </trkpt>
      <trkpt lat="1.409445135654788" lon="104.07978428593819">
        <ele>18.765197085401926</ele>
      </trkpt>
      <trkpt lat="1.409408496966278" lon="104.07970213295633">
        <ele>19.38110385945005</ele>
      </trkpt>
      <trkpt lat="1.4093718582743855" lon="104.0796199799766">
        <ele>19.792704830982753</ele>
      </trkpt>
      <trkpt lat="1.4093352195791111" lon="104.07953782699906">
        <ele>19.999003544499402</ele>
      </trkpt>
      <trkpt lat="1.4092985808804552" lon="104.07945567402365">
        <ele>20.0</ele>
      </trkpt>
      <trkpt lat="1.4092619421784178" lon="104.07937352105041">
        <ele>20.0</ele>
      </trkpt>
      <trkpt lat="1.4092253034729996" lon="104.07929136807934">
        <ele>20.0</ele>
      </trkpt>
      <trkpt lat="1.4091886647641996" lon="104.07920921511042">
        <ele>20.0</ele>
      </trkpt>
      <trkpt lat="1.4091520260520196" lon="104.07912706214366">
        <ele>20.0</ele>
      </trkpt>
      <trkpt lat="1.4091153873364588" lon="104.07904490917905">
        <ele>20.0</ele>
      </trkpt>
      <trkpt lat="1.4090787486175178" lon="104.07896275621661">
        <ele>20.0</ele>
      </trkpt>
      <trkpt lat="1.4090421098951968" lon="104.07888060325632">
        <ele>20.0</ele>
      </trkpt>
      <trkpt lat="1.4090054711694957" lon="104.0787984502982">
        <ele>20.0</ele>
      </trkpt>
      <trkpt lat="1.408968832440415" lon="104.07871629734224">
        <ele>20.0</ele>
      </trkpt>
      <trkpt lat="1.408932193707955" lon="104.07863414438843">
        <ele>20.0</ele>
      </trkpt>
      <trkpt lat="1.4088955549721165" lon="104.07855199143678">
        <ele>20.0</ele>
      </trkpt>
      <trkpt lat="1.4088589162328982" lon="104.07846983848728">
        <ele>20.0</ele>
      </trkpt>
      <trkpt lat="1.4088222774903012" lon="104.07838768553995">
        <ele>20.0</ele>
      </trkpt>
      <trkpt lat="1.4087856387443265" lon="104.07830553259478">
        <ele>20.0</ele>
      </trkpt>
      <trkpt lat="1.4087489999949727" lon="104.07822337965177">
        <ele>20.0</ele>
      </trkpt>
      <trkpt lat="1.408712361242241" lon="104.07814122671093">
        <ele>20.0</ele>
      </trkpt>
      <trkpt lat="1.408675722486132" lon="104.07805907377222">
        <ele>20.0</ele>
      </trkpt>
      <trkpt lat="1.408639083726645" lon="104.0779769208357">
        <ele>20.0</ele>
      </trkpt>
      <trkpt lat="1.4086024449637815" lon="104.07789476790133">
        <ele>20.0</ele>
      </trkpt>
      <trkpt lat="1.40856580619754" lon="104.0778126149691">
        <ele>20.0</ele>
      </trkpt>
      <trkpt lat="1.4085291674279221" lon="104.07773046203904">
        <ele>20.0</ele>
      </trkpt>
      <trkpt lat="1.4084925286549275" lon="104.07764830911115">
        <ele>20.0</ele>
      </trkpt>
      <trkpt lat="1.40845569247177" lon="104.07756626510788">
        <ele>20.0</ele>
      </trkpt>
      <trkpt lat="1.4084048752186435" lon="104.07749193539183">
        <ele>20.0</ele>
      </trkpt>
      <trkpt lat="1.408358077236783" lon="104.07741536327342">
        <ele>20.0</ele>
      </trkpt>
      <trkpt lat="1.4083206603180056" lon="104.07733355733862">
        <ele>20.0</ele>
      </trkpt>
      <trkpt lat="1.4082973744973963" lon="104.07724763145457">
        <ele>20.0</ele>
      </trkpt>
      <trkpt lat="1.4082843724029808" lon="104.07715870732893">
        <ele>20.000000000000004</ele>
      </trkpt>
      <trkpt lat="1.4082758811883513" lon="104.07706931692651">
        <ele>20.0</ele>
      </trkpt>
      <trkpt lat="1.4082701833431355" lon="104.07697963778102">
        <ele>20.0</ele>
      </trkpt>
      <trkpt lat="1.4082644854943709" lon="104.07688995863535">
        <ele>20.0</ele>
      </trkpt>
      <trkpt lat="1.4082638993357548" lon="104.07680014059959">
        <ele>20.0</ele>
      </trkpt>
      <trkpt lat="1.408264656126956" lon="104.07671028607379">
        <ele>20.0</ele>
      </trkpt>
      <trkpt lat="1.408265412914682" lon="104.07662043154733">
        <ele>20.0</ele>
      </trkpt>
      <trkpt lat="1.4082661696989323" lon="104.07653057702021">
        <ele>20.0</ele>
      </trkpt>
      <trkpt lat="1.4082669264797074" lon="104.07644072249244">
        <ele>20.0</ele>
      </trkpt>
      <trkpt lat="1.4082757215326094" lon="104.07635189896702">
        <ele>20.0</ele>
      </trkpt>
      <trkpt lat="1.4082979541241973" lon="104.07626479896206">
        <ele>20.0</ele>
      </trkpt>
      <trkpt lat="1.4083201867127946" lon="104.07617769895494">
        <ele>20.0</ele>
      </trkpt>
      <trkpt lat="1.4083424192984002" lon="104.07609059894563">
        <ele>20.0</ele>
      </trkpt>
      <trkpt lat="1.408365586463638" lon="104.07600375368649">
        <ele>20.0</ele>
      </trkpt>
      <trkpt lat="1.4083911965768543" lon="104.07591757433465">
        <ele>20.0</ele>
      </trkpt>
      <trkpt lat="1.4084168066871867" lon="104.07583139498043">
        <ele>20.0</ele>
      </trkpt>
      <trkpt lat="1.408442416794635" lon="104.07574521562381">
        <ele>20.0</ele>
      </trkpt>
      <trkpt lat="1.4084680268991987" lon="104.07565903626481">
        <ele>20.0</ele>
      </trkpt>
      <trkpt lat="1.4084936370008783" lon="104.07557285690342">
        <ele>20.0</ele>
      </trkpt>
      <trkpt lat="1.408519247099673" lon="104.07548667753966">
        <ele>20.0</ele>
      </trkpt>
      <trkpt lat="1.408539053800798" lon="104.07539955742507">
        <ele>20.0</ele>
      </trkpt>
      <trkpt lat="1.4085423383527857" lon="104.07530975901761">
        <ele>20.0</ele>
      </trkpt>
      <trkpt lat="1.4085301061736126" lon="104.07522146761153">
        <ele>20.0</ele>
      </trkpt>
      <trkpt lat="1.4085065940833719" lon="104.0751349604483">
        <ele>20.0</ele>
      </trkpt>
      <trkpt lat="1.408468444319193" lon="104.07505348934083">
        <ele>20.0</ele>
      </trkpt>
      <trkpt lat="1.4084147215178768" lon="104.07498169239572">
        <ele>20.0</ele>
      </trkpt>
      <trkpt lat="1.408349184621551" lon="104.07492129643158">
        <ele>20.0</ele>
      </trkpt>
      <trkpt lat="1.4082736783951908" lon="104.07487184095069">
        <ele>20.0</ele>
      </trkpt>
      <trkpt lat="1.4081981721671732" lon="104.07482238547323">
        <ele>20.0</ele>
      </trkpt>
      <trkpt lat="1.4081226659374977" lon="104.07477292999917">
        <ele>20.0</ele>
      </trkpt>
      <trkpt lat="1.4080471597061646" lon="104.07472347452853">
        <ele>20.0</ele>
      </trkpt>
      <trkpt lat="1.4079716534731745" lon="104.07467401906132">
        <ele>20.0</ele>
      </trkpt>
      <trkpt lat="1.4078961472385276" lon="104.07462456359751">
        <ele>20.0</ele>
      </trkpt>
      <trkpt lat="1.4078206410022227" lon="104.07457510813714">
        <ele>20.0</ele>
      </trkpt>
      <trkpt lat="1.407745134764262" lon="104.07452565268017">
        <ele>20.0</ele>
      </trkpt>
      <trkpt lat="1.4076775576903502" lon="104.07446605741228">
        <ele>20.0</ele>
      </trkpt>
      <trkpt lat="1.4076106693954489" lon="104.07440558133474">
        <ele>20.0</ele>
      </trkpt>
      <trkpt lat="1.4075437810983327" lon="104.07434510526068">
        <ele>20.0</ele>
      </trkpt>
      <trkpt lat="1.4074768927990027" lon="104.07428462919015">
        <ele>20.0</ele>
      </trkpt>
      <trkpt lat="1.407410004497459" lon="104.0742241531231">
        <ele>20.0</ele>
      </trkpt>
      <trkpt lat="1.407343116193701" lon="104.07416367705956">
        <ele>20.0</ele>
      </trkpt>
      <trkpt lat="1.4072762278877295" lon="104.07410320099952">
        <ele>20.0</ele>
      </trkpt>
      <trkpt lat="1.4072093395795455" lon="104.07404272494298">
        <ele>20.0</ele>
      </trkpt>
      <trkpt lat="1.4071424512691475" lon="104.07398224888993">
        <ele>20.0</ele>
      </trkpt>
      <trkpt lat="1.4070755629565372" lon="104.07392177284041">
        <ele>20.0</ele>
      </trkpt>
      <trkpt lat="1.4070086746417145" lon="104.07386129679438">
        <ele>20.0</ele>
      </trkpt>
      <trkpt lat="1.4069595026156658" lon="104.07378745176543">
        <ele>20.0</ele>
      </trkpt>
      <trkpt lat="1.4069307627775989" lon="104.07370290550793">
        <ele>20.0</ele>
      </trkpt>
      <trkpt lat="1.4069154257903107" lon="104.07361474169339">
        <ele>20.0</ele>
      </trkpt>
      <trkpt lat="1.406913683907092" lon="104.07352490072127">
        <ele>20.0</ele>
      </trkpt>
      <trkpt lat="1.4069209134721032" lon="104.07343545640015">
        <ele>20.0</ele>
      </trkpt>
      <trkpt lat="1.4069306793070262" lon="104.07334612421313">
        <ele>20.0</ele>
      </trkpt>
      <trkpt lat="1.4069404451386345" lon="104.07325679202476">
        <ele>20.0</ele>
      </trkpt>
      <trkpt lat="1.4069502109669283" lon="104.0731674598351">
        <ele>20.0</ele>
      </trkpt>
      <trkpt lat="1.4069599767919077" lon="104.07307812764411">
        <ele>20.0</ele>
      </trkpt>
      <trkpt lat="1.4069695777790803" lon="104.07298878796415">
        <ele>20.0</ele>
      </trkpt>
      <trkpt lat="1.4069680561443902" lon="104.07289894303655">
        <ele>20.0</ele>
      </trkpt>
      <trkpt lat="1.4069665345061986" lon="104.0728090981085">
        <ele>20.0</ele>
      </trkpt>
      <trkpt lat="1.406965012864505" lon="104.07271925317994">
        <ele>20.0</ele>
      </trkpt>
      <trkpt lat="1.40696349121931" lon="104.07262940825092">
        <ele>20.0</ele>
      </trkpt>
      <trkpt lat="1.4069601676915207" lon="104.07253962265561">
        <ele>19.629115452038207</ele>
      </trkpt>
      <trkpt lat="1.4069556991975063" lon="104.07244987476257">
        <ele>18.786973478193158</ele>
      </trkpt>
      <trkpt lat="1.4069512306999596" lon="104.07236012686927">
        <ele>17.47357407846502</ele>
      </trkpt>
      <trkpt lat="1.40694676219888" lon="104.07227037897573">
        <ele>16.21238682406014</ele>
      </trkpt>
      <trkpt lat="1.406942873920987" lon="104.0721806189107">
        <ele>15.491453495592033</ele>
      </trkpt>
      <trkpt lat="1.406943526324044" lon="104.07209076359668">
        <ele>15.310774093060582</ele>
      </trkpt>
      <trkpt lat="1.406944178723627" lon="104.07200090828199">
        <ele>15.517763593221341</ele>
      </trkpt>
      <trkpt lat="1.4069448311197361" lon="104.07191105296667">
        <ele>15.725484081690269</ele>
      </trkpt>
      <trkpt lat="1.4069459383671707" lon="104.07182120979643">
        <ele>15.938914984956853</ele>
      </trkpt>
      <trkpt lat="1.4069501440410697" lon="104.0717314493609">
        <ele>16.158056303020988</ele>
      </trkpt>
      <trkpt lat="1.4069543497115484" lon="104.07164168892444">
        <ele>16.38217704757466</ele>
      </trkpt>
      <trkpt lat="1.406958555378607" lon="104.0715519284871">
        <ele>16.606297792128334</ele>
      </trkpt>
      <trkpt lat="1.406962761042246" lon="104.07146216804884">
        <ele>16.830418536682007</ele>
      </trkpt>
      <trkpt lat="1.4069669667024645" lon="104.07137240760967">
        <ele>17.054539281235687</ele>
      </trkpt>
      <trkpt lat="1.4069711723592635" lon="104.07128264716958">
        <ele>17.278660025789357</ele>
      </trkpt>
      <trkpt lat="1.4069753780126415" lon="104.0711928867286">
        <ele>17.502780770343033</ele>
      </trkpt>
      <trkpt lat="1.4069795836626002" lon="104.07110312628672">
        <ele>17.72690151489671</ele>
      </trkpt>
      <trkpt lat="1.4069837893091381" lon="104.0710133658439">
        <ele>17.951022259450383</ele>
      </trkpt>
      <trkpt lat="1.4069879949522563" lon="104.0709236054002">
        <ele>18.17514300400406</ele>
      </trkpt>
      <trkpt lat="1.4069922005919542" lon="104.07083384495559">
        <ele>18.399263748557733</ele>
      </trkpt>
      <trkpt lat="1.4069964062282312" lon="104.07074408451007">
        <ele>18.62338449311141</ele>
      </trkpt>
      <trkpt lat="1.4070006118610887" lon="104.07065432406363">
        <ele>18.820955287674632</ele>
      </trkpt>
      <trkpt lat="1.4069890264294334" lon="104.07056569272007">
        <ele>18.969449198742726</ele>
      </trkpt>
      <trkpt lat="1.4069646326850727" lon="104.07047928924838">
        <ele>19.043444022554812</ele>
      </trkpt>
      <trkpt lat="1.40692693983166" lon="104.0703978867701">
        <ele>19.06224770768755</ele>
      </trkpt>
      <trkpt lat="1.4068855073932478" lon="104.07031801422126">
        <ele>19.04838718764562</ele>
      </trkpt>
      <trkpt lat="1.4068440749515894" lon="104.07023814167488">
        <ele>19.027284666189896</ele>
      </trkpt>
      <trkpt lat="1.4068026425066842" lon="104.07015826913101">
        <ele>19.006182144734</ele>
      </trkpt>
      <trkpt lat="1.4067612100585323" lon="104.07007839658961">
        <ele>18.98507962327812</ele>
      </trkpt>
      <trkpt lat="1.4067197776071345" lon="104.06999852405067">
        <ele>18.970109956582657</ele>
      </trkpt>
      <trkpt lat="1.4067144686880362" lon="104.06998828963762">
        <ele>18.962625123235007</ele>
      </trkpt>
    </trkseg>
  </trk>
</gpx>