<?xml version="1.0" encoding="UTF-8"?>
<gpx xmlns="http://www.topografix.com/GPX/1/1" xmlns:xsi="http://www.w3.org/2001/XMLSchema-instance" xsi:schemaLocation="http://www.topografix.com/GPX/1/1 http://www.topografix.com/GPX/1/1/gpx.xsd" version="1.1" creator="gpx.py -- https://github.com/tkrajina/gpxpy">
  <trk>
    <name>point_to_point_05000m_007</name>
    <trkseg>
      <trkpt lat="1.409644489964969" lon="103.77253728448063">
        <ele>20.0</ele>
      </trkpt>
      <trkpt lat="1.409624449590329" lon="103.77262490894954">
        <ele>20.0</ele>
      </trkpt>
      <trkpt lat="1.4095881921054068" lon="103.77269970019462">
        <ele>20.0</ele>
      </trkpt>
      <trkpt lat="1.409505826187979" lon="103.77273463854426">
        <ele>20.0</ele>
      </trkpt>
      <trkpt lat="1.409416359914053" lon="103.77272802336512">
        <ele>20.107468836840493</ele>
      </trkpt>
      <trkpt lat="1.4093316242209522" lon="103.7726966247277">
        <ele>20.577575883334053</ele>
      </trkpt>
      <trkpt lat="1.409244803135946" lon="103.77268517443758">
        <ele>21.38805358454242</ele>
      </trkpt>
      <trkpt lat="1.4091553816772506" lon="103.7726985986835">
        <ele>22.43143310362537</ele>
      </trkpt>
      <trkpt lat="1.409065960218364" lon="103.77271202292826">
        <ele>23.434713194180016</ele>
      </trkpt>
      <trkpt lat="1.4089765387592854" lon="103.77272544717185">
        <ele>24.32011788658063</ele>
      </trkpt>
      <trkpt lat="1.4088912755355882" lon="103.77275442072302">
        <ele>25.104674707077496</ele>
      </trkpt>
      <trkpt lat="1.4088067824397619" lon="103.77277756034697">
        <ele>25.98973099045057</ele>
      </trkpt>
      <trkpt lat="1.4087213861326897" lon="103.77274798139813">
        <ele>27.050960088707615</ele>
      </trkpt>
      <trkpt lat="1.4086337659960273" lon="103.77272798992118">
        <ele>28.202966927143418</ele>
      </trkpt>
      <trkpt lat="1.4085443213632092" lon="103.77273002332898">
        <ele>29.13773499146322</ele>
      </trkpt>
      <trkpt lat="1.408461545386626" lon="103.77276113878484">
        <ele>29.90878722551173</ele>
      </trkpt>
      <trkpt lat="1.4083759354140744" lon="103.77278684882008">
        <ele>30.583721486200886</ele>
      </trkpt>
      <trkpt lat="1.4082896986653657" lon="103.77281347586714">
        <ele>31.291350772734177</ele>
      </trkpt>
      <trkpt lat="1.4082033314781666" lon="103.77283898475072">
        <ele>32.06057885584875</ele>
      </trkpt>
      <trkpt lat="1.4081137184831365" lon="103.77285108250544">
        <ele>33.062815046862475</ele>
      </trkpt>
      <trkpt lat="1.4080241003211191" lon="103.77286311870748">
        <ele>34.42155312268283</ele>
      </trkpt>
      <trkpt lat="1.4079337085127563" lon="103.7728659385561">
        <ele>36.069662316656895</ele>
      </trkpt>
      <trkpt lat="1.407844643459285" lon="103.77286402465595">
        <ele>37.73091533830574</ele>
      </trkpt>
      <trkpt lat="1.407771080179669" lon="103.77281279303396">
        <ele>39.03800315787768</ele>
      </trkpt>
      <trkpt lat="1.4077200501229574" lon="103.77273860648103">
        <ele>39.75916882154116</ele>
      </trkpt>
      <trkpt lat="1.40763347100201" lon="103.77274638130264">
        <ele>40.0</ele>
      </trkpt>
      <trkpt lat="1.407548130998366" lon="103.77277501401643">
        <ele>40.0</ele>
      </trkpt>
      <trkpt lat="1.40747520382296" lon="103.7728255646144">
        <ele>40.0</ele>
      </trkpt>
      <trkpt lat="1.4073979102620526" lon="103.77286338494673">
        <ele>40.0</ele>
      </trkpt>
      <trkpt lat="1.4073081368502296" lon="103.77286279884865">
        <ele>40.0</ele>
      </trkpt>
      <trkpt lat="1.407221774108575" lon="103.77287549098116">
        <ele>40.0</ele>
      </trkpt>
      <trkpt lat="1.4071390855914454" lon="103.7729118812674">
        <ele>40.0</ele>
      </trkpt>
      <trkpt lat="1.4070512999629166" lon="103.77293234000945">
        <ele>40.0</ele>
      </trkpt>
      <trkpt lat="1.4069626418263872" lon="103.77295007163771">
        <ele>40.431939372250305</ele>
      </trkpt>
      <trkpt lat="1.406873983689596" lon="103.7729678032645">
        <ele>41.61151183274173</ele>
      </trkpt>
      <trkpt lat="1.406785325552544" lon="103.77298553488981">
        <ele>43.51411613855712</ele>
      </trkpt>
      <trkpt lat="1.4067063170255558" lon="103.77302822686575">
        <ele>45.724918315707676</ele>
      </trkpt>
      <trkpt lat="1.4066211516174463" lon="103.77305566027026">
        <ele>47.936542854980075</ele>
      </trkpt>
      <trkpt lat="1.4065329513266038" lon="103.7730755185882">
        <ele>50.17323059487929</ele>
      </trkpt>
      <trkpt lat="1.4064445794544063" lon="103.77309455517747">
        <ele>52.41461337644203</ele>
      </trkpt>
      <trkpt lat="1.4063574537099743" lon="103.77311677444035">
        <ele>54.64674680448717</ele>
      </trkpt>
      <trkpt lat="1.406274765197185" lon="103.7731531647253">
        <ele>56.85792720577697</ele>
      </trkpt>
      <trkpt lat="1.4061888592307712" lon="103.77317163299745">
        <ele>58.5208807981962</ele>
      </trkpt>
      <trkpt lat="1.406108807587841" lon="103.77320632482206">
        <ele>59.42422887601898</ele>
      </trkpt>
      <trkpt lat="1.406028817860188" lon="103.77323908374187">
        <ele>59.49357594974854</ele>
      </trkpt>
      <trkpt lat="1.4059544041132048" lon="103.77328340935347">
        <ele>59.55158016428434</ele>
      </trkpt>
      <trkpt lat="1.4058644527331774" lon="103.77327411590718">
        <ele>58.517228529937604</ele>
      </trkpt>
      <trkpt lat="1.4057790811639366" lon="103.77328732709557">
        <ele>56.27079439284336</ele>
      </trkpt>
      <trkpt lat="1.4056922553916271" lon="103.77330130000007">
        <ele>52.35132995381651</ele>
      </trkpt>
      <trkpt lat="1.4056018190403379" lon="103.77330130000004">
        <ele>48.12139517845259</ele>
      </trkpt>
      <trkpt lat="1.405511812794087" lon="103.77330863786972">
        <ele>43.94800979481287</ele>
      </trkpt>
      <trkpt lat="1.4054219878663685" lon="103.77331906915173">
        <ele>41.26239209592109</ele>
      </trkpt>
      <trkpt lat="1.405332184808586" lon="103.77332967366308">
        <ele>40.0</ele>
      </trkpt>
      <trkpt lat="1.4052425499228576" lon="103.77334161024497">
        <ele>40.0</ele>
      </trkpt>
      <trkpt lat="1.405153216378429" lon="103.77335533174316">
        <ele>40.0</ele>
      </trkpt>
      <trkpt lat="1.4050644569708663" lon="103.7733723881218">
        <ele>40.0</ele>
      </trkpt>
      <trkpt lat="1.4049745037303554" lon="103.77338166377729">
        <ele>40.0</ele>
      </trkpt>
      <trkpt lat="1.404884550489707" lon="103.77339093943193">
        <ele>40.0</ele>
      </trkpt>
      <trkpt lat="1.4047981500265554" lon="103.77337310137172">
        <ele>40.0</ele>
      </trkpt>
      <trkpt lat="1.404713585807952" lon="103.77334124965277">
        <ele>40.0</ele>
      </trkpt>
      <trkpt lat="1.4046290215889496" lon="103.77330939793603">
        <ele>40.0</ele>
      </trkpt>
      <trkpt lat="1.4045444573695476" lon="103.77327754622144">
        <ele>40.0</ele>
      </trkpt>
      <trkpt lat="1.4044597978645301" lon="103.77324595523595">
        <ele>40.0</ele>
      </trkpt>
      <trkpt lat="1.404374367860575" lon="103.77321647255133">
        <ele>40.0</ele>
      </trkpt>
      <trkpt lat="1.4042889378562757" lon="103.77318698986872">
        <ele>40.0</ele>
      </trkpt>
      <trkpt lat="1.4042035078516322" lon="103.77315750718813">
        <ele>40.0</ele>
      </trkpt>
      <trkpt lat="1.4041180778466453" lon="103.77312802450957">
        <ele>40.0</ele>
      </trkpt>
      <trkpt lat="1.404032647841314" lon="103.77309854183304">
        <ele>40.0</ele>
      </trkpt>
      <trkpt lat="1.4039472178356396" lon="103.77306905915853">
        <ele>40.27194735689819</ele>
      </trkpt>
      <trkpt lat="1.403861787829621" lon="103.77303957648604">
        <ele>41.08825333823279</ele>
      </trkpt>
      <trkpt lat="1.4037763578232585" lon="103.77301009381557">
        <ele>42.448917944003334</ele>
      </trkpt>
      <trkpt lat="1.403690927816553" lon="103.77298061114715">
        <ele>43.947231914181174</ele>
      </trkpt>
      <trkpt lat="1.4036054978095038" lon="103.77295112848071">
        <ele>45.25998790491869</ele>
      </trkpt>
      <trkpt lat="1.4035200678021111" lon="103.77292164581633">
        <ele>46.38718591621646</ele>
      </trkpt>
      <trkpt lat="1.4034346377943752" lon="103.77289216315395">
        <ele>47.505285525895495</ele>
      </trkpt>
      <trkpt lat="1.4033492077862955" lon="103.7728626804936">
        <ele>48.677651288673985</ele>
      </trkpt>
      <trkpt lat="1.4032637777778731" lon="103.77283319783527">
        <ele>49.90428320455218</ele>
      </trkpt>
      <trkpt lat="1.4031783477691075" lon="103.77280371517897">
        <ele>51.14348359883915</ele>
      </trkpt>
      <trkpt lat="1.4030929177599987" lon="103.77277423252468">
        <ele>52.382683993126484</ele>
      </trkpt>
      <trkpt lat="1.4030074877505472" lon="103.77274474987243">
        <ele>53.62188438741345</ele>
      </trkpt>
      <trkpt lat="1.4029220577407526" lon="103.77271526722218">
        <ele>54.861084781700804</ele>
      </trkpt>
      <trkpt lat="1.4028366277306152" lon="103.77268578457395">
        <ele>56.067655046304175</ele>
      </trkpt>
      <trkpt lat="1.4027495186561987" lon="103.77266272416159">
        <ele>57.201457261139275</ele>
      </trkpt>
      <trkpt lat="1.402660448184877" lon="103.77264716587607">
        <ele>58.262491426205706</ele>
      </trkpt>
      <trkpt lat="1.4025713777134339" lon="103.77263160759158">
        <ele>59.18195969913105</ele>
      </trkpt>
      <trkpt lat="1.4024823072418706" lon="103.77261604930813">
        <ele>59.76112922372914</ele>
      </trkpt>
      <trkpt lat="1.402395242312825" lon="103.77259185984208">
        <ele>60.0</ele>
      </trkpt>
      <trkpt lat="1.4023083224270123" lon="103.77256704615921">
        <ele>60.0</ele>
      </trkpt>
      <trkpt lat="1.4022191546127414" lon="103.77255275024018">
        <ele>60.0</ele>
      </trkpt>
      <trkpt lat="1.4021295870789947" lon="103.77254032455667">
        <ele>60.0</ele>
      </trkpt>
      <trkpt lat="1.4020400195451543" lon="103.77252789887399">
        <ele>60.0</ele>
      </trkpt>
      <trkpt lat="1.40195045201122" lon="103.77251547319209">
        <ele>60.0</ele>
      </trkpt>
      <trkpt lat="1.4018608564801882" lon="103.77251194860075">
        <ele>60.0</ele>
      </trkpt>
      <trkpt lat="1.4017712125302697" lon="103.77252381778305">
        <ele>60.0</ele>
      </trkpt>
      <trkpt lat="1.401681568580182" lon="103.77253568696433">
        <ele>60.0</ele>
      </trkpt>
      <trkpt lat="1.4015919246299253" lon="103.77254755614454">
        <ele>60.0</ele>
      </trkpt>
      <trkpt lat="1.4015022806794997" lon="103.7725594253237">
        <ele>60.0</ele>
      </trkpt>
      <trkpt lat="1.4014126367289055" lon="103.77257129450183">
        <ele>60.0</ele>
      </trkpt>
      <trkpt lat="1.4013229927781412" lon="103.7725831636789">
        <ele>60.0</ele>
      </trkpt>
      <trkpt lat="1.4012333488272084" lon="103.77259503285492">
        <ele>60.0</ele>
      </trkpt>
      <trkpt lat="1.401143704876107" lon="103.7726069020299">
        <ele>60.0</ele>
      </trkpt>
      <trkpt lat="1.4010540609248363" lon="103.77261877120384">
        <ele>60.0</ele>
      </trkpt>
      <trkpt lat="1.4009644169733968" lon="103.77263064037672">
        <ele>60.0</ele>
      </trkpt>
      <trkpt lat="1.400874773021788" lon="103.77264250954856">
        <ele>60.0</ele>
      </trkpt>
      <trkpt lat="1.4007851290700102" lon="103.77265437871935">
        <ele>60.0</ele>
      </trkpt>
      <trkpt lat="1.400695485118064" lon="103.77266624788909">
        <ele>60.0</ele>
      </trkpt>
      <trkpt lat="1.4006058411659488" lon="103.77267811705778">
        <ele>60.0</ele>
      </trkpt>
      <trkpt lat="1.4005161972136648" lon="103.77268998622543">
        <ele>60.0</ele>
      </trkpt>
      <trkpt lat="1.4004265532612115" lon="103.77270185539203">
        <ele>60.0</ele>
      </trkpt>
      <trkpt lat="1.4003369093085898" lon="103.77271372455758">
        <ele>60.0</ele>
      </trkpt>
      <trkpt lat="1.4002472653557991" lon="103.77272559372209">
        <ele>60.0</ele>
      </trkpt>
      <trkpt lat="1.4001576214028395" lon="103.77273746288556">
        <ele>59.903629451465655</ele>
      </trkpt>
      <trkpt lat="1.4000679774497118" lon="103.77274933204797">
        <ele>59.618150877351674</ele>
      </trkpt>
      <trkpt lat="1.3999783334964144" lon="103.77276120120933">
        <ele>59.14356427765808</ele>
      </trkpt>
      <trkpt lat="1.3998886895429483" lon="103.77277307036965">
        <ele>58.57624020091934</ele>
      </trkpt>
      <trkpt lat="1.3997990455893141" lon="103.77278493952893">
        <ele>58.00891612418061</ele>
      </trkpt>
      <trkpt lat="1.399709401635511" lon="103.77279680868716">
        <ele>57.441592047441866</ele>
      </trkpt>
      <trkpt lat="1.3996197576815388" lon="103.77280867784435">
        <ele>57.11407839841621</ele>
      </trkpt>
      <trkpt lat="1.399530113727398" lon="103.77282054700048">
        <ele>57.076733528676336</ele>
      </trkpt>
      <trkpt lat="1.399440469773089" lon="103.77283241615558">
        <ele>57.32955743822228</ele>
      </trkpt>
      <trkpt lat="1.399350825818611" lon="103.77284428530962">
        <ele>57.632739699340924</ele>
      </trkpt>
      <trkpt lat="1.3992611818639642" lon="103.77285615446263">
        <ele>57.935921960459574</ele>
      </trkpt>
      <trkpt lat="1.399171537909149" lon="103.77286802361458">
        <ele>58.2391042215782</ele>
      </trkpt>
      <trkpt lat="1.399081893954165" lon="103.77287989276549">
        <ele>58.54228648269672</ele>
      </trkpt>
      <trkpt lat="1.3989922499990124" lon="103.77289176191535">
        <ele>58.84546874381524</ele>
      </trkpt>
      <trkpt lat="1.3989026060436915" lon="103.77290363106417">
        <ele>59.148651004933754</ele>
      </trkpt>
      <trkpt lat="1.3988129620882015" lon="103.77291550021194">
        <ele>59.45164705544065</ele>
      </trkpt>
      <trkpt lat="1.3987233181325436" lon="103.77292736935867">
        <ele>59.73543005379607</ele>
      </trkpt>
      <trkpt lat="1.398633674176717" lon="103.77293923850435">
        <ele>59.918152298445314</ele>
      </trkpt>
      <trkpt lat="1.3985440302207215" lon="103.77295110764899">
        <ele>60.0</ele>
      </trkpt>
      <trkpt lat="1.3984543862645578" lon="103.77296297679258">
        <ele>60.0</ele>
      </trkpt>
      <trkpt lat="1.3983647423082255" lon="103.77297484593512">
        <ele>60.0</ele>
      </trkpt>
      <trkpt lat="1.3982750983517247" lon="103.77298671507664">
        <ele>60.0</ele>
      </trkpt>
      <trkpt lat="1.3981854543950556" lon="103.77299858421709">
        <ele>60.0</ele>
      </trkpt>
      <trkpt lat="1.398095810438218" lon="103.7730104533565">
        <ele>60.0</ele>
      </trkpt>
      <trkpt lat="1.398006166481212" lon="103.77302232249487">
        <ele>60.0</ele>
      </trkpt>
      <trkpt lat="1.3979165225240378" lon="103.7730341916322">
        <ele>60.0</ele>
      </trkpt>
      <trkpt lat="1.3978268785666947" lon="103.77304606076848">
        <ele>60.0</ele>
      </trkpt>
      <trkpt lat="1.3977372346091836" lon="103.77305792990371">
        <ele>60.0</ele>
      </trkpt>
      <trkpt lat="1.3976475906515042" lon="103.77306979903791">
        <ele>59.77091051510279</ele>
      </trkpt>
      <trkpt lat="1.3975579466936563" lon="103.77308166817106">
        <ele>59.22321418008892</ele>
      </trkpt>
      <trkpt lat="1.39746830273564" lon="103.77309353730317">
        <ele>58.382112254855265</ele>
      </trkpt>
      <trkpt lat="1.3973786587774557" lon="103.77310540643423">
        <ele>57.5113343115304</ele>
      </trkpt>
      <trkpt lat="1.3972890148191026" lon="103.77311727556425">
        <ele>56.70039771533377</ele>
      </trkpt>
      <trkpt lat="1.3971993708605817" lon="103.77312914469321">
        <ele>55.92410120636848</ele>
      </trkpt>
      <trkpt lat="1.3971097269018922" lon="103.77314101382115">
        <ele>55.147804697403195</ele>
      </trkpt>
      <trkpt lat="1.3970200829430344" lon="103.77315288294804">
        <ele>54.37150818843782</ele>
      </trkpt>
      <trkpt lat="1.3969304389840085" lon="103.77316475207388">
        <ele>53.59521167947245</ele>
      </trkpt>
      <trkpt lat="1.3968407950248145" lon="103.77317662119867">
        <ele>53.03905682888924</ele>
      </trkpt>
      <trkpt lat="1.3968274145922859" lon="103.77317839280735">
        <ele>52.76097940359767</ele>
      </trkpt>
      <trkpt lat="1.396867370355917" lon="103.77309778045351">
        <ele>53.63130547011215</ele>
      </trkpt>
      <trkpt lat="1.3969073261166332" lon="103.77301716809704">
        <ele>54.27728259773173</ele>
      </trkpt>
      <trkpt lat="1.3969472818744342" lon="103.77293655573794">
        <ele>54.49263158480644</ele>
      </trkpt>
      <trkpt lat="1.396987237629319" lon="103.7728559433762">
        <ele>54.4314719500039</ele>
      </trkpt>
      <trkpt lat="1.3970476121156346" lon="103.77278916475058">
        <ele>54.33931237608228</ele>
      </trkpt>
      <trkpt lat="1.397108544336512" lon="103.77272276398939">
        <ele>54.364496297782125</ele>
      </trkpt>
      <trkpt lat="1.3971694765553189" lon="103.7726563632248">
        <ele>54.421966459332054</ele>
      </trkpt>
      <trkpt lat="1.397230408772055" lon="103.77258996245679">
        <ele>54.58376725560211</ele>
      </trkpt>
      <trkpt lat="1.3972913409867207" lon="103.77252356168538">
        <ele>54.612177558896484</ele>
      </trkpt>
      <trkpt lat="1.3973519267811807" lon="103.77245753841915">
        <ele>54.66396491221798</ele>
      </trkpt>
      <trkpt lat="1.397432546663702" lon="103.77249825403561">
        <ele>55.23933828693114</ele>
      </trkpt>
      <trkpt lat="1.39751316654558" lon="103.77253896965475">
        <ele>56.000645436018516</ele>
      </trkpt>
      <trkpt lat="1.3975937864268149" lon="103.77257968527658">
        <ele>56.719146526339294</ele>
      </trkpt>
      <trkpt lat="1.397679638313064" lon="103.77260734348432">
        <ele>57.38770978212807</ele>
      </trkpt>
      <trkpt lat="1.3977663618861704" lon="103.77263282624088">
        <ele>57.92623508076679</ele>
      </trkpt>
      <trkpt lat="1.397855550839846" lon="103.77264006520043">
        <ele>58.29329428914405</ele>
      </trkpt>
      <trkpt lat="1.3979459680281738" lon="103.77263821523249">
        <ele>58.369400593698465</ele>
      </trkpt>
      <trkpt lat="1.3980363852164244" lon="103.77263636526425">
        <ele>58.176884452119566</ele>
      </trkpt>
      <trkpt lat="1.3981251393023204" lon="103.77262195908142">
        <ele>57.77254365513257</ele>
      </trkpt>
      <trkpt lat="1.3982129594818002" lon="103.77260050202257">
        <ele>57.282996792064374</ele>
      </trkpt>
      <trkpt lat="1.3983007796609463" lon="103.772579044962">
        <ele>56.723970538644494</ele>
      </trkpt>
      <trkpt lat="1.3983847029583962" lon="103.77254618241854">
        <ele>56.11096429286301</ele>
      </trkpt>
      <trkpt lat="1.3984675198379908" lon="103.77251008158557">
        <ele>55.44397805471973</ele>
      </trkpt>
      <trkpt lat="1.3985503367168564" lon="103.77247398074995">
        <ele>54.95118307658253</ele>
      </trkpt>
      <trkpt lat="1.3985650403205956" lon="103.77246757127868">
        <ele>54.70478558751387</ele>
      </trkpt>
      <trkpt lat="1.3986382509626112" lon="103.7725203254318">
        <ele>55.09679424150926</ele>
      </trkpt>
      <trkpt lat="1.3987133735513138" lon="103.77256957536729">
        <ele>55.525322523079005</ele>
      </trkpt>
      <trkpt lat="1.3987978166883317" lon="103.77260174258883">
        <ele>55.90462528519843</ele>
      </trkpt>
      <trkpt lat="1.3988822598249464" lon="103.77263390981257">
        <ele>56.150224705787814</ele>
      </trkpt>
      <trkpt lat="1.3989676950908316" lon="103.77265896381876">
        <ele>56.19161566402405</ele>
      </trkpt>
      <trkpt lat="1.3990577598304694" lon="103.7726508261303">
        <ele>56.054274081032084</ele>
      </trkpt>
      <trkpt lat="1.3991478245699824" lon="103.77264268844107">
        <ele>55.791568266751476</ele>
      </trkpt>
      <trkpt lat="1.3992378893093702" lon="103.77263455075106">
        <ele>55.528862452470975</ele>
      </trkpt>
      <trkpt lat="1.3993279540486325" lon="103.7726264130603">
        <ele>55.246909286533075</ele>
      </trkpt>
      <trkpt lat="1.399417330110947" lon="103.77261293688527">
        <ele>54.941312689510085</ele>
      </trkpt>
      <trkpt lat="1.3995065488798344" lon="103.77259824140374">
        <ele>54.58116638227968</ele>
      </trkpt>
      <trkpt lat="1.3995957676485125" lon="103.77258354592097">
        <ele>54.37152502898863</ele>
      </trkpt>
      <trkpt lat="1.3996849864169807" lon="103.77256885043695">
        <ele>54.448961717601186</ele>
      </trkpt>
      <trkpt lat="1.3997742051852393" lon="103.77255415495166">
        <ele>54.844382727239655</ele>
      </trkpt>
      <trkpt lat="1.399863423953288" lon="103.77253945946514">
        <ele>55.3719807454145</ele>
      </trkpt>
      <trkpt lat="1.3999526427211273" lon="103.77252476397736">
        <ele>55.899578763589346</ele>
      </trkpt>
      <trkpt lat="1.400041861488757" lon="103.7725100684883">
        <ele>56.42717678176436</ele>
      </trkpt>
      <trkpt lat="1.400131080256177" lon="103.77249537299801">
        <ele>56.88351023019478</ele>
      </trkpt>
      <trkpt lat="1.4002202990233874" lon="103.77248067750646">
        <ele>57.362992366655185</ele>
      </trkpt>
      <trkpt lat="1.4003095177903877" lon="103.77246598201367">
        <ele>57.92601687476773</ele>
      </trkpt>
      <trkpt lat="1.4003993170997242" lon="103.77245597935539">
        <ele>58.658637864395</ele>
      </trkpt>
      <trkpt lat="1.400489461831307" lon="103.77244876893008">
        <ele>59.37009680067987</ele>
      </trkpt>
      <trkpt lat="1.4005796065627736" lon="103.77244155850406">
        <ele>59.82214735925408</ele>
      </trkpt>
      <trkpt lat="1.400669751294124" lon="103.77243434807735">
        <ele>60.0</ele>
      </trkpt>
      <trkpt lat="1.4007598960253587" lon="103.77242713764993">
        <ele>60.0</ele>
      </trkpt>
      <trkpt lat="1.4008500407564763" lon="103.77241992722182">
        <ele>60.0</ele>
      </trkpt>
      <trkpt lat="1.4009401854874781" lon="103.772412716793">
        <ele>60.0</ele>
      </trkpt>
      <trkpt lat="1.4010303302183635" lon="103.7724055063635">
        <ele>60.0</ele>
      </trkpt>
      <trkpt lat="1.4011204749491328" lon="103.77239829593327">
        <ele>60.0</ele>
      </trkpt>
      <trkpt lat="1.4012106196797864" lon="103.77239108550236">
        <ele>60.0</ele>
      </trkpt>
      <trkpt lat="1.4013007644103233" lon="103.77238387507074">
        <ele>60.0</ele>
      </trkpt>
      <trkpt lat="1.401390909140744" lon="103.77237666463843">
        <ele>60.0</ele>
      </trkpt>
      <trkpt lat="1.4014810538710483" lon="103.77236945420542">
        <ele>60.0</ele>
      </trkpt>
      <trkpt lat="1.4015711986012362" lon="103.7723622437717">
        <ele>60.0</ele>
      </trkpt>
      <trkpt lat="1.4016609404738813" lon="103.77235138810995">
        <ele>59.99999999999999</ele>
      </trkpt>
      <trkpt lat="1.40175051189207" lon="103.77233899010342">
        <ele>59.99999999999999</ele>
      </trkpt>
      <trkpt lat="1.4018400833100817" lon="103.77232659209581">
        <ele>60.0</ele>
      </trkpt>
      <trkpt lat="1.4019296547279174" lon="103.7723141940871">
        <ele>60.0</ele>
      </trkpt>
      <trkpt lat="1.4020192261455768" lon="103.77230179607731">
        <ele>60.0</ele>
      </trkpt>
      <trkpt lat="1.4021095514849233" lon="103.772303734097">
        <ele>60.0</ele>
      </trkpt>
      <trkpt lat="1.402199935559745" lon="103.77230678898914">
        <ele>60.0</ele>
      </trkpt>
      <trkpt lat="1.402285690457421" lon="103.77232767177705">
        <ele>60.0</ele>
      </trkpt>
      <trkpt lat="1.402366280349405" lon="103.77236844604494">
        <ele>60.0</ele>
      </trkpt>
      <trkpt lat="1.4024144474406395" lon="103.77244303050935">
        <ele>60.0</ele>
      </trkpt>
      <trkpt lat="1.4024545614868114" lon="103.77252290621968">
        <ele>60.0</ele>
      </trkpt>
      <trkpt lat="1.4024752119302095" lon="103.77261039046356">
        <ele>59.60758577583738</ele>
      </trkpt>
      <trkpt lat="1.4024880942190554" lon="103.77269931308172">
        <ele>58.66963403027608</ele>
      </trkpt>
      <trkpt lat="1.4025005444357277" lon="103.77278831570405">
        <ele>57.18614476331609</ele>
      </trkpt>
      <trkpt lat="1.4025129946490338" lon="103.77287731832747">
        <ele>55.54046157913447</ele>
      </trkpt>
      <trkpt lat="1.4025306597083447" lon="103.7729653394833">
        <ele>53.872943540480584</ele>
      </trkpt>
      <trkpt lat="1.402558373334368" lon="103.77305038938864">
        <ele>52.173259769356115</ele>
      </trkpt>
      <trkpt lat="1.402597461313666" lon="103.77313142087455">
        <ele>50.45943306070632</ele>
      </trkpt>
      <trkpt lat="1.4026295002544207" lon="103.7732143864425">
        <ele>48.77437604921098</ele>
      </trkpt>
      <trkpt lat="1.402637800027641" lon="103.77330386544538">
        <ele>47.132644908648494</ele>
      </trkpt>
      <trkpt lat="1.4026519196298866" lon="103.77338972916327">
        <ele>45.5711752058819</ele>
      </trkpt>
      <trkpt lat="1.4027292440286334" lon="103.77343632999872">
        <ele>44.05981854071809</ele>
      </trkpt>
      <trkpt lat="1.4028065684265272" lon="103.77348293083715">
        <ele>42.670499513998806</ele>
      </trkpt>
      <trkpt lat="1.402890836048533" lon="103.77351286261492">
        <ele>41.43960418427684</ele>
      </trkpt>
      <trkpt lat="1.4029793876778416" lon="103.77352637767918">
        <ele>40.69347984443297</ele>
      </trkpt>
      <trkpt lat="1.4030696487650134" lon="103.77352078602448">
        <ele>40.61988805516853</ele>
      </trkpt>
      <trkpt lat="1.4031599098520833" lon="103.77351519436921">
        <ele>41.136555016108225</ele>
      </trkpt>
      <trkpt lat="1.4032501709390515" lon="103.77350960271337">
        <ele>42.01332659861225</ele>
      </trkpt>
      <trkpt lat="1.4033399983453585" lon="103.7735186780191">
        <ele>42.99791242587224</ele>
      </trkpt>
      <trkpt lat="1.403429773358703" lon="103.77352952523876">
        <ele>44.24312845004088</ele>
      </trkpt>
      <trkpt lat="1.4035100748713285" lon="103.77356802169979">
        <ele>45.559423290198964</ele>
      </trkpt>
      <trkpt lat="1.40358786252428" lon="103.77361385508084">
        <ele>46.20851052044751</ele>
      </trkpt>
      <trkpt lat="1.4036656501764069" lon="103.77365968846485">
        <ele>46.03757418863402</ele>
      </trkpt>
      <trkpt lat="1.4037434378277076" lon="103.77370552185181">
        <ele>45.139972511436305</ele>
      </trkpt>
      <trkpt lat="1.403821225478183" lon="103.77375135524173">
        <ele>44.24237083423848</ele>
      </trkpt>
      <trkpt lat="1.403899013127833" lon="103.77379718863462">
        <ele>43.34476915704065</ele>
      </trkpt>
      <trkpt lat="1.4039768007766564" lon="103.77384302203046">
        <ele>42.4837123783286</ele>
      </trkpt>
      <trkpt lat="1.4040513278223645" lon="103.77389375268763">
        <ele>41.677653245868406</ele>
      </trkpt>
      <trkpt lat="1.4041242084792926" lon="103.77394695613839">
        <ele>40.92659175965984</ele>
      </trkpt>
      <trkpt lat="1.4041970891350977" lon="103.77400015959239">
        <ele>40.37352492695903</ele>
      </trkpt>
      <trkpt lat="1.4042699697897805" lon="103.77405336304966">
        <ele>40.06466100707251</ele>
      </trkpt>
      <trkpt lat="1.4043428504433393" lon="103.77410656651017">
        <ele>40.0</ele>
      </trkpt>
      <trkpt lat="1.4044132312536177" lon="103.77416283639738">
        <ele>40.0</ele>
      </trkpt>
      <trkpt lat="1.4044807424899381" lon="103.77422262624007">
        <ele>40.0</ele>
      </trkpt>
      <trkpt lat="1.404548253724826" lon="103.77428241608618">
        <ele>40.0</ele>
      </trkpt>
      <trkpt lat="1.4046157649582818" lon="103.7743422059357">
        <ele>40.0</ele>
      </trkpt>
      <trkpt lat="1.4046832761903056" lon="103.77440199578865">
        <ele>40.0</ele>
      </trkpt>
      <trkpt lat="1.4047507874208964" lon="103.774461785645">
        <ele>40.0</ele>
      </trkpt>
      <trkpt lat="1.4048182986500544" lon="103.77452157550478">
        <ele>40.0</ele>
      </trkpt>
      <trkpt lat="1.4048858098777794" lon="103.77458136536795">
        <ele>40.0</ele>
      </trkpt>
      <trkpt lat="1.4049533211040712" lon="103.77464115523456">
        <ele>40.0</ele>
      </trkpt>
      <trkpt lat="1.4050208323289286" lon="103.77470094510457">
        <ele>40.0</ele>
      </trkpt>
      <trkpt lat="1.4050883435523533" lon="103.77476073497802">
        <ele>40.0</ele>
      </trkpt>
      <trkpt lat="1.4051558547743432" lon="103.77482052485486">
        <ele>40.0</ele>
      </trkpt>
      <trkpt lat="1.4052230866211255" lon="103.774880616731">
        <ele>40.0</ele>
      </trkpt>
      <trkpt lat="1.4052887241193617" lon="103.77494243205871">
        <ele>40.0</ele>
      </trkpt>
      <trkpt lat="1.4053543616160595" lon="103.77500424738986">
        <ele>40.0</ele>
      </trkpt>
      <trkpt lat="1.405419999111219" lon="103.77506606272448">
        <ele>40.0</ele>
      </trkpt>
      <trkpt lat="1.4054856366048407" lon="103.77512787806252">
        <ele>40.0</ele>
      </trkpt>
      <trkpt lat="1.4055512740969234" lon="103.775189693404">
        <ele>40.0</ele>
      </trkpt>
      <trkpt lat="1.4056169115874677" lon="103.77525150874894">
        <ele>40.0</ele>
      </trkpt>
      <trkpt lat="1.4056825490764726" lon="103.77531332409733">
        <ele>40.0</ele>
      </trkpt>
      <trkpt lat="1.4057481865639383" lon="103.77537513944914">
        <ele>40.0</ele>
      </trkpt>
      <trkpt lat="1.4058138240498645" lon="103.77543695480442">
        <ele>40.0</ele>
      </trkpt>
      <trkpt lat="1.4058794615342511" lon="103.77549877016313">
        <ele>40.0</ele>
      </trkpt>
      <trkpt lat="1.4059450990170979" lon="103.77556058552528">
        <ele>39.693041620664154</ele>
      </trkpt>
      <trkpt lat="1.406012730132597" lon="103.77562009730157">
        <ele>38.87808039454396</ele>
      </trkpt>
      <trkpt lat="1.4060840728045323" lon="103.77567532047863">
        <ele>37.55511632163941</ele>
      </trkpt>
      <trkpt lat="1.4061554154752485" lon="103.77573054365898">
        <ele>36.03110778128636</ele>
      </trkpt>
      <trkpt lat="1.4062267581447454" lon="103.77578576684267">
        <ele>34.50709924093329</ele>
      </trkpt>
      <trkpt lat="1.4062981008130229" lon="103.77584099002968">
        <ele>32.98309070058024</ele>
      </trkpt>
      <trkpt lat="1.4063694434800809" lon="103.77589621322">
        <ele>31.554101527354153</ele>
      </trkpt>
      <trkpt lat="1.406440786145919" lon="103.77595143641365">
        <ele>30.5598707895104</ele>
      </trkpt>
      <trkpt lat="1.4065121288105369" lon="103.7760066596106">
        <ele>30.000398487048717</ele>
      </trkpt>
      <trkpt lat="1.4065834714739347" lon="103.77606188281088">
        <ele>29.780665252842137</ele>
      </trkpt>
      <trkpt lat="1.4066548141361124" lon="103.77611710601448">
        <ele>29.531098816163905</ele>
      </trkpt>
      <trkpt lat="1.4067292464383483" lon="103.77616787582596">
        <ele>29.057076283937402</ele>
      </trkpt>
      <trkpt lat="1.4068108791478042" lon="103.7762055339915">
        <ele>28.23654718144627</ele>
      </trkpt>
      <trkpt lat="1.4068959034836859" lon="103.77623615257963">
        <ele>27.0993447111619</ele>
      </trkpt>
      <trkpt lat="1.4069809278191927" lon="103.77626677116987">
        <ele>26.12945213828404</ele>
      </trkpt>
      <trkpt lat="1.4070659521543238" lon="103.77629738976222">
        <ele>25.54136108917324</ele>
      </trkpt>
      <trkpt lat="1.407148078583227" lon="103.77633434084112">
        <ele>25.43429163371574</ele>
      </trkpt>
      <trkpt lat="1.4072271908906087" lon="103.77637787835941">
        <ele>25.490988415662972</ele>
      </trkpt>
      <trkpt lat="1.407306303197239" lon="103.77642141588056">
        <ele>25.663295329435314</ele>
      </trkpt>
      <trkpt lat="1.4073790918883144" lon="103.77647469905085">
        <ele>25.824464399574612</ele>
      </trkpt>
      <trkpt lat="1.4074250114468025" lon="103.77650863435706">
        <ele>25.92719145767654</ele>
      </trkpt>
      <trkpt lat="1.407475546169508" lon="103.7765831549039">
        <ele>26.563771808052056</ele>
      </trkpt>
      <trkpt lat="1.4075260950958777" lon="103.77665766591721">
        <ele>27.12440962383418</ele>
      </trkpt>
      <trkpt lat="1.4075768196882958" lon="103.77673205900349">
        <ele>27.684304057552804</ele>
      </trkpt>
      <trkpt lat="1.4076275442784347" lon="103.77680645209306">
        <ele>28.24351072732141</ele>
      </trkpt>
      <trkpt lat="1.407678268866294" lon="103.77688084518587">
        <ele>28.802717397089918</ele>
      </trkpt>
      <trkpt lat="1.4077289934518733" lon="103.77695523828196">
        <ele>29.227990405953662</ele>
      </trkpt>
      <trkpt lat="1.4077978612951538" lon="103.77700868687221">
        <ele>29.451130208929598</ele>
      </trkpt>
      <trkpt lat="1.4078379565157166" lon="103.77702773649756">
        <ele>29.495733279965176</ele>
      </trkpt>
    </trkseg>
  </trk>
</gpx>