<?xml version="1.0" encoding="UTF-8"?>
<gpx xmlns="http://www.topografix.com/GPX/1/1" xmlns:xsi="http://www.w3.org/2001/XMLSchema-instance" xsi:schemaLocation="http://www.topografix.com/GPX/1/1 http://www.topografix.com/GPX/1/1/gpx.xsd" version="1.1" creator="gpx.py -- https://github.com/tkrajina/gpxpy">
  <trk>
    <name>point_to_point_05000m_015</name>
    <trkseg>
      <trkpt lat="1.3921641291524367" lon="103.67017077582062">
        <ele>20.0</ele>
      </trkpt>
      <trkpt lat="1.3922545032200904" lon="103.67016744974194">
        <ele>20.0</ele>
      </trkpt>
      <trkpt lat="1.3923448772876403" lon="103.67016412366262">
        <ele>20.0</ele>
      </trkpt>
      <trkpt lat="1.3924337523498713" lon="103.67016749992098">
        <ele>20.0</ele>
      </trkpt>
      <trkpt lat="1.3925142027722661" lon="103.67020854435144">
        <ele>20.0</ele>
      </trkpt>
      <trkpt lat="1.3925946531942162" lon="103.67024958878444">
        <ele>20.0</ele>
      </trkpt>
      <trkpt lat="1.3926751036157223" lon="103.67029063322">
        <ele>20.0</ele>
      </trkpt>
      <trkpt lat="1.3927321757955131" lon="103.6703539659525">
        <ele>20.0</ele>
      </trkpt>
      <trkpt lat="1.3927701263774661" lon="103.67043552879122">
        <ele>20.0</ele>
      </trkpt>
      <trkpt lat="1.3928080769568756" lon="103.67051709163279">
        <ele>20.0</ele>
      </trkpt>
      <trkpt lat="1.3928460275337413" lon="103.67059865447725">
        <ele>20.0</ele>
      </trkpt>
      <trkpt lat="1.3928956381806508" lon="103.6706725128579">
        <ele>20.0</ele>
      </trkpt>
      <trkpt lat="1.392956662272378" lon="103.67073882973489">
        <ele>20.0</ele>
      </trkpt>
      <trkpt lat="1.3930176863625983" lon="103.67080514661535">
        <ele>20.0</ele>
      </trkpt>
      <trkpt lat="1.3930787104513127" lon="103.67087146349922">
        <ele>20.0</ele>
      </trkpt>
      <trkpt lat="1.3931400792704538" lon="103.6709374280153">
        <ele>20.0</ele>
      </trkpt>
      <trkpt lat="1.3932085250058455" lon="103.67099615879106">
        <ele>20.0</ele>
      </trkpt>
      <trkpt lat="1.393276970740124" lon="103.67105488957016">
        <ele>20.0</ele>
      </trkpt>
      <trkpt lat="1.3933454164732897" lon="103.67111362035259">
        <ele>20.0</ele>
      </trkpt>
      <trkpt lat="1.3934138622053418" lon="103.67117235113835">
        <ele>20.0</ele>
      </trkpt>
      <trkpt lat="1.3934823079362797" lon="103.67123108192744">
        <ele>20.0</ele>
      </trkpt>
      <trkpt lat="1.393550753666104" lon="103.67128981271988">
        <ele>20.0</ele>
      </trkpt>
      <trkpt lat="1.393619199394814" lon="103.67134854351562">
        <ele>20.0</ele>
      </trkpt>
      <trkpt lat="1.3936876451224098" lon="103.67140727431472">
        <ele>20.0</ele>
      </trkpt>
      <trkpt lat="1.393756090848891" lon="103.67146600511714">
        <ele>20.0</ele>
      </trkpt>
      <trkpt lat="1.3938245365742574" lon="103.6715247359229">
        <ele>20.0</ele>
      </trkpt>
      <trkpt lat="1.393897079566892" lon="103.67157766330527">
        <ele>20.0</ele>
      </trkpt>
      <trkpt lat="1.3939759574527146" lon="103.6716216178606">
        <ele>20.0</ele>
      </trkpt>
      <trkpt lat="1.3940548353380016" lon="103.67166557241863">
        <ele>20.0</ele>
      </trkpt>
      <trkpt lat="1.3941359714735133" lon="103.67170519279243">
        <ele>20.0</ele>
      </trkpt>
      <trkpt lat="1.3942176276621787" lon="103.67174381504687">
        <ele>20.0</ele>
      </trkpt>
      <trkpt lat="1.394301311859172" lon="103.67177671068924">
        <ele>20.0</ele>
      </trkpt>
      <trkpt lat="1.3943893167825276" lon="103.67179740562868">
        <ele>20.0</ele>
      </trkpt>
      <trkpt lat="1.3944773217058148" lon="103.67181810056928">
        <ele>20.0</ele>
      </trkpt>
      <trkpt lat="1.394565414525318" lon="103.6718023774896">
        <ele>20.0</ele>
      </trkpt>
      <trkpt lat="1.3946535183314193" lon="103.67178210217155">
        <ele>20.0</ele>
      </trkpt>
      <trkpt lat="1.3947410384655994" lon="103.67175952096689">
        <ele>20.0</ele>
      </trkpt>
      <trkpt lat="1.394828313152623" lon="103.6717359700851">
        <ele>20.0</ele>
      </trkpt>
      <trkpt lat="1.3949155878391402" lon="103.6717124192012">
        <ele>20.0</ele>
      </trkpt>
      <trkpt lat="1.3950016825280185" lon="103.67168493975811">
        <ele>20.0</ele>
      </trkpt>
      <trkpt lat="1.3950876725248404" lon="103.67165711176415">
        <ele>20.0</ele>
      </trkpt>
      <trkpt lat="1.3951738868666201" lon="103.67163001056102">
        <ele>20.0</ele>
      </trkpt>
      <trkpt lat="1.3952607927771112" lon="103.67160514977338">
        <ele>20.0</ele>
      </trkpt>
      <trkpt lat="1.395347698687059" lon="103.67158028898359">
        <ele>20.0</ele>
      </trkpt>
      <trkpt lat="1.3954278120860282" lon="103.67154216793682">
        <ele>20.0</ele>
      </trkpt>
      <trkpt lat="1.3954991854177001" lon="103.67148698463848">
        <ele>20.0</ele>
      </trkpt>
      <trkpt lat="1.3955705587476348" lon="103.6714318013367">
        <ele>20.0</ele>
      </trkpt>
      <trkpt lat="1.3956419320758333" lon="103.67137661803149">
        <ele>20.0</ele>
      </trkpt>
      <trkpt lat="1.3956982082444536" lon="103.67130708158398">
        <ele>20.0</ele>
      </trkpt>
      <trkpt lat="1.3957505456754675" lon="103.67123380050727">
        <ele>20.0</ele>
      </trkpt>
      <trkpt lat="1.3958014252975532" lon="103.67115953453022">
        <ele>20.18693820025048</ele>
      </trkpt>
      <trkpt lat="1.3958507686675454" lon="103.6710842306566">
        <ele>20.67127877856077</ele>
      </trkpt>
      <trkpt lat="1.3959069075456982" lon="103.67101508729527">
        <ele>21.59758501095619</ele>
      </trkpt>
      <trkpt lat="1.3959778690481568" lon="103.6709593821128">
        <ele>22.77911343998689</ele>
      </trkpt>
      <trkpt lat="1.3960488491221386" lon="103.67090370029247">
        <ele>24.105399887843546</ele>
      </trkpt>
      <trkpt lat="1.3961198291943577" lon="103.6708480184687">
        <ele>25.455557267110255</ele>
      </trkpt>
      <trkpt lat="1.3961908092648123" lon="103.6707923366415">
        <ele>26.00106763183761</ele>
      </trkpt>
      <trkpt lat="1.3962631209341103" lon="103.67073837607357">
        <ele>25.7432438050843</ele>
      </trkpt>
      <trkpt lat="1.3963355311426833" lon="103.67068454287892">
        <ele>24.723283276019174</ele>
      </trkpt>
      <trkpt lat="1.3964109916619585" lon="103.67063734751903">
        <ele>24.044018399577553</ele>
      </trkpt>
      <trkpt lat="1.39649935939773" lon="103.67061823977859">
        <ele>23.704136352700743</ele>
      </trkpt>
      <trkpt lat="1.3965877271331093" lon="103.67059913203636">
        <ele>23.728832573611513</ele>
      </trkpt>
      <trkpt lat="1.3966776375560692" lon="103.67058974844497">
        <ele>23.848740425972494</ele>
      </trkpt>
      <trkpt lat="1.3967676360589416" lon="103.67058092005504">
        <ele>24.0135080756903</ele>
      </trkpt>
      <trkpt lat="1.396856269525471" lon="103.67056675041619">
        <ele>23.937597929916308</ele>
      </trkpt>
      <trkpt lat="1.3969396038489963" lon="103.67053184576908">
        <ele>23.61586747320148</ele>
      </trkpt>
      <trkpt lat="1.3970229381716512" lon="103.67049694111923">
        <ele>23.00902181181232</ele>
      </trkpt>
      <trkpt lat="1.3971016479196348" lon="103.67045294116978">
        <ele>22.29338951864243</ele>
      </trkpt>
      <trkpt lat="1.3971793703029416" lon="103.67040699933804">
        <ele>21.46897059369193</ele>
      </trkpt>
      <trkpt lat="1.397257092684936" lon="103.67036105750311">
        <ele>20.698127452826455</ele>
      </trkpt>
      <trkpt lat="1.3973282116438426" lon="103.67030586424781">
        <ele>20.208470588262564</ele>
      </trkpt>
      <trkpt lat="1.397397549915718" lon="103.67024817624282">
        <ele>20.0</ele>
      </trkpt>
      <trkpt lat="1.3974668881857275" lon="103.67019048823437">
        <ele>20.0</ele>
      </trkpt>
      <trkpt lat="1.397536226453869" lon="103.67013280022249">
        <ele>20.0</ele>
      </trkpt>
      <trkpt lat="1.3976188036514854" lon="103.67009740509808">
        <ele>20.000000000000004</ele>
      </trkpt>
      <trkpt lat="1.3977070433261756" lon="103.6700871637201">
        <ele>20.0</ele>
      </trkpt>
      <trkpt lat="1.3977974540917468" lon="103.67008928790861">
        <ele>20.0</ele>
      </trkpt>
      <trkpt lat="1.397887864857265" lon="103.67009141209687">
        <ele>20.0</ele>
      </trkpt>
      <trkpt lat="1.3979782756227308" lon="103.6700935362849">
        <ele>20.0</ele>
      </trkpt>
      <trkpt lat="1.3980684917136008" lon="103.67009961911027">
        <ele>20.0</ele>
      </trkpt>
      <trkpt lat="1.3981586802100456" lon="103.67010626305796">
        <ele>20.0</ele>
      </trkpt>
      <trkpt lat="1.3982488687064618" lon="103.67011290700574">
        <ele>20.0</ele>
      </trkpt>
      <trkpt lat="1.3983390572028493" lon="103.67011955095366">
        <ele>20.0</ele>
      </trkpt>
      <trkpt lat="1.3984292408743664" lon="103.67012625133322">
        <ele>20.0</ele>
      </trkpt>
      <trkpt lat="1.3985192648980127" lon="103.67013481896018">
        <ele>20.0</ele>
      </trkpt>
      <trkpt lat="1.3986092889216344" lon="103.67014338658743">
        <ele>20.0</ele>
      </trkpt>
      <trkpt lat="1.398699312945233" lon="103.67015195421492">
        <ele>20.0</ele>
      </trkpt>
      <trkpt lat="1.3987876987889756" lon="103.67013492760462">
        <ele>20.0</ele>
      </trkpt>
      <trkpt lat="1.39886540198469" lon="103.6700922183672">
        <ele>20.0</ele>
      </trkpt>
      <trkpt lat="1.3989382964718757" lon="103.67003903427607">
        <ele>20.0</ele>
      </trkpt>
      <trkpt lat="1.3990011258573973" lon="103.66997455543232">
        <ele>20.0</ele>
      </trkpt>
      <trkpt lat="1.3990575596606625" lon="103.66990484638177">
        <ele>20.0</ele>
      </trkpt>
      <trkpt lat="1.3991058718655338" lon="103.66982888518633">
        <ele>20.0</ele>
      </trkpt>
      <trkpt lat="1.3991541840675423" lon="103.66975292398796">
        <ele>20.0</ele>
      </trkpt>
      <trkpt lat="1.3992116169492723" lon="103.66968394758655">
        <ele>20.0</ele>
      </trkpt>
      <trkpt lat="1.3992732430413264" lon="103.6696181824274">
        <ele>20.0</ele>
      </trkpt>
      <trkpt lat="1.3993474626044788" lon="103.66956835517294">
        <ele>20.0</ele>
      </trkpt>
      <trkpt lat="1.399428326248342" lon="103.66952970626521">
        <ele>20.0</ele>
      </trkpt>
      <trkpt lat="1.3995170148043994" lon="103.66951212712368">
        <ele>20.0</ele>
      </trkpt>
      <trkpt lat="1.3996057033601002" lon="103.66949454798048">
        <ele>20.0</ele>
      </trkpt>
      <trkpt lat="1.3996943919154445" lon="103.66947696883557">
        <ele>20.0</ele>
      </trkpt>
      <trkpt lat="1.399783989425194" lon="103.66947077564316">
        <ele>20.0</ele>
      </trkpt>
      <trkpt lat="1.3998743581195807" lon="103.66947424263867">
        <ele>20.0</ele>
      </trkpt>
      <trkpt lat="1.399964726813924" lon="103.66947770963405">
        <ele>20.0</ele>
      </trkpt>
      <trkpt lat="1.4000550281394986" lon="103.6694767808152">
        <ele>20.0</ele>
      </trkpt>
      <trkpt lat="1.4001452486903945" lon="103.66947058144969">
        <ele>20.0</ele>
      </trkpt>
      <trkpt lat="1.400231054909183" lon="103.6694976335238">
        <ele>20.0</ele>
      </trkpt>
      <trkpt lat="1.4003165717036414" lon="103.66952686571886">
        <ele>20.0</ele>
      </trkpt>
      <trkpt lat="1.4004020884979214" lon="103.66955609791573">
        <ele>20.0</ele>
      </trkpt>
      <trkpt lat="1.4004876052920228" lon="103.66958533011439">
        <ele>20.0</ele>
      </trkpt>
      <trkpt lat="1.4005707882765455" lon="103.6696202054775">
        <ele>20.0</ele>
      </trkpt>
      <trkpt lat="1.4006522830727888" lon="103.66965916288966">
        <ele>20.0</ele>
      </trkpt>
      <trkpt lat="1.4007337778686413" lon="103.66969812030426">
        <ele>20.0</ele>
      </trkpt>
      <trkpt lat="1.4008152726641043" lon="103.6697370777213">
        <ele>20.0</ele>
      </trkpt>
      <trkpt lat="1.4008967674591768" lon="103.66977603514079">
        <ele>20.0</ele>
      </trkpt>
      <trkpt lat="1.4009782622538591" lon="103.6698149925627">
        <ele>20.0</ele>
      </trkpt>
      <trkpt lat="1.4010636223992268" lon="103.66984358567102">
        <ele>20.0</ele>
      </trkpt>
      <trkpt lat="1.4011509879224093" lon="103.66986680168306">
        <ele>20.0</ele>
      </trkpt>
      <trkpt lat="1.4012383534454986" lon="103.66989001769646">
        <ele>20.0</ele>
      </trkpt>
      <trkpt lat="1.401325718968494" lon="103.66991323371123">
        <ele>19.999999999999996</ele>
      </trkpt>
      <trkpt lat="1.4014153095006256" lon="103.6699180230948">
        <ele>20.0</ele>
      </trkpt>
      <trkpt lat="1.4015057226152652" lon="103.66991600017943">
        <ele>20.0</ele>
      </trkpt>
      <trkpt lat="1.4015961357298155" lon="103.66991397726348">
        <ele>20.0</ele>
      </trkpt>
      <trkpt lat="1.4016865488442756" lon="103.66991195434699">
        <ele>20.0</ele>
      </trkpt>
      <trkpt lat="1.4017769619586447" lon="103.66990993142994">
        <ele>20.0</ele>
      </trkpt>
      <trkpt lat="1.401861385364055" lon="103.6698891148317">
        <ele>20.0</ele>
      </trkpt>
      <trkpt lat="1.4019364897248663" lon="103.66983905822423">
        <ele>20.0</ele>
      </trkpt>
      <trkpt lat="1.4020115940841755" lon="103.6697890016134">
        <ele>20.0</ele>
      </trkpt>
      <trkpt lat="1.4020613398526354" lon="103.66971569655259">
        <ele>20.0</ele>
      </trkpt>
      <trkpt lat="1.4021055255592576" lon="103.66963729409447">
        <ele>20.0</ele>
      </trkpt>
      <trkpt lat="1.4021465037615921" lon="103.66955760317043">
        <ele>20.0</ele>
      </trkpt>
      <trkpt lat="1.4021695718720781" lon="103.66947071770647">
        <ele>20.0</ele>
      </trkpt>
      <trkpt lat="1.4021926399791136" lon="103.66938383224115">
        <ele>20.0</ele>
      </trkpt>
      <trkpt lat="1.4022173604941175" lon="103.66929751783869">
        <ele>20.0</ele>
      </trkpt>
      <trkpt lat="1.4022538703629992" lon="103.66921554818435">
        <ele>20.0</ele>
      </trkpt>
      <trkpt lat="1.4023412262338708" lon="103.66919229634466">
        <ele>20.0</ele>
      </trkpt>
      <trkpt lat="1.4024307689392308" lon="103.6691918438574">
        <ele>20.0</ele>
      </trkpt>
      <trkpt lat="1.4025209725567065" lon="103.66919828186313">
        <ele>20.0</ele>
      </trkpt>
      <trkpt lat="1.402611176174153" lon="103.66920471986896">
        <ele>20.0</ele>
      </trkpt>
      <trkpt lat="1.4027013797915706" lon="103.66921115787487">
        <ele>20.0</ele>
      </trkpt>
      <trkpt lat="1.4027915834089588" lon="103.66921759588088">
        <ele>20.0</ele>
      </trkpt>
      <trkpt lat="1.402881787026318" lon="103.66922403388698">
        <ele>20.0</ele>
      </trkpt>
      <trkpt lat="1.4029719906436477" lon="103.66923047189317">
        <ele>20.0</ele>
      </trkpt>
      <trkpt lat="1.4030621942609482" lon="103.66923690989945">
        <ele>20.0</ele>
      </trkpt>
      <trkpt lat="1.4031496519301452" lon="103.66922731662733">
        <ele>20.0</ele>
      </trkpt>
      <trkpt lat="1.403232633687531" lon="103.66919159227697">
        <ele>20.0</ele>
      </trkpt>
      <trkpt lat="1.4032739494320392" lon="103.6691126426454">
        <ele>20.0</ele>
      </trkpt>
      <trkpt lat="1.4032964345760275" lon="103.66902602671351">
        <ele>20.0</ele>
      </trkpt>
      <trkpt lat="1.4033150295462888" lon="103.66893808877774">
        <ele>20.0</ele>
      </trkpt>
      <trkpt lat="1.4033336245130557" lon="103.66885015084095">
        <ele>20.0</ele>
      </trkpt>
      <trkpt lat="1.4033522194763284" lon="103.66876221290316">
        <ele>20.0</ele>
      </trkpt>
      <trkpt lat="1.4033708144361061" lon="103.66867427496435">
        <ele>20.0</ele>
      </trkpt>
      <trkpt lat="1.4033974502289828" lon="103.66858955011124">
        <ele>20.0</ele>
      </trkpt>
      <trkpt lat="1.4034453087390262" lon="103.6685133057716">
        <ele>20.0</ele>
      </trkpt>
      <trkpt lat="1.4035126291961446" lon="103.66846157740113">
        <ele>19.985259149360303</ele>
      </trkpt>
      <trkpt lat="1.4035984007775415" lon="103.66843309167741">
        <ele>19.985259149360303</ele>
      </trkpt>
      <trkpt lat="1.4036882131212063" lon="103.66843750133734">
        <ele>19.985259149360303</ele>
      </trkpt>
      <trkpt lat="1.403778362272943" lon="103.66844465291348">
        <ele>20.0</ele>
      </trkpt>
      <trkpt lat="1.4038685114246527" lon="103.66845180448976">
        <ele>20.0</ele>
      </trkpt>
      <trkpt lat="1.4039586605763361" lon="103.6684589560662">
        <ele>20.0</ele>
      </trkpt>
      <trkpt lat="1.4040488097279928" lon="103.66846610764279">
        <ele>20.0</ele>
      </trkpt>
      <trkpt lat="1.404138958879623" lon="103.6684732592195">
        <ele>20.0</ele>
      </trkpt>
      <trkpt lat="1.4042291080312264" lon="103.66848041079636">
        <ele>20.0</ele>
      </trkpt>
      <trkpt lat="1.404319257182803" lon="103.66848756237339">
        <ele>20.0</ele>
      </trkpt>
      <trkpt lat="1.404409406334353" lon="103.66849471395055">
        <ele>20.0</ele>
      </trkpt>
      <trkpt lat="1.4044995554858768" lon="103.66850186552784">
        <ele>20.0</ele>
      </trkpt>
      <trkpt lat="1.4045897046373739" lon="103.6685090171053">
        <ele>20.0</ele>
      </trkpt>
      <trkpt lat="1.4046751484537883" lon="103.66853570192177">
        <ele>20.0</ele>
      </trkpt>
      <trkpt lat="1.40474861380097" lon="103.66858493995348">
        <ele>20.0</ele>
      </trkpt>
      <trkpt lat="1.4048104042772813" lon="103.668650356572">
        <ele>20.0</ele>
      </trkpt>
      <trkpt lat="1.4048634074289146" lon="103.66872316399866">
        <ele>20.0</ele>
      </trkpt>
      <trkpt lat="1.40491641057863" lon="103.66879597142872">
        <ele>20.0</ele>
      </trkpt>
      <trkpt lat="1.4049733741031687" lon="103.66886569762637">
        <ele>20.0</ele>
      </trkpt>
      <trkpt lat="1.4050317994199677" lon="103.66893428652862">
        <ele>20.0</ele>
      </trkpt>
      <trkpt lat="1.405090224735115" lon="103.66900287543436">
        <ele>20.0</ele>
      </trkpt>
      <trkpt lat="1.4051486500486108" lon="103.66907146434357">
        <ele>20.0</ele>
      </trkpt>
      <trkpt lat="1.4052070753604538" lon="103.66914005325626">
        <ele>20.0</ele>
      </trkpt>
      <trkpt lat="1.4052656262666234" lon="103.6692085363184">
        <ele>20.0</ele>
      </trkpt>
      <trkpt lat="1.4053242010229032" lon="103.66927699928141">
        <ele>20.0</ele>
      </trkpt>
      <trkpt lat="1.4053827757775375" lon="103.66934546224789">
        <ele>20.0</ele>
      </trkpt>
      <trkpt lat="1.4054413505305263" lon="103.66941392521787">
        <ele>20.0</ele>
      </trkpt>
      <trkpt lat="1.4054999252818692" lon="103.66948238819131">
        <ele>20.0</ele>
      </trkpt>
      <trkpt lat="1.4055629304680979" lon="103.66954678257457">
        <ele>20.037709280565448</ele>
      </trkpt>
      <trkpt lat="1.4056270150154786" lon="103.66961018575252">
        <ele>20.228183979022877</ele>
      </trkpt>
      <trkpt lat="1.4056912613994885" lon="103.66967339543754">
        <ele>20.447169144654662</ele>
      </trkpt>
      <trkpt lat="1.4057657218082085" lon="103.66972439305468">
        <ele>20.65695549689472</ele>
      </trkpt>
      <trkpt lat="1.4058401822161406" lon="103.6697753906749">
        <ele>20.742486898416683</ele>
      </trkpt>
      <trkpt lat="1.405914642623285" lon="103.6698263882982">
        <ele>20.82801829993848</ele>
      </trkpt>
      <trkpt lat="1.4059891030296419" lon="103.6698773859246">
        <ele>20.963549909978166</ele>
      </trkpt>
      <trkpt lat="1.4060657140601447" lon="103.6699248336805">
        <ele>21.23269877734273</ele>
      </trkpt>
      <trkpt lat="1.4061459216532861" lon="103.66996634486483">
        <ele>21.97823537488013</ele>
      </trkpt>
      <trkpt lat="1.406226129245963" lon="103.67000785605175">
        <ele>23.189016620330708</ele>
      </trkpt>
      <trkpt lat="1.4063063368381747" lon="103.6700493672413">
        <ele>24.700488779557705</ele>
      </trkpt>
      <trkpt lat="1.4063822909888415" lon="103.67009786817394">
        <ele>26.155731210479033</ele>
      </trkpt>
      <trkpt lat="1.40645654929643" lon="103.67014915591155">
        <ele>27.367401170861353</ele>
      </trkpt>
      <trkpt lat="1.4065203874742265" lon="103.67020737342814">
        <ele>27.78333601050842</ele>
      </trkpt>
      <trkpt lat="1.4065397972605984" lon="103.67029513748928">
        <ele>27.417685898654067</ele>
      </trkpt>
      <trkpt lat="1.4065592070438167" lon="103.67038290155222">
        <ele>26.235392488540068</ele>
      </trkpt>
      <trkpt lat="1.4065618096561148" lon="103.67047260067253">
        <ele>24.855364563642286</ele>
      </trkpt>
      <trkpt lat="1.4065631128324625" lon="103.67056244940062">
        <ele>23.282812055628767</ele>
      </trkpt>
      <trkpt lat="1.4065680237279867" lon="103.67065139181761">
        <ele>22.10994739018692</ele>
      </trkpt>
      <trkpt lat="1.4066098550371073" lon="103.67073105929902">
        <ele>21.35096111936738</ele>
      </trkpt>
      <trkpt lat="1.4066516863438079" lon="103.67081072678349">
        <ele>21.000643311502103</ele>
      </trkpt>
      <trkpt lat="1.406693517648089" lon="103.67089039427103">
        <ele>20.65032550363682</ele>
      </trkpt>
      <trkpt lat="1.4067353489499497" lon="103.67097006176162">
        <ele>20.476253325747248</ele>
      </trkpt>
      <trkpt lat="1.4067897523623778" lon="103.67104153177117">
        <ele>20.513549581741824</ele>
      </trkpt>
      <trkpt lat="1.4068466611846895" lon="103.67111136816277">
        <ele>20.76221427162129</ele>
      </trkpt>
      <trkpt lat="1.4069035700052646" lon="103.67118120455785">
        <ele>21.134616252039493</ele>
      </trkpt>
      <trkpt lat="1.4069653923625998" lon="103.6712448361706">
        <ele>21.14944013578385</ele>
      </trkpt>
      <trkpt lat="1.407047093097303" lon="103.67128336549392">
        <ele>20.800772880647415</ele>
      </trkpt>
      <trkpt lat="1.407130201654819" lon="103.67128860314514">
        <ele>20.268895307618084</ele>
      </trkpt>
      <trkpt lat="1.4072148672976945" lon="103.6712570194094">
        <ele>20.00255370706253</ele>
      </trkpt>
      <trkpt lat="1.4072841018672841" lon="103.6711994712094">
        <ele>20.125096147138787</ele>
      </trkpt>
      <trkpt lat="1.407352821763746" lon="103.67114105701549">
        <ele>20.431366584402493</ele>
      </trkpt>
      <trkpt lat="1.4074144478603523" lon="103.67107551413308">
        <ele>20.93734137654388</ele>
      </trkpt>
      <trkpt lat="1.407474011669503" lon="103.67100789881994">
        <ele>21.424061811442453</ele>
      </trkpt>
      <trkpt lat="1.4075432328827895" lon="103.67095253799003">
        <ele>21.737232580591705</ele>
      </trkpt>
      <trkpt lat="1.4076253254347493" lon="103.67092254253824">
        <ele>21.228704081387782</ele>
      </trkpt>
      <trkpt lat="1.407714441486075" lon="103.67093783914487">
        <ele>20.619441206412954</ele>
      </trkpt>
      <trkpt lat="1.4077855948119997" lon="103.67099119038454">
        <ele>20.0</ele>
      </trkpt>
      <trkpt lat="1.4078544113803118" lon="103.6710494921241">
        <ele>20.000000000000004</ele>
      </trkpt>
      <trkpt lat="1.4079177377139547" lon="103.6711132547434">
        <ele>20.0</ele>
      </trkpt>
      <trkpt lat="1.4079764866087288" lon="103.67118157032722">
        <ele>20.0</ele>
      </trkpt>
      <trkpt lat="1.408035235501857" lon="103.67124988591452">
        <ele>20.0</ele>
      </trkpt>
      <trkpt lat="1.4080939843933404" lon="103.67131820150531">
        <ele>20.0</ele>
      </trkpt>
      <trkpt lat="1.408152733283178" lon="103.67138651709958">
        <ele>20.0</ele>
      </trkpt>
      <trkpt lat="1.4082114821713698" lon="103.67145483269734">
        <ele>20.0</ele>
      </trkpt>
      <trkpt lat="1.4082702310579154" lon="103.67152314829856">
        <ele>20.0</ele>
      </trkpt>
      <trkpt lat="1.4083289799428147" lon="103.67159146390328">
        <ele>20.0</ele>
      </trkpt>
      <trkpt lat="1.4083882812067148" lon="103.67165930422782">
        <ele>20.0</ele>
      </trkpt>
      <trkpt lat="1.4084479333114668" lon="103.67172684268122">
        <ele>20.0</ele>
      </trkpt>
      <trkpt lat="1.4085075854146178" lon="103.67179438113813">
        <ele>20.0</ele>
      </trkpt>
      <trkpt lat="1.408567237516168" lon="103.67186191959851">
        <ele>20.0</ele>
      </trkpt>
      <trkpt lat="1.4086268896161163" lon="103.6719294580624">
        <ele>20.0</ele>
      </trkpt>
      <trkpt lat="1.4086865417144634" lon="103.67199699652974">
        <ele>20.0</ele>
      </trkpt>
      <trkpt lat="1.408746193811208" lon="103.67206453500059">
        <ele>20.0</ele>
      </trkpt>
      <trkpt lat="1.4088058459063506" lon="103.67213207347491">
        <ele>20.0</ele>
      </trkpt>
      <trkpt lat="1.408865497999891" lon="103.67219961195273">
        <ele>20.0</ele>
      </trkpt>
      <trkpt lat="1.4089238527585346" lon="103.6722682576002">
        <ele>20.0</ele>
      </trkpt>
      <trkpt lat="1.4089820433094113" lon="103.6723370433874">
        <ele>20.0</ele>
      </trkpt>
      <trkpt lat="1.4090402338586099" lon="103.67240582917808">
        <ele>20.0</ele>
      </trkpt>
      <trkpt lat="1.4090984244061302" lon="103.67247461497224">
        <ele>20.0</ele>
      </trkpt>
      <trkpt lat="1.409156614951973" lon="103.67254340076988">
        <ele>20.0</ele>
      </trkpt>
      <trkpt lat="1.409214805496137" lon="103.672612186571">
        <ele>20.0</ele>
      </trkpt>
      <trkpt lat="1.4092729960386223" lon="103.67268097237562">
        <ele>20.0</ele>
      </trkpt>
      <trkpt lat="1.409331186579428" lon="103.67274975818371">
        <ele>20.37863271620972</ele>
      </trkpt>
      <trkpt lat="1.4093854173087654" lon="103.67282149099074">
        <ele>21.429620517231925</ele>
      </trkpt>
      <trkpt lat="1.4094354878014437" lon="103.67289631995816">
        <ele>22.837132339745427</ele>
      </trkpt>
      <trkpt lat="1.4094720525123063" lon="103.67297718081208">
        <ele>24.063774801341026</ele>
      </trkpt>
      <trkpt lat="1.4094909311869082" lon="103.67306453676973">
        <ele>24.618695866129574</ele>
      </trkpt>
      <trkpt lat="1.4094880347311904" lon="103.67315434885244">
        <ele>24.817726597431676</ele>
      </trkpt>
      <trkpt lat="1.4094851382719624" lon="103.67324416093533">
        <ele>24.819627661447417</ele>
      </trkpt>
      <trkpt lat="1.4094822418092234" lon="103.67333397301837">
        <ele>24.821528725462557</ele>
      </trkpt>
      <trkpt lat="1.409479345342973" lon="103.6734237851016">
        <ele>24.59323429472741</ele>
      </trkpt>
      <trkpt lat="1.4094513604778065" lon="103.67350619439823">
        <ele>24.15720798358103</ele>
      </trkpt>
      <trkpt lat="1.4094044529707668" lon="103.6735830202243">
        <ele>23.53923209149688</ele>
      </trkpt>
      <trkpt lat="1.4093576547115838" lon="103.67365990881514">
        <ele>23.26665680183575</ele>
      </trkpt>
      <trkpt lat="1.4093140437910672" lon="103.67373862862064">
        <ele>23.23734447169379</ele>
      </trkpt>
      <trkpt lat="1.4092704328675212" lon="103.67381734842343">
        <ele>23.539258982785213</ele>
      </trkpt>
      <trkpt lat="1.4092374419346287" lon="103.67389987137548">
        <ele>24.094569760514805</ele>
      </trkpt>
      <trkpt lat="1.4092204822994556" lon="103.67398813533464">
        <ele>24.985523228492223</ele>
      </trkpt>
      <trkpt lat="1.4092035226607684" lon="103.6740763992929">
        <ele>26.098373205530265</ele>
      </trkpt>
      <trkpt lat="1.4091865630185678" lon="103.67416466325024">
        <ele>27.213795577613094</ele>
      </trkpt>
      <trkpt lat="1.4091696033728522" lon="103.67425292720668">
        <ele>27.997987699694175</ele>
      </trkpt>
      <trkpt lat="1.4091278926803437" lon="103.67432806613006">
        <ele>28.14787835090904</ele>
      </trkpt>
      <trkpt lat="1.4090635351138698" lon="103.67439119582279">
        <ele>27.602952906891616</ele>
      </trkpt>
      <trkpt lat="1.4089960596203674" lon="103.6744496202496">
        <ele>26.377664770471966</ele>
      </trkpt>
      <trkpt lat="1.4089122626755461" lon="103.67448341396269">
        <ele>25.33526695924684</ele>
      </trkpt>
      <trkpt lat="1.4088284657298962" lon="103.67451720767309">
        <ele>24.32698443259172</ele>
      </trkpt>
      <trkpt lat="1.4087446687834166" lon="103.67455100138079">
        <ele>23.979502700090183</ele>
      </trkpt>
      <trkpt lat="1.408661328573166" lon="103.67458588248779">
        <ele>23.76188444111597</ele>
      </trkpt>
      <trkpt lat="1.4085782147309132" lon="103.67462130253223">
        <ele>23.88341932066005</ele>
      </trkpt>
      <trkpt lat="1.4084951008877735" lon="103.6746567225739">
        <ele>24.03419867631006</ele>
      </trkpt>
      <trkpt lat="1.408411987043746" lon="103.67469214261278">
        <ele>24.29104258953987</ele>
      </trkpt>
      <trkpt lat="1.4083326354490118" lon="103.67473506201891">
        <ele>24.67804816766733</ele>
      </trkpt>
      <trkpt lat="1.4082541386093361" lon="103.67477968522503">
        <ele>25.195215410692246</ele>
      </trkpt>
      <trkpt lat="1.4081756417684068" lon="103.67482430842796">
        <ele>25.14922978610151</ele>
      </trkpt>
      <trkpt lat="1.4080971449262247" lon="103.67486893162771">
        <ele>24.369804519219116</ele>
      </trkpt>
      <trkpt lat="1.408021380013678" lon="103.67491793423265">
        <ele>22.866832297111454</ele>
      </trkpt>
      <trkpt lat="1.407946236437304" lon="103.67496793286651">
        <ele>21.36150090158563</ele>
      </trkpt>
      <trkpt lat="1.407871092859438" lon="103.67501793149702">
        <ele>20.409187698237275</ele>
      </trkpt>
      <trkpt lat="1.4078275005986598" lon="103.67509270842747">
        <ele>20.0</ele>
      </trkpt>
      <trkpt lat="1.4077965123304141" lon="103.67517700956375">
        <ele>20.097202342707615</ele>
      </trkpt>
      <trkpt lat="1.4077971604235069" lon="103.67526686538228">
        <ele>20.545115852574302</ele>
      </trkpt>
      <trkpt lat="1.4077978085131209" lon="103.67535672120125">
        <ele>21.569561563074316</ele>
      </trkpt>
      <trkpt lat="1.407796064629185" lon="103.67544651461229">
        <ele>23.27946230859456</ele>
      </trkpt>
      <trkpt lat="1.407790671384376" lon="103.67553621280885">
        <ele>25.495772649970316</ele>
      </trkpt>
      <trkpt lat="1.407785278136048" lon="103.6756259110054">
        <ele>27.6480533275583</ele>
      </trkpt>
      <trkpt lat="1.4077501997283115" lon="103.6757083127941">
        <ele>29.50419519463921</ele>
      </trkpt>
      <trkpt lat="1.4077128830776837" lon="103.67579016443656">
        <ele>30.449651084930746</ele>
      </trkpt>
      <trkpt lat="1.4076477476850744" lon="103.67584565962932">
        <ele>30.487942140847878</ele>
      </trkpt>
      <trkpt lat="1.407567237197334" lon="103.67588658791695">
        <ele>29.64505233201584</ele>
      </trkpt>
      <trkpt lat="1.4074867267084965" lon="103.67592751620155">
        <ele>28.364128386859875</ele>
      </trkpt>
      <trkpt lat="1.4074023950525492" lon="103.6759598095195">
        <ele>26.974935293705233</ele>
      </trkpt>
      <trkpt lat="1.407317616695466" lon="103.6759910933939">
        <ele>25.668752982710373</ele>
      </trkpt>
      <trkpt lat="1.407240765264875" lon="103.6760375752942">
        <ele>24.65338458933486</ele>
      </trkpt>
      <trkpt lat="1.407166159702512" lon="103.6760883631209">
        <ele>23.940162209007372</ele>
      </trkpt>
      <trkpt lat="1.407091554138623" lon="103.67613915094421">
        <ele>23.344281786694964</ele>
      </trkpt>
      <trkpt lat="1.4070173011225808" lon="103.67619040112378">
        <ele>22.844044902313467</ele>
      </trkpt>
      <trkpt lat="1.4069479024300036" lon="103.67624801762516">
        <ele>22.439451555862473</ele>
      </trkpt>
      <trkpt lat="1.4068785037355678" lon="103.67630563412305">
        <ele>22.124025872216446</ele>
      </trkpt>
      <trkpt lat="1.4068091050392741" lon="103.67636325061748">
        <ele>21.808600188570423</ele>
      </trkpt>
      <trkpt lat="1.4067397063411229" lon="103.67642086710846">
        <ele>21.673916430599927</ele>
      </trkpt>
      <trkpt lat="1.406682672307136" lon="103.67648880562614">
        <ele>21.14603616817229</ele>
      </trkpt>
      <trkpt lat="1.4066375187177997" lon="103.67656666194503">
        <ele>20.648311333197313</ele>
      </trkpt>
      <trkpt lat="1.4065923651254946" lon="103.67664451826113">
        <ele>20.074986467095794</ele>
      </trkpt>
      <trkpt lat="1.4065998184508235" lon="103.67673244822599">
        <ele>20.0</ele>
      </trkpt>
      <trkpt lat="1.4066282476479937" lon="103.67681447145071">
        <ele>20.0</ele>
      </trkpt>
      <trkpt lat="1.4066863324557337" lon="103.67688334537637">
        <ele>20.0</ele>
      </trkpt>
      <trkpt lat="1.4067721893735787" lon="103.67690027332402">
        <ele>20.0</ele>
      </trkpt>
      <trkpt lat="1.4068621434997106" lon="103.6769095377026">
        <ele>20.085714410672544</ele>
      </trkpt>
      <trkpt lat="1.406952510367807" lon="103.67691006233674">
        <ele>20.87931595637663</ele>
      </trkpt>
      <trkpt lat="1.4070429423442836" lon="103.67690920830954">
        <ele>22.364555751016344</ele>
      </trkpt>
      <trkpt lat="1.4071303712643954" lon="103.67692892348478">
        <ele>24.426280351874198</ele>
      </trkpt>
      <trkpt lat="1.4072168313940265" lon="103.67695527431627">
        <ele>26.09690133120239</ele>
      </trkpt>
      <trkpt lat="1.4072735522316286" lon="103.67702501476141">
        <ele>27.235845273218256</ele>
      </trkpt>
      <trkpt lat="1.4073041132265274" lon="103.67710863764572">
        <ele>27.824928028823294</ele>
      </trkpt>
      <trkpt lat="1.407329173197238" lon="103.6771947821027">
        <ele>27.72513027482724</ele>
      </trkpt>
      <trkpt lat="1.407294495845985" lon="103.67727777175871">
        <ele>27.091806437736466</ele>
      </trkpt>
      <trkpt lat="1.407252789325052" lon="103.67735708623138">
        <ele>26.210259175427797</ele>
      </trkpt>
      <trkpt lat="1.4072035868787822" lon="103.67743248147801">
        <ele>25.38077289930082</ele>
      </trkpt>
      <trkpt lat="1.4071439492489435" lon="103.67749445981845">
        <ele>24.28819751765278</ele>
      </trkpt>
      <trkpt lat="1.407058113507855" lon="103.67752275426415">
        <ele>22.71786124661905</ele>
      </trkpt>
      <trkpt lat="1.406972277766126" lon="103.67755104870747">
        <ele>21.18292275170981</ele>
      </trkpt>
      <trkpt lat="1.4068964835822226" lon="103.67759857412678">
        <ele>20.284638233793043</ele>
      </trkpt>
      <trkpt lat="1.406823775331366" lon="103.67765200953588">
        <ele>20.0</ele>
      </trkpt>
      <trkpt lat="1.4067510670788619" lon="103.67770544494155">
        <ele>20.0</ele>
      </trkpt>
      <trkpt lat="1.4067060810285328" lon="103.67777943023415">
        <ele>20.0</ele>
      </trkpt>
      <trkpt lat="1.4066752419828081" lon="103.67786390240569">
        <ele>20.141861048363435</ele>
      </trkpt>
      <trkpt lat="1.4066444029337497" lon="103.67794837457531">
        <ele>20.64851955011941</ele>
      </trkpt>
      <trkpt lat="1.4066593824325566" lon="103.67803452538837">
        <ele>20.682231230749306</ele>
      </trkpt>
      <trkpt lat="1.406683876794605" lon="103.67812102479752">
        <ele>20.540370182385868</ele>
      </trkpt>
      <trkpt lat="1.4067083711536228" lon="103.67820752420882">
        <ele>20.033711680629896</ele>
      </trkpt>
      <trkpt lat="1.406741040515578" lon="103.67829074767636">
        <ele>19.999999999999996</ele>
      </trkpt>
      <trkpt lat="1.4067837958989524" lon="103.67836992940425">
        <ele>20.0</ele>
      </trkpt>
      <trkpt lat="1.4068265512799294" lon="103.67844911113527">
        <ele>20.0</ele>
      </trkpt>
      <trkpt lat="1.4068891962437595" lon="103.67850859159017">
        <ele>20.0</ele>
      </trkpt>
      <trkpt lat="1.4069687542917493" lon="103.6785513190886">
        <ele>20.0</ele>
      </trkpt>
      <trkpt lat="1.40704831233922" lon="103.67859404658972">
        <ele>20.002822627063438</ele>
      </trkpt>
      <trkpt lat="1.4071278703861714" lon="103.67863677409352">
        <ele>20.002822627063438</ele>
      </trkpt>
      <trkpt lat="1.4072127998204842" lon="103.67866504125944">
        <ele>20.002822627063438</ele>
      </trkpt>
      <trkpt lat="1.4073012185554241" lon="103.67868391486238">
        <ele>20.0</ele>
      </trkpt>
      <trkpt lat="1.4073896372903012" lon="103.67870278846642">
        <ele>20.0</ele>
      </trkpt>
      <trkpt lat="1.4074780560251157" lon="103.67872166207152">
        <ele>20.0</ele>
      </trkpt>
      <trkpt lat="1.407566474759867" lon="103.6787405356777">
        <ele>20.0</ele>
      </trkpt>
      <trkpt lat="1.407655385361038" lon="103.67875498723029">
        <ele>20.0</ele>
      </trkpt>
      <trkpt lat="1.4077458181379876" lon="103.67875575388075">
        <ele>20.000000000000004</ele>
      </trkpt>
      <trkpt lat="1.4078362509148734" lon="103.67875652053085">
        <ele>20.0</ele>
      </trkpt>
      <trkpt lat="1.4079265947805306" lon="103.6787558564343">
        <ele>20.0</ele>
      </trkpt>
      <trkpt lat="1.408016245689775" lon="103.6787440413791">
        <ele>20.0</ele>
      </trkpt>
      <trkpt lat="1.4081058965987894" lon="103.67873222632264">
        <ele>20.0</ele>
      </trkpt>
      <trkpt lat="1.4081955475075738" lon="103.67872041126489">
        <ele>20.0</ele>
      </trkpt>
      <trkpt lat="1.4082843508008807" lon="103.67870498803809">
        <ele>20.0</ele>
      </trkpt>
      <trkpt lat="1.4083700019293601" lon="103.67867614653036">
        <ele>20.0</ele>
      </trkpt>
      <trkpt lat="1.4084556530571837" lon="103.67864730502022">
        <ele>20.0</ele>
      </trkpt>
      <trkpt lat="1.4085413041843502" lon="103.67861846350768">
        <ele>20.0</ele>
      </trkpt>
      <trkpt lat="1.40862695531086" lon="103.67858962199271">
        <ele>20.0</ele>
      </trkpt>
      <trkpt lat="1.4087126064367133" lon="103.67856078047535">
        <ele>20.144325666152692</ele>
      </trkpt>
      <trkpt lat="1.4087847056644598" lon="103.6785069682645">
        <ele>20.343250572889495</ele>
      </trkpt>
      <trkpt lat="1.4088560192111057" lon="103.67845170835942">
        <ele>20.594016902718845</ele>
      </trkpt>
      <trkpt lat="1.4089273327560154" lon="103.67839644845088">
        <ele>20.75229898948839</ele>
      </trkpt>
      <trkpt lat="1.4089986462991881" lon="103.67834118853887">
        <ele>20.907823258766253</ele>
      </trkpt>
      <trkpt lat="1.4090699598406238" lon="103.67828592862342">
        <ele>21.06625018870633</ele>
      </trkpt>
      <trkpt lat="1.4091410663016124" lon="103.6782304182348">
        <ele>21.265478121308117</ele>
      </trkpt>
      <trkpt lat="1.4092094690552133" lon="103.6781716376061">
        <ele>21.50550705657173</ele>
      </trkpt>
      <trkpt lat="1.409277871806899" lon="103.67811285697391">
        <ele>21.783434333835164</ele>
      </trkpt>
      <trkpt lat="1.409346274556669" lon="103.67805407633823">
        <ele>22.0613616110986</ele>
      </trkpt>
      <trkpt lat="1.4094146773045233" lon="103.67799529569906">
        <ele>22.129610805218533</ele>
      </trkpt>
      <trkpt lat="1.409483080050462" lon="103.67793651505643">
        <ele>22.210218736778298</ele>
      </trkpt>
      <trkpt lat="1.4095256450488607" lon="103.67785863492094">
        <ele>22.359231876472915</ele>
      </trkpt>
      <trkpt lat="1.4095626461383313" lon="103.67777664189477">
        <ele>23.008388327804465</ele>
      </trkpt>
      <trkpt lat="1.4095669034996914" lon="103.67769252254308">
        <ele>24.140481981922296</ele>
      </trkpt>
      <trkpt lat="1.4095409576703" lon="103.6776064418476">
        <ele>25.655898802177834</ele>
      </trkpt>
      <trkpt lat="1.4095200077717382" lon="103.67751937032374">
        <ele>27.221623130027428</ele>
      </trkpt>
      <trkpt lat="1.4095145249479146" lon="103.67743093559605">
        <ele>28.20237796330136</ele>
      </trkpt>
      <trkpt lat="1.4095655463078947" lon="103.67735740000002">
        <ele>28.057186760580105</ele>
      </trkpt>
      <trkpt lat="1.4096559823688832" lon="103.67735740000005">
        <ele>26.9740221723102</ele>
      </trkpt>
      <trkpt lat="1.4097463965282375" lon="103.67735918898425">
        <ele>25.554467592849402</ele>
      </trkpt>
      <trkpt lat="1.4098368058296686" lon="103.6773613747733">
        <ele>24.407078601636897</ele>
      </trkpt>
      <trkpt lat="1.4099272151310458" lon="103.67736356056213">
        <ele>23.83163294628328</ele>
      </trkpt>
      <trkpt lat="1.4100145329868754" lon="103.677345383529">
        <ele>23.732374275860398</ele>
      </trkpt>
      <trkpt lat="1.4101002703598746" lon="103.67731679612791">
        <ele>24.085291118302138</ele>
      </trkpt>
      <trkpt lat="1.4101860077322228" lon="103.6772882087244">
        <ele>24.513588713736837</ele>
      </trkpt>
      <trkpt lat="1.4102717451039197" lon="103.6772596213185">
        <ele>25.040937593931833</ele>
      </trkpt>
      <trkpt lat="1.410350996155873" lon="103.67721779539964">
        <ele>25.43938884496792</ele>
      </trkpt>
      <trkpt lat="1.41042652620763" lon="103.67716837495716">
        <ele>25.17667748726828</ele>
      </trkpt>
      <trkpt lat="1.4105020562579254" lon="103.67711895451136">
        <ele>24.367732688114177</ele>
      </trkpt>
      <trkpt lat="1.410558322753475" lon="103.67704909248988">
        <ele>23.25911483624695</ele>
      </trkpt>
      <trkpt lat="1.4106129137516412" lon="103.67697745250925">
        <ele>22.55335762249935</ele>
      </trkpt>
      <trkpt lat="1.410634982067989" lon="103.6769484921694">
        <ele>22.20978475303662</ele>
      </trkpt>
    </trkseg>
  </trk>
</gpx>