<?xml version="1.0" encoding="UTF-8"?>
<gpx xmlns="http://www.topografix.com/GPX/1/1" xmlns:xsi="http://www.w3.org/2001/XMLSchema-instance" xsi:schemaLocation="http://www.topografix.com/GPX/1/1 http://www.topografix.com/GPX/1/1/gpx.xsd" version="1.1" creator="gpx.py -- https://github.com/tkrajina/gpxpy">
  <trk>
    <name>point_to_point_05000m_002</name>
    <trkseg>
      <trkpt lat="1.353228732825694" lon="103.77960538326735">
        <ele>80.24871810737298</ele>
      </trkpt>
      <trkpt lat="1.353306663681765" lon="103.7796509749683">
        <ele>80.16581207158198</ele>
      </trkpt>
      <trkpt lat="1.353386485375714" lon="103.779692917305">
        <ele>80.0</ele>
      </trkpt>
      <trkpt lat="1.3534691098710232" lon="103.77972945016462">
        <ele>80.0</ele>
      </trkpt>
      <trkpt lat="1.3535550616618162" lon="103.7797571685875">
        <ele>80.0</ele>
      </trkpt>
      <trkpt lat="1.3535916577316118" lon="103.77976837478178">
        <ele>80.0</ele>
      </trkpt>
      <trkpt lat="1.353508243411271" lon="103.77973365900597">
        <ele>80.0</ele>
      </trkpt>
      <trkpt lat="1.3534268835169732" lon="103.77969462722369">
        <ele>80.0</ele>
      </trkpt>
      <trkpt lat="1.3533472960905146" lon="103.77965202891411">
        <ele>80.0</ele>
      </trkpt>
      <trkpt lat="1.3532728200403024" lon="103.77960105433924">
        <ele>80.96370912387937</ele>
      </trkpt>
      <trkpt lat="1.3531985171520433" lon="103.7795498314555">
        <ele>82.13569716343962</ele>
      </trkpt>
      <trkpt lat="1.3531231602925795" lon="103.77950018664285">
        <ele>82.91661269471805</ele>
      </trkpt>
      <trkpt lat="1.3530482297672637" lon="103.77945030480683">
        <ele>82.06301747080481</ele>
      </trkpt>
      <trkpt lat="1.352966314813011" lon="103.77941548914563">
        <ele>80.89290225823656</ele>
      </trkpt>
      <trkpt lat="1.3529022218535462" lon="103.77935448456044">
        <ele>79.35920009777755</ele>
      </trkpt>
      <trkpt lat="1.3528168733758639" lon="103.7793260363915">
        <ele>77.66917502624176</ele>
      </trkpt>
      <trkpt lat="1.3527300963877122" lon="103.77930223260128">
        <ele>76.12814154118375</ele>
      </trkpt>
      <trkpt lat="1.3526722864657148" lon="103.77923581442894">
        <ele>75.07089637578797</ele>
      </trkpt>
      <trkpt lat="1.3526023630014516" lon="103.7791812182272">
        <ele>74.26165673512749</ele>
      </trkpt>
      <trkpt lat="1.3525220347935458" lon="103.77913993808029">
        <ele>72.79821679842614</ele>
      </trkpt>
      <trkpt lat="1.3524372008435193" lon="103.77910983124112">
        <ele>71.99301537555596</ele>
      </trkpt>
      <trkpt lat="1.3523685868900244" lon="103.7790513889277">
        <ele>71.86112516764875</ele>
      </trkpt>
      <trkpt lat="1.3522914721664334" lon="103.77900519832143">
        <ele>71.65491209659443</ele>
      </trkpt>
      <trkpt lat="1.352202541377096" lon="103.77899743152778">
        <ele>70.48523610465101</ele>
      </trkpt>
      <trkpt lat="1.3521135520465541" lon="103.77898325318434">
        <ele>69.0764252985714</ele>
      </trkpt>
      <trkpt lat="1.3520288892937748" lon="103.77895332538414">
        <ele>68.3780332365748</ele>
      </trkpt>
      <trkpt lat="1.351947309192906" lon="103.77891456018627">
        <ele>68.11594416577982</ele>
      </trkpt>
      <trkpt lat="1.3518626359304198" lon="103.77888437343184">
        <ele>67.25319797553472</ele>
      </trkpt>
      <trkpt lat="1.3517729019943436" lon="103.77888914580608">
        <ele>65.72991850440256</ele>
      </trkpt>
      <trkpt lat="1.3516837381246316" lon="103.77888755140035">
        <ele>64.03451151852865</ele>
      </trkpt>
      <trkpt lat="1.3515952850618935" lon="103.77887232632864">
        <ele>62.766463077526204</ele>
      </trkpt>
      <trkpt lat="1.3515083646222623" lon="103.7788911610907">
        <ele>62.33004759043066</ele>
      </trkpt>
      <trkpt lat="1.351418385978562" lon="103.77889732139971">
        <ele>62.51618229507552</ele>
      </trkpt>
      <trkpt lat="1.3513280247569235" lon="103.77889702058481">
        <ele>63.22977126237924</ele>
      </trkpt>
      <trkpt lat="1.3512378395092686" lon="103.77890235534474">
        <ele>64.38073606017352</ele>
      </trkpt>
      <trkpt lat="1.3511496646674384" lon="103.7788837275184">
        <ele>65.11544449170869</ele>
      </trkpt>
      <trkpt lat="1.3510630839224727" lon="103.77890597991173">
        <ele>65.17542578282105</ele>
      </trkpt>
      <trkpt lat="1.3509836383073124" lon="103.77894700130707">
        <ele>64.1493137106429</ele>
      </trkpt>
      <trkpt lat="1.3509033751925699" lon="103.77898758778882">
        <ele>63.47441625413049</ele>
      </trkpt>
      <trkpt lat="1.3508155183100332" lon="103.7789902028112">
        <ele>63.52286820940973</ele>
      </trkpt>
      <trkpt lat="1.3507286300519474" lon="103.77897051954726">
        <ele>64.58796719307293</ele>
      </trkpt>
      <trkpt lat="1.3506504908865888" lon="103.77893165153093">
        <ele>65.67686316201026</ele>
      </trkpt>
      <trkpt lat="1.3505620493983987" lon="103.77891674949507">
        <ele>67.12275057557356</ele>
      </trkpt>
      <trkpt lat="1.3504737187908995" lon="103.77889812352272">
        <ele>68.24496916050909</ele>
      </trkpt>
      <trkpt lat="1.350390733300264" lon="103.77892482384473">
        <ele>69.55636512169478</ele>
      </trkpt>
      <trkpt lat="1.3503005199728126" lon="103.77892784332613">
        <ele>70.91327926713817</ele>
      </trkpt>
      <trkpt lat="1.3502137398523695" lon="103.77895121737345">
        <ele>72.64728707708186</ele>
      </trkpt>
      <trkpt lat="1.3501486624094745" lon="103.77901060908353">
        <ele>74.25041903796738</ele>
      </trkpt>
      <trkpt lat="1.3500979147739456" lon="103.77908484838655">
        <ele>75.44758040583207</ele>
      </trkpt>
      <trkpt lat="1.3500512346278783" lon="103.77916178263145">
        <ele>76.3177763696624</ele>
      </trkpt>
      <trkpt lat="1.3500026473761517" lon="103.77923756601041">
        <ele>77.33364765125796</ele>
      </trkpt>
      <trkpt lat="1.3499541704489635" lon="103.77931342236549">
        <ele>78.57230896815578</ele>
      </trkpt>
      <trkpt lat="1.3499074827270259" lon="103.7793892545882">
        <ele>79.52283558621285</ele>
      </trkpt>
      <trkpt lat="1.3498635197158362" lon="103.77946556845328">
        <ele>80.0</ele>
      </trkpt>
      <trkpt lat="1.3498202781515145" lon="103.77954444695226">
        <ele>80.0</ele>
      </trkpt>
      <trkpt lat="1.3497836502025853" lon="103.77962513376883">
        <ele>80.0</ele>
      </trkpt>
      <trkpt lat="1.3497130439982543" lon="103.77968002687051">
        <ele>80.0</ele>
      </trkpt>
      <trkpt lat="1.349627530261202" lon="103.77969862715634">
        <ele>80.0</ele>
      </trkpt>
      <trkpt lat="1.3495431548443313" lon="103.77966831318385">
        <ele>80.0</ele>
      </trkpt>
      <trkpt lat="1.3494770092911925" lon="103.77960791533098">
        <ele>80.0</ele>
      </trkpt>
      <trkpt lat="1.3494247517812636" lon="103.77953581559613">
        <ele>80.0</ele>
      </trkpt>
      <trkpt lat="1.3493530656775354" lon="103.77948118618596">
        <ele>80.0</ele>
      </trkpt>
      <trkpt lat="1.349366949547447" lon="103.77941516058237">
        <ele>80.0</ele>
      </trkpt>
      <trkpt lat="1.3494357754869566" lon="103.77936021098357">
        <ele>80.0</ele>
      </trkpt>
      <trkpt lat="1.3494511987177757" lon="103.77935539634632">
        <ele>80.0</ele>
      </trkpt>
      <trkpt lat="1.3494836124988487" lon="103.7793792928133">
        <ele>80.0</ele>
      </trkpt>
      <trkpt lat="1.3495649306028918" lon="103.77937395852241">
        <ele>80.0</ele>
      </trkpt>
      <trkpt lat="1.3495808483844964" lon="103.77928768009154">
        <ele>80.0</ele>
      </trkpt>
      <trkpt lat="1.349586141242636" lon="103.77919835986764">
        <ele>80.0</ele>
      </trkpt>
      <trkpt lat="1.349598192698752" lon="103.77911000700635">
        <ele>80.0</ele>
      </trkpt>
      <trkpt lat="1.3496415585990214" lon="103.779031879235">
        <ele>80.0</ele>
      </trkpt>
      <trkpt lat="1.3496677021082943" lon="103.7789461562329">
        <ele>80.0</ele>
      </trkpt>
      <trkpt lat="1.3496924283292202" lon="103.77885990719057">
        <ele>80.0</ele>
      </trkpt>
      <trkpt lat="1.3497316199467462" lon="103.77877892791581">
        <ele>80.0</ele>
      </trkpt>
      <trkpt lat="1.3497742531376267" lon="103.77869975439168">
        <ele>80.0</ele>
      </trkpt>
      <trkpt lat="1.3498192587675835" lon="103.77862181503359">
        <ele>80.0</ele>
      </trkpt>
      <trkpt lat="1.349866495225158" lon="103.77854520351326">
        <ele>80.0</ele>
      </trkpt>
      <trkpt lat="1.3499075759317267" lon="103.77846576402771">
        <ele>78.94192155706376</ele>
      </trkpt>
      <trkpt lat="1.3499193019251952" lon="103.77837707520281">
        <ele>77.57326883624573</ele>
      </trkpt>
      <trkpt lat="1.3499347202452605" lon="103.77828856875686">
        <ele>76.35300826797449</ele>
      </trkpt>
      <trkpt lat="1.3499389731144404" lon="103.77819946354079">
        <ele>76.16856912798075</ele>
      </trkpt>
      <trkpt lat="1.3499187675545883" lon="103.77811333867555">
        <ele>75.42812760410673</ele>
      </trkpt>
      <trkpt lat="1.3498565953857107" lon="103.7780495306063">
        <ele>73.1836360026913</ele>
      </trkpt>
      <trkpt lat="1.349769872952024" lon="103.77802850997296">
        <ele>70.14963478113032</ele>
      </trkpt>
      <trkpt lat="1.3497061066047973" lon="103.77796801647875">
        <ele>67.10302224079311</ele>
      </trkpt>
      <trkpt lat="1.3496370640570183" lon="103.77791319946877">
        <ele>65.01823547905819</ele>
      </trkpt>
      <trkpt lat="1.3496060259758378" lon="103.77782929732767">
        <ele>63.344384386490184</ele>
      </trkpt>
      <trkpt lat="1.349574439036789" lon="103.77774536791578">
        <ele>61.755179881118124</ele>
      </trkpt>
      <trkpt lat="1.349512991850811" lon="103.77768364454327">
        <ele>59.833840301872804</ele>
      </trkpt>
      <trkpt lat="1.3494265747649499" lon="103.77765842431074">
        <ele>58.083931039101884</ele>
      </trkpt>
      <trkpt lat="1.3493609327258251" lon="103.77760156977946">
        <ele>56.734665129639325</ele>
      </trkpt>
      <trkpt lat="1.3492908385313815" lon="103.77756312866342">
        <ele>55.247710343877</ele>
      </trkpt>
      <trkpt lat="1.3492015138877074" lon="103.77757677794081">
        <ele>53.22624539855116</ele>
      </trkpt>
      <trkpt lat="1.3491114934227506" lon="103.77757209483475">
        <ele>50.7973020036423</ele>
      </trkpt>
      <trkpt lat="1.3490210843858255" lon="103.77757330868367">
        <ele>48.42739956330536</ele>
      </trkpt>
      <trkpt lat="1.3489309378562815" lon="103.77757548282473">
        <ele>46.64731268503353</ele>
      </trkpt>
      <trkpt lat="1.3488693267320953" lon="103.77751188470063">
        <ele>45.39633188583456</ele>
      </trkpt>
      <trkpt lat="1.348800417876409" lon="103.77745418406514">
        <ele>44.48832550153109</ele>
      </trkpt>
      <trkpt lat="1.3487292420278656" lon="103.77739892895761">
        <ele>43.20123085874741</ele>
      </trkpt>
      <trkpt lat="1.3486552505923248" lon="103.77734810911515">
        <ele>41.88762029004274</ele>
      </trkpt>
      <trkpt lat="1.3485982351334231" lon="103.77728146041653">
        <ele>41.42998411367238</ele>
      </trkpt>
      <trkpt lat="1.348596192846776" lon="103.77719173460783">
        <ele>41.92242381296598</ele>
      </trkpt>
      <trkpt lat="1.3485943420158255" lon="103.77710189721954">
        <ele>42.76956094250814</ele>
      </trkpt>
      <trkpt lat="1.3485940812849657" lon="103.77708924163076">
        <ele>43.19440885992222</ele>
      </trkpt>
      <trkpt lat="1.3485805500917227" lon="103.77717808636373">
        <ele>41.75848649498941</ele>
      </trkpt>
      <trkpt lat="1.3485813300872886" lon="103.77726768869798">
        <ele>40.884496438151636</ele>
      </trkpt>
      <trkpt lat="1.3486218113876616" lon="103.7773414516633">
        <ele>41.05653925718253</ele>
      </trkpt>
      <trkpt lat="1.3486920076344082" lon="103.77739722521416">
        <ele>42.16063995018743</ele>
      </trkpt>
      <trkpt lat="1.3487644353128665" lon="103.77745056203776">
        <ele>43.52053449142959</ele>
      </trkpt>
      <trkpt lat="1.348836049050872" lon="103.77750503542909">
        <ele>44.541768152013105</ele>
      </trkpt>
      <trkpt lat="1.3488968243068817" lon="103.77757134620033">
        <ele>45.63230169718482</ele>
      </trkpt>
      <trkpt lat="1.3489780255814376" lon="103.77759201069813">
        <ele>47.18267514497679</ele>
      </trkpt>
      <trkpt lat="1.3490684345193342" lon="103.77759014360954">
        <ele>49.346297446867936</ele>
      </trkpt>
      <trkpt lat="1.3491585278037628" lon="103.7775948639093">
        <ele>51.74116699103161</ele>
      </trkpt>
      <trkpt lat="1.3492484762506496" lon="103.77758879132854">
        <ele>54.05786155205353</ele>
      </trkpt>
      <trkpt lat="1.3493327979911067" lon="103.77759120009466">
        <ele>55.654904330734176</ele>
      </trkpt>
      <trkpt lat="1.3493879232353696" lon="103.777660688488">
        <ele>56.96348400406573</ele>
      </trkpt>
      <trkpt lat="1.3494733854683678" lon="103.77768792078899">
        <ele>58.580675903323986</ele>
      </trkpt>
      <trkpt lat="1.3495493210770482" lon="103.7777333607845">
        <ele>60.60051198428766</ele>
      </trkpt>
      <trkpt lat="1.3495845518376126" lon="103.77781610309005">
        <ele>62.428566989089155</ele>
      </trkpt>
      <trkpt lat="1.3496117742577054" lon="103.77790125993545">
        <ele>63.947420798690594</ele>
      </trkpt>
      <trkpt lat="1.3496688552103042" lon="103.7779670193588">
        <ele>65.9480750106129</ele>
      </trkpt>
      <trkpt lat="1.349741806922822" lon="103.77801814350038">
        <ele>68.5602817167301</ele>
      </trkpt>
      <trkpt lat="1.3498162638172786" lon="103.7780571667593">
        <ele>71.58488604662301</ele>
      </trkpt>
      <trkpt lat="1.349889678398523" lon="103.77810339479669">
        <ele>73.89324121329389</ele>
      </trkpt>
      <trkpt lat="1.3499196300959704" lon="103.77818571298991">
        <ele>75.18983779090466</ele>
      </trkpt>
      <trkpt lat="1.3499189742355449" lon="103.7782749984961">
        <ele>75.39947696207417</ele>
      </trkpt>
      <trkpt lat="1.3499029613730793" lon="103.77836340544377">
        <ele>76.91354976599939</ele>
      </trkpt>
      <trkpt lat="1.3498930164812788" lon="103.7784525335926">
        <ele>78.4826868700062</ele>
      </trkpt>
      <trkpt lat="1.3498531289469469" lon="103.77853253763391">
        <ele>80.0</ele>
      </trkpt>
      <trkpt lat="1.34980576109041" lon="103.77860907094677">
        <ele>80.0</ele>
      </trkpt>
      <trkpt lat="1.3497607552691562" lon="103.77868701019536">
        <ele>80.0</ele>
      </trkpt>
      <trkpt lat="1.349717773382092" lon="103.7787660023062">
        <ele>80.0</ele>
      </trkpt>
      <trkpt lat="1.3496786290587843" lon="103.77884700417945">
        <ele>80.0</ele>
      </trkpt>
      <trkpt lat="1.3496520696594876" lon="103.7789326472829">
        <ele>80.0</ele>
      </trkpt>
      <trkpt lat="1.3496272547257055" lon="103.77901875981796">
        <ele>80.0</ele>
      </trkpt>
      <trkpt lat="1.3495836370356533" lon="103.77909678659253">
        <ele>80.0</ele>
      </trkpt>
      <trkpt lat="1.3495709336713133" lon="103.7791849190178">
        <ele>80.0</ele>
      </trkpt>
      <trkpt lat="1.3495629603966708" lon="103.77927388324889">
        <ele>80.0</ele>
      </trkpt>
      <trkpt lat="1.3495516178272364" lon="103.77936155331474">
        <ele>80.0</ele>
      </trkpt>
      <trkpt lat="1.3494693688329253" lon="103.77935447558637">
        <ele>80.0</ele>
      </trkpt>
      <trkpt lat="1.3494511987177757" lon="103.77935539634632">
        <ele>80.0</ele>
      </trkpt>
      <trkpt lat="1.3493908225731128" lon="103.77942127927753">
        <ele>80.0</ele>
      </trkpt>
      <trkpt lat="1.3493814842304197" lon="103.77947967961315">
        <ele>80.0</ele>
      </trkpt>
      <trkpt lat="1.349451449164521" lon="103.77953634005847">
        <ele>80.0</ele>
      </trkpt>
      <trkpt lat="1.3495021101052067" lon="103.77960985880739">
        <ele>80.0</ele>
      </trkpt>
      <trkpt lat="1.3495736680459796" lon="103.77966337526243">
        <ele>80.0</ele>
      </trkpt>
      <trkpt lat="1.3496606408959535" lon="103.77968214719502">
        <ele>80.0</ele>
      </trkpt>
      <trkpt lat="1.349739670737327" lon="103.77964045567884">
        <ele>80.0</ele>
      </trkpt>
      <trkpt lat="1.3497885282017672" lon="103.77956929728808">
        <ele>80.0</ele>
      </trkpt>
      <trkpt lat="1.3498288363863966" lon="103.77948888203065">
        <ele>80.0</ele>
      </trkpt>
      <trkpt lat="1.3498766940876024" lon="103.77941287170013">
        <ele>80.0</ele>
      </trkpt>
      <trkpt lat="1.3499183015264191" lon="103.77933594771396">
        <ele>79.44332230143664</ele>
      </trkpt>
      <trkpt lat="1.349966819848898" lon="103.77926011749607">
        <ele>78.5951929973614</ele>
      </trkpt>
      <trkpt lat="1.3500155932980806" lon="103.77918445029903">
        <ele>77.47015152297537</ele>
      </trkpt>
      <trkpt lat="1.3500635520414725" lon="103.7791082699165">
        <ele>76.63512734733673</ele>
      </trkpt>
      <trkpt lat="1.3501108892249716" lon="103.77903185249937">
        <ele>75.67756718226745</ele>
      </trkpt>
      <trkpt lat="1.3501663185072803" lon="103.77896106761419">
        <ele>74.0816678728746</ele>
      </trkpt>
      <trkpt lat="1.350245122863985" lon="103.77892046152037">
        <ele>72.35656780789209</ele>
      </trkpt>
      <trkpt lat="1.3503341521987227" lon="103.77890715409146">
        <ele>70.70654565861041</ele>
      </trkpt>
      <trkpt lat="1.350420250074438" lon="103.77889142266403">
        <ele>69.55961560222728</ele>
      </trkpt>
      <trkpt lat="1.3505073368706753" lon="103.77888453697189">
        <ele>68.33406459805967</ele>
      </trkpt>
      <trkpt lat="1.350594539433241" lon="103.77890815812215">
        <ele>67.36099828714045</ele>
      </trkpt>
      <trkpt lat="1.350684267451311" lon="103.77891694272826">
        <ele>66.11816284345373</ele>
      </trkpt>
      <trkpt lat="1.3507603604731064" lon="103.77896345476042">
        <ele>65.03117175965424</ele>
      </trkpt>
      <trkpt lat="1.3508480023660447" lon="103.77898056448994">
        <ele>64.22976357315581</ele>
      </trkpt>
      <trkpt lat="1.3509332069072677" lon="103.77895334391768">
        <ele>64.68295099989002</ele>
      </trkpt>
      <trkpt lat="1.35101002777835" lon="103.77890682870293">
        <ele>65.73838261671834</ele>
      </trkpt>
      <trkpt lat="1.3510946013603073" lon="103.77887500693372">
        <ele>66.31301213612211</ele>
      </trkpt>
      <trkpt lat="1.3511824074990355" lon="103.77887417000646">
        <ele>65.83360522972255</ele>
      </trkpt>
      <trkpt lat="1.351271715866052" lon="103.77888421324371">
        <ele>64.84707016439286</ele>
      </trkpt>
      <trkpt lat="1.3513618720094251" lon="103.77887968377364">
        <ele>63.872203356206846</ele>
      </trkpt>
      <trkpt lat="1.3514522282361352" lon="103.77887771312588">
        <ele>63.36991181104208</ele>
      </trkpt>
      <trkpt lat="1.3515393304760324" lon="103.77885886857784">
        <ele>63.41803449849269</ele>
      </trkpt>
      <trkpt lat="1.3516289033779139" lon="103.77885701766051">
        <ele>64.06772746253006</ele>
      </trkpt>
      <trkpt lat="1.3517168511978235" lon="103.77887504547452">
        <ele>65.54151867556556</ele>
      </trkpt>
      <trkpt lat="1.351806399560564" lon="103.77886589892334">
        <ele>67.21471544246772</ele>
      </trkpt>
      <trkpt lat="1.3518952210709112" lon="103.77887420295825">
        <ele>68.60972946576952</ele>
      </trkpt>
      <trkpt lat="1.3519785204719657" lon="103.77890907566818">
        <ele>69.15248730745645</ele>
      </trkpt>
      <trkpt lat="1.3520597520317688" lon="103.77894856148188">
        <ele>69.5266991849478</ele>
      </trkpt>
      <trkpt lat="1.3521468605707054" lon="103.77897117067904">
        <ele>70.53194367237242</ele>
      </trkpt>
      <trkpt lat="1.3522364133786937" lon="103.77897945681003">
        <ele>72.00249958798815</ele>
      </trkpt>
      <trkpt lat="1.3523222209271537" lon="103.7790003921196">
        <ele>72.91197150845271</ele>
      </trkpt>
      <trkpt lat="1.3523963263570917" lon="103.77905122580981">
        <ele>72.95389070515115</ele>
      </trkpt>
      <trkpt lat="1.3524698699616566" lon="103.77910060674175">
        <ele>73.17805495951791</ele>
      </trkpt>
      <trkpt lat="1.352552774237133" lon="103.77913549859929">
        <ele>74.1846612568076</ele>
      </trkpt>
      <trkpt lat="1.352633102199265" lon="103.7791767792188">
        <ele>75.4466702371015</ele>
      </trkpt>
      <trkpt lat="1.3526960465670161" lon="103.77923924388548">
        <ele>76.29596291621618</ele>
      </trkpt>
      <trkpt lat="1.3527621607843072" lon="103.77929431374754">
        <ele>77.4202594170805</ele>
      </trkpt>
      <trkpt lat="1.3528497239005874" lon="103.77931666743297">
        <ele>79.14679927317519</ele>
      </trkpt>
      <trkpt lat="1.3529325013661844" lon="103.77935113217988">
        <ele>80.79086244955344</ele>
      </trkpt>
      <trkpt lat="1.3529962080872329" lon="103.77941113515175">
        <ele>82.24922338847206</ele>
      </trkpt>
      <trkpt lat="1.3530787330052056" lon="103.77944680855138">
        <ele>83.25025919448865</ele>
      </trkpt>
      <trkpt lat="1.353153127141834" lon="103.77949782819783">
        <ele>83.66207846336232</ele>
      </trkpt>
      <trkpt lat="1.3532279343989846" lon="103.77954829266824">
        <ele>82.42825894963401</ele>
      </trkpt>
      <trkpt lat="1.353302309617194" lon="103.7795994118317">
        <ele>80.97722704039269</ele>
      </trkpt>
      <trkpt lat="1.353377916552908" lon="103.779648533187">
        <ele>80.0</ele>
      </trkpt>
      <trkpt lat="1.3534578439862417" lon="103.77969057432124">
        <ele>80.0</ele>
      </trkpt>
      <trkpt lat="1.353536184409884" lon="103.77973541531397">
        <ele>80.0</ele>
      </trkpt>
      <trkpt lat="1.3535916577316118" lon="103.77976837478178">
        <ele>80.0</ele>
      </trkpt>
      <trkpt lat="1.3536584452379155" lon="103.77970920141736">
        <ele>80.0</ele>
      </trkpt>
      <trkpt lat="1.353711140148773" lon="103.77963617456439">
        <ele>80.0</ele>
      </trkpt>
      <trkpt lat="1.3537567996923885" lon="103.77955893074038">
        <ele>80.0</ele>
      </trkpt>
      <trkpt lat="1.3537243040706322" lon="103.77947748528722">
        <ele>80.0</ele>
      </trkpt>
      <trkpt lat="1.35368409044886" lon="103.77939702210323">
        <ele>80.02729136169539</ele>
      </trkpt>
      <trkpt lat="1.353642610534031" lon="103.77931717482669">
        <ele>81.87084085098682</ele>
      </trkpt>
      <trkpt lat="1.3535966032421984" lon="103.77923991502207">
        <ele>85.48947341091694</ele>
      </trkpt>
      <trkpt lat="1.353562276273319" lon="103.77915678321898">
        <ele>90.83520652953719</ele>
      </trkpt>
      <trkpt lat="1.353520724099393" lon="103.77907700409334">
        <ele>95.16480900738345</ele>
      </trkpt>
      <trkpt lat="1.353499228806532" lon="103.77899145436307">
        <ele>98.21284311412</ele>
      </trkpt>
      <trkpt lat="1.3534428465520647" lon="103.77892563889701">
        <ele>99.50648530047106</ele>
      </trkpt>
      <trkpt lat="1.3534092936023452" lon="103.7788421957168">
        <ele>100.0</ele>
      </trkpt>
      <trkpt lat="1.3533751341941889" lon="103.77875900629941">
        <ele>100.0</ele>
      </trkpt>
      <trkpt lat="1.3533384988325106" lon="103.77867685290137">
        <ele>100.0</ele>
      </trkpt>
      <trkpt lat="1.3533214560812414" lon="103.77858914280934">
        <ele>100.0</ele>
      </trkpt>
      <trkpt lat="1.3533019236546284" lon="103.77850154297903">
        <ele>100.0</ele>
      </trkpt>
      <trkpt lat="1.3532766448087945" lon="103.7784153638748">
        <ele>100.0</ele>
      </trkpt>
      <trkpt lat="1.3532485663926195" lon="103.77833002091668">
        <ele>100.0</ele>
      </trkpt>
      <trkpt lat="1.3532269298952735" lon="103.77824277404484">
        <ele>100.0</ele>
      </trkpt>
      <trkpt lat="1.3532138333206891" lon="103.77815418521914">
        <ele>101.41147031789613</ele>
      </trkpt>
      <trkpt lat="1.3531865731369155" lon="103.77807694146331">
        <ele>103.1123323017503</ele>
      </trkpt>
      <trkpt lat="1.3531702761050357" lon="103.77806578536345">
        <ele>104.66849845262543</ele>
      </trkpt>
      <trkpt lat="1.353225926337443" lon="103.77801278413337">
        <ele>108.41903357221456</ele>
      </trkpt>
      <trkpt lat="1.3532485067509274" lon="103.77792617617132">
        <ele>112.47962403887043</ele>
      </trkpt>
      <trkpt lat="1.3532555568620481" lon="103.7778368153412">
        <ele>116.60892692068326</ele>
      </trkpt>
      <trkpt lat="1.3532424847176558" lon="103.7777483042271">
        <ele>119.09478578384335</ele>
      </trkpt>
      <trkpt lat="1.3532366546880945" lon="103.77765864858601">
        <ele>120.0</ele>
      </trkpt>
      <trkpt lat="1.3532330663999592" lon="103.77756914432443">
        <ele>120.0</ele>
      </trkpt>
      <trkpt lat="1.3532838197068262" lon="103.77750060591401">
        <ele>120.0</ele>
      </trkpt>
      <trkpt lat="1.3533633753690955" lon="103.77745789540863">
        <ele>120.0</ele>
      </trkpt>
      <trkpt lat="1.35344389720692" lon="103.77741704181715">
        <ele>120.0</ele>
      </trkpt>
      <trkpt lat="1.3535108774277573" lon="103.7773584814763">
        <ele>120.89626811428059</ele>
      </trkpt>
      <trkpt lat="1.3535351885181974" lon="103.77727428254144">
        <ele>122.75766670746151</ele>
      </trkpt>
      <trkpt lat="1.3535242024590948" lon="103.77718512427973">
        <ele>125.558352086551</ele>
      </trkpt>
      <trkpt lat="1.3535095155160553" lon="103.77709648200076">
        <ele>128.4699437940059</ele>
      </trkpt>
      <trkpt lat="1.3535051068228001" lon="103.77700674503379">
        <ele>131.08608063799912</ele>
      </trkpt>
      <trkpt lat="1.3535051462134573" lon="103.77691689066751">
        <ele>132.09657838988926</ele>
      </trkpt>
      <trkpt lat="1.3535139968091912" lon="103.77682746562084">
        <ele>131.7337420106305</ele>
      </trkpt>
      <trkpt lat="1.3535426590560424" lon="103.77674253101996">
        <ele>131.21534664794652</ele>
      </trkpt>
      <trkpt lat="1.3535959583698631" lon="103.77667044574422">
        <ele>132.0480729692147</ele>
      </trkpt>
      <trkpt lat="1.3536567304533251" lon="103.77660390143089">
        <ele>133.90001057196005</ele>
      </trkpt>
      <trkpt lat="1.3537158978708603" lon="103.77653606046387">
        <ele>135.61953793443743</ele>
      </trkpt>
      <trkpt lat="1.3537609180305736" lon="103.776458644078">
        <ele>136.71758168537806</ele>
      </trkpt>
      <trkpt lat="1.353788374485288" lon="103.77637317695819">
        <ele>137.00183261939094</ele>
      </trkpt>
      <trkpt lat="1.3538104618768572" lon="103.77628604167937">
        <ele>136.54421444036464</ele>
      </trkpt>
      <trkpt lat="1.3538391071861113" lon="103.77620145035029">
        <ele>136.00507354410237</ele>
      </trkpt>
      <trkpt lat="1.3538892910481584" lon="103.7761269378045">
        <ele>136.01732301606773</ele>
      </trkpt>
      <trkpt lat="1.3539588975246206" lon="103.77607029048617">
        <ele>137.09546104101955</ele>
      </trkpt>
      <trkpt lat="1.3540404299836823" lon="103.77603180017022">
        <ele>138.9979725056831</ele>
      </trkpt>
      <trkpt lat="1.3541253758287934" lon="103.77600103786764">
        <ele>141.3332096340942</ele>
      </trkpt>
      <trkpt lat="1.3542110735335322" lon="103.77597233790247">
        <ele>143.7034359956632</ele>
      </trkpt>
      <trkpt lat="1.3542942489466332" lon="103.77593773824799">
        <ele>145.40763550032008</ele>
      </trkpt>
      <trkpt lat="1.3543627454312885" lon="103.77588116627447">
        <ele>145.94748000992368</ele>
      </trkpt>
      <trkpt lat="1.354405816812807" lon="103.77580240048965">
        <ele>145.00429850343275</ele>
      </trkpt>
      <trkpt lat="1.3544392700220547" lon="103.77571891775548">
        <ele>142.8614418938528</ele>
      </trkpt>
      <trkpt lat="1.3544761835877743" lon="103.77563697179231">
        <ele>141.0595654713044</ele>
      </trkpt>
      <trkpt lat="1.3545184636917686" lon="103.77555754686213">
        <ele>140.0</ele>
      </trkpt>
      <trkpt lat="1.3545633930313625" lon="103.77547956391821">
        <ele>140.0</ele>
      </trkpt>
      <trkpt lat="1.3546083223682903" lon="103.77540158097146">
        <ele>140.0</ele>
      </trkpt>
      <trkpt lat="1.3546244057158956" lon="103.77531464422104">
        <ele>140.0</ele>
      </trkpt>
      <trkpt lat="1.3546222263061627" lon="103.77522483112482">
        <ele>140.0</ele>
      </trkpt>
      <trkpt lat="1.3546370985084524" lon="103.7751372553994">
        <ele>140.0</ele>
      </trkpt>
      <trkpt lat="1.354708529249064" lon="103.77509608531608">
        <ele>140.0</ele>
      </trkpt>
      <trkpt lat="1.3547810547937444" lon="103.77513417793004">
        <ele>140.0</ele>
      </trkpt>
      <trkpt lat="1.3547768460949812" lon="103.7752224124194">
        <ele>140.0</ele>
      </trkpt>
      <trkpt lat="1.3547534229406155" lon="103.77530918984418">
        <ele>140.0</ele>
      </trkpt>
      <trkpt lat="1.3547325754707487" lon="103.77539661737167">
        <ele>140.0</ele>
      </trkpt>
      <trkpt lat="1.3547146866367925" lon="103.77548468697726">
        <ele>140.0</ele>
      </trkpt>
      <trkpt lat="1.3547122620722638" lon="103.77557358139427">
        <ele>140.80549855869384</ele>
      </trkpt>
      <trkpt lat="1.354759814183362" lon="103.77564792129563">
        <ele>142.6529812396596</ele>
      </trkpt>
      <trkpt lat="1.3548252602450919" lon="103.77570993522671">
        <ele>145.53036503533792</ele>
      </trkpt>
      <trkpt lat="1.3548916485897577" lon="103.77577094755526">
        <ele>148.1626212920696</ele>
      </trkpt>
      <trkpt lat="1.3549597659702728" lon="103.775830042779">
        <ele>149.5499405087487</ele>
      </trkpt>
      <trkpt lat="1.3550284589883785" lon="103.77588848552864">
        <ele>149.82628324741185</ele>
      </trkpt>
      <trkpt lat="1.3550889880609194" lon="103.77595476783662">
        <ele>149.64980551344902</ele>
      </trkpt>
      <trkpt lat="1.3551355974136927" lon="103.77603151616907">
        <ele>149.98765242992445</ele>
      </trkpt>
      <trkpt lat="1.3551554173454299" lon="103.77611825824532">
        <ele>150.78110690792982</ele>
      </trkpt>
      <trkpt lat="1.3551314728440258" lon="103.77620384277313">
        <ele>152.04419789785456</ele>
      </trkpt>
      <trkpt lat="1.3550794251868015" lon="103.7762771927259">
        <ele>153.6364278252925</ele>
      </trkpt>
      <trkpt lat="1.3550175390374446" lon="103.776342634084">
        <ele>155.5239418904666</ele>
      </trkpt>
      <trkpt lat="1.3549508045355765" lon="103.77640327455353">
        <ele>157.47389328774133</ele>
      </trkpt>
      <trkpt lat="1.3548816160034878" lon="103.77646103292456">
        <ele>158.57541305744155</ele>
      </trkpt>
      <trkpt lat="1.3548078093047635" lon="103.77651293898303">
        <ele>158.74868906072626</ele>
      </trkpt>
      <trkpt lat="1.3547616499971298" lon="103.776544030601">
        <ele>158.4115543880962</ele>
      </trkpt>
      <trkpt lat="1.3548460741910426" lon="103.77652388814721">
        <ele>157.92011191807333</ele>
      </trkpt>
      <trkpt lat="1.354917628788816" lon="103.77646905093998">
        <ele>157.4740191113914</ele>
      </trkpt>
      <trkpt lat="1.354986255903037" lon="103.77641054046889">
        <ele>156.35995177474675</ele>
      </trkpt>
      <trkpt lat="1.3550528895741891" lon="103.77635001469551">
        <ele>154.71809154974406</ele>
      </trkpt>
      <trkpt lat="1.3551131038996664" lon="103.77628309560508">
        <ele>152.86661294034425</ele>
      </trkpt>
      <trkpt lat="1.355161536130802" lon="103.77620742247765">
        <ele>151.29924612492363</ele>
      </trkpt>
      <trkpt lat="1.3551867415358685" lon="103.77612190210316">
        <ele>150.01962001613393</ele>
      </trkpt>
      <trkpt lat="1.3551700733057284" lon="103.77603423552232">
        <ele>149.177764504316</ele>
      </trkpt>
      <trkpt lat="1.3551241424580458" lon="103.7759572529687">
        <ele>148.75772020057437</ele>
      </trkpt>
      <trkpt lat="1.355066509334714" lon="103.77588808765665">
        <ele>148.86193609520828</ele>
      </trkpt>
      <trkpt lat="1.3549991562655448" lon="103.77582820998654">
        <ele>148.93749199107242</ele>
      </trkpt>
      <trkpt lat="1.3549310704592619" lon="103.77576906805685">
        <ele>147.94336070319295</ele>
      </trkpt>
      <trkpt lat="1.3548649025403492" lon="103.7757078359519">
        <ele>145.73509540881446</ele>
      </trkpt>
      <trkpt lat="1.3547986856078913" lon="103.77564663682918">
        <ele>142.79099536004432</ele>
      </trkpt>
      <trkpt lat="1.3547489992392314" lon="103.77557406875124">
        <ele>140.87941527224902</ele>
      </trkpt>
      <trkpt lat="1.3547458222280702" lon="103.77548568438496">
        <ele>140.0</ele>
      </trkpt>
      <trkpt lat="1.3547617861998815" lon="103.77539727827083">
        <ele>140.0</ele>
      </trkpt>
      <trkpt lat="1.35478523065352" lon="103.77531058511228">
        <ele>140.0</ele>
      </trkpt>
      <trkpt lat="1.3548100121120032" lon="103.77522418466168">
        <ele>140.0</ele>
      </trkpt>
      <trkpt lat="1.3548119931965048" lon="103.77513607963338">
        <ele>140.0</ele>
      </trkpt>
      <trkpt lat="1.3547532060600445" lon="103.7750728785121">
        <ele>140.0</ele>
      </trkpt>
      <trkpt lat="1.3546650838473056" lon="103.77507862261132">
        <ele>140.0</ele>
      </trkpt>
      <trkpt lat="1.354606029032356" lon="103.77514209052217">
        <ele>140.0</ele>
      </trkpt>
      <trkpt lat="1.3546019389872561" lon="103.77523157366348">
        <ele>140.0</ele>
      </trkpt>
      <trkpt lat="1.3546031579829634" lon="103.7753213881023">
        <ele>140.0</ele>
      </trkpt>
      <trkpt lat="1.3545715731312669" lon="103.77540400139421">
        <ele>140.0</ele>
      </trkpt>
      <trkpt lat="1.3545266436019066" lon="103.77548198423032">
        <ele>140.0</ele>
      </trkpt>
      <trkpt lat="1.3544825267098715" lon="103.77556040938808">
        <ele>140.0</ele>
      </trkpt>
      <trkpt lat="1.354441055816506" lon="103.7756402376716">
        <ele>141.0468884249345</ele>
      </trkpt>
      <trkpt lat="1.3544068495982708" lon="103.77572341442446">
        <ele>142.61714779023862</ele>
      </trkpt>
      <trkpt lat="1.3543713934780823" lon="103.77580602281138">
        <ele>144.4203595353541</ele>
      </trkpt>
      <trkpt lat="1.3543202240433432" lon="103.77587933991802">
        <ele>144.61889798082242</ele>
      </trkpt>
      <trkpt lat="1.3542428392618506" lon="103.77592455178774">
        <ele>143.47616275918332</ele>
      </trkpt>
      <trkpt lat="1.3541572997516342" lon="103.77595365499583">
        <ele>141.27096370668187</ele>
      </trkpt>
      <trkpt lat="1.3540717286987414" lon="103.77598273055185">
        <ele>138.82957645742607</ele>
      </trkpt>
      <trkpt lat="1.3539874463669976" lon="103.77601528292635">
        <ele>136.63900093300467</ele>
      </trkpt>
      <trkpt lat="1.353910803092574" lon="103.77606227975228">
        <ele>135.06106709231892</ele>
      </trkpt>
      <trkpt lat="1.353849048378286" lon="103.77612710181539">
        <ele>134.38938618221576</ele>
      </trkpt>
      <trkpt lat="1.3538042614302834" lon="103.77620473127463">
        <ele>134.72478123642875</ele>
      </trkpt>
      <trkpt lat="1.353782174112824" lon="103.77629186657167">
        <ele>135.34681207615742</ele>
      </trkpt>
      <trkpt lat="1.3537598214099262" lon="103.77637892562282">
        <ele>135.69464434941975</ele>
      </trkpt>
      <trkpt lat="1.3537269438156043" lon="103.77646248030423">
        <ele>135.07999785550413</ele>
      </trkpt>
      <trkpt lat="1.35367449294851" lon="103.77653525559643">
        <ele>133.71081565121295</ele>
      </trkpt>
      <trkpt lat="1.353613720851468" lon="103.77660179989785">
        <ele>131.84650448880095</ele>
      </trkpt>
      <trkpt lat="1.353554342097034" lon="103.77666951066155">
        <ele>130.2584878045769</ele>
      </trkpt>
      <trkpt lat="1.3535089887525122" lon="103.77674649388923">
        <ele>129.820511131247</ele>
      </trkpt>
      <trkpt lat="1.3534868115105858" lon="103.77683299518986">
        <ele>130.69579039521145</ele>
      </trkpt>
      <trkpt lat="1.353477325571288" lon="103.77692221716502">
        <ele>131.25529870585987</ele>
      </trkpt>
      <trkpt lat="1.3534769616220819" lon="103.77701201509188">
        <ele>130.35913261506255</ele>
      </trkpt>
      <trkpt lat="1.3534840621924118" lon="103.77710155322718">
        <ele>127.84770990329774</ele>
      </trkpt>
      <trkpt lat="1.3534959923909895" lon="103.77719062432558">
        <ele>124.94071764653292</ele>
      </trkpt>
      <trkpt lat="1.3535081406242633" lon="103.77727966624983">
        <ele>122.33526625662769</ele>
      </trkpt>
      <trkpt lat="1.3534835584026632" lon="103.7773626534867">
        <ele>120.68886321586722</ele>
      </trkpt>
      <trkpt lat="1.3534081141210237" lon="103.77741090342673">
        <ele>120.0</ele>
      </trkpt>
      <trkpt lat="1.3533280638553546" lon="103.77745271319961">
        <ele>120.0</ele>
      </trkpt>
      <trkpt lat="1.3532494874746819" lon="103.77749706521607">
        <ele>120.0</ele>
      </trkpt>
      <trkpt lat="1.3532106246503224" lon="103.7775717436843">
        <ele>120.0</ele>
      </trkpt>
      <trkpt lat="1.3532139477387617" lon="103.7776615393801">
        <ele>120.0</ele>
      </trkpt>
      <trkpt lat="1.353222720997012" lon="103.77775092527827">
        <ele>119.22884103127075</ele>
      </trkpt>
      <trkpt lat="1.3532307369301093" lon="103.77784039929631">
        <ele>116.76545165276347</ele>
      </trkpt>
      <trkpt lat="1.3532262258986683" lon="103.77792955446259">
        <ele>112.69325214316858</ele>
      </trkpt>
      <trkpt lat="1.3532003835389388" lon="103.77801509217393">
        <ele>108.41561506956047</ele>
      </trkpt>
      <trkpt lat="1.353136634094606" lon="103.77807672329673">
        <ele>106.0409540146483</ele>
      </trkpt>
      <trkpt lat="1.3530498301575167" lon="103.77808373378726">
        <ele>106.45895711016199</ele>
      </trkpt>
      <trkpt lat="1.3529720687962816" lon="103.77804033643191">
        <ele>108.93297852399076</ele>
      </trkpt>
      <trkpt lat="1.352901297854252" lon="103.77798439288068">
        <ele>111.9712409488767</ele>
      </trkpt>
      <trkpt lat="1.3528245264870737" lon="103.77793804271235">
        <ele>114.12623118208255</ele>
      </trkpt>
      <trkpt lat="1.3527362743572728" lon="103.77792156825579">
        <ele>115.09203507400832</ele>
      </trkpt>
      <trkpt lat="1.3526464743596989" lon="103.77793072001275">
        <ele>114.98426607825702</ele>
      </trkpt>
      <trkpt lat="1.3525585130102853" lon="103.7779515981714">
        <ele>114.25701254412841</ele>
      </trkpt>
      <trkpt lat="1.3524714108595912" lon="103.77797529573029">
        <ele>113.22504708980853</ele>
      </trkpt>
      <trkpt lat="1.352387107050659" lon="103.77800748174872">
        <ele>111.79773119239928</ele>
      </trkpt>
      <trkpt lat="1.3523117363352457" lon="103.77805700058421">
        <ele>109.8454041594515</ele>
      </trkpt>
      <trkpt lat="1.3522432486910227" lon="103.77811568262864">
        <ele>107.55661755100527</ele>
      </trkpt>
      <trkpt lat="1.3521705604743255" lon="103.77816867954783">
        <ele>105.49131446313505</ele>
      </trkpt>
      <trkpt lat="1.3520881427184284" lon="103.7782043309457">
        <ele>104.2071076285959</ele>
      </trkpt>
      <trkpt lat="1.3519984770126732" lon="103.77821431572438">
        <ele>103.73728822789083</ele>
      </trkpt>
      <trkpt lat="1.3519086743954751" lon="103.77820461344464">
        <ele>104.0075985198514</ele>
      </trkpt>
      <trkpt lat="1.3518228642590677" lon="103.77817645055713">
        <ele>104.66531442635284</ele>
      </trkpt>
      <trkpt lat="1.3517391393434377" lon="103.77814253084176">
        <ele>105.3684968754283</ele>
      </trkpt>
      <trkpt lat="1.3516520052943923" lon="103.7781241936634">
        <ele>105.43209171111236</ele>
      </trkpt>
      <trkpt lat="1.3515643066233343" lon="103.77814176961897">
        <ele>104.48732424834566</ele>
      </trkpt>
      <trkpt lat="1.3514849446098844" lon="103.77818390047636">
        <ele>102.77055073581137</ele>
      </trkpt>
      <trkpt lat="1.3514045419247427" lon="103.77822435572358">
        <ele>100.71204520120888</ele>
      </trkpt>
      <trkpt lat="1.351320387614387" lon="103.77825723676146">
        <ele>98.77477216008627</ele>
      </trkpt>
      <trkpt lat="1.3512318068964386" lon="103.77827534617737">
        <ele>97.14064448363173</ele>
      </trkpt>
      <trkpt lat="1.351143226178236" lon="103.77829345559184">
        <ele>95.74674334077933</ele>
      </trkpt>
      <trkpt lat="1.3510546454597778" lon="103.77831156500487">
        <ele>94.23471292573812</ele>
      </trkpt>
      <trkpt lat="1.350965009960104" lon="103.77832205123399">
        <ele>92.45613732199176</ele>
      </trkpt>
      <trkpt lat="1.3508747970319355" lon="103.77832836423404">
        <ele>90.75021614424702</ele>
      </trkpt>
      <trkpt lat="1.350785070543041" lon="103.7783183986617">
        <ele>89.54563578767977</ele>
      </trkpt>
      <trkpt lat="1.3506948766325773" lon="103.77831606362673">
        <ele>88.90099564068832</ele>
      </trkpt>
      <trkpt lat="1.3506045766860355" lon="103.77832000701943">
        <ele>88.55309589143297</ele>
      </trkpt>
      <trkpt lat="1.3505144809004708" lon="103.77832779680949">
        <ele>88.3094195269977</ele>
      </trkpt>
      <trkpt lat="1.3504241939324417" lon="103.77833266694375">
        <ele>88.28729525125907</ele>
      </trkpt>
      <trkpt lat="1.3503374631956329" lon="103.77831276257402">
        <ele>88.56287202180842</ele>
      </trkpt>
      <trkpt lat="1.3502672722456055" lon="103.77825745030565">
        <ele>88.97754833974007</ele>
      </trkpt>
      <trkpt lat="1.3502310219743396" lon="103.77817512854547">
        <ele>88.8687071239351</ele>
      </trkpt>
      <trkpt lat="1.3501801713807458" lon="103.77810092865253">
        <ele>88.0489371338196</ele>
      </trkpt>
      <trkpt lat="1.3501273101203175" lon="103.77802803276407">
        <ele>86.62092376274012</ele>
      </trkpt>
      <trkpt lat="1.3500726883045406" lon="103.77795654913564">
        <ele>84.78914670951326</ele>
      </trkpt>
      <trkpt lat="1.3500045177365492" lon="103.77789750378791">
        <ele>82.73842200825892</ele>
      </trkpt>
      <trkpt lat="1.3499385684742657" lon="103.7778361938022">
        <ele>80.44053607359685</ele>
      </trkpt>
      <trkpt lat="1.3498774061948022" lon="103.77777000344884">
        <ele>78.3423125097831</ele>
      </trkpt>
      <trkpt lat="1.3498289407854722" lon="103.7776943188632">
        <ele>76.37815756072608</ele>
      </trkpt>
      <trkpt lat="1.3497791513498039" lon="103.77761955925195">
        <ele>74.12307861944728</ele>
      </trkpt>
      <trkpt lat="1.349704179230956" lon="103.77756945153692">
        <ele>71.26765149689207</ele>
      </trkpt>
      <trkpt lat="1.349622792509838" lon="103.77753138029192">
        <ele>67.53913382097377</ele>
      </trkpt>
      <trkpt lat="1.3495332115253778" lon="103.77751905110601">
        <ele>64.045190598357</ele>
      </trkpt>
      <trkpt lat="1.3494437956289833" lon="103.77750559031998">
        <ele>60.972825818868664</ele>
      </trkpt>
      <trkpt lat="1.349354379732489" lon="103.77749212953476">
        <ele>58.665767374059726</ele>
      </trkpt>
      <trkpt lat="1.3492649638358947" lon="103.77747866875043">
        <ele>56.555552818031174</ele>
      </trkpt>
      <trkpt lat="1.349177085709858" lon="103.77745767756517">
        <ele>54.69897428198624</ele>
      </trkpt>
      <trkpt lat="1.3490956174343767" lon="103.77741991415368">
        <ele>53.10918293600391</ele>
      </trkpt>
      <trkpt lat="1.3490166727023507" lon="103.77737618481154">
        <ele>51.79340355114524</ele>
      </trkpt>
      <trkpt lat="1.3489412203412514" lon="103.77732664802521">
        <ele>50.554218182037005</ele>
      </trkpt>
      <trkpt lat="1.3488654045450983" lon="103.77727766343283">
        <ele>49.17309558852613</ele>
      </trkpt>
      <trkpt lat="1.348789480448309" lon="103.77722884339076">
        <ele>47.60528504017149</ele>
      </trkpt>
      <trkpt lat="1.3487146733115718" lon="103.77717839302767">
        <ele>45.91760236119685</ele>
      </trkpt>
      <trkpt lat="1.3486411617945564" lon="103.77712605504945">
        <ele>44.278473294621485</ele>
      </trkpt>
      <trkpt lat="1.3485680325483598" lon="103.7770731906013">
        <ele>42.66842861085619</ele>
      </trkpt>
      <trkpt lat="1.3484949033010973" lon="103.77702032615626">
        <ele>41.34137597005695</ele>
      </trkpt>
      <trkpt lat="1.3484596001593157" lon="103.77699480584849">
        <ele>40.677849649657325</ele>
      </trkpt>
    </trkseg>
  </trk>
</gpx>