{
"type": "FeatureCollection",
"name": "point_to_point_10000m_007",
"crs": { "type": "name", "properties": { "name": "urn:ogc:def:crs:OGC:1.3:CRS84" } },
"features": [
{ "type": "Feature", "properties": { "route_id": "point_to_point_10000m_007", "budget_km": 10.0, "mode": "point_to_point", "rank": 7, "distance_m": 7677.0260720996093, "ascent_m": 43.565034327448984, "descent_m": 35.642280994810093, "gain_density_m_per_km": 5.6747279373944179, "source_confidence": 0.9 }, "geometry": { "type": "LineString", "coordinates": [ [ 103.921372823562876, 1.397859764602229 ], [ 103.921191261320971, 1.397916419839235 ], [ 103.921152903936644, 1.397948534308961 ], [ 103.921140625159282, 1.397957061105433 ], [ 103.920910758194168, 1.398141752426914 ], [ 103.920910264888349, 1.398142145843344 ], [ 103.920741015910664, 1.398273239608562 ], [ 103.920740818228765, 1.398273393357689 ], [ 103.920541445903027, 1.398422623429532 ], [ 103.920338700171627, 1.398568861074354 ], [ 103.920288166233647, 1.398604466826526 ], [ 103.920287982928002, 1.398604595252909 ], [ 103.920262385734134, 1.398622504403581 ], [ 103.920016354496283, 1.398794226776633 ], [ 103.920016044494062, 1.398794443835284 ], [ 103.919636475011885, 1.399059372071569 ], [ 103.919430829349878, 1.399202906609831 ], [ 103.919389744603123, 1.399231582765496 ], [ 103.919389229690054, 1.399230855676627 ], [ 103.918673235510838, 1.399730619452249 ], [ 103.918534043648307, 1.399832224307781 ], [ 103.918531913174377, 1.39983390921404 ], [ 103.918404208752435, 1.399935438580296 ], [ 103.918278815708589, 1.400043623967985 ], [ 103.918157832167765, 1.400156780472705 ], [ 103.918041524999424, 1.400274656672541 ], [ 103.917937817565885, 1.400388215884691 ], [ 103.9178384432131, 1.400505500006971 ], [ 103.917743470230334, 1.400626421314236 ], [ 103.91765302621036, 1.400750811590828 ], [ 103.917568769846895, 1.400876225379539 ], [ 103.917484446062218, 1.401001109211298 ], [ 103.917396629274705, 1.401120128372024 ], [ 103.917303941134335, 1.401235346667589 ], [ 103.917206544276638, 1.401346558801153 ], [ 103.917104610323662, 1.40145357394535 ], [ 103.916998573274455, 1.401555953467928 ], [ 103.916930598610932, 1.401615666482462 ], [ 103.916859902902246, 1.401671507110144 ], [ 103.916786407974897, 1.401723559459281 ], [ 103.916710504702721, 1.401771562154712 ], [ 103.916619233984193, 1.401822310139822 ], [ 103.916525385926008, 1.401867282046706 ], [ 103.916429013544857, 1.401906474255672 ], [ 103.91633046728299, 1.401939742055791 ], [ 103.916230104772268, 1.401966966058067 ], [ 103.916125443249811, 1.401988636515376 ], [ 103.916020718755007, 1.402008327319509 ], [ 103.915914845971542, 1.402030889512622 ], [ 103.91591374072479, 1.402031133729875 ], [ 103.915885702509115, 1.402037550276648 ], [ 103.915681265356184, 1.402090062129695 ], [ 103.91552619876046, 1.402136776158516 ], [ 103.915373235025712, 1.402188851167665 ], [ 103.915222196233515, 1.402246334190801 ], [ 103.915073269285557, 1.402309153777043 ], [ 103.914926641981793, 1.402377229431969 ], [ 103.914782495832128, 1.402450477043895 ], [ 103.914641409511859, 1.40252858639654 ], [ 103.914446866927079, 1.402643748458936 ], [ 103.914255458737372, 1.402763600424173 ], [ 103.914067069027212, 1.40288820469812 ], [ 103.913881817304713, 1.403017481693436 ], [ 103.913699814990949, 1.403151355440541 ], [ 103.913521177101188, 1.40328974273482 ], [ 103.913346013259101, 1.403432555850053 ], [ 103.913174765554231, 1.403579421269872 ], [ 103.912414855503854, 1.404255927172578 ], [ 103.912307962577827, 1.404355597959647 ], [ 103.912204612054367, 1.404461210287901 ], [ 103.912107180602845, 1.404570333149028 ], [ 103.912105262204491, 1.404572587791466 ], [ 103.912039053728321, 1.404652848649289 ], [ 103.911974750345749, 1.404736183371317 ], [ 103.911913835552383, 1.404820663805216 ], [ 103.911882843123252, 1.404865154999658 ], [ 103.911766001511083, 1.405032880333198 ], [ 103.911673194027728, 1.405166107013324 ], [ 103.911622043661609, 1.405237029802731 ], [ 103.911569403350384, 1.405305198855526 ], [ 103.911499818968437, 1.405388728181945 ], [ 103.91142718018888, 1.405468970249158 ], [ 103.911351323476651, 1.405546138492062 ], [ 103.911272375527403, 1.405620099060387 ], [ 103.911190464834661, 1.405690732573523 ], [ 103.91106288196589, 1.405791917002345 ], [ 103.910931285837535, 1.405887766720501 ], [ 103.910795902887415, 1.405978116221304 ], [ 103.910656959554032, 1.406062815372224 ], [ 103.910514680479167, 1.406141725797557 ], [ 103.910370311079831, 1.406214234297076 ], [ 103.910223124417413, 1.406280780414929 ], [ 103.910073372092356, 1.40634125019248 ], [ 103.909921300314224, 1.406395545045434 ], [ 103.909767162481501, 1.406443573624288 ], [ 103.909611211993251, 1.406485256336265 ], [ 103.909453137942634, 1.406520653783479 ], [ 103.909361021129016, 1.406538167989669 ], [ 103.909265388102213, 1.406553991148209 ], [ 103.909150813987381, 1.406574580011891 ], [ 103.909034915566707, 1.40660163782329 ], [ 103.908920546723223, 1.406634634532407 ], [ 103.908808006681724, 1.406673485119619 ], [ 103.908697592869331, 1.406718086478178 ], [ 103.908589592828335, 1.406768320127468 ], [ 103.908485883668092, 1.40682321472095 ], [ 103.908484265348235, 1.406824124562803 ], [ 103.90847122444147, 1.406831512728568 ], [ 103.908465461930447, 1.406834804797397 ], [ 103.90832296033436, 1.406927925360913 ], [ 103.90818422936205, 1.407026643802815 ], [ 103.908049486465458, 1.407130807279443 ], [ 103.907918941009086, 1.407240252095007 ], [ 103.90787784678534, 1.40731908585525 ], [ 103.907795703385574, 1.40748074251859 ], [ 103.907787730369392, 1.40751279702505 ], [ 103.907747830245114, 1.407673207925716 ], [ 103.907741906636062, 1.407810392782898 ], [ 103.907768585904918, 1.408273484681512 ], [ 103.907718439780353, 1.408650135487921 ], [ 103.907678226051459, 1.40895295466498 ], [ 103.907587174207094, 1.409290767094151 ], [ 103.907400509664285, 1.40978108716094 ], [ 103.907165360847188, 1.41009541606236 ], [ 103.906888420031805, 1.410363705139953 ], [ 103.906575079550436, 1.410583495244545 ], [ 103.906057540322337, 1.410899430979227 ], [ 103.90541026535962, 1.411256142966084 ], [ 103.905081721935574, 1.411403893586016 ], [ 103.904773294018327, 1.411516188882221 ], [ 103.904458413584479, 1.411607371976866 ], [ 103.904037639476584, 1.411674162168605 ], [ 103.903922349534, 1.411686577174802 ], [ 103.903808602341371, 1.411695012025496 ], [ 103.903694200864123, 1.411699678408752 ], [ 103.903585089244743, 1.411700534543052 ], [ 103.903549174510033, 1.411698245786801 ], [ 103.903515914090207, 1.411692395566768 ], [ 103.903483491941927, 1.411682912493478 ], [ 103.903452798573312, 1.411670121206378 ], [ 103.903417803466752, 1.411650334799317 ], [ 103.903386062018271, 1.411626519354612 ], [ 103.903357622755252, 1.411598798768718 ], [ 103.903332955651663, 1.411567631539683 ], [ 103.903312468680724, 1.411533534046711 ], [ 103.903296503321698, 1.411497072411011 ], [ 103.903285321080759, 1.411458847121985 ], [ 103.903279110679676, 1.41141949575013 ], [ 103.903277908013521, 1.411377407623363 ], [ 103.903278812442835, 1.411362472940621 ], [ 103.903279026238522, 1.41136020931284 ], [ 103.903286098661809, 1.411318676214707 ], [ 103.90329822567179, 1.411278625214986 ], [ 103.903300471962041, 1.411272829987018 ], [ 103.903310706975944, 1.411247002870352 ], [ 103.903335705424595, 1.41118034239968 ], [ 103.9033789746899, 1.411049695863708 ], [ 103.903415287061534, 1.410917633304988 ], [ 103.90341729605376, 1.410909468652307 ], [ 103.903447669892572, 1.410784772312132 ], [ 103.903491446886548, 1.410505470138379 ], [ 103.90349184217051, 1.41050234916866 ], [ 103.903493028011198, 1.410492612757474 ], [ 103.903508002082717, 1.410404292184002 ], [ 103.903537667866431, 1.410070990904832 ], [ 103.903542931104354, 1.40974859969975 ], [ 103.903525279549299, 1.409426655039983 ], [ 103.903482699141833, 1.40909376110356 ], [ 103.903422089659259, 1.408794544391408 ], [ 103.903366022478963, 1.408583663938235 ], [ 103.903299688194338, 1.408376415716032 ], [ 103.90312224674841, 1.407990011041173 ], [ 103.903097470068388, 1.407928866878916 ], [ 103.903069687584491, 1.407866323756689 ], [ 103.903038666546308, 1.40780179474961 ], [ 103.903003801270188, 1.40773398754052 ], [ 103.902928528253753, 1.407598218640656 ], [ 103.902792979010712, 1.40736708914484 ], [ 103.902779296415829, 1.40734150240308 ], [ 103.902747735319139, 1.407276126018797 ], [ 103.902730439344069, 1.407244595909075 ], [ 103.902704866348103, 1.407207451759309 ], [ 103.902675293043785, 1.407176603002042 ], [ 103.902644541914484, 1.407153125745105 ], [ 103.902611378184503, 1.407132908789651 ], [ 103.902575078464523, 1.407114958261887 ], [ 103.902535623876901, 1.407099025462296 ], [ 103.902499088014238, 1.407087315047362 ], [ 103.902461002171421, 1.407078203818284 ], [ 103.902422542602835, 1.407071974805674 ], [ 103.902383220481525, 1.407068722982219 ], [ 103.902338286854757, 1.40707057826491 ], [ 103.902292083743902, 1.407079750788301 ], [ 103.902246355279885, 1.407095570367247 ], [ 103.902200843552208, 1.407117468164918 ], [ 103.902161684847954, 1.40714062374254 ], [ 103.902120261854563, 1.407168655713882 ], [ 103.90200057584012, 1.407259391323633 ], [ 103.90196124564865, 1.407287567024089 ], [ 103.901908217704246, 1.407324663769242 ], [ 103.901855051448692, 1.407364242994728 ], [ 103.901802995887849, 1.407405429239931 ], [ 103.901752053717402, 1.407448218887398 ], [ 103.901702228531505, 1.407492608319634 ], [ 103.901653524822891, 1.407538592110407 ], [ 103.901605944388578, 1.407586165737925 ], [ 103.90139323733402, 1.407784323431524 ], [ 103.901325627349109, 1.407859421940613 ], [ 103.901257136690475, 1.407932551674693 ], [ 103.901187272949954, 1.40800426069228 ], [ 103.901115944474469, 1.408074638527923 ], [ 103.901010680034105, 1.408175147122819 ], [ 103.900936261165398, 1.408240266170694 ], [ 103.900898774885107, 1.408270032575639 ], [ 103.900858665638992, 1.408299889492813 ], [ 103.900767987680197, 1.408361612220754 ], [ 103.900663671073687, 1.408425770792379 ], [ 103.900525781072758, 1.408504533993441 ], [ 103.900455355624317, 1.408542984139672 ], [ 103.90038422204718, 1.408579971044444 ], [ 103.900312467502843, 1.408615450391336 ], [ 103.90024020970435, 1.408649364297661 ], [ 103.900167568161962, 1.408681658498109 ], [ 103.900094654298897, 1.40871228324942 ], [ 103.900021577741384, 1.408741195138973 ], [ 103.899949056450808, 1.408768124645826 ], [ 103.899884386826599, 1.408789307599942 ], [ 103.899810461754953, 1.408809571984842 ], [ 103.89973840385278, 1.408826738869334 ], [ 103.89956480470714, 1.408865263390811 ], [ 103.899478951848849, 1.408886586211679 ], [ 103.899401045214347, 1.40890941818519 ], [ 103.899330945534359, 1.408934158140376 ], [ 103.899229722047068, 1.408975526604722 ], [ 103.899131428024958, 1.40901986310219 ], [ 103.899031136971715, 1.409082983279877 ], [ 103.898928206645095, 1.409141642303625 ], [ 103.898822832933831, 1.409195729835195 ], [ 103.898715217118422, 1.409245141866772 ], [ 103.898697641966365, 1.409254664405268 ], [ 103.898660957734151, 1.409272144976514 ], [ 103.89862449891956, 1.409285080210415 ], [ 103.898586804444065, 1.409294188212709 ], [ 103.89854878906219, 1.409299293511069 ], [ 103.89850734816855, 1.409300559882652 ], [ 103.898443923388896, 1.409301417195349 ], [ 103.898377530712253, 1.409306901312861 ], [ 103.898313737758286, 1.40931662591547 ], [ 103.898200273087568, 1.40933536479455 ], [ 103.898088181306747, 1.409348834808546 ], [ 103.897975610442074, 1.40935734891909 ], [ 103.897861960239979, 1.409360917995192 ], [ 103.897688169505003, 1.409362543452919 ], [ 103.896727619502627, 1.409371522253797 ], [ 103.89663944561363, 1.409361899526646 ], [ 103.896638863516984, 1.409302227835292 ], [ 103.896610885188664, 1.4093024411257 ], [ 103.896541543221801, 1.40930316198919 ], [ 103.896155800674407, 1.409307242125957 ], [ 103.896039258752253, 1.409308194867629 ], [ 103.896021017529193, 1.40930995796606 ], [ 103.895998354442597, 1.409314416187102 ], [ 103.895976482174206, 1.409321259192925 ], [ 103.89594824001064, 1.409334552290935 ], [ 103.895935263764869, 1.409342664781985 ], [ 103.895924196112944, 1.409350774508253 ], [ 103.895908385881697, 1.409364546582211 ], [ 103.895903763684743, 1.409369158056352 ], [ 103.89590362261076, 1.409369300949599 ], [ 103.89590152447397, 1.409371498609468 ], [ 103.895886805222972, 1.409388965882823 ], [ 103.895885280384363, 1.409391205127917 ], [ 103.895876855580084, 1.409403445914755 ], [ 103.895865691204875, 1.409423716618583 ], [ 103.895857464288326, 1.409443431059495 ], [ 103.895850659926808, 1.409466722219372 ], [ 103.895846783143597, 1.40948960633661 ], [ 103.895845623516152, 1.409506314482508 ], [ 103.895845935814293, 1.409524660390835 ], [ 103.895848022068137, 1.409548601547845 ], [ 103.895853697270255, 1.409572556173357 ], [ 103.895862237137621, 1.409595633488899 ], [ 103.895879429653249, 1.4096252500226 ], [ 103.895890429629162, 1.409640185287474 ], [ 103.895904867620331, 1.409656221973998 ], [ 103.895922114571277, 1.409671630051867 ], [ 103.895939175429746, 1.40968383307061 ], [ 103.895956512093264, 1.409693764320782 ], [ 103.895975307120352, 1.409702204236039 ], [ 103.896000731898141, 1.409710314783316 ], [ 103.896000965531513, 1.409710364516978 ], [ 103.896014297013522, 1.409713225561828 ], [ 103.896024734119791, 1.409714822384921 ], [ 103.896034948362015, 1.409715858508668 ], [ 103.896048931259315, 1.409716521028146 ], [ 103.896074159877244, 1.409714593145786 ], [ 103.896092914151311, 1.409711184995797 ], [ 103.896117743654955, 1.409703937658057 ], [ 103.896175681097432, 1.409680982437096 ], [ 103.896226927949087, 1.409668213241905 ], [ 103.89626234199973, 1.409665314698714 ], [ 103.896305084935179, 1.409663409850974 ], [ 103.896473446477899, 1.409662881637012 ], [ 103.896631405071432, 1.409661184353465 ], [ 103.896642232137751, 1.409661824346603 ], [ 103.896642135738787, 1.409652553719758 ], [ 103.896641788818727, 1.409616839512718 ], [ 103.897447025810678, 1.409610996861854 ], [ 103.897637947435456, 1.409618457084579 ], [ 103.897740068040349, 1.409619670613508 ], [ 103.897835629807105, 1.409618435304643 ], [ 103.89792660962091, 1.409614708598541 ], [ 103.898011922891683, 1.409608565588253 ], [ 103.898335317592554, 1.409587528269653 ], [ 103.898464541840283, 1.409575488464054 ], [ 103.89853668354769, 1.409565617114916 ], [ 103.898603693378405, 1.409553654115786 ], [ 103.898667123178967, 1.409539263904469 ], [ 103.898727530964592, 1.409522241175021 ], [ 103.898767323510285, 1.409508539849322 ], [ 103.898808602227902, 1.40949173199268 ], [ 103.898890429820341, 1.409451316389639 ], [ 103.898964512437161, 1.409408366977235 ], [ 103.899123693049276, 1.40930953814928 ], [ 103.899195673943936, 1.4092693073059 ], [ 103.899256456110834, 1.409241002619264 ], [ 103.899314780859001, 1.409220224113201 ], [ 103.899353788973855, 1.409208032182626 ], [ 103.899367636980031, 1.409205129685563 ], [ 103.899369061234538, 1.409205053678404 ], [ 103.89937341398776, 1.409205380933775 ], [ 103.899442683582365, 1.409219582887818 ], [ 103.899487329854466, 1.40922291509578 ], [ 103.899526834219287, 1.409218950141801 ], [ 103.899565016655984, 1.409211091940632 ], [ 103.899668380864512, 1.409179948132486 ], [ 103.899868609085715, 1.409123792273203 ], [ 103.89994136503239, 1.409100865473917 ], [ 103.900006964649364, 1.409077918982522 ], [ 103.900071044694187, 1.409052713433432 ], [ 103.90013091212974, 1.409025984151911 ], [ 103.900187187867715, 1.40899737027936 ], [ 103.900240677923321, 1.408966341835806 ], [ 103.900342459514974, 1.40889715057303 ], [ 103.900370736620658, 1.408881404788334 ], [ 103.900405343333631, 1.408864906389627 ], [ 103.900545338471431, 1.408808025109577 ], [ 103.900603025050685, 1.408782003091797 ], [ 103.900751729554472, 1.408704152977846 ], [ 103.900919184269455, 1.408607592838514 ], [ 103.900991131729924, 1.408562780437797 ], [ 103.901068749947655, 1.408510842390257 ], [ 103.90135366624942, 1.408306568203178 ], [ 103.901475904562702, 1.408224150882813 ], [ 103.901662968189996, 1.408099267264272 ], [ 103.901734400720102, 1.408054070502506 ], [ 103.901810168999774, 1.40801174948593 ], [ 103.901879960198244, 1.407979808926296 ], [ 103.901939939103897, 1.407956339826656 ], [ 103.901986448442159, 1.407940036395412 ], [ 103.902027253694101, 1.407928045136798 ], [ 103.902063862667589, 1.407919801683631 ], [ 103.902111825276762, 1.407912442360263 ], [ 103.90215998297154, 1.407908262771626 ], [ 103.90220755847848, 1.407907314489511 ], [ 103.902255627399796, 1.407909492575778 ], [ 103.902303291150602, 1.407914762691369 ], [ 103.902349684391254, 1.407923011816632 ], [ 103.902395784788141, 1.407934466917691 ], [ 103.902441769363918, 1.407949176824913 ], [ 103.902486706278651, 1.407966855787274 ], [ 103.902529979096883, 1.407987269593144 ], [ 103.902563376414705, 1.408005594613976 ], [ 103.902596519499653, 1.408026153419319 ], [ 103.902628644542204, 1.40804850198964 ], [ 103.902659181828071, 1.408072235187238 ], [ 103.902685325908266, 1.408095009890799 ], [ 103.902711622828832, 1.408120508531786 ], [ 103.902770642877158, 1.408186036930082 ], [ 103.902802556420568, 1.408227399742987 ], [ 103.90283568240217, 1.408277098035758 ], [ 103.902870494395373, 1.40833577660514 ], [ 103.902922089385129, 1.408429350432766 ], [ 103.902984427786009, 1.408550926641687 ], [ 103.903042184521723, 1.408679563350791 ], [ 103.903092367090977, 1.408808032074629 ], [ 103.903136686519744, 1.408940444902123 ], [ 103.903160113207392, 1.409020635899252 ], [ 103.90318101846735, 1.409100786275718 ], [ 103.903199216271986, 1.409180211434228 ], [ 103.903214620343306, 1.409258456482704 ], [ 103.903231351554695, 1.409364474488037 ], [ 103.903245337953649, 1.409482630940292 ], [ 103.903252942589958, 1.409570135999593 ], [ 103.903258231661795, 1.409660580309491 ], [ 103.903261197084163, 1.409754047976014 ], [ 103.903261831668999, 1.409850567034693 ], [ 103.903258748554151, 1.409998790464303 ], [ 103.903250664834772, 1.410117586967459 ], [ 103.903238242362619, 1.410223510894421 ], [ 103.903222478738456, 1.410322324817971 ], [ 103.903203364086835, 1.410414340743702 ], [ 103.903180908301977, 1.41049989690315 ], [ 103.903152991806991, 1.410585218997167 ], [ 103.90311723174112, 1.410676604179159 ], [ 103.903072635236072, 1.410776385736042 ], [ 103.903016052056671, 1.410891494802648 ], [ 103.902986101065395, 1.410943606022787 ], [ 103.902946736619228, 1.410999941807012 ], [ 103.90290246048788, 1.411055733311736 ], [ 103.902777873340568, 1.411204039073533 ], [ 103.902741835162729, 1.411250745998609 ], [ 103.902710865826919, 1.411294864483271 ], [ 103.902679101467541, 1.411346601347865 ], [ 103.902652669317234, 1.411398491793923 ], [ 103.902631640379681, 1.411451045880361 ], [ 103.902616888015288, 1.411502065978329 ], [ 103.902599551120446, 1.411576761480561 ], [ 103.902595277485744, 1.411608410706757 ], [ 103.902594239623141, 1.411638903155296 ], [ 103.902597644676163, 1.411679830014424 ], [ 103.902605545350312, 1.41172067172862 ], [ 103.902617641490309, 1.411760485960253 ], [ 103.902634228735337, 1.411799417398515 ], [ 103.902659760595711, 1.411841515648526 ], [ 103.902692757843667, 1.411881502890179 ], [ 103.90273151403764, 1.411918442253998 ], [ 103.902775139574317, 1.411952211677406 ], [ 103.902801509060126, 1.411968733602079 ], [ 103.902831356026297, 1.411983692682045 ], [ 103.902890072929353, 1.412004599794356 ], [ 103.902950813243919, 1.412018639109303 ], [ 103.903060230088172, 1.412037508967051 ], [ 103.903119022130667, 1.412046852882098 ], [ 103.903182737432687, 1.412053122715946 ], [ 103.903249386517842, 1.412056069828542 ], [ 103.90331982933651, 1.412055832561143 ], [ 103.903386894294783, 1.412053030619751 ], [ 103.903460962754707, 1.412047736038658 ], [ 103.903716145054787, 1.412022824826902 ], [ 103.90384542776809, 1.412009651546676 ], [ 103.903976620761483, 1.411992796538002 ], [ 103.904108322245435, 1.411972415394001 ], [ 103.904240404620651, 1.411948523492714 ], [ 103.90441609854021, 1.411911278223453 ], [ 103.904591078787703, 1.411867829935503 ], [ 103.904764479131671, 1.411818384850693 ], [ 103.904935635522079, 1.411763133810674 ], [ 103.90510983787533, 1.41170027516007 ], [ 103.90527242232676, 1.411634799631251 ], [ 103.905356296048623, 1.411597633115431 ], [ 103.905447201915166, 1.411554555459096 ], [ 103.905695947135726, 1.411428637711547 ], [ 103.905885999341834, 1.411328835270023 ], [ 103.906082253311084, 1.411220802008648 ], [ 103.906286115302549, 1.411103771885946 ], [ 103.906500701550641, 1.410975968632048 ], [ 103.906714450185092, 1.410844712527128 ], [ 103.90688276256185, 1.41073642324885 ], [ 103.907034132292267, 1.410634189210834 ], [ 103.90717539840962, 1.410534815986991 ], [ 103.907308486540273, 1.41043693792905 ], [ 103.907433404773059, 1.410340563177358 ], [ 103.90763916579003, 1.410181484513708 ], [ 103.907738836022986, 1.41009972144961 ], [ 103.907789030449123, 1.410055011735028 ], [ 103.90783454058608, 1.410011410015226 ], [ 103.90787640426619, 1.4099678671957 ], [ 103.907914546009721, 1.409924418549244 ], [ 103.907963330963156, 1.409864487539487 ], [ 103.908004674011309, 1.409810070671431 ], [ 103.908041147691094, 1.409757659837533 ], [ 103.908073331556537, 1.409706204149223 ], [ 103.908116702801223, 1.409626638681822 ], [ 103.90815498436433, 1.409544079936066 ], [ 103.90818840264896, 1.409457255465799 ], [ 103.908216192108227, 1.4093676276513 ], [ 103.908238003230068, 1.409276346854027 ], [ 103.908253641940945, 1.409184040708454 ], [ 103.908262563517937, 1.409085028927001 ], [ 103.908265506018367, 1.40896116362929 ], [ 103.908264403964552, 1.408892727787834 ], [ 103.908260410962157, 1.408817938888328 ], [ 103.908242181415417, 1.408622026371317 ], [ 103.908230092665008, 1.408534570317844 ], [ 103.908210864390611, 1.408438536609914 ], [ 103.90818866106892, 1.408347612649984 ], [ 103.908131138467027, 1.408130324966711 ], [ 103.908106150656664, 1.408017998435376 ], [ 103.908096717334132, 1.407961977055772 ], [ 103.908090413897767, 1.40790965080324 ], [ 103.908087117224426, 1.407860487916181 ], [ 103.908087054095262, 1.407853320839686 ], [ 103.908086694268022, 1.407812748404086 ], [ 103.908089915071017, 1.40770862805808 ], [ 103.908092869497693, 1.407676735593737 ], [ 103.908097039865339, 1.407649773678444 ], [ 103.908110857343573, 1.407591912073656 ], [ 103.908129901025831, 1.40753533992209 ], [ 103.908148952266188, 1.407490387028836 ], [ 103.908169187997402, 1.407450392720753 ], [ 103.908227516759169, 1.407390617853935 ], [ 103.908358458846152, 1.40729251734087 ], [ 103.908493302748766, 1.407199926075129 ], [ 103.908631820232173, 1.40711300051829 ], [ 103.908859958106973, 1.407003243195356 ], [ 103.909126132104973, 1.406921382404243 ], [ 103.910183666773321, 1.406776670284717 ], [ 103.910617722753258, 1.406604173000804 ], [ 103.911006163116369, 1.406381423514267 ], [ 103.911248067492892, 1.406202392190514 ], [ 103.911574458680292, 1.405896228048616 ], [ 103.911768024707214, 1.405666992583565 ], [ 103.912360157012756, 1.404845079124987 ], [ 103.912534192761626, 1.404659648905684 ], [ 103.912727042657536, 1.404490554447486 ], [ 103.9134789610697, 1.40395704390651 ], [ 103.913677857139277, 1.403806682144595 ], [ 103.913817673531028, 1.403718592337418 ], [ 103.914540221994855, 1.403153528361515 ], [ 103.915002013070989, 1.402839530879388 ], [ 103.915351268722816, 1.40263985149247 ], [ 103.91559389096669, 1.402530204272022 ], [ 103.915841364416579, 1.402440138125143 ], [ 103.916032136757551, 1.402384616117721 ], [ 103.916396561601374, 1.402298178579548 ], [ 103.91674109221745, 1.402172240024393 ], [ 103.916961311676204, 1.402058972400891 ], [ 103.917241035192504, 1.401870342942766 ], [ 103.917458804087147, 1.401679341740714 ], [ 103.917613780923674, 1.401511830007625 ], [ 103.917763736393425, 1.401317189364413 ], [ 103.918040087979136, 1.400895046165011 ], [ 103.91822884052695, 1.400650960747116 ], [ 103.918374087528122, 1.400486779188428 ] ] } }
]
}
