<?xml version="1.0" encoding="UTF-8"?>
<gpx xmlns="http://www.topografix.com/GPX/1/1" xmlns:xsi="http://www.w3.org/2001/XMLSchema-instance" xsi:schemaLocation="http://www.topografix.com/GPX/1/1 http://www.topografix.com/GPX/1/1/gpx.xsd" version="1.1" creator="gpx.py -- https://github.com/tkrajina/gpxpy">
  <trk>
    <name>point_to_point_05000m_011</name>
    <trkseg>
      <trkpt lat="1.41625098309113" lon="103.99086402983724">
        <ele>0.0</ele>
      </trkpt>
      <trkpt lat="1.4163276885297333" lon="103.99081643011478">
        <ele>0.0</ele>
      </trkpt>
      <trkpt lat="1.416404393967655" lon="103.99076883038938">
        <ele>0.0</ele>
      </trkpt>
      <trkpt lat="1.4164810994048944" lon="103.99072123066101">
        <ele>0.0</ele>
      </trkpt>
      <trkpt lat="1.416557804841451" lon="103.99067363092968">
        <ele>0.003389138916690779</ele>
      </trkpt>
      <trkpt lat="1.416632726560749" lon="103.99062352979023">
        <ele>0.05083439483944389</ele>
      </trkpt>
      <trkpt lat="1.4167033538494982" lon="103.99056740632952">
        <ele>0.14233576776820042</ele>
      </trkpt>
      <trkpt lat="1.4167739811372182" lon="103.99051128286551">
        <ele>0.27450411878635844</ele>
      </trkpt>
      <trkpt lat="1.4168446084239092" lon="103.9904551593982">
        <ele>0.40667246980445765</ele>
      </trkpt>
      <trkpt lat="1.41691523570957" lon="103.99039903592755">
        <ele>0.5388408208226156</ele>
      </trkpt>
      <trkpt lat="1.416985862994202" lon="103.9903429124536">
        <ele>0.6710091718406849</ele>
      </trkpt>
      <trkpt lat="1.4170564902778036" lon="103.99028678897632">
        <ele>0.8154079938561832</ele>
      </trkpt>
      <trkpt lat="1.4171208935146251" lon="103.9902237407941">
        <ele>0.955435032030065</ele>
      </trkpt>
      <trkpt lat="1.4171924219990168" lon="103.9901705360708">
        <ele>1.0701972016239998</ele>
      </trkpt>
      <trkpt lat="1.4172729790274856" lon="103.9901296981326">
        <ele>1.0796850037895747</ele>
      </trkpt>
      <trkpt lat="1.4173423617466046" lon="103.99007363825437">
        <ele>1.0033035691799137</ele>
      </trkpt>
      <trkpt lat="1.4173988244313038" lon="103.9900043082378">
        <ele>0.8740893438646912</ele>
      </trkpt>
      <trkpt lat="1.4174447904773142" lon="103.98992692236251">
        <ele>0.7449462955832926</ele>
      </trkpt>
      <trkpt lat="1.4175035954002049" lon="103.98985951948674">
        <ele>0.6064156714953942</ele>
      </trkpt>
      <trkpt lat="1.4175681451051507" lon="103.98979658352316">
        <ele>0.4538916503046287</ele>
      </trkpt>
      <trkpt lat="1.4176263061864327" lon="103.9897278809806">
        <ele>0.3037730745062112</ele>
      </trkpt>
      <trkpt lat="1.4176831757477846" lon="103.98965801266877">
        <ele>0.16271582112639604</ele>
      </trkpt>
      <trkpt lat="1.4177400453073667" lon="103.98958814435343">
        <ele>0.061966057085530935</ele>
      </trkpt>
      <trkpt lat="1.4177969148651803" lon="103.98951827603463">
        <ele>0.007727450043421415</ele>
      </trkpt>
      <trkpt lat="1.417853784421225" lon="103.98944840771233">
        <ele>0.0</ele>
      </trkpt>
      <trkpt lat="1.4179020753829106" lon="103.98937250505101">
        <ele>0.0</ele>
      </trkpt>
      <trkpt lat="1.417942984243466" lon="103.98929302050071">
        <ele>0.0</ele>
      </trkpt>
      <trkpt lat="1.4179698509728103" lon="103.98920726055657">
        <ele>0.0</ele>
      </trkpt>
      <trkpt lat="1.4179857343880835" lon="103.98911879879151">
        <ele>0.0</ele>
      </trkpt>
      <trkpt lat="1.418001617800087" lon="103.98903033702487">
        <ele>0.0</ele>
      </trkpt>
      <trkpt lat="1.4180175012088212" lon="103.98894187525666">
        <ele>0.0</ele>
      </trkpt>
      <trkpt lat="1.418033384614285" lon="103.98885341348688">
        <ele>0.0</ele>
      </trkpt>
      <trkpt lat="1.4180535122724096" lon="103.9887659070904">
        <ele>0.0</ele>
      </trkpt>
      <trkpt lat="1.4180775491652298" lon="103.98867928065478">
        <ele>0.0</ele>
      </trkpt>
      <trkpt lat="1.4181015860549817" lon="103.98859265421704">
        <ele>0.0</ele>
      </trkpt>
      <trkpt lat="1.4181256229416648" lon="103.98850602777719">
        <ele>0.0</ele>
      </trkpt>
      <trkpt lat="1.4181496598252779" lon="103.98841940133522">
        <ele>0.0</ele>
      </trkpt>
      <trkpt lat="1.4181736967058223" lon="103.98833277489113">
        <ele>0.0</ele>
      </trkpt>
      <trkpt lat="1.4181962440862022" lon="103.98824585591619">
        <ele>0.0</ele>
      </trkpt>
      <trkpt lat="1.41820718355193" lon="103.98815665721213">
        <ele>0.0</ele>
      </trkpt>
      <trkpt lat="1.4182181230142907" lon="103.98806745850683">
        <ele>0.0</ele>
      </trkpt>
      <trkpt lat="1.4182090188064445" lon="103.98797885225821">
        <ele>0.0</ele>
      </trkpt>
      <trkpt lat="1.4181781242053604" lon="103.98789484971942">
        <ele>0.0</ele>
      </trkpt>
      <trkpt lat="1.4181424225281316" lon="103.98781228959213">
        <ele>0.0</ele>
      </trkpt>
      <trkpt lat="1.418116425398662" lon="103.9877267884551">
        <ele>0.0</ele>
      </trkpt>
      <trkpt lat="1.4180996780283806" lon="103.98763848413317">
        <ele>0.0018899665797494547</ele>
      </trkpt>
      <trkpt lat="1.4180829306545668" lon="103.98755017981216">
        <ele>0.050478668604509946</ele>
      </trkpt>
      <trkpt lat="1.4180513396849868" lon="103.98746616474537">
        <ele>0.1583298147879568</ele>
      </trkpt>
      <trkpt lat="1.4180062989430013" lon="103.98738946714124">
        <ele>0.35077945147984174</ele>
      </trkpt>
      <trkpt lat="1.4179282742651427" lon="103.98735182172196">
        <ele>0.5899697754891718</ele>
      </trkpt>
      <trkpt lat="1.417837934130068" lon="103.98734768400588">
        <ele>0.8627633896827559</ele>
      </trkpt>
      <trkpt lat="1.4177511612595968" lon="103.98732536402656">
        <ele>1.1273162010674536</ele>
      </trkpt>
      <trkpt lat="1.4176850872686768" lon="103.9872640096042">
        <ele>1.373547526679823</ele>
      </trkpt>
      <trkpt lat="1.4176224892673046" lon="103.98720007354648">
        <ele>1.5821498380916266</ele>
      </trkpt>
      <trkpt lat="1.4175819721531544" lon="103.9871197378884">
        <ele>1.8452847367152792</ele>
      </trkpt>
      <trkpt lat="1.4175548584842708" lon="103.98703450689693">
        <ele>2.1961112228975153</ele>
      </trkpt>
      <trkpt lat="1.4175333664039904" lon="103.98694722273515">
        <ele>2.646234215986014</ele>
      </trkpt>
      <trkpt lat="1.4175210000006204" lon="103.986858845485">
        <ele>3.1030129370721604</ele>
      </trkpt>
      <trkpt lat="1.4175240781562215" lon="103.98676930181">
        <ele>3.5170655629198926</ele>
      </trkpt>
      <trkpt lat="1.4175425020488068" lon="103.9866813277486">
        <ele>3.8966683910293582</ele>
      </trkpt>
      <trkpt lat="1.4175609259381787" lon="103.98659335368546">
        <ele>4.256918678960499</ele>
      </trkpt>
      <trkpt lat="1.417579349824336" lon="103.9865053796206">
        <ele>4.653443010070963</ele>
      </trkpt>
      <trkpt lat="1.4175977737072802" lon="103.98641740555398">
        <ele>5.155014630819521</ele>
      </trkpt>
      <trkpt lat="1.417630769839857" lon="103.98633403489629">
        <ele>5.750450273647</ele>
      </trkpt>
      <trkpt lat="1.4176729455206791" lon="103.98625509979576">
        <ele>6.387584239307472</ele>
      </trkpt>
      <trkpt lat="1.4177261153191771" lon="103.98618241196924">
        <ele>7.010600621698448</ele>
      </trkpt>
      <trkpt lat="1.4177712985129505" lon="103.98610465696964">
        <ele>7.632610028294732</ele>
      </trkpt>
      <trkpt lat="1.4178152937369495" lon="103.98602614825057">
        <ele>8.2726572056622</ele>
      </trkpt>
      <trkpt lat="1.4178565925203002" lon="103.98594638599067">
        <ele>8.92811422570888</ele>
      </trkpt>
      <trkpt lat="1.4178890578651713" lon="103.98586251718314">
        <ele>9.43292679334345</ele>
      </trkpt>
      <trkpt lat="1.4179272625537747" lon="103.98578114774152">
        <ele>9.683867200050871</ele>
      </trkpt>
      <trkpt lat="1.4179673259959549" lon="103.98570058774739">
        <ele>9.67060603356687</ele>
      </trkpt>
      <trkpt lat="1.4180073894356016" lon="103.98562002775027">
        <ele>9.55727024906704</ele>
      </trkpt>
      <trkpt lat="1.4180474528727143" lon="103.98553946775014">
        <ele>9.414879145011406</ele>
      </trkpt>
      <trkpt lat="1.418085428097105" lon="103.98545810554407">
        <ele>9.194188212593955</ele>
      </trkpt>
      <trkpt lat="1.4181103254285012" lon="103.98537171935754">
        <ele>8.895197451814203</ele>
      </trkpt>
      <trkpt lat="1.4181352227568491" lon="103.98528533316885">
        <ele>8.582971500220493</ele>
      </trkpt>
      <trkpt lat="1.4181548738235987" lon="103.98519779311422">
        <ele>8.344716637664026</ele>
      </trkpt>
      <trkpt lat="1.4181689941723639" lon="103.98510903663085">
        <ele>8.2602426296828</ele>
      </trkpt>
      <trkpt lat="1.4181713551773576" lon="103.98501920902314">
        <ele>8.114088475922157</ele>
      </trkpt>
      <trkpt lat="1.418173711323639" lon="103.98492938097262">
        <ele>7.77549393457529</ele>
      </trkpt>
      <trkpt lat="1.4181760674664325" lon="103.98483955292154">
        <ele>7.070511675519043</ele>
      </trkpt>
      <trkpt lat="1.4181891102171078" lon="103.98475105663059">
        <ele>6.1169285734398935</ele>
      </trkpt>
      <trkpt lat="1.418209153228867" lon="103.9846634327078">
        <ele>5.007543099099358</ele>
      </trkpt>
      <trkpt lat="1.4182291962374483" lon="103.98457580878319">
        <ele>3.836492817082909</ele>
      </trkpt>
      <trkpt lat="1.4182492392428505" lon="103.98448818485673">
        <ele>3.273662150908349</ele>
      </trkpt>
      <trkpt lat="1.4182359149304007" lon="103.9844018410228">
        <ele>2.8487278477983176</ele>
      </trkpt>
      <trkpt lat="1.418207435079444" lon="103.98431682925886">
        <ele>3.0093053401785226</ele>
      </trkpt>
      <trkpt lat="1.418156325227912" lon="103.984242696948">
        <ele>3.1471750122069193</ele>
      </trkpt>
      <trkpt lat="1.4181052153736182" lon="103.98416856464026">
        <ele>3.593890305484051</ele>
      </trkpt>
      <trkpt lat="1.4180607549139561" lon="103.98409035884127">
        <ele>3.886066214042325</ele>
      </trkpt>
      <trkpt lat="1.418017050077887" lon="103.98401169013984">
        <ele>4.461659563169939</ele>
      </trkpt>
      <trkpt lat="1.4179534781274739" lon="103.98394801617353">
        <ele>5.003485309497379</ele>
      </trkpt>
      <trkpt lat="1.417877546198619" lon="103.98390076911588">
        <ele>5.052446108152501</ele>
      </trkpt>
      <trkpt lat="1.4177970491635516" lon="103.98385981448327">
        <ele>4.426458807614581</ele>
      </trkpt>
      <trkpt lat="1.417716552127395" lon="103.98381885985371">
        <ele>3.6918268268040264</ele>
      </trkpt>
      <trkpt lat="1.4176303994424868" lon="103.98379211412592">
        <ele>3.693732165648289</ele>
      </trkpt>
      <trkpt lat="1.417541980596629" lon="103.98377477793971">
        <ele>4.187903327826118</ele>
      </trkpt>
      <trkpt lat="1.4174521285751966" lon="103.98376458196591">
        <ele>5.078125315084509</ele>
      </trkpt>
      <trkpt lat="1.4173620978523696" lon="103.98377190586824">
        <ele>5.99493859487313</ele>
      </trkpt>
      <trkpt lat="1.417272056312164" lon="103.98378029030313">
        <ele>6.925490808286423</ele>
      </trkpt>
      <trkpt lat="1.4171819381572297" lon="103.98378672040477">
        <ele>7.850639641739114</ele>
      </trkpt>
      <trkpt lat="1.4170915130518569" lon="103.9837853206348">
        <ele>8.769529546268268</ele>
      </trkpt>
      <trkpt lat="1.4170010879464006" lon="103.98378392086532">
        <ele>9.683410703333225</ele>
      </trkpt>
      <trkpt lat="1.4169106628408608" lon="103.98378252109632">
        <ele>10.581289890444532</ele>
      </trkpt>
      <trkpt lat="1.416821989504498" lon="103.98376806876988">
        <ele>11.453677145027788</ele>
      </trkpt>
      <trkpt lat="1.4167343550538805" lon="103.9837458756303">
        <ele>12.158052337835693</ele>
      </trkpt>
      <trkpt lat="1.416660252995561" lon="103.98369577107107">
        <ele>12.63890512936227</ele>
      </trkpt>
      <trkpt lat="1.4166000997209174" lon="103.98363014293213">
        <ele>12.852424846826649</ele>
      </trkpt>
      <trkpt lat="1.4165533742191279" lon="103.98355348729233">
        <ele>12.916781028225458</ele>
      </trkpt>
      <trkpt lat="1.4165133890703163" lon="103.98347288894267">
        <ele>12.903485983018056</ele>
      </trkpt>
      <trkpt lat="1.4164734039183735" lon="103.98339229059557">
        <ele>12.902689383021729</ele>
      </trkpt>
      <trkpt lat="1.4164334187633" lon="103.98331169225102">
        <ele>13.07232225812547</ele>
      </trkpt>
      <trkpt lat="1.4163934336050954" lon="103.983231093909">
        <ele>13.447371817224038</ele>
      </trkpt>
      <trkpt lat="1.4163425898991229" lon="103.9831574078521">
        <ele>14.007452733174754</ele>
      </trkpt>
      <trkpt lat="1.416284643869895" lon="103.98308857750698">
        <ele>14.649772903636405</ele>
      </trkpt>
      <trkpt lat="1.4162150890417362" lon="103.98303114691387">
        <ele>15.237893078363683</ele>
      </trkpt>
      <trkpt lat="1.41613938241815" lon="103.98298326752382">
        <ele>15.736468166625741</ele>
      </trkpt>
      <trkpt lat="1.4160577628061868" lon="103.98294456856847">
        <ele>16.03561285485894</ele>
      </trkpt>
      <trkpt lat="1.4159761431932258" lon="103.98290586961606">
        <ele>16.245322287205543</ele>
      </trkpt>
      <trkpt lat="1.4158925612660789" lon="103.982871733229">
        <ele>16.388734495718143</ele>
      </trkpt>
      <trkpt lat="1.415808001604185" lon="103.98283987016782">
        <ele>16.53758526258864</ele>
      </trkpt>
      <trkpt lat="1.4157253535319083" lon="103.98280426034214">
        <ele>16.657151446478338</ele>
      </trkpt>
      <trkpt lat="1.4156495040161718" lon="103.98275532516854">
        <ele>16.743176396746055</ele>
      </trkpt>
      <trkpt lat="1.4155736544990067" lon="103.98270638999826">
        <ele>16.77554560485053</ele>
      </trkpt>
      <trkpt lat="1.4155075473707053" lon="103.9826456500996">
        <ele>16.710998128334925</ele>
      </trkpt>
      <trkpt lat="1.4154750013023174" lon="103.98256254917771">
        <ele>16.543649396518166</ele>
      </trkpt>
      <trkpt lat="1.4154454025877845" lon="103.982477639731">
        <ele>16.300975113016225</ele>
      </trkpt>
      <trkpt lat="1.415415803869886" lon="103.98239273028615">
        <ele>16.07246861582296</ele>
      </trkpt>
      <trkpt lat="1.4153751753960224" lon="103.98231315894158">
        <ele>15.887962035076127</ele>
      </trkpt>
      <trkpt lat="1.4153222640351277" lon="103.98224070629855">
        <ele>15.769431444120402</ele>
      </trkpt>
      <trkpt lat="1.4152595217416248" lon="103.98217599097416">
        <ele>15.696824485966038</ele>
      </trkpt>
      <trkpt lat="1.4151967794459002" lon="103.98211127565324">
        <ele>15.613179781691718</ele>
      </trkpt>
      <trkpt lat="1.4151494627665133" lon="103.98203548618613">
        <ele>15.468899239512792</ele>
      </trkpt>
      <trkpt lat="1.415118268237052" lon="103.98195312005183">
        <ele>15.206539776390427</ele>
      </trkpt>
      <trkpt lat="1.4151303032905411" lon="103.9818651889168">
        <ele>14.836026440166862</ele>
      </trkpt>
      <trkpt lat="1.415175478235701" lon="103.98178820180429">
        <ele>14.382149812103677</ele>
      </trkpt>
      <trkpt lat="1.415226263432381" lon="103.98171384962238">
        <ele>13.902352975239618</ele>
      </trkpt>
      <trkpt lat="1.415277048626984" lon="103.98163949743711">
        <ele>13.424928221882011</ele>
      </trkpt>
      <trkpt lat="1.4153153175880582" lon="103.98155845844484">
        <ele>12.954308408184028</ele>
      </trkpt>
      <trkpt lat="1.4153497345908852" lon="103.98147536154036">
        <ele>12.490493534145692</ele>
      </trkpt>
      <trkpt lat="1.415384151590965" lon="103.98139226463316">
        <ele>12.03667810547166</ele>
      </trkpt>
      <trkpt lat="1.415407624938795" lon="103.98130611539172">
        <ele>11.598428472209017</ele>
      </trkpt>
      <trkpt lat="1.4154217578088806" lon="103.98121736096414">
        <ele>11.187673507744604</ele>
      </trkpt>
      <trkpt lat="1.4154245157874554" lon="103.98112775744752">
        <ele>10.803779035264505</ele>
      </trkpt>
      <trkpt lat="1.4154206457326581" lon="103.98103824952369">
        <ele>10.464091654967007</ele>
      </trkpt>
      <trkpt lat="1.4154019237653723" lon="103.98095033766766">
        <ele>10.213556626668217</ele>
      </trkpt>
      <trkpt lat="1.4153832017945815" lon="103.98086242581275">
        <ele>10.06349510527941</ele>
      </trkpt>
      <trkpt lat="1.4153523062146525" lon="103.9807783411303">
        <ele>9.996735544258614</ele>
      </trkpt>
      <trkpt lat="1.4153167269213878" lon="103.98069572892754">
        <ele>9.956403810402966</ele>
      </trkpt>
      <trkpt lat="1.4152811476248852" lon="103.98061311672706">
        <ele>9.92437998185981</ele>
      </trkpt>
      <trkpt lat="1.4152455683251464" lon="103.98053050452883">
        <ele>9.906014583415319</ele>
      </trkpt>
      <trkpt lat="1.41520464512072" lon="103.98045050725229">
        <ele>9.906886878439986</ele>
      </trkpt>
      <trkpt lat="1.4151604277481193" lon="103.9803721219049">
        <ele>9.926031784299571</ele>
      </trkpt>
      <trkpt lat="1.4151162103725237" lon="103.98029373656031">
        <ele>9.968023692100259</ele>
      </trkpt>
      <trkpt lat="1.4150701429662742" lon="103.98021661520924">
        <ele>10.156291817148045</ele>
      </trkpt>
      <trkpt lat="1.415012307590449" lon="103.98014753406599">
        <ele>10.502388477132007</ele>
      </trkpt>
      <trkpt lat="1.4149439647067021" lon="103.98008891211012">
        <ele>10.993725427365376</ele>
      </trkpt>
      <trkpt lat="1.4148699778252847" lon="103.98003803323216">
        <ele>11.50569336802163</ele>
      </trkpt>
      <trkpt lat="1.4147901200543083" lon="103.97999586115017">
        <ele>12.025108462215686</ele>
      </trkpt>
      <trkpt lat="1.4147124037738183" lon="103.97995055054605">
        <ele>12.538782104440799</ele>
      </trkpt>
      <trkpt lat="1.4146452080348064" lon="103.97989050919547">
        <ele>13.039156915216822</ele>
      </trkpt>
      <trkpt lat="1.4145810579538443" lon="103.9798271711354">
        <ele>13.527864413739765</ele>
      </trkpt>
      <trkpt lat="1.4145169078707416" lon="103.97976383307879">
        <ele>14.013413711632417</ele>
      </trkpt>
      <trkpt lat="1.4144527577854997" lon="103.97970049502567">
        <ele>14.48803437073098</ele>
      </trkpt>
      <trkpt lat="1.414397555902619" lon="103.9796297690206">
        <ele>14.946498405106352</ele>
      </trkpt>
      <trkpt lat="1.4143466346130593" lon="103.97955550880665">
        <ele>15.397180319473383</ele>
      </trkpt>
      <trkpt lat="1.4142881091017543" lon="103.97948879812589">
        <ele>15.869495397848107</ele>
      </trkpt>
      <trkpt lat="1.414212062611852" lon="103.97944060942122">
        <ele>16.372362951665025</ele>
      </trkpt>
      <trkpt lat="1.4141286626665848" lon="103.9794058594434">
        <ele>16.85488952913625</ele>
      </trkpt>
      <trkpt lat="1.4140780008379907" lon="103.97934761072351">
        <ele>17.146438661627204</ele>
      </trkpt>
      <trkpt lat="1.414117689222987" lon="103.97927298965942">
        <ele>17.245037005063963</ele>
      </trkpt>
      <trkpt lat="1.4141349101672707" lon="103.97925274451407">
        <ele>17.21826126507608</ele>
      </trkpt>
      <trkpt lat="1.4140515230315538" lon="103.97921796419946">
        <ele>17.600341840783543</ele>
      </trkpt>
      <trkpt lat="1.414025666240337" lon="103.97920717947501">
        <ele>17.600341840783543</ele>
      </trkpt>
      <trkpt lat="1.4140072605628393" lon="103.9792951571996">
        <ele>17.785723084511897</ele>
      </trkpt>
      <trkpt lat="1.4139946009928954" lon="103.97938370903387">
        <ele>17.650079750384364</ele>
      </trkpt>
      <trkpt lat="1.4139950094252929" lon="103.97947356653154">
        <ele>17.478956031004103</ele>
      </trkpt>
      <trkpt lat="1.4139954178541871" lon="103.97956342402888">
        <ele>17.28404996062763</ele>
      </trkpt>
      <trkpt lat="1.413995358903185" lon="103.97965326212673">
        <ele>17.10455492663392</ele>
      </trkpt>
      <trkpt lat="1.4139874094964322" lon="103.97974277271852">
        <ele>16.943974210448655</ele>
      </trkpt>
      <trkpt lat="1.413977603269912" lon="103.97983209552477">
        <ele>16.80249832690353</ele>
      </trkpt>
      <trkpt lat="1.4139672392913705" lon="103.97992136192337">
        <ele>16.668743797524602</ele>
      </trkpt>
      <trkpt lat="1.4139552191828206" lon="103.98001040355541">
        <ele>16.543199819543574</ele>
      </trkpt>
      <trkpt lat="1.4139411104574469" lon="103.98009916172465">
        <ele>16.424996472970935</ele>
      </trkpt>
      <trkpt lat="1.4139269075462078" lon="103.98018790382604">
        <ele>16.315404541083556</ele>
      </trkpt>
      <trkpt lat="1.4139104137163665" lon="103.98027625512204">
        <ele>16.210431545224022</ele>
      </trkpt>
      <trkpt lat="1.4138939198832707" lon="103.98036460641646">
        <ele>16.136721062834415</ele>
      </trkpt>
      <trkpt lat="1.4138648568855083" lon="103.98044735273808">
        <ele>16.15864687197266</ele>
      </trkpt>
      <trkpt lat="1.4138044961616265" lon="103.98051333932288">
        <ele>16.307884359544133</ele>
      </trkpt>
      <trkpt lat="1.4137316927918309" lon="103.98056664692915">
        <ele>16.557607555917176</ele>
      </trkpt>
      <trkpt lat="1.4136588894211088" lon="103.98061995453222">
        <ele>16.83517366919818</ele>
      </trkpt>
      <trkpt lat="1.4135875691793471" lon="103.98067485261134">
        <ele>17.10354494175203</ele>
      </trkpt>
      <trkpt lat="1.4135285312498327" lon="103.98074292199834">
        <ele>17.39032515290042</ele>
      </trkpt>
      <trkpt lat="1.4134844594837213" lon="103.98082086260547">
        <ele>17.695762382112893</ele>
      </trkpt>
      <trkpt lat="1.4134442496860877" lon="103.98090135044716">
        <ele>18.002660596843597</ele>
      </trkpt>
      <trkpt lat="1.413423694862366" lon="103.98098832473234">
        <ele>18.278468122656975</ele>
      </trkpt>
      <trkpt lat="1.413407451101297" lon="103.98107672173431">
        <ele>18.52572004675366</ele>
      </trkpt>
      <trkpt lat="1.4133920454480178" lon="103.98116526417996">
        <ele>18.766309761112055</ele>
      </trkpt>
      <trkpt lat="1.4133771709565652" lon="103.98125389880218">
        <ele>19.005185160845997</ele>
      </trkpt>
      <trkpt lat="1.4133622964618264" lon="103.98134253342293">
        <ele>19.243395549282766</ele>
      </trkpt>
      <trkpt lat="1.4133474219638016" lon="103.9814311680422">
        <ele>19.481276400495403</ele>
      </trkpt>
      <trkpt lat="1.41333280929525" lon="103.98151984550769">
        <ele>19.733477884067813</ele>
      </trkpt>
      <trkpt lat="1.4133182906709194" lon="103.98160853836214">
        <ele>19.906275904827982</ele>
      </trkpt>
      <trkpt lat="1.413303772043296" lon="103.98169723121514">
        <ele>20.0</ele>
      </trkpt>
      <trkpt lat="1.4132892534123795" lon="103.98178592406671">
        <ele>20.0</ele>
      </trkpt>
      <trkpt lat="1.4132714435204297" lon="103.98187401304443">
        <ele>20.0</ele>
      </trkpt>
      <trkpt lat="1.4132551116405452" lon="103.98196238175319">
        <ele>20.0</ele>
      </trkpt>
      <trkpt lat="1.4132398461347218" lon="103.9820509507075">
        <ele>20.0</ele>
      </trkpt>
      <trkpt lat="1.413225908934453" lon="103.98213972302378">
        <ele>20.0</ele>
      </trkpt>
      <trkpt lat="1.4132136338773766" lon="103.98222874981256">
        <ele>20.0</ele>
      </trkpt>
      <trkpt lat="1.4132013588169654" lon="103.98231777660007">
        <ele>20.0</ele>
      </trkpt>
      <trkpt lat="1.4131890892468115" lon="103.98240680412228">
        <ele>20.0</ele>
      </trkpt>
      <trkpt lat="1.4131771950897003" lon="103.9824958819393">
        <ele>20.0</ele>
      </trkpt>
      <trkpt lat="1.4131636785778718" lon="103.98258469568748">
        <ele>20.0</ele>
      </trkpt>
      <trkpt lat="1.4131463059822613" lon="103.98267288036432">
        <ele>20.0</ele>
      </trkpt>
      <trkpt lat="1.413128313174504" lon="103.98276094232045">
        <ele>20.0</ele>
      </trkpt>
      <trkpt lat="1.4131052650761333" lon="103.98284780679913">
        <ele>20.0</ele>
      </trkpt>
      <trkpt lat="1.4130815198994908" lon="103.98293451064723">
        <ele>20.0</ele>
      </trkpt>
      <trkpt lat="1.4130593059623247" lon="103.98302161604921">
        <ele>20.0</ele>
      </trkpt>
      <trkpt lat="1.413039425473531" lon="103.98310927030134">
        <ele>20.0</ele>
      </trkpt>
      <trkpt lat="1.4130218912977313" lon="103.98319741937544">
        <ele>20.0</ele>
      </trkpt>
      <trkpt lat="1.4130120023671044" lon="103.98328670626613">
        <ele>20.0</ele>
      </trkpt>
      <trkpt lat="1.4130029083995463" lon="103.98337610916256">
        <ele>20.0</ele>
      </trkpt>
      <trkpt lat="1.4129938144286003" lon="103.98346551205795">
        <ele>20.0</ele>
      </trkpt>
      <trkpt lat="1.4129822206412974" lon="103.98355462874193">
        <ele>20.0</ele>
      </trkpt>
      <trkpt lat="1.412970611961606" lon="103.98364374371998">
        <ele>20.0</ele>
      </trkpt>
      <trkpt lat="1.412955682811545" lon="103.98373228389721">
        <ele>20.0</ele>
      </trkpt>
      <trkpt lat="1.41293627711617" lon="103.98382004914735">
        <ele>20.0</ele>
      </trkpt>
      <trkpt lat="1.4129129936372604" lon="103.98390682632613">
        <ele>20.0</ele>
      </trkpt>
      <trkpt lat="1.4128874972390129" lon="103.98399303964534">
        <ele>20.0</ele>
      </trkpt>
      <trkpt lat="1.412862000837743" lon="103.98407925296237">
        <ele>20.0</ele>
      </trkpt>
      <trkpt lat="1.412830424485677" lon="103.9841626469902">
        <ele>20.0</ele>
      </trkpt>
      <trkpt lat="1.4127802988972065" lon="103.98423743968893">
        <ele>20.0</ele>
      </trkpt>
      <trkpt lat="1.4127297073076575" lon="103.98431176624969">
        <ele>20.0</ele>
      </trkpt>
      <trkpt lat="1.4126539911031233" lon="103.98436086797705">
        <ele>20.0</ele>
      </trkpt>
      <trkpt lat="1.4125707656399444" lon="103.9843960284487">
        <ele>20.0</ele>
      </trkpt>
      <trkpt lat="1.412487540176442" lon="103.9844311889181">
        <ele>20.0</ele>
      </trkpt>
      <trkpt lat="1.4124043147126155" lon="103.98446634938526">
        <ele>20.0</ele>
      </trkpt>
      <trkpt lat="1.4123202522168068" lon="103.98449937371426">
        <ele>20.0</ele>
      </trkpt>
      <trkpt lat="1.4122350093758134" lon="103.98452938575707">
        <ele>20.0</ele>
      </trkpt>
      <trkpt lat="1.4121521347915333" lon="103.98456428688345">
        <ele>20.0</ele>
      </trkpt>
      <trkpt lat="1.4120756559723986" lon="103.98461223663689">
        <ele>20.0</ele>
      </trkpt>
      <trkpt lat="1.4119999674357528" lon="103.98466141718663">
        <ele>20.0</ele>
      </trkpt>
      <trkpt lat="1.4119155549200892" lon="103.9846935234198">
        <ele>20.0</ele>
      </trkpt>
      <trkpt lat="1.4118309285784878" lon="103.98472521115762">
        <ele>20.0</ele>
      </trkpt>
      <trkpt lat="1.411745460738361" lon="103.98475415534229">
        <ele>20.0</ele>
      </trkpt>
      <trkpt lat="1.4116574318491963" lon="103.98477474969415">
        <ele>20.0</ele>
      </trkpt>
      <trkpt lat="1.4115696554546209" lon="103.98479630608841">
        <ele>20.0</ele>
      </trkpt>
      <trkpt lat="1.4114827152835605" lon="103.98482104862202">
        <ele>20.0</ele>
      </trkpt>
      <trkpt lat="1.4113957751123687" lon="103.98484579115413">
        <ele>20.0</ele>
      </trkpt>
      <trkpt lat="1.411308834941047" lon="103.98487053368471">
        <ele>20.0</ele>
      </trkpt>
      <trkpt lat="1.4112218947695951" lon="103.98489527621376">
        <ele>20.0</ele>
      </trkpt>
      <trkpt lat="1.4111349545980127" lon="103.9849200187413">
        <ele>20.0</ele>
      </trkpt>
      <trkpt lat="1.411048114931149" lon="103.98494510163366">
        <ele>20.0</ele>
      </trkpt>
      <trkpt lat="1.4109629744693217" lon="103.98497401927516">
        <ele>20.0</ele>
      </trkpt>
      <trkpt lat="1.410888260365594" lon="103.98502464944934">
        <ele>20.0</ele>
      </trkpt>
      <trkpt lat="1.4108159855610476" lon="103.98507811871897">
        <ele>20.0</ele>
      </trkpt>
      <trkpt lat="1.4107631021264047" lon="103.98515079102927">
        <ele>20.0</ele>
      </trkpt>
      <trkpt lat="1.4107123864329587" lon="103.98522518987521">
        <ele>20.0</ele>
      </trkpt>
      <trkpt lat="1.4106724438200122" lon="103.9853056945703">
        <ele>20.0</ele>
      </trkpt>
      <trkpt lat="1.4106381154118082" lon="103.9853888184226">
        <ele>20.000000000000004</ele>
      </trkpt>
      <trkpt lat="1.4106041105288978" lon="103.98547208207431">
        <ele>20.0</ele>
      </trkpt>
      <trkpt lat="1.410572304625269" lon="103.98555619971033">
        <ele>20.0</ele>
      </trkpt>
      <trkpt lat="1.4105404987188217" lon="103.9856403173438">
        <ele>20.0</ele>
      </trkpt>
      <trkpt lat="1.4105196860697087" lon="103.98572739534175">
        <ele>20.0</ele>
      </trkpt>
      <trkpt lat="1.4105102476875881" lon="103.9858167628836">
        <ele>20.0</ele>
      </trkpt>
      <trkpt lat="1.4105008093020923" lon="103.98590613042435">
        <ele>20.0</ele>
      </trkpt>
      <trkpt lat="1.410491370913221" lon="103.98599549796403">
        <ele>20.0</ele>
      </trkpt>
      <trkpt lat="1.4104819325209754" lon="103.98608486550259">
        <ele>20.0</ele>
      </trkpt>
      <trkpt lat="1.4104738941584758" lon="103.98617433314944">
        <ele>20.0</ele>
      </trkpt>
      <trkpt lat="1.4104735152142964" lon="103.9862635907782">
        <ele>20.0</ele>
      </trkpt>
      <trkpt lat="1.410511722122481" lon="103.98634482006565">
        <ele>20.0</ele>
      </trkpt>
      <trkpt lat="1.4105570951423279" lon="103.98642255048367">
        <ele>20.0</ele>
      </trkpt>
      <trkpt lat="1.4106024681592129" lon="103.98650028090451">
        <ele>20.0</ele>
      </trkpt>
      <trkpt lat="1.410645039520219" lon="103.98657928793605">
        <ele>20.0</ele>
      </trkpt>
      <trkpt lat="1.410670368075652" lon="103.98666525428172">
        <ele>20.0</ele>
      </trkpt>
      <trkpt lat="1.4106774075776392" lon="103.98675456038974">
        <ele>20.0</ele>
      </trkpt>
      <trkpt lat="1.4106767278474437" lon="103.9868444161078">
        <ele>20.0</ele>
      </trkpt>
      <trkpt lat="1.410676048113762" lon="103.98693427182543">
        <ele>20.0</ele>
      </trkpt>
      <trkpt lat="1.410675531325391" lon="103.98702412834547">
        <ele>20.0</ele>
      </trkpt>
      <trkpt lat="1.4106752539410519" lon="103.98711398571746">
        <ele>20.0</ele>
      </trkpt>
      <trkpt lat="1.4106735862784205" lon="103.98720382869298">
        <ele>19.999999999999996</ele>
      </trkpt>
      <trkpt lat="1.4106683519959418" lon="103.98729352261596">
        <ele>20.0</ele>
      </trkpt>
      <trkpt lat="1.4106594186355224" lon="103.98738287380463">
        <ele>20.0</ele>
      </trkpt>
      <trkpt lat="1.410637914804775" lon="103.98746995989147">
        <ele>19.89107479123368</ele>
      </trkpt>
      <trkpt lat="1.4105940901122553" lon="103.98754820532587">
        <ele>19.576387533574593</ele>
      </trkpt>
      <trkpt lat="1.4105476849079837" lon="103.98762533179196">
        <ele>19.056194278711033</ele>
      </trkpt>
      <trkpt lat="1.410498816987017" lon="103.98770084271017">
        <ele>18.439865487218203</ele>
      </trkpt>
      <trkpt lat="1.4104456666159302" lon="103.98777354433221">
        <ele>17.824237999222625</ele>
      </trkpt>
      <trkpt lat="1.4103925162428999" lon="103.98784624595083">
        <ele>17.209125985569514</ele>
      </trkpt>
      <trkpt lat="1.4103390753853349" lon="103.9879187365663">
        <ele>16.579394100935513</ele>
      </trkpt>
      <trkpt lat="1.4102937650482936" lon="103.98799604195108">
        <ele>15.933276753886346</ele>
      </trkpt>
      <trkpt lat="1.4102500992505922" lon="103.98807467340663">
        <ele>15.275034321750397</ele>
      </trkpt>
      <trkpt lat="1.4102119351089208" lon="103.98815594008292">
        <ele>14.618894357862715</ele>
      </trkpt>
      <trkpt lat="1.4101670381362088" lon="103.98823140785034">
        <ele>13.95944628637694</ele>
      </trkpt>
      <trkpt lat="1.4100965906190213" lon="103.9882877537976">
        <ele>13.292359507431192</ele>
      </trkpt>
      <trkpt lat="1.4100261431007954" lon="103.98834409974155">
        <ele>12.617910597973058</ele>
      </trkpt>
      <trkpt lat="1.4099559977775071" lon="103.98840081596254">
        <ele>11.943209693649543</ele>
      </trkpt>
      <trkpt lat="1.4098859597565978" lon="103.98845766365892">
        <ele>11.268256794460518</ele>
      </trkpt>
      <trkpt lat="1.4098159217346282" lon="103.988514511352">
        <ele>10.593237863637933</ele>
      </trkpt>
      <trkpt lat="1.4097458837115986" lon="103.98857135904174">
        <ele>9.91821893281534</ele>
      </trkpt>
      <trkpt lat="1.409675845687509" lon="103.98862820672818">
        <ele>9.300499428653948</ele>
      </trkpt>
      <trkpt lat="1.409625062630899" lon="103.9886718520606">
        <ele>8.991639676573246</ele>
      </trkpt>
      <trkpt lat="1.4096062219620045" lon="103.98858396549454">
        <ele>9.140197097339385</ele>
      </trkpt>
      <trkpt lat="1.4095873812896118" lon="103.98849607892953">
        <ele>9.537747289019949</ele>
      </trkpt>
      <trkpt lat="1.4095674017731197" lon="103.98840853611755">
        <ele>9.90215035090288</ele>
      </trkpt>
      <trkpt lat="1.409533858661171" lon="103.98832508739339">
        <ele>10.233406282988275</ele>
      </trkpt>
      <trkpt lat="1.4095003155459382" lon="103.98824163867134">
        <ele>10.509906913882963</ele>
      </trkpt>
      <trkpt lat="1.4094576001805477" lon="103.98816281915035">
        <ele>10.748205849760133</ele>
      </trkpt>
      <trkpt lat="1.4094095633731787" lon="103.98808668534267">
        <ele>10.907794191945563</ele>
      </trkpt>
      <trkpt lat="1.409363582412663" lon="103.98800935719571">
        <ele>11.00498400911114</ele>
      </trkpt>
      <trkpt lat="1.4093203692382092" lon="103.9879304211094">
        <ele>11.053801270376079</ele>
      </trkpt>
      <trkpt lat="1.4092771560607242" lon="103.9878514850258">
        <ele>11.094754874414406</ele>
      </trkpt>
      <trkpt lat="1.409233942880208" lon="103.9877725489449">
        <ele>11.135708478452683</ele>
      </trkpt>
      <trkpt lat="1.4091907296966615" lon="103.98769361286669">
        <ele>11.194812411869163</ele>
      </trkpt>
      <trkpt lat="1.4091475165100842" lon="103.9876146767912">
        <ele>11.274196380807219</ele>
      </trkpt>
      <trkpt lat="1.4091043033204769" lon="103.9875357407184">
        <ele>11.367203442218404</ele>
      </trkpt>
      <trkpt lat="1.409058659463299" lon="103.98745822096839">
        <ele>11.448582700147028</ele>
      </trkpt>
      <trkpt lat="1.4090104229574225" lon="103.98738221192596">
        <ele>11.516204448449903</ele>
      </trkpt>
      <trkpt lat="1.4089621864486845" lon="103.98730620288649">
        <ele>11.491230124236415</ele>
      </trkpt>
      <trkpt lat="1.4089196567768678" lon="103.98722699160268">
        <ele>11.331411308546436</ele>
      </trkpt>
      <trkpt lat="1.4088790562556752" lon="103.98714669782619">
        <ele>11.036748001379872</ele>
      </trkpt>
      <trkpt lat="1.4088384557313771" lon="103.98706640405226">
        <ele>10.6927357086757</ele>
      </trkpt>
      <trkpt lat="1.4087978552039728" lon="103.98698611028087">
        <ele>10.49239288018257</ele>
      </trkpt>
      <trkpt lat="1.4087532112286953" lon="103.9869082399522">
        <ele>10.51799360078593</ele>
      </trkpt>
      <trkpt lat="1.4087006672899813" lon="103.98683510447087">
        <ele>10.716099562593707</ele>
      </trkpt>
      <trkpt lat="1.4086367644175848" lon="103.9867716509753">
        <ele>10.939031743243277</ele>
      </trkpt>
      <trkpt lat="1.408572009265048" lon="103.98670892393717">
        <ele>11.042296201106764</ele>
      </trkpt>
      <trkpt lat="1.4085072541103936" lon="103.98664619690253">
        <ele>10.81864542217938</ele>
      </trkpt>
      <trkpt lat="1.4084424989536233" lon="103.98658346987136">
        <ele>10.272088964612685</ele>
      </trkpt>
      <trkpt lat="1.408377743794736" lon="103.98652074284367">
        <ele>9.464846685149128</ele>
      </trkpt>
      <trkpt lat="1.4083129886337324" lon="103.98645801581942">
        <ele>8.659556744236482</ele>
      </trkpt>
      <trkpt lat="1.4082487714579448" lon="103.9863948742077">
        <ele>7.925833121030702</ele>
      </trkpt>
      <trkpt lat="1.4082037371405114" lon="103.98631694964695">
        <ele>7.438543437281349</ele>
      </trkpt>
      <trkpt lat="1.4081587028201106" lon="103.98623902508898">
        <ele>7.217321408249276</ele>
      </trkpt>
      <trkpt lat="1.4081136684967421" lon="103.98616110053382">
        <ele>7.200804668519673</ele>
      </trkpt>
      <trkpt lat="1.408070441655" lon="103.98608246500402">
        <ele>7.261461487240214</ele>
      </trkpt>
      <trkpt lat="1.4080495912156845" lon="103.98599502767517">
        <ele>7.353465874397943</ele>
      </trkpt>
      <trkpt lat="1.4080385614424347" lon="103.9859062225847">
        <ele>7.5005152283441285</ele>
      </trkpt>
      <trkpt lat="1.408034413950875" lon="103.98581645897183">
        <ele>7.655273658181866</ele>
      </trkpt>
      <trkpt lat="1.4080302664558022" lon="103.98572669535888">
        <ele>7.831571235554641</ele>
      </trkpt>
      <trkpt lat="1.4080238613572191" lon="103.98563716813644">
        <ele>7.958864481068161</ele>
      </trkpt>
      <trkpt lat="1.4080090862260202" lon="103.98554851733005">
        <ele>8.009118647060808</ele>
      </trkpt>
      <trkpt lat="1.4079943110913051" lon="103.98545986652442">
        <ele>7.900096953253036</ele>
      </trkpt>
      <trkpt lat="1.4079792782407026" lon="103.98537127043703">
        <ele>7.733539103453151</ele>
      </trkpt>
      <trkpt lat="1.4079562976005213" lon="103.98528436182457">
        <ele>7.612132170851244</ele>
      </trkpt>
      <trkpt lat="1.4079333169568886" lon="103.98519745321349">
        <ele>7.655332715491241</ele>
      </trkpt>
      <trkpt lat="1.407916513593416" lon="103.98510928594689">
        <ele>7.815201559011785</ele>
      </trkpt>
      <trkpt lat="1.4079032138605576" lon="103.9850204047956">
        <ele>8.017086375884046</ele>
      </trkpt>
      <trkpt lat="1.4078899141241785" lon="103.98493152364496">
        <ele>8.297554164346442</ele>
      </trkpt>
      <trkpt lat="1.4078927358793523" lon="103.98484286068398">
        <ele>8.498697673421455</ele>
      </trkpt>
      <trkpt lat="1.407908150794214" lon="103.98475433597156">
        <ele>8.583578770213133</ele>
      </trkpt>
      <trkpt lat="1.4079132290829866" lon="103.98466461959472">
        <ele>8.488820541276626</ele>
      </trkpt>
      <trkpt lat="1.4079183073683283" lon="103.98457490321711">
        <ele>8.360566989843106</ele>
      </trkpt>
      <trkpt lat="1.407924346969617" lon="103.98448530860368">
        <ele>8.277648704987138</ele>
      </trkpt>
      <trkpt lat="1.4079420839965338" lon="103.98439719563649">
        <ele>8.273014329661704</ele>
      </trkpt>
      <trkpt lat="1.4079686114899046" lon="103.98431233116699">
        <ele>8.45613772124367</ele>
      </trkpt>
      <trkpt lat="1.4080243836702329" lon="103.9842430783417">
        <ele>8.831118682386949</ele>
      </trkpt>
      <trkpt lat="1.4080915354286418" lon="103.9841828904694">
        <ele>9.329062952716262</ele>
      </trkpt>
      <trkpt lat="1.4081632531254142" lon="103.98412869628484">
        <ele>9.739602956972584</ele>
      </trkpt>
      <trkpt lat="1.4082397850366302" lon="103.9840808216989">
        <ele>10.016746436323393</ele>
      </trkpt>
      <trkpt lat="1.4083163169471447" lon="103.98403294710998">
        <ele>10.219754374856915</ele>
      </trkpt>
      <trkpt lat="1.408396901441614" lon="103.98399307965562">
        <ele>10.467540750496328</ele>
      </trkpt>
      <trkpt lat="1.4084812165615799" lon="103.98396058320708">
        <ele>10.80791974469746</ele>
      </trkpt>
      <trkpt lat="1.4085655316812815" lon="103.98392808675648">
        <ele>11.477311567495997</ele>
      </trkpt>
      <trkpt lat="1.408649846800719" lon="103.98389559030383">
        <ele>12.454253148452215</ele>
      </trkpt>
      <trkpt lat="1.4087341619198916" lon="103.9838630938491">
        <ele>13.690930306110559</ele>
      </trkpt>
      <trkpt lat="1.4088184770388006" lon="103.98383059739231">
        <ele>14.92116462141378</ele>
      </trkpt>
      <trkpt lat="1.4088955745024359" lon="103.98378417395463">
        <ele>16.14361541150004</ele>
      </trkpt>
      <trkpt lat="1.4089711700527168" lon="103.98373485246671">
        <ele>17.362844616598093</ele>
      </trkpt>
      <trkpt lat="1.4090505557901516" lon="103.98369216168085">
        <ele>18.587890899294482</ele>
      </trkpt>
      <trkpt lat="1.4091326150384695" lon="103.98365450837805">
        <ele>19.468463340504798</ele>
      </trkpt>
      <trkpt lat="1.4092167160462477" lon="103.98362146869623">
        <ele>19.94003164748369</ele>
      </trkpt>
      <trkpt lat="1.4093043058117154" lon="103.9835993399909">
        <ele>19.999999999999996</ele>
      </trkpt>
      <trkpt lat="1.4093921773044535" lon="103.98357809237758">
        <ele>20.0</ele>
      </trkpt>
      <trkpt lat="1.4094800487971024" lon="103.98355684476302">
        <ele>20.0</ele>
      </trkpt>
      <trkpt lat="1.4095679202896618" lon="103.98353559714718">
        <ele>20.0</ele>
      </trkpt>
      <trkpt lat="1.4096557917821306" lon="103.98351434953008">
        <ele>20.0</ele>
      </trkpt>
      <trkpt lat="1.4097409477481375" lon="103.98348582647458">
        <ele>20.0</ele>
      </trkpt>
      <trkpt lat="1.4098144652804323" lon="103.98343526930952">
        <ele>20.0</ele>
      </trkpt>
      <trkpt lat="1.409879041100012" lon="103.98337235996395">
        <ele>20.0</ele>
      </trkpt>
      <trkpt lat="1.4099427722488536" lon="103.98330881259766">
        <ele>20.0</ele>
      </trkpt>
      <trkpt lat="1.4099865047638958" lon="103.98323015935034">
        <ele>20.0</ele>
      </trkpt>
      <trkpt lat="1.410030237276564" lon="103.98315150609989">
        <ele>20.0</ele>
      </trkpt>
      <trkpt lat="1.4100739697868576" lon="103.98307285284629">
        <ele>20.0</ele>
      </trkpt>
      <trkpt lat="1.410073975852898" lon="103.98298326445624">
        <ele>20.0</ele>
      </trkpt>
      <trkpt lat="1.4100729269943046" lon="103.98289341225059">
        <ele>20.0</ele>
      </trkpt>
      <trkpt lat="1.4100769023838537" lon="103.98280476527734">
        <ele>20.0</ele>
      </trkpt>
      <trkpt lat="1.4101202332941427" lon="103.98272599831267">
        <ele>20.0</ele>
      </trkpt>
      <trkpt lat="1.4101741795290013" lon="103.98265387773212">
        <ele>20.0</ele>
      </trkpt>
      <trkpt lat="1.4102281301658466" lon="103.98258176361887">
        <ele>20.0</ele>
      </trkpt>
      <trkpt lat="1.4102715388506495" lon="103.98250293345424">
        <ele>20.0</ele>
      </trkpt>
      <trkpt lat="1.410314947533063" lon="103.9824241032865">
        <ele>20.0</ele>
      </trkpt>
      <trkpt lat="1.4103566785695223" lon="103.98234453212751">
        <ele>20.0</ele>
      </trkpt>
      <trkpt lat="1.4103864910195167" lon="103.98225969671935">
        <ele>20.0</ele>
      </trkpt>
      <trkpt lat="1.4104163034666226" lon="103.98217486130874">
        <ele>20.0</ele>
      </trkpt>
      <trkpt lat="1.4104461159108403" lon="103.98209002589569">
        <ele>20.0</ele>
      </trkpt>
      <trkpt lat="1.410475928352169" lon="103.98200519048018">
        <ele>20.0</ele>
      </trkpt>
      <trkpt lat="1.4105035141440392" lon="103.98191982563024">
        <ele>20.0</ele>
      </trkpt>
      <trkpt lat="1.4105155811966352" lon="103.98183077087309">
        <ele>20.0</ele>
      </trkpt>
      <trkpt lat="1.410527648245899" lon="103.98174171611466">
        <ele>20.0</ele>
      </trkpt>
      <trkpt lat="1.4105397152918304" lon="103.98165266135494">
        <ele>20.0</ele>
      </trkpt>
      <trkpt lat="1.4105517823344287" lon="103.98156360659398">
        <ele>20.0</ele>
      </trkpt>
      <trkpt lat="1.4105638493736943" lon="103.98147455183172">
        <ele>20.0</ele>
      </trkpt>
      <trkpt lat="1.4105759164096265" lon="103.98138549706822">
        <ele>20.0</ele>
      </trkpt>
      <trkpt lat="1.4105879834422264" lon="103.98129644230343">
        <ele>20.0</ele>
      </trkpt>
      <trkpt lat="1.4106000504714924" lon="103.98120738753737">
        <ele>20.0</ele>
      </trkpt>
      <trkpt lat="1.4106180214662174" lon="103.98111936008326">
        <ele>20.0</ele>
      </trkpt>
      <trkpt lat="1.4106371300862897" lon="103.98103153057916">
        <ele>20.0</ele>
      </trkpt>
      <trkpt lat="1.4106562387031745" lon="103.98094370107327">
        <ele>20.0</ele>
      </trkpt>
      <trkpt lat="1.4106753473168725" lon="103.98085587156564">
        <ele>20.0</ele>
      </trkpt>
      <trkpt lat="1.410694455927383" lon="103.98076804205624">
        <ele>20.0</ele>
      </trkpt>
      <trkpt lat="1.4107114670855576" lon="103.98067994920048">
        <ele>20.0</ele>
      </trkpt>
      <trkpt lat="1.4107149473850478" lon="103.98059015748119">
        <ele>20.0</ele>
      </trkpt>
      <trkpt lat="1.4107047086003714" lon="103.98050133157467">
        <ele>20.0</ele>
      </trkpt>
      <trkpt lat="1.4106885213775184" lon="103.98041292443433">
        <ele>20.0</ele>
      </trkpt>
      <trkpt lat="1.4106660343538269" lon="103.98032650218423">
        <ele>20.0</ele>
      </trkpt>
      <trkpt lat="1.410627991239717" lon="103.98024498122253">
        <ele>20.0</ele>
      </trkpt>
      <trkpt lat="1.4105918430529252" lon="103.9801628836808">
        <ele>20.0</ele>
      </trkpt>
      <trkpt lat="1.4105774211503745" lon="103.98007417534639">
        <ele>20.0</ele>
      </trkpt>
      <trkpt lat="1.410562999244305" lon="103.97998546701272">
        <ele>20.0</ele>
      </trkpt>
      <trkpt lat="1.410548577334715" lon="103.97989675867981">
        <ele>20.0</ele>
      </trkpt>
      <trkpt lat="1.4105365290642278" lon="103.9798077479993">
        <ele>20.0</ele>
      </trkpt>
      <trkpt lat="1.410536236936158" lon="103.97971857838705">
        <ele>20.0</ele>
      </trkpt>
      <trkpt lat="1.4105510120894704" lon="103.97962992746413">
        <ele>20.0</ele>
      </trkpt>
      <trkpt lat="1.4105512377580292" lon="103.97954015333094">
        <ele>20.0</ele>
      </trkpt>
      <trkpt lat="1.4105284996626128" lon="103.97945434794026">
        <ele>19.741759871229068</ele>
      </trkpt>
      <trkpt lat="1.4104876947905145" lon="103.9793753954082">
        <ele>19.21202287824941</ele>
      </trkpt>
      <trkpt lat="1.410430351598097" lon="103.97930591049317">
        <ele>18.410789021060875</ele>
      </trkpt>
      <trkpt lat="1.4103730084032073" lon="103.97923642558149">
        <ele>17.716812749166</ele>
      </trkpt>
      <trkpt lat="1.4103411191888287" lon="103.97919778422062">
        <ele>17.369824613218498</ele>
      </trkpt>
      <trkpt lat="1.4102564440361856" lon="103.97922833408562">
        <ele>16.85982444164262</ele>
      </trkpt>
      <trkpt lat="1.4101729393005384" lon="103.9792619906259">
        <ele>16.54638104596125</ele>
      </trkpt>
      <trkpt lat="1.4100850257111675" lon="103.97928221282893">
        <ele>16.17395837511329</ele>
      </trkpt>
      <trkpt lat="1.4099951137204851" lon="103.97929140748997">
        <ele>15.719520165966165</ele>
      </trkpt>
      <trkpt lat="1.4099047557417619" lon="103.97929499588096">
        <ele>15.21674558703135</ele>
      </trkpt>
      <trkpt lat="1.409814338853938" lon="103.97929616566796">
        <ele>14.67936250496087</ele>
      </trkpt>
      <trkpt lat="1.4097241873403528" lon="103.97929037252563">
        <ele>14.11494288887119</ele>
      </trkpt>
      <trkpt lat="1.40963417028788" lon="103.97928179443278">
        <ele>13.547922706513411</ele>
      </trkpt>
      <trkpt lat="1.4095439495829776" lon="103.9792816522909">
        <ele>13.018385752251447</ele>
      </trkpt>
      <trkpt lat="1.409454135098556" lon="103.97929202460645">
        <ele>12.53070857884695</ele>
      </trkpt>
      <trkpt lat="1.4093642281194956" lon="103.97930173036171">
        <ele>12.061907154826509</ele>
      </trkpt>
      <trkpt lat="1.409274166223529" lon="103.97930973825738">
        <ele>11.582866069383217</ele>
      </trkpt>
      <trkpt lat="1.4091839475212962" lon="103.9793159651509">
        <ele>11.089778636625384</ele>
      </trkpt>
      <trkpt lat="1.409093614438796" lon="103.97931987306737">
        <ele>10.594214781695856</ele>
      </trkpt>
      <trkpt lat="1.4090034536555376" lon="103.97932687938739">
        <ele>10.115790874546919</ele>
      </trkpt>
      <trkpt lat="1.4089140761371997" lon="103.97933990251369">
        <ele>9.695842239160053</ele>
      </trkpt>
      <trkpt lat="1.4088278791198974" lon="103.97936589877494">
        <ele>9.354641633662027</ele>
      </trkpt>
      <trkpt lat="1.4087447815108856" lon="103.97940135653923">
        <ele>8.933033041507533</ele>
      </trkpt>
      <trkpt lat="1.4086690294045239" lon="103.97944827129841">
        <ele>8.37430650153503</ele>
      </trkpt>
      <trkpt lat="1.4086015659230715" lon="103.97950811406822">
        <ele>7.607217616711638</ele>
      </trkpt>
      <trkpt lat="1.408524053617664" lon="103.97955364146338">
        <ele>6.790929395491632</ele>
      </trkpt>
      <trkpt lat="1.4084500086650553" lon="103.97960488771886">
        <ele>5.980242762478305</ele>
      </trkpt>
      <trkpt lat="1.4083838661409749" lon="103.97966616814145">
        <ele>5.206371038654449</ele>
      </trkpt>
      <trkpt lat="1.408304370542358" lon="103.97970823855412">
        <ele>4.7511881131607545</ele>
      </trkpt>
      <trkpt lat="1.40822328971639" lon="103.97974803988986">
        <ele>4.419878334447788</ele>
      </trkpt>
      <trkpt lat="1.408142478531227" lon="103.97978830711745">
        <ele>4.144363216692459</ele>
      </trkpt>
      <trkpt lat="1.4080748447302116" lon="103.97984690331013">
        <ele>3.736874399626368</ele>
      </trkpt>
      <trkpt lat="1.4080236770430525" lon="103.97992099578316">
        <ele>3.356177968592253</ele>
      </trkpt>
      <trkpt lat="1.407972169024897" lon="103.97999483132088">
        <ele>3.0799638549435215</ele>
      </trkpt>
      <trkpt lat="1.407920217703644" lon="103.98006834469749">
        <ele>2.818604399282934</ele>
      </trkpt>
      <trkpt lat="1.407871499965185" lon="103.98014405012192">
        <ele>2.576935418629654</ele>
      </trkpt>
      <trkpt lat="1.4078232384384766" lon="103.9802200260509">
        <ele>2.426841660869133</ele>
      </trkpt>
      <trkpt lat="1.4077801548025108" lon="103.98029897680217">
        <ele>2.6468749921519374</ele>
      </trkpt>
      <trkpt lat="1.4077518595046132" lon="103.98038386073162">
        <ele>3.2180372273679687</ele>
      </trkpt>
      <trkpt lat="1.4077417188635786" lon="103.98047315221089">
        <ele>4.007088328503224</ele>
      </trkpt>
      <trkpt lat="1.4077217334891738" lon="103.98056059622715">
        <ele>4.675035695784445</ele>
      </trkpt>
      <trkpt lat="1.4076953623482724" lon="103.9806465224881">
        <ele>5.233099974523477</ele>
      </trkpt>
      <trkpt lat="1.4076685618130313" lon="103.98073171759049">
        <ele>5.629914916774699</ele>
      </trkpt>
      <trkpt lat="1.407625085756619" lon="103.98081047778884">
        <ele>6.0294149520131795</ele>
      </trkpt>
      <trkpt lat="1.407599479151965" lon="103.98089599623636">
        <ele>6.58134892777057</ele>
      </trkpt>
      <trkpt lat="1.4075986101139457" lon="103.98098564607933">
        <ele>7.42948729494632</ele>
      </trkpt>
      <trkpt lat="1.4076065875519888" lon="103.98107512780737">
        <ele>8.310827749520605</ele>
      </trkpt>
      <trkpt lat="1.40761651513918" lon="103.98116442422732">
        <ele>8.930519456341719</ele>
      </trkpt>
      <trkpt lat="1.4076217125755386" lon="103.98125410797734">
        <ele>9.215925777737375</ele>
      </trkpt>
      <trkpt lat="1.4076205895188507" lon="103.98134371576246">
        <ele>9.217133124069319</ele>
      </trkpt>
      <trkpt lat="1.4076067072278642" lon="103.98143247191008">
        <ele>9.082968445897293</ele>
      </trkpt>
      <trkpt lat="1.4075926400762306" lon="103.98152103142836">
        <ele>8.797904342799749</ele>
      </trkpt>
      <trkpt lat="1.4075988411047864" lon="103.98161055700207">
        <ele>8.401800682808856</ele>
      </trkpt>
      <trkpt lat="1.4076100936530012" lon="103.98169971375252">
        <ele>7.909846477205131</ele>
      </trkpt>
      <trkpt lat="1.4076235382298952" lon="103.98178856600188">
        <ele>7.3685221634480245</ele>
      </trkpt>
      <trkpt lat="1.4076348600298287" lon="103.98187770617821">
        <ele>6.830518405495016</ele>
      </trkpt>
      <trkpt lat="1.4076466284546276" lon="103.98196676896191">
        <ele>6.332208867932589</ele>
      </trkpt>
      <trkpt lat="1.4076662220419185" lon="103.98205446029617">
        <ele>5.9162516253701165</ele>
      </trkpt>
      <trkpt lat="1.4076902182660775" lon="103.98214101850118">
        <ele>5.618970836284377</ele>
      </trkpt>
      <trkpt lat="1.4077212311296066" lon="103.9822253946791">
        <ele>5.392773654513856</ele>
      </trkpt>
      <trkpt lat="1.4077547470199823" lon="103.98230885416152">
        <ele>5.312627531013824</ele>
      </trkpt>
      <trkpt lat="1.4077950363708371" lon="103.98238928304468">
        <ele>5.79956380168121</ele>
      </trkpt>
      <trkpt lat="1.4078378552049562" lon="103.98246841106017">
        <ele>6.352897200149168</ele>
      </trkpt>
      <trkpt lat="1.4078304929393486" lon="103.98250333048178">
        <ele>6.8596734365120575</ele>
      </trkpt>
    </trkseg>
  </trk>
</gpx>