{
"type": "FeatureCollection",
"name": "point_to_point_05000m_034",
"crs": { "type": "name", "properties": { "name": "urn:ogc:def:crs:OGC:1.3:CRS84" } },
"features": [
{ "type": "Feature", "properties": { "route_id": "point_to_point_05000m_034", "budget_km": 5.0, "mode": "point_to_point", "rank": 34, "distance_m": 2166.8973060052735, "ascent_m": 33.418612015276722, "descent_m": 31.304566114437222, "gain_density_m_per_km": 15.422333085495742, "source_confidence": 0.65 }, "geometry": { "type": "LineString", "coordinates": [ [ 103.674940214284206, 1.424390710370069 ], [ 103.6750549, 1.4244308 ], [ 103.6751604, 1.4244362 ], [ 103.6753161, 1.4244374 ], [ 103.6755434, 1.4244648 ], [ 103.6757392, 1.4245234 ], [ 103.6763035, 1.4245421 ], [ 103.6764081, 1.4245581 ], [ 103.6765409, 1.4246319 ], [ 103.6765972, 1.4246949 ], [ 103.6773522, 1.4262796 ], [ 103.677415300000021, 1.4263144 ], [ 103.677489, 1.4263064 ], [ 103.6779517, 1.4261549 ], [ 103.678067, 1.4261576 ], [ 103.678185, 1.4262085 ], [ 103.6782414, 1.4262729 ], [ 103.6782521, 1.4263641 ], [ 103.6782332, 1.4264744 ], [ 103.6780421, 1.4270476 ], [ 103.6780778, 1.4272301 ], [ 103.6781904, 1.4274178 ], [ 103.6783755, 1.4275814 ], [ 103.6797005, 1.4282759 ], [ 103.6798426, 1.4283215 ], [ 103.6803308, 1.4283563 ], [ 103.68045690000001, 1.4283697 ], [ 103.6805856, 1.4284153 ], [ 103.6806262, 1.4284392 ], [ 103.6832006, 1.4299539 ], [ 103.6833939, 1.4299786 ], [ 103.6834905, 1.4299678 ], [ 103.6835843, 1.4299517 ], [ 103.6836186, 1.4299315 ], [ 103.6836822, 1.4298941 ], [ 103.6837721, 1.4297855 ], [ 103.6840752, 1.4294262 ], [ 103.6842093, 1.4293243 ], [ 103.6843783, 1.4292733 ], [ 103.6845151, 1.4292733 ], [ 103.6851172, 1.4294155 ], [ 103.6853425, 1.4294932 ], [ 103.6855128, 1.4295817 ], [ 103.685781100000014, 1.4296273 ], [ 103.6859903, 1.4296219 ], [ 103.6860949, 1.4295737 ], [ 103.6861619, 1.429512 ], [ 103.6862411, 1.4293748 ], [ 103.6863685, 1.429095 ], [ 103.6864369, 1.4290092 ], [ 103.6865535, 1.4289422 ], [ 103.6873949, 1.4285045 ], [ 103.6875674, 1.4284448 ], [ 103.6876962, 1.428426 ], [ 103.6878544, 1.4284528 ], [ 103.6887115, 1.4289007 ], [ 103.690190083638925, 1.429833797077555 ] ] } }
]
}
