<?xml version="1.0" encoding="UTF-8"?>
<gpx xmlns="http://www.topografix.com/GPX/1/1" xmlns:xsi="http://www.w3.org/2001/XMLSchema-instance" xsi:schemaLocation="http://www.topografix.com/GPX/1/1 http://www.topografix.com/GPX/1/1/gpx.xsd" version="1.1" creator="gpx.py -- https://github.com/tkrajina/gpxpy">
  <trk>
    <name>point_to_point_05000m_033</name>
    <trkseg>
      <trkpt lat="1.42845815837673" lon="104.04235655690914">
        <ele>4.322791252236552</ele>
      </trkpt>
      <trkpt lat="1.4284021883304334" lon="104.04228597512866">
        <ele>4.250993319226994</ele>
      </trkpt>
      <trkpt lat="1.4283462182814222" lon="104.04221539335151">
        <ele>4.1073974532078505</ele>
      </trkpt>
      <trkpt lat="1.4282902482296962" lon="104.04214481157763">
        <ele>3.963801587188805</ele>
      </trkpt>
      <trkpt lat="1.4282342781752562" lon="104.04207422980706">
        <ele>3.820205721169661</ele>
      </trkpt>
      <trkpt lat="1.4281783081181023" lon="104.04200364803977">
        <ele>3.6766098551505166</ele>
      </trkpt>
      <trkpt lat="1.4281223380582344" lon="104.04193306627577">
        <ele>3.5330139891313728</ele>
      </trkpt>
      <trkpt lat="1.4280663679956536" lon="104.04186248451508">
        <ele>3.373368174613663</ele>
      </trkpt>
      <trkpt lat="1.4280103979303593" lon="104.04179190275768">
        <ele>3.1719280943415775</ele>
      </trkpt>
      <trkpt lat="1.4279544278623517" lon="104.04172132100356">
        <ele>2.9393722274802307</ele>
      </trkpt>
      <trkpt lat="1.427898457791632" lon="104.04165073925274">
        <ele>2.7008921833624355</ele>
      </trkpt>
      <trkpt lat="1.4278379595602009" lon="104.04158397941275">
        <ele>2.4833417912888325</ele>
      </trkpt>
      <trkpt lat="1.42777691174936" lon="104.04151768343637">
        <ele>2.276042572094315</ele>
      </trkpt>
      <trkpt lat="1.427715863936046" lon="104.04145138746343">
        <ele>2.0698528649446577</ele>
      </trkpt>
      <trkpt lat="1.4276548161202602" lon="104.04138509149395">
        <ele>1.8655851655578257</ele>
      </trkpt>
      <trkpt lat="1.4275928936885933" lon="104.0413196296536">
        <ele>1.668166430139424</ele>
      </trkpt>
      <trkpt lat="1.427528729233459" lon="104.04125630604992">
        <ele>1.4775966586894527</ele>
      </trkpt>
      <trkpt lat="1.4274645647760162" lon="104.04119298244976">
        <ele>1.2919538434450861</ele>
      </trkpt>
      <trkpt lat="1.4274004003162648" lon="104.0411296588531">
        <ele>1.1028316740270638</ele>
      </trkpt>
      <trkpt lat="1.4273362358542059" lon="104.04106633525996">
        <ele>1.038619341465268</ele>
      </trkpt>
      <trkpt lat="1.4272720713898386" lon="104.04100301167033">
        <ele>1.153349404129877</ele>
      </trkpt>
      <trkpt lat="1.427207573863763" lon="104.04094004038541">
        <ele>1.4236152178816248</ele>
      </trkpt>
      <trkpt lat="1.4271399586740725" lon="104.04088036688171">
        <ele>1.655809088843874</ele>
      </trkpt>
      <trkpt lat="1.427072343482271" lon="104.04082069338156">
        <ele>1.7958984586465652</ele>
      </trkpt>
      <trkpt lat="1.4270047282883587" lon="104.04076101988495">
        <ele>1.8707693256025069</ele>
      </trkpt>
      <trkpt lat="1.4269371130923356" lon="104.0407013463919">
        <ele>1.94564019255861</ele>
      </trkpt>
      <trkpt lat="1.4268694978942023" lon="104.0406416729024">
        <ele>2.020511059514552</ele>
      </trkpt>
      <trkpt lat="1.4268018826939592" lon="104.04058199941642">
        <ele>2.0541127404005146</ele>
      </trkpt>
      <trkpt lat="1.426743110006389" lon="104.0405140145975">
        <ele>2.0344950643969058</ele>
      </trkpt>
      <trkpt lat="1.4266868978116134" lon="104.0404436230979">
        <ele>1.96165803150404</ele>
      </trkpt>
      <trkpt lat="1.426630685614141" lon="104.04037323160158">
        <ele>1.8917836680230298</ele>
      </trkpt>
      <trkpt lat="1.4265744734139718" lon="104.04030284010858">
        <ele>1.8609175446581165</ele>
      </trkpt>
      <trkpt lat="1.4265182612111063" lon="104.04023244861887">
        <ele>1.8690596614092712</ele>
      </trkpt>
      <trkpt lat="1.4264620490055449" lon="104.04016205713245">
        <ele>1.9012971780450816</ele>
      </trkpt>
      <trkpt lat="1.4264058367972874" lon="104.04009166564934">
        <ele>1.9335346946811889</ele>
      </trkpt>
      <trkpt lat="1.4263496245863339" lon="104.04002127416953">
        <ele>1.9657722113171694</ele>
      </trkpt>
      <trkpt lat="1.4262934123726856" lon="104.03995088269302">
        <ele>1.998009727953276</ele>
      </trkpt>
      <trkpt lat="1.4262372001563421" lon="104.03988049121982">
        <ele>2.0302472445890865</ele>
      </trkpt>
      <trkpt lat="1.4261809879373033" lon="104.0398100997499">
        <ele>2.062484761225067</ele>
      </trkpt>
      <trkpt lat="1.4261247757155704" lon="104.03973970828328">
        <ele>2.130007186307042</ele>
      </trkpt>
      <trkpt lat="1.4260608700636865" lon="104.03967622813907">
        <ele>2.241407373049461</ele>
      </trkpt>
      <trkpt lat="1.4259960320933394" lon="104.03961358553593">
        <ele>2.3966853214522774</ele>
      </trkpt>
      <trkpt lat="1.4259311941207269" lon="104.03955094293632">
        <ele>2.560556123069416</ele>
      </trkpt>
      <trkpt lat="1.425866356145849" lon="104.03948830034022">
        <ele>2.724426924686678</ele>
      </trkpt>
      <trkpt lat="1.425801518168706" lon="104.03942565774764">
        <ele>2.8643215644433933</ele>
      </trkpt>
      <trkpt lat="1.4257423193917325" lon="104.03935810896247">
        <ele>2.9578386779093258</ele>
      </trkpt>
      <trkpt lat="1.4256883894215724" lon="104.03928597623224">
        <ele>3.004978265084178</ele>
      </trkpt>
      <trkpt lat="1.4256344594486214" lon="104.03921384350524">
        <ele>3.004048966006788</ele>
      </trkpt>
      <trkpt lat="1.4255805294728807" lon="104.03914171078142">
        <ele>2.8790342737926937</ele>
      </trkpt>
      <trkpt lat="1.4255265994943505" lon="104.03906957806083">
        <ele>2.6299341884419847</ele>
      </trkpt>
      <trkpt lat="1.4254726695130298" lon="104.03899744534345">
        <ele>2.3159393172099736</ele>
      </trkpt>
      <trkpt lat="1.4254178451113162" lon="104.03892602347064">
        <ele>2.202105406377718</ele>
      </trkpt>
      <trkpt lat="1.4253588697739819" lon="104.03885790056898">
        <ele>2.288432455945428</ele>
      </trkpt>
      <trkpt lat="1.4252998944340836" lon="104.0387897776707">
        <ele>2.541397380479374</ele>
      </trkpt>
      <trkpt lat="1.4252409190916207" lon="104.03872165477583">
        <ele>2.794362305013321</ele>
      </trkpt>
      <trkpt lat="1.425181943746595" lon="104.03865353188434">
        <ele>3.0735438702352162</ele>
      </trkpt>
      <trkpt lat="1.4251119900242557" lon="104.03859803892703">
        <ele>3.4035536637828483</ele>
      </trkpt>
      <trkpt lat="1.4250322272651454" lon="104.03855668744043">
        <ele>3.808949099875575</ele>
      </trkpt>
      <trkpt lat="1.4249445622790315" lon="104.03853810916071">
        <ele>4.272506626003046</ele>
      </trkpt>
      <trkpt lat="1.4248544870598199" lon="104.03853009286482">
        <ele>4.769614654527446</ele>
      </trkpt>
      <trkpt lat="1.4247644118404184" lon="104.03852207657008">
        <ele>5.263376728680008</ele>
      </trkpt>
      <trkpt lat="1.424677751766512" lon="104.03850006565948">
        <ele>5.697177304441687</ele>
      </trkpt>
      <trkpt lat="1.4245939849686544" lon="104.03846619865368">
        <ele>6.007537468898761</ele>
      </trkpt>
      <trkpt lat="1.4245317475724821" lon="104.03840248429839">
        <ele>6.169072271138465</ele>
      </trkpt>
      <trkpt lat="1.4244857252727852" lon="104.0383259768904">
        <ele>6.21396821607392</ele>
      </trkpt>
      <trkpt lat="1.424446704909591" lon="104.03824491306798">
        <ele>6.171812815899535</ele>
      </trkpt>
      <trkpt lat="1.4244252617681534" lon="104.03815791747564">
        <ele>6.075113464914626</ele>
      </trkpt>
      <trkpt lat="1.4244065241276596" lon="104.03807000885989">
        <ele>5.935555967002226</ele>
      </trkpt>
      <trkpt lat="1.4243899368873922" lon="104.03798182355585">
        <ele>5.75933770520955</ele>
      </trkpt>
      <trkpt lat="1.4243855206434595" lon="104.03789207222786">
        <ele>5.54021408933463</ele>
      </trkpt>
      <trkpt lat="1.4243811043959598" lon="104.03780232089974">
        <ele>5.28193526642273</ele>
      </trkpt>
      <trkpt lat="1.4243766881448927" lon="104.03771256957143">
        <ele>5.028319337535634</ele>
      </trkpt>
      <trkpt lat="1.4243625059598817" lon="104.03762435857229">
        <ele>4.80649653593606</ele>
      </trkpt>
      <trkpt lat="1.4243387330052515" lon="104.03753766027569">
        <ele>4.640987680656697</ele>
      </trkpt>
      <trkpt lat="1.4243020050575967" lon="104.03745638831946">
        <ele>4.5329652575037285</ele>
      </trkpt>
      <trkpt lat="1.42425613887726" lon="104.03737894401313">
        <ele>4.466760222579352</ele>
      </trkpt>
      <trkpt lat="1.4242102726938417" lon="104.0373014997096">
        <ele>4.452365500374898</ele>
      </trkpt>
      <trkpt lat="1.4241490062176567" lon="104.03723553439038">
        <ele>4.474118016118541</ele>
      </trkpt>
      <trkpt lat="1.424087010861657" lon="104.03717011236112">
        <ele>4.532017769810188</ele>
      </trkpt>
      <trkpt lat="1.4240250155032483" lon="104.03710469033535">
        <ele>4.561944017768411</ele>
      </trkpt>
      <trkpt lat="1.4239630201424311" lon="104.03703926831304">
        <ele>4.55498508326511</ele>
      </trkpt>
      <trkpt lat="1.4239029262361704" lon="104.03697229770712">
        <ele>4.493794976391928</ele>
      </trkpt>
      <trkpt lat="1.423850534079781" lon="104.03689905463317">
        <ele>4.407980697306264</ele>
      </trkpt>
      <trkpt lat="1.423798141920547" lon="104.03682581156235">
        <ele>4.304820428312241</ele>
      </trkpt>
      <trkpt lat="1.423745749758469" lon="104.03675256849468">
        <ele>4.2320534510358865</ele>
      </trkpt>
      <trkpt lat="1.423693357593548" lon="104.03667932543013">
        <ele>4.219212587629161</ele>
      </trkpt>
      <trkpt lat="1.42365047541828" lon="104.03661937712188">
        <ele>4.227988801784631</ele>
      </trkpt>
      <trkpt lat="1.4235608790749619" lon="104.03663159221222">
        <ele>4.660192070970414</ele>
      </trkpt>
      <trkpt lat="1.4234712827316454" lon="104.03664380730208">
        <ele>5.056802021526997</ele>
      </trkpt>
      <trkpt lat="1.4233836607145458" lon="104.03666564656159">
        <ele>5.456625639587741</ele>
      </trkpt>
      <trkpt lat="1.423296400706823" lon="104.03668925049287">
        <ele>5.859662925152861</ele>
      </trkpt>
      <trkpt lat="1.4232091406990472" lon="104.0367128544228">
        <ele>6.263198160543822</ele>
      </trkpt>
      <trkpt lat="1.4231218806912191" lon="104.0367364583514">
        <ele>6.666733395934782</ele>
      </trkpt>
      <trkpt lat="1.4230346206833389" lon="104.03676006227866">
        <ele>7.0702686313257415</ele>
      </trkpt>
      <trkpt lat="1.4229473606754057" lon="104.03678366620458">
        <ele>7.4738038667167</ele>
      </trkpt>
      <trkpt lat="1.4228601006674204" lon="104.03680727012916">
        <ele>7.877339102107752</ele>
      </trkpt>
      <trkpt lat="1.422772840659383" lon="104.0368308740524">
        <ele>8.280874337498675</ele>
      </trkpt>
      <trkpt lat="1.4226855806512932" lon="104.0368544779743">
        <ele>8.684409572889633</ele>
      </trkpt>
      <trkpt lat="1.422598320643151" lon="104.03687808189486">
        <ele>9.087944808280595</ele>
      </trkpt>
      <trkpt lat="1.4225110606349562" lon="104.03690168581407">
        <ele>9.491480043671553</ele>
      </trkpt>
      <trkpt lat="1.4224238006267098" lon="104.03692528973197">
        <ele>9.895015279062513</ele>
      </trkpt>
      <trkpt lat="1.4223365406184112" lon="104.0369488936485">
        <ele>10.298550514453472</ele>
      </trkpt>
      <trkpt lat="1.4222492806100604" lon="104.0369724975637">
        <ele>10.698658034864172</ele>
      </trkpt>
      <trkpt lat="1.4221602101061928" lon="104.03698562259576">
        <ele>11.092919505393363</ele>
      </trkpt>
      <trkpt lat="1.4220700699122364" lon="104.03699186296922">
        <ele>11.458262348288875</ele>
      </trkpt>
      <trkpt lat="1.4219834516989358" lon="104.03696603045992">
        <ele>11.79272654330775</ele>
      </trkpt>
      <trkpt lat="1.4218988266717685" lon="104.03693557510297">
        <ele>12.247332995670765</ele>
      </trkpt>
      <trkpt lat="1.4218202510420686" lon="104.03689108922123">
        <ele>12.851005735629434</ele>
      </trkpt>
      <trkpt lat="1.421741675411017" lon="104.03684660334275">
        <ele>13.609132498407208</ele>
      </trkpt>
      <trkpt lat="1.4216630997786126" lon="104.03680211746754">
        <ele>14.373110713684527</ele>
      </trkpt>
      <trkpt lat="1.4215845241448561" lon="104.03675763159559">
        <ele>15.11682050029735</ele>
      </trkpt>
      <trkpt lat="1.4215122023713207" lon="104.03671668637222">
        <ele>15.488675393603762</ele>
      </trkpt>
      <trkpt lat="1.421433625494854" lon="104.03667220266915">
        <ele>16.604238672763973</ele>
      </trkpt>
      <trkpt lat="1.4213550486170354" lon="104.03662771896934">
        <ele>17.368215487282423</ele>
      </trkpt>
      <trkpt lat="1.4212764717378656" lon="104.03658323527281">
        <ele>18.132192301800924</ele>
      </trkpt>
      <trkpt lat="1.4211978948573445" lon="104.03653875157953">
        <ele>18.896169116319268</ele>
      </trkpt>
      <trkpt lat="1.4211193179754726" lon="104.03649426788952">
        <ele>19.518771682385644</ele>
      </trkpt>
      <trkpt lat="1.4210407410922496" lon="104.03644978420277">
        <ele>19.886715310279204</ele>
      </trkpt>
      <trkpt lat="1.4209621642076762" lon="104.03640530051929">
        <ele>20.0</ele>
      </trkpt>
      <trkpt lat="1.4208835873217514" lon="104.03636081683906">
        <ele>20.0</ele>
      </trkpt>
      <trkpt lat="1.4208050104344763" lon="104.0363163331621">
        <ele>20.0</ele>
      </trkpt>
      <trkpt lat="1.4207264335458507" lon="104.0362718494884">
        <ele>20.0</ele>
      </trkpt>
      <trkpt lat="1.4206478566558753" lon="104.03622736581796">
        <ele>20.0</ele>
      </trkpt>
      <trkpt lat="1.42056927976455" lon="104.0361828821508">
        <ele>20.0</ele>
      </trkpt>
      <trkpt lat="1.420490702871874" lon="104.03613839848687">
        <ele>20.0</ele>
      </trkpt>
      <trkpt lat="1.4204121259778488" lon="104.03609391482622">
        <ele>20.0</ele>
      </trkpt>
      <trkpt lat="1.4203335490824736" lon="104.03604943116883">
        <ele>20.0</ele>
      </trkpt>
      <trkpt lat="1.4202549721857496" lon="104.0360049475147">
        <ele>20.0</ele>
      </trkpt>
      <trkpt lat="1.4201763952876754" lon="104.03596046386383">
        <ele>20.0</ele>
      </trkpt>
      <trkpt lat="1.420104609616289" lon="104.0359059278549">
        <ele>20.0</ele>
      </trkpt>
      <trkpt lat="1.4200334154176135" lon="104.03585051635004">
        <ele>20.0</ele>
      </trkpt>
      <trkpt lat="1.4199884145022659" lon="104.03577352188535">
        <ele>20.0</ele>
      </trkpt>
      <trkpt lat="1.4199498842045122" lon="104.0356923640563">
        <ele>20.0</ele>
      </trkpt>
      <trkpt lat="1.4199173975122432" lon="104.03560850359665">
        <ele>20.0</ele>
      </trkpt>
      <trkpt lat="1.4198849108165656" lon="104.03552464313896">
        <ele>20.0</ele>
      </trkpt>
      <trkpt lat="1.419852424117481" lon="104.03544078268324">
        <ele>20.0</ele>
      </trkpt>
      <trkpt lat="1.4198199374149878" lon="104.0353569222295">
        <ele>20.0</ele>
      </trkpt>
      <trkpt lat="1.4197874507090875" lon="104.03527306177773">
        <ele>20.0</ele>
      </trkpt>
      <trkpt lat="1.4197549639997804" lon="104.03518920132791">
        <ele>20.0</ele>
      </trkpt>
      <trkpt lat="1.4197224772870658" lon="104.03510534088008">
        <ele>20.0</ele>
      </trkpt>
      <trkpt lat="1.4196899905709446" lon="104.03502148043421">
        <ele>20.0</ele>
      </trkpt>
      <trkpt lat="1.419657503851417" lon="104.03493761999032">
        <ele>20.0</ele>
      </trkpt>
      <trkpt lat="1.4196250171284832" lon="104.0348537595484">
        <ele>20.0</ele>
      </trkpt>
      <trkpt lat="1.4195925304021426" lon="104.03476989910844">
        <ele>20.0</ele>
      </trkpt>
      <trkpt lat="1.4195523069078675" lon="104.03468981131671">
        <ele>20.0</ele>
      </trkpt>
      <trkpt lat="1.4195054218324534" lon="104.03461297188515">
        <ele>20.0</ele>
      </trkpt>
      <trkpt lat="1.419458536754007" lon="104.03453613245647">
        <ele>20.0</ele>
      </trkpt>
      <trkpt lat="1.4194032447771796" lon="104.03446515463219">
        <ele>20.0</ele>
      </trkpt>
      <trkpt lat="1.4193464682370893" lon="104.03439521190228">
        <ele>20.0</ele>
      </trkpt>
      <trkpt lat="1.4192896916943534" lon="104.0343252691757">
        <ele>20.0</ele>
      </trkpt>
      <trkpt lat="1.4192329151489718" lon="104.03425532645241">
        <ele>20.0</ele>
      </trkpt>
      <trkpt lat="1.4191761386009445" lon="104.03418538373244">
        <ele>20.0</ele>
      </trkpt>
      <trkpt lat="1.419119362050273" lon="104.03411544101576">
        <ele>20.0</ele>
      </trkpt>
      <trkpt lat="1.4190625854969556" lon="104.03404549830239">
        <ele>20.0</ele>
      </trkpt>
      <trkpt lat="1.4190058089409945" lon="104.03397555559233">
        <ele>20.0</ele>
      </trkpt>
      <trkpt lat="1.4189490323823886" lon="104.03390561288558">
        <ele>20.0</ele>
      </trkpt>
      <trkpt lat="1.4188922558211392" lon="104.03383567018213">
        <ele>20.0</ele>
      </trkpt>
      <trkpt lat="1.4188354792572453" lon="104.03376572748198">
        <ele>19.939280326326244</ele>
      </trkpt>
      <trkpt lat="1.418778702690708" lon="104.03369578478514">
        <ele>19.740600505826354</ele>
      </trkpt>
      <trkpt lat="1.4187219261215276" lon="104.03362584209161">
        <ele>19.403960538500368</ele>
      </trkpt>
      <trkpt lat="1.418665149549704" lon="104.03355589940138">
        <ele>18.990080098021995</ele>
      </trkpt>
      <trkpt lat="1.4186083729752377" lon="104.03348595671446">
        <ele>18.576199657543658</ele>
      </trkpt>
      <trkpt lat="1.4185515963981288" lon="104.03341601403082">
        <ele>18.16231921706529</ele>
      </trkpt>
      <trkpt lat="1.4184948198183776" lon="104.03334607135052">
        <ele>17.748438776586955</ele>
      </trkpt>
      <trkpt lat="1.4184380432359847" lon="104.0332761286735">
        <ele>17.33407679603658</ele>
      </trkpt>
      <trkpt lat="1.4183818700917814" lon="104.0332057070529">
        <ele>16.91918117477343</ele>
      </trkpt>
      <trkpt lat="1.4183257622347074" lon="104.03313523361551">
        <ele>16.585224410977176</ele>
      </trkpt>
      <trkpt lat="1.4182641482789744" lon="104.03306995461263">
        <ele>16.413909630471434</ele>
      </trkpt>
      <trkpt lat="1.418196224472085" lon="104.03301062830208">
        <ele>16.405288933897126</ele>
      </trkpt>
      <trkpt lat="1.4181283006631324" lon="104.03295130199504">
        <ele>16.497297450865762</ele>
      </trkpt>
      <trkpt lat="1.4180536589986847" lon="104.03290122293656">
        <ele>16.618585130023092</ele>
      </trkpt>
      <trkpt lat="1.4179756003504105" lon="104.03285584741852">
        <ele>16.769151971368945</ele>
      </trkpt>
      <trkpt lat="1.417897541700755" lon="104.03281047190374">
        <ele>16.8905232682059</ele>
      </trkpt>
      <trkpt lat="1.4178194830497193" lon="104.03276509639224">
        <ele>16.831593871837182</ele>
      </trkpt>
      <trkpt lat="1.4177414243973026" lon="104.03271972088403">
        <ele>16.546246280011694</ele>
      </trkpt>
      <trkpt lat="1.4176633657435054" lon="104.03267434537909">
        <ele>16.064744571161196</ele>
      </trkpt>
      <trkpt lat="1.417585307088328" lon="104.03262896987744">
        <ele>15.516377232884535</ele>
      </trkpt>
      <trkpt lat="1.4175072484317701" lon="104.03258359437908">
        <ele>14.94726176743279</ele>
      </trkpt>
      <trkpt lat="1.4174291897738327" lon="104.032538218884">
        <ele>14.379362150581736</ele>
      </trkpt>
      <trkpt lat="1.4173511311145153" lon="104.03249284339218">
        <ele>13.895566862669318</ele>
      </trkpt>
      <trkpt lat="1.4172730724538176" lon="104.03244746790365">
        <ele>13.495875903695536</ele>
      </trkpt>
      <trkpt lat="1.417195013791741" lon="104.03240209241841">
        <ele>13.167128298359081</ele>
      </trkpt>
      <trkpt lat="1.4171169551282843" lon="104.03235671693643">
        <ele>12.83838069302247</ele>
      </trkpt>
      <trkpt lat="1.4170388964634486" lon="104.03231134145774">
        <ele>12.509633087685858</ele>
      </trkpt>
      <trkpt lat="1.4169608377972336" lon="104.03226596598233">
        <ele>12.180885482349245</ele>
      </trkpt>
      <trkpt lat="1.4168827791296401" lon="104.0322205905102">
        <ele>11.817250082471865</ele>
      </trkpt>
      <trkpt lat="1.416804720460667" lon="104.03217521504135">
        <ele>11.398707098330794</ele>
      </trkpt>
      <trkpt lat="1.4167266617903158" lon="104.03212983957577">
        <ele>10.925256529926036</ele>
      </trkpt>
      <trkpt lat="1.4166486031185859" lon="104.03208446411348">
        <ele>10.431786171798345</ele>
      </trkpt>
      <trkpt lat="1.4165705444454775" lon="104.03203908865446">
        <ele>9.93831581367066</ele>
      </trkpt>
      <trkpt lat="1.416492485770991" lon="104.03199371319873">
        <ele>9.444845455542923</ele>
      </trkpt>
      <trkpt lat="1.4164144270951267" lon="104.03194833774627">
        <ele>8.939148107709869</ele>
      </trkpt>
      <trkpt lat="1.4163363684178838" lon="104.03190296229708">
        <ele>8.402535299849948</ele>
      </trkpt>
      <trkpt lat="1.4162583097392634" lon="104.03185758685117">
        <ele>7.835007031963209</ele>
      </trkpt>
      <trkpt lat="1.416180251059265" lon="104.03181221140855">
        <ele>7.3199442423837775</ele>
      </trkpt>
      <trkpt lat="1.4161306162512135" lon="104.03178335874003">
        <ele>7.062412847594063</ele>
      </trkpt>
      <trkpt lat="1.416058365381166" lon="104.03172931445712">
        <ele>6.353772581347858</ele>
      </trkpt>
      <trkpt lat="1.4159861145093298" lon="104.0316752701777">
        <ele>5.856948017608019</ele>
      </trkpt>
      <trkpt lat="1.4159138636357063" lon="104.03162122590176">
        <ele>5.385561710213563</ele>
      </trkpt>
      <trkpt lat="1.4158416127602955" lon="104.03156718162931">
        <ele>4.914175402819105</ele>
      </trkpt>
      <trkpt lat="1.4157693618830967" lon="104.03151313736034">
        <ele>4.442789095424531</ele>
      </trkpt>
      <trkpt lat="1.4156971110041114" lon="104.03145909309485">
        <ele>3.9727701183620225</ele>
      </trkpt>
      <trkpt lat="1.4156247218000786" lon="104.03140567357696">
        <ele>3.549269175683959</ele>
      </trkpt>
      <trkpt lat="1.4155399157791897" lon="104.03137446429538">
        <ele>3.2059010121160862</ele>
      </trkpt>
      <trkpt lat="1.415451100052539" lon="104.03135873651541">
        <ele>2.980112660071223</ele>
      </trkpt>
      <trkpt lat="1.4153620994927534" lon="104.03135998989134">
        <ele>2.87335381293642</ele>
      </trkpt>
      <trkpt lat="1.4152736114663518" lon="104.0313785391331">
        <ele>2.9236889518114295</ele>
      </trkpt>
      <trkpt lat="1.4151851234399322" lon="104.0313970883739">
        <ele>3.0923037139510434</ele>
      </trkpt>
      <trkpt lat="1.4150966354134948" lon="104.03141563761373">
        <ele>3.33259770191581</ele>
      </trkpt>
      <trkpt lat="1.41500814738704" lon="104.03143418685262">
        <ele>3.5755629210102584</ele>
      </trkpt>
      <trkpt lat="1.4149196593605675" lon="104.03145273609056">
        <ele>4.026751880738506</ele>
      </trkpt>
      <trkpt lat="1.4148311713340778" lon="104.03147128532753">
        <ele>4.686164581100772</ele>
      </trkpt>
      <trkpt lat="1.4147426833075698" lon="104.03148983456354">
        <ele>5.3644676058407015</ele>
      </trkpt>
      <trkpt lat="1.4146541952810447" lon="104.03150838379861">
        <ele>5.840406954916554</ele>
      </trkpt>
      <trkpt lat="1.4145657072545017" lon="104.0315269330327">
        <ele>6.113982628328152</ele>
      </trkpt>
      <trkpt lat="1.4144772192279416" lon="104.03154548226584">
        <ele>6.371856811201956</ele>
      </trkpt>
      <trkpt lat="1.4143887312013639" lon="104.03156403149804">
        <ele>6.622868618639806</ele>
      </trkpt>
      <trkpt lat="1.4142998860391884" lon="104.03158067781825">
        <ele>6.858870892911303</ele>
      </trkpt>
      <trkpt lat="1.4142106168780673" lon="104.03159506496146">
        <ele>7.079863634016223</ele>
      </trkpt>
      <trkpt lat="1.414121347716944" lon="104.03160945210404">
        <ele>7.196716752806673</ele>
      </trkpt>
      <trkpt lat="1.4140313968234428" lon="104.03160495373055">
        <ele>7.158514427721514</ele>
      </trkpt>
      <trkpt lat="1.413941319689358" lon="104.03159695821553">
        <ele>6.952984399541343</ele>
      </trkpt>
      <trkpt lat="1.413851657525052" lon="104.03158571129316">
        <ele>6.663469984980398</ele>
      </trkpt>
      <trkpt lat="1.4137624230744081" lon="104.03157111311106">
        <ele>6.349034163330203</ele>
      </trkpt>
      <trkpt lat="1.4136731886234455" lon="104.0315565149305">
        <ele>6.0219491938104</ele>
      </trkpt>
      <trkpt lat="1.413583954172163" lon="104.03154191675155">
        <ele>5.694864224290595</ele>
      </trkpt>
      <trkpt lat="1.413494719720561" lon="104.03152731857416">
        <ele>5.403068256590772</ele>
      </trkpt>
      <trkpt lat="1.4134054852686402" lon="104.03151272039837">
        <ele>5.154476215348281</ele>
      </trkpt>
      <trkpt lat="1.4133162508163994" lon="104.03149812222414">
        <ele>5.080179697452057</ele>
      </trkpt>
      <trkpt lat="1.4132270163638398" lon="104.03148352405148">
        <ele>5.307244266826015</ele>
      </trkpt>
      <trkpt lat="1.4131382963249304" lon="104.03146638406189">
        <ele>5.813903608229715</ele>
      </trkpt>
      <trkpt lat="1.4130503221998914" lon="104.03144556094658">
        <ele>6.466441493870963</ele>
      </trkpt>
      <trkpt lat="1.4129625293232497" lon="104.03142408047306">
        <ele>7.062815937362333</ele>
      </trkpt>
      <trkpt lat="1.4128763494228875" lon="104.0313968390509">
        <ele>7.554631845147683</ele>
      </trkpt>
      <trkpt lat="1.412791539134948" lon="104.03136612087651">
        <ele>7.908275857571027</ele>
      </trkpt>
      <trkpt lat="1.4127096465948126" lon="104.0313279960172">
        <ele>8.163435395276144</ele>
      </trkpt>
      <trkpt lat="1.4126277540536116" lon="104.03128987116088">
        <ele>8.382356942422264</ele>
      </trkpt>
      <trkpt lat="1.4125458615113435" lon="104.03125174630753">
        <ele>8.601278489568385</ele>
      </trkpt>
      <trkpt lat="1.4124639689680103" lon="104.03121362145717">
        <ele>8.75354875249104</ele>
      </trkpt>
      <trkpt lat="1.4123820764236108" lon="104.03117549660979">
        <ele>8.780719734788454</ele>
      </trkpt>
      <trkpt lat="1.4123034755195403" lon="104.0311312659461">
        <ele>8.67043244734152</ele>
      </trkpt>
      <trkpt lat="1.4122261583059772" lon="104.03108465410567">
        <ele>8.48933817437373</ele>
      </trkpt>
      <trkpt lat="1.4121488410909848" lon="104.03103804226853">
        <ele>8.295884912286697</ele>
      </trkpt>
      <trkpt lat="1.4120715238745636" lon="104.03099143043472">
        <ele>8.102431650199941</ele>
      </trkpt>
      <trkpt lat="1.411994206656714" lon="104.03094481860421">
        <ele>7.846165555602883</ele>
      </trkpt>
      <trkpt lat="1.411926362589571" lon="104.03088730477091">
        <ele>7.459734884701792</ele>
      </trkpt>
      <trkpt lat="1.4118686762106984" lon="104.03081810114615">
        <ele>6.97778086985998</ele>
      </trkpt>
      <trkpt lat="1.4118051792384323" lon="104.03075467145298">
        <ele>6.499818031068642</ele>
      </trkpt>
      <trkpt lat="1.4117355260602087" lon="104.03069735912392">
        <ele>6.093198112121793</ele>
      </trkpt>
      <trkpt lat="1.4116658728800389" lon="104.03064004679834">
        <ele>5.723279880655952</ele>
      </trkpt>
      <trkpt lat="1.411596219697923" lon="104.03058273447627">
        <ele>5.353361649190113</ele>
      </trkpt>
      <trkpt lat="1.4115265665138612" lon="104.0305254221577">
        <ele>4.970550173159011</ele>
      </trkpt>
      <trkpt lat="1.4114569133278536" lon="104.03046810984264">
        <ele>4.438620644794372</ele>
      </trkpt>
      <trkpt lat="1.411387344337819" lon="104.03041070367571">
        <ele>3.7513818334789284</ele>
      </trkpt>
      <trkpt lat="1.411322068211859" lon="104.03034851225746">
        <ele>3.0097959734264745</ele>
      </trkpt>
      <trkpt lat="1.411256792083699" lon="104.03028632084269">
        <ele>2.4391919722403324</ele>
      </trkpt>
      <trkpt lat="1.4111915159533386" lon="104.03022412943142">
        <ele>2.0457610605378798</ele>
      </trkpt>
      <trkpt lat="1.411126239820778" lon="104.03016193802362">
        <ele>1.7414342486704752</ele>
      </trkpt>
      <trkpt lat="1.4110609636860183" lon="104.03009974661934">
        <ele>1.4493768150782607</ele>
      </trkpt>
      <trkpt lat="1.4109933474308334" lon="104.03004062912093">
        <ele>1.2303805386426356</ele>
      </trkpt>
      <trkpt lat="1.4109145066408217" lon="104.02999690294">
        <ele>1.1643790101640183</ele>
      </trkpt>
      <trkpt lat="1.4108280286185333" lon="104.02997650938975">
        <ele>1.3452436387994615</ele>
      </trkpt>
      <trkpt lat="1.4107395909987102" lon="104.02999065397485">
        <ele>1.7590659759142764</ele>
      </trkpt>
      <trkpt lat="1.4106551866471708" lon="104.03002218333685">
        <ele>2.259118844556666</ele>
      </trkpt>
      <trkpt lat="1.4105750201246268" lon="104.03006377248957">
        <ele>2.5872404562371174</ele>
      </trkpt>
      <trkpt lat="1.4104948845137024" lon="104.03010541849926">
        <ele>2.884821185814568</ele>
      </trkpt>
      <trkpt lat="1.4104159289516616" lon="104.0301492350878">
        <ele>3.2150755259949797</ele>
      </trkpt>
      <trkpt lat="1.410336020417239" lon="104.03019098449379">
        <ele>3.711044449710482</ele>
      </trkpt>
      <trkpt lat="1.4102510582470194" lon="104.03022177158749">
        <ele>4.18445425185536</ele>
      </trkpt>
      <trkpt lat="1.4101660960766433" lon="104.03025255867934">
        <ele>4.573198046960349</ele>
      </trkpt>
      <trkpt lat="1.410077059462279" lon="104.03025147842772">
        <ele>4.8805485027836335</ele>
      </trkpt>
      <trkpt lat="1.4099870485338932" lon="104.03024277780152">
        <ele>5.078576468109571</ele>
      </trkpt>
      <trkpt lat="1.409932908212956" lon="104.03023754449652">
        <ele>5.16973677058906</ele>
      </trkpt>
    </trkseg>
  </trk>
</gpx>