<?xml version="1.0" encoding="UTF-8"?>
<gpx xmlns="http://www.topografix.com/GPX/1/1" xmlns:xsi="http://www.w3.org/2001/XMLSchema-instance" xsi:schemaLocation="http://www.topografix.com/GPX/1/1 http://www.topografix.com/GPX/1/1/gpx.xsd" version="1.1" creator="gpx.py -- https://github.com/tkrajina/gpxpy">
  <trk>
    <name>point_to_point_05000m_038</name>
    <trkseg>
      <trkpt lat="1.3927609105303407" lon="103.75938406030455">
        <ele>31.96078828162764</ele>
      </trkpt>
      <trkpt lat="1.3927842488923732" lon="103.75947049658843">
        <ele>32.37949404205707</ele>
      </trkpt>
      <trkpt lat="1.3927779648253769" lon="103.75956012228882">
        <ele>33.22469450744236</ele>
      </trkpt>
      <trkpt lat="1.3927794885808509" lon="103.75964996735664">
        <ele>33.49244109243164</ele>
      </trkpt>
      <trkpt lat="1.3927702572291247" lon="103.75973753753954">
        <ele>32.833658487508934</ele>
      </trkpt>
      <trkpt lat="1.3927320361544908" lon="103.75981897590798">
        <ele>31.12913346078199</ele>
      </trkpt>
      <trkpt lat="1.3926799354418782" lon="103.75989151202862">
        <ele>29.092012573540558</ele>
      </trkpt>
      <trkpt lat="1.3926438313138487" lon="103.75996925640185">
        <ele>27.40811554528293</ele>
      </trkpt>
      <trkpt lat="1.3926422869936488" lon="103.76005622911616">
        <ele>26.96125889956683</ele>
      </trkpt>
      <trkpt lat="1.3927086301670806" lon="103.76011715622468">
        <ele>28.0884054114194</ele>
      </trkpt>
      <trkpt lat="1.3927974539246932" lon="103.76010026289406">
        <ele>30.473203040130944</ele>
      </trkpt>
      <trkpt lat="1.3928829622516838" lon="103.76007206715832">
        <ele>33.34474234388417</ele>
      </trkpt>
      <trkpt lat="1.3929670113643213" lon="103.76003889691582">
        <ele>35.987076886513684</ele>
      </trkpt>
      <trkpt lat="1.3930563314533753" lon="103.76003310000009">
        <ele>37.836147354562655</ele>
      </trkpt>
      <trkpt lat="1.3931467677898561" lon="103.76003310000003">
        <ele>39.00255266855003</ele>
      </trkpt>
      <trkpt lat="1.393232938886194" lon="103.76005679571884">
        <ele>39.53694011490716</ele>
      </trkpt>
      <trkpt lat="1.393317768978776" lon="103.76008794143995">
        <ele>39.906783130355</ele>
      </trkpt>
      <trkpt lat="1.3934025990710008" lon="103.76011908716313">
        <ele>40.0</ele>
      </trkpt>
      <trkpt lat="1.3934874291628685" lon="103.7601502328884">
        <ele>40.0</ele>
      </trkpt>
      <trkpt lat="1.3935644367326505" lon="103.76019695709364">
        <ele>40.0</ele>
      </trkpt>
      <trkpt lat="1.393640496115215" lon="103.76024556960601">
        <ele>39.435518082919025</ele>
      </trkpt>
      <trkpt lat="1.3937165554968853" lon="103.7602941821214">
        <ele>39.435518082919025</ele>
      </trkpt>
      <trkpt lat="1.393787086119271" lon="103.76034980343596">
        <ele>39.435518082919025</ele>
      </trkpt>
      <trkpt lat="1.3938527662513018" lon="103.76041157370919">
        <ele>40.0</ele>
      </trkpt>
      <trkpt lat="1.3939184463818477" lon="103.76047334398584">
        <ele>40.0</ele>
      </trkpt>
      <trkpt lat="1.3939841265109074" lon="103.7605351142659">
        <ele>40.0</ele>
      </trkpt>
      <trkpt lat="1.3940649118283366" lon="103.76057380968861">
        <ele>40.0</ele>
      </trkpt>
      <trkpt lat="1.394148369603749" lon="103.76060842263554">
        <ele>40.0</ele>
      </trkpt>
      <trkpt lat="1.3942318273787184" lon="103.76064303558476">
        <ele>40.0</ele>
      </trkpt>
      <trkpt lat="1.3943067252912251" lon="103.76069214901578">
        <ele>40.0</ele>
      </trkpt>
      <trkpt lat="1.3943778628931567" lon="103.76074763244638">
        <ele>39.68746709259357</ele>
      </trkpt>
      <trkpt lat="1.394449000493905" lon="103.76080311588028">
        <ele>37.596087161161215</ele>
      </trkpt>
      <trkpt lat="1.394520138093469" lon="103.76085859931746">
        <ele>33.75434596738727</ele>
      </trkpt>
      <trkpt lat="1.3945890359743809" lon="103.76091673391912">
        <ele>28.49479754168351</ele>
      </trkpt>
      <trkpt lat="1.3946563596759523" lon="103.76097673188397">
        <ele>24.53258037759584</ele>
      </trkpt>
      <trkpt lat="1.3947236833761256" lon="103.76103672985224">
        <ele>23.243608320915015</ele>
      </trkpt>
      <trkpt lat="1.3947910070749003" lon="103.76109672782387">
        <ele>24.84209605518534</ele>
      </trkpt>
      <trkpt lat="1.3948626248710945" lon="103.7611484563957">
        <ele>28.1644130816629</ele>
      </trkpt>
      <trkpt lat="1.394950850842924" lon="103.76116820161016">
        <ele>31.80615979287261</ele>
      </trkpt>
      <trkpt lat="1.3950390768145968" lon="103.76118794682594">
        <ele>35.31908708877901</ele>
      </trkpt>
      <trkpt lat="1.3951243325487228" lon="103.76116567830393">
        <ele>38.05036715782146</ele>
      </trkpt>
      <trkpt lat="1.3952089139866326" lon="103.76113387192895">
        <ele>39.539333697066525</ele>
      </trkpt>
      <trkpt lat="1.395242356977743" lon="103.76112129587912">
        <ele>40.0</ele>
      </trkpt>
    </trkseg>
  </trk>
</gpx>