<?xml version="1.0" encoding="UTF-8"?>
<gpx xmlns="http://www.topografix.com/GPX/1/1" xmlns:xsi="http://www.w3.org/2001/XMLSchema-instance" xsi:schemaLocation="http://www.topografix.com/GPX/1/1 http://www.topografix.com/GPX/1/1/gpx.xsd" version="1.1" creator="gpx.py -- https://github.com/tkrajina/gpxpy">
  <trk>
    <name>point_to_point_05000m_027</name>
    <trkseg>
      <trkpt lat="1.345619464370859" lon="103.83659149908173">
        <ele>20.0</ele>
      </trkpt>
      <trkpt lat="1.3457084048396577" lon="103.83657868513377">
        <ele>20.0</ele>
      </trkpt>
      <trkpt lat="1.3457679248070358" lon="103.83651103294704">
        <ele>20.0</ele>
      </trkpt>
      <trkpt lat="1.3458241633241426" lon="103.83644071359548">
        <ele>20.0</ele>
      </trkpt>
      <trkpt lat="1.3458755723328946" lon="103.8363670649704">
        <ele>20.0</ele>
      </trkpt>
      <trkpt lat="1.3459187216754533" lon="103.83628809611967">
        <ele>20.0</ele>
      </trkpt>
      <trkpt lat="1.3459503428625936" lon="103.83620452832356">
        <ele>20.0</ele>
      </trkpt>
      <trkpt lat="1.3459741365530415" lon="103.83611783789222">
        <ele>20.0</ele>
      </trkpt>
      <trkpt lat="1.346006367152514" lon="103.83603398176086">
        <ele>20.0</ele>
      </trkpt>
      <trkpt lat="1.3460404030060609" lon="103.83595073208645">
        <ele>20.0</ele>
      </trkpt>
      <trkpt lat="1.3460740322888154" lon="103.83586732636181">
        <ele>20.0</ele>
      </trkpt>
      <trkpt lat="1.3461051633486185" lon="103.83578296177413">
        <ele>20.0</ele>
      </trkpt>
      <trkpt lat="1.3461362944054809" lon="103.8356985971843">
        <ele>20.0</ele>
      </trkpt>
      <trkpt lat="1.3461807344131689" lon="103.83562108075687">
        <ele>20.0</ele>
      </trkpt>
      <trkpt lat="1.3462321170795115" lon="103.83554713669483">
        <ele>20.0</ele>
      </trkpt>
      <trkpt lat="1.3462834997435809" lon="103.83547319262968">
        <ele>20.0</ele>
      </trkpt>
      <trkpt lat="1.3463348824053767" lon="103.83539924856143">
        <ele>20.0</ele>
      </trkpt>
      <trkpt lat="1.3463902346712746" lon="103.8353282655024">
        <ele>20.0</ele>
      </trkpt>
      <trkpt lat="1.346447358477658" lon="103.8352586038707">
        <ele>20.0</ele>
      </trkpt>
      <trkpt lat="1.3465044822820158" lon="103.83518894223576">
        <ele>20.0</ele>
      </trkpt>
      <trkpt lat="1.3465616060843486" lon="103.83511928059758">
        <ele>20.0</ele>
      </trkpt>
      <trkpt lat="1.3466187298846555" lon="103.83504961895616">
        <ele>20.0</ele>
      </trkpt>
      <trkpt lat="1.3466765310580733" lon="103.83498052561707">
        <ele>20.0</ele>
      </trkpt>
      <trkpt lat="1.346736081400215" lon="103.83491289979749">
        <ele>20.0</ele>
      </trkpt>
      <trkpt lat="1.346795631740443" lon="103.83484527397464">
        <ele>20.0</ele>
      </trkpt>
      <trkpt lat="1.3468551820787578" lon="103.8347776481485">
        <ele>20.0</ele>
      </trkpt>
      <trkpt lat="1.3469265632173777" lon="103.83472254295812">
        <ele>20.0</ele>
      </trkpt>
      <trkpt lat="1.347008406397194" lon="103.83468706031583">
        <ele>20.0</ele>
      </trkpt>
      <trkpt lat="1.3470945848714553" lon="103.83465981325826">
        <ele>20.0</ele>
      </trkpt>
      <trkpt lat="1.3471703675942457" lon="103.83461136065846">
        <ele>20.0</ele>
      </trkpt>
      <trkpt lat="1.3472450867609975" lon="103.83456073858682">
        <ele>20.0</ele>
      </trkpt>
      <trkpt lat="1.3473021388598871" lon="103.83449190938511">
        <ele>20.0</ele>
      </trkpt>
      <trkpt lat="1.347355729886059" lon="103.83441953527755">
        <ele>20.0</ele>
      </trkpt>
      <trkpt lat="1.34739756006271" lon="103.83433986875329">
        <ele>20.0</ele>
      </trkpt>
      <trkpt lat="1.3474393902367263" lon="103.83426020222632">
        <ele>20.0</ele>
      </trkpt>
      <trkpt lat="1.347501836635722" lon="103.83419526185091">
        <ele>20.0</ele>
      </trkpt>
      <trkpt lat="1.34756451663135" lon="103.83413048833133">
        <ele>20.0</ele>
      </trkpt>
      <trkpt lat="1.3476280418858753" lon="103.83406658274768">
        <ele>20.0</ele>
      </trkpt>
      <trkpt lat="1.3476952606328463" lon="103.83400646975224">
        <ele>20.0</ele>
      </trkpt>
      <trkpt lat="1.347762479378288" lon="103.83394635675353">
        <ele>20.0</ele>
      </trkpt>
      <trkpt lat="1.3478286954658605" lon="103.83388541500962">
        <ele>20.0</ele>
      </trkpt>
      <trkpt lat="1.3478759514196865" lon="103.83380880183556">
        <ele>20.0</ele>
      </trkpt>
      <trkpt lat="1.3479232073710696" lon="103.83373218865854">
        <ele>20.0</ele>
      </trkpt>
      <trkpt lat="1.3479734087772375" lon="103.83365775509235">
        <ele>20.0</ele>
      </trkpt>
      <trkpt lat="1.3480337499508623" lon="103.83359082486781">
        <ele>20.0</ele>
      </trkpt>
      <trkpt lat="1.348094091122607" lon="103.83352389463998">
        <ele>20.0</ele>
      </trkpt>
      <trkpt lat="1.3481544322924708" lon="103.83345696440887">
        <ele>20.0</ele>
      </trkpt>
      <trkpt lat="1.348214773460453" lon="103.83339003417444">
        <ele>20.0</ele>
      </trkpt>
      <trkpt lat="1.3482780928279834" lon="103.83332643551107">
        <ele>20.0</ele>
      </trkpt>
      <trkpt lat="1.3483521053583178" lon="103.83327479878609">
        <ele>20.0</ele>
      </trkpt>
      <trkpt lat="1.3484261178875045" lon="103.83322316205799">
        <ele>20.0</ele>
      </trkpt>
      <trkpt lat="1.3485001304155442" lon="103.83317152532678">
        <ele>20.0</ele>
      </trkpt>
      <trkpt lat="1.3485741429424356" lon="103.83311988859244">
        <ele>20.0</ele>
      </trkpt>
      <trkpt lat="1.3486525940688152" lon="103.83307544449812">
        <ele>20.0</ele>
      </trkpt>
      <trkpt lat="1.3487324796629725" lon="103.8330333249221">
        <ele>20.0</ele>
      </trkpt>
      <trkpt lat="1.3488123652563426" lon="103.83299120534333">
        <ele>20.0</ele>
      </trkpt>
      <trkpt lat="1.3488922508489258" lon="103.83294908576183">
        <ele>20.0</ele>
      </trkpt>
      <trkpt lat="1.3489697118631947" lon="103.83290299989733">
        <ele>20.0</ele>
      </trkpt>
      <trkpt lat="1.3490441586082205" lon="103.83285198309558">
        <ele>20.0</ele>
      </trkpt>
      <trkpt lat="1.3491186053521227" lon="103.8328009662907">
        <ele>20.0</ele>
      </trkpt>
      <trkpt lat="1.3491740911467918" lon="103.8327319992413">
        <ele>20.0</ele>
      </trkpt>
      <trkpt lat="1.3492217813086989" lon="103.83265565210172">
        <ele>20.0</ele>
      </trkpt>
      <trkpt lat="1.3492684470450658" lon="103.83257882036747">
        <ele>20.0</ele>
      </trkpt>
      <trkpt lat="1.3492980276991975" lon="103.83249390672827">
        <ele>20.0</ele>
      </trkpt>
      <trkpt lat="1.3493276083503385" lon="103.83240899308703">
        <ele>20.0</ele>
      </trkpt>
      <trkpt lat="1.3493501621358042" lon="103.8323220029154">
        <ele>20.0</ele>
      </trkpt>
      <trkpt lat="1.3493720943639038" lon="103.83223482906492">
        <ele>20.0</ele>
      </trkpt>
      <trkpt lat="1.349394026588855" lon="103.83214765521288">
        <ele>20.0</ele>
      </trkpt>
      <trkpt lat="1.3494384277676608" lon="103.83207093693932">
        <ele>20.0</ele>
      </trkpt>
      <trkpt lat="1.349491783985078" lon="103.831998385752">
        <ele>20.0</ele>
      </trkpt>
      <trkpt lat="1.3495479079316945" lon="103.83192828282702">
        <ele>20.0</ele>
      </trkpt>
      <trkpt lat="1.3496142643412252" lon="103.83186723127938">
        <ele>20.0</ele>
      </trkpt>
      <trkpt lat="1.3496806207491734" lon="103.83180617972842">
        <ele>20.0</ele>
      </trkpt>
      <trkpt lat="1.3497503172829588" lon="103.83174938683366">
        <ele>20.0</ele>
      </trkpt>
      <trkpt lat="1.3498261139335883" lon="103.83170037158092">
        <ele>20.0</ele>
      </trkpt>
      <trkpt lat="1.3499019105831729" lon="103.83165135632512">
        <ele>20.0</ele>
      </trkpt>
      <trkpt lat="1.349977707231712" lon="103.83160234106631">
        <ele>20.0</ele>
      </trkpt>
      <trkpt lat="1.3500535038792056" lon="103.83155332580446">
        <ele>20.0</ele>
      </trkpt>
      <trkpt lat="1.3501293005256532" lon="103.83150431053956">
        <ele>20.0</ele>
      </trkpt>
      <trkpt lat="1.3502040882362816" lon="103.83145381831658">
        <ele>20.0</ele>
      </trkpt>
      <trkpt lat="1.3502779200751813" lon="103.83140192681479">
        <ele>20.0</ele>
      </trkpt>
      <trkpt lat="1.3503517519129171" lon="103.83135003530988">
        <ele>20.0</ele>
      </trkpt>
      <trkpt lat="1.350425583749489" lon="103.83129814380183">
        <ele>20.0</ele>
      </trkpt>
      <trkpt lat="1.3505001358493993" lon="103.83124728898979">
        <ele>20.0</ele>
      </trkpt>
      <trkpt lat="1.3505751455083619" lon="103.83119709275527">
        <ele>20.0</ele>
      </trkpt>
      <trkpt lat="1.35065015516623" lon="103.83114689651767">
        <ele>20.0</ele>
      </trkpt>
      <trkpt lat="1.350725164823003" lon="103.83109670027697">
        <ele>20.0</ele>
      </trkpt>
      <trkpt lat="1.3508000933460067" lon="103.8310463931007">
        <ele>20.0</ele>
      </trkpt>
      <trkpt lat="1.3508713103625714" lon="103.83099101119016">
        <ele>20.0</ele>
      </trkpt>
      <trkpt lat="1.3509425273778182" lon="103.83093562927638">
        <ele>20.0</ele>
      </trkpt>
      <trkpt lat="1.3510137443917474" lon="103.83088024735937">
        <ele>20.0</ele>
      </trkpt>
      <trkpt lat="1.351084961404358" lon="103.83082486543914">
        <ele>20.000000000000004</ele>
      </trkpt>
      <trkpt lat="1.3511498514522498" lon="103.83076298110932">
        <ele>20.0</ele>
      </trkpt>
      <trkpt lat="1.3512079644062795" lon="103.83069413175947">
        <ele>20.0</ele>
      </trkpt>
      <trkpt lat="1.3512660773583116" lon="103.83062528240633">
        <ele>20.0</ele>
      </trkpt>
      <trkpt lat="1.3513223815996562" lon="103.83055503682579">
        <ele>20.0</ele>
      </trkpt>
      <trkpt lat="1.3513751608899252" lon="103.83048207017433">
        <ele>20.0</ele>
      </trkpt>
      <trkpt lat="1.351427940177958" lon="103.83040910351971">
        <ele>20.0</ele>
      </trkpt>
      <trkpt lat="1.351479994332328" lon="103.83033563804611">
        <ele>20.0</ele>
      </trkpt>
      <trkpt lat="1.3515301568053704" lon="103.83026087128876">
        <ele>20.0</ele>
      </trkpt>
      <trkpt lat="1.351580319276069" lon="103.83018610452834">
        <ele>20.0</ele>
      </trkpt>
      <trkpt lat="1.3516304817444231" lon="103.83011133776485">
        <ele>20.0</ele>
      </trkpt>
      <trkpt lat="1.351665471342013" lon="103.83002864137707">
        <ele>20.0</ele>
      </trkpt>
      <trkpt lat="1.351681642382737" lon="103.82994572461655">
        <ele>20.0</ele>
      </trkpt>
      <trkpt lat="1.3516431356826821" lon="103.82986442049173">
        <ele>20.0</ele>
      </trkpt>
      <trkpt lat="1.3515707651713775" lon="103.82981676205931">
        <ele>20.0</ele>
      </trkpt>
      <trkpt lat="1.351486187908219" lon="103.82979192753234">
        <ele>20.0</ele>
      </trkpt>
      <trkpt lat="1.3513958183272885" lon="103.82979538214768">
        <ele>20.0</ele>
      </trkpt>
      <trkpt lat="1.3513054356751142" lon="103.8297971867169">
        <ele>20.0</ele>
      </trkpt>
      <trkpt lat="1.351215022560832" lon="103.82979514589547">
        <ele>20.0</ele>
      </trkpt>
      <trkpt lat="1.3511246094464802" lon="103.82979310507416">
        <ele>20.0</ele>
      </trkpt>
      <trkpt lat="1.3510341963320602" lon="103.82979106425302">
        <ele>20.0</ele>
      </trkpt>
      <trkpt lat="1.3509469211751453" lon="103.82976875604025">
        <ele>20.0</ele>
      </trkpt>
      <trkpt lat="1.3508600710656822" lon="103.82974370253733">
        <ele>20.0</ele>
      </trkpt>
      <trkpt lat="1.3507775446296988" lon="103.82970941126578">
        <ele>20.0</ele>
      </trkpt>
      <trkpt lat="1.3507022978290952" lon="103.82965956664785">
        <ele>20.0</ele>
      </trkpt>
      <trkpt lat="1.3506270510274245" lon="103.82960972203297">
        <ele>20.0</ele>
      </trkpt>
      <trkpt lat="1.3505634787263687" lon="103.82954752249995">
        <ele>20.0</ele>
      </trkpt>
      <trkpt lat="1.3505086714824512" lon="103.82947604706122">
        <ele>20.0</ele>
      </trkpt>
      <trkpt lat="1.3504787490806232" lon="103.82939515419768">
        <ele>20.0</ele>
      </trkpt>
      <trkpt lat="1.3504718124671578" lon="103.8293055625854">
        <ele>20.0</ele>
      </trkpt>
      <trkpt lat="1.3504774958132857" lon="103.82921679156938">
        <ele>20.0</ele>
      </trkpt>
      <trkpt lat="1.350496125006438" lon="103.8291288623386">
        <ele>20.0</ele>
      </trkpt>
      <trkpt lat="1.3505670063228432" lon="103.82907357450853">
        <ele>20.0</ele>
      </trkpt>
      <trkpt lat="1.350644725079736" lon="103.8290281808405">
        <ele>20.0</ele>
      </trkpt>
      <trkpt lat="1.3507249032650195" lon="103.82898661370223">
        <ele>20.0</ele>
      </trkpt>
      <trkpt lat="1.3508098624796703" lon="103.82895702477533">
        <ele>20.0</ele>
      </trkpt>
      <trkpt lat="1.3508969205403296" lon="103.8289326942178">
        <ele>20.0</ele>
      </trkpt>
      <trkpt lat="1.3509841979199377" lon="103.82890931181495">
        <ele>20.0</ele>
      </trkpt>
      <trkpt lat="1.3510732116140363" lon="103.82889343581017">
        <ele>20.0</ele>
      </trkpt>
      <trkpt lat="1.3511622253079614" lon="103.82887755980421">
        <ele>20.0</ele>
      </trkpt>
      <trkpt lat="1.351251244058748" lon="103.82886171259067">
        <ele>20.0</ele>
      </trkpt>
      <trkpt lat="1.351340408548437" lon="103.82884669517922">
        <ele>20.0</ele>
      </trkpt>
      <trkpt lat="1.3514295730379624" lon="103.8288316777667">
        <ele>20.0</ele>
      </trkpt>
      <trkpt lat="1.3515187375273254" lon="103.82881666035306">
        <ele>20.0</ele>
      </trkpt>
      <trkpt lat="1.3516079020165255" lon="103.82880164293832">
        <ele>20.0</ele>
      </trkpt>
      <trkpt lat="1.3516966315550476" lon="103.82878448828495">
        <ele>20.0</ele>
      </trkpt>
      <trkpt lat="1.3517846634294735" lon="103.82876390548533">
        <ele>20.0</ele>
      </trkpt>
      <trkpt lat="1.351872695303655" lon="103.82874332268419">
        <ele>20.0</ele>
      </trkpt>
      <trkpt lat="1.3519547107078562" lon="103.82870728733229">
        <ele>20.0</ele>
      </trkpt>
      <trkpt lat="1.352032208213832" lon="103.82866180556788">
        <ele>20.0</ele>
      </trkpt>
      <trkpt lat="1.3520891076514663" lon="103.82859196273672">
        <ele>20.0</ele>
      </trkpt>
      <trkpt lat="1.3521460070870406" lon="103.8285221199023">
        <ele>20.0</ele>
      </trkpt>
      <trkpt lat="1.3521889797800684" lon="103.82844310799335">
        <ele>20.0</ele>
      </trkpt>
      <trkpt lat="1.352231535586308" lon="103.8283638216139">
        <ele>20.0</ele>
      </trkpt>
      <trkpt lat="1.3522740913899163" lon="103.8282845352317">
        <ele>20.0</ele>
      </trkpt>
      <trkpt lat="1.3523167679209684" lon="103.82820532878372">
        <ele>20.0</ele>
      </trkpt>
      <trkpt lat="1.352374033106581" lon="103.828135781673">
        <ele>20.0</ele>
      </trkpt>
      <trkpt lat="1.3524312982901487" lon="103.82806623455902">
        <ele>20.0</ele>
      </trkpt>
      <trkpt lat="1.3524885634716706" lon="103.82799668744177">
        <ele>20.0</ele>
      </trkpt>
      <trkpt lat="1.3525470410869096" lon="103.82792815145584">
        <ele>20.0</ele>
      </trkpt>
      <trkpt lat="1.352606050146236" lon="103.82786005867649">
        <ele>20.0</ele>
      </trkpt>
      <trkpt lat="1.3526650592035976" lon="103.82779196589385">
        <ele>20.0</ele>
      </trkpt>
      <trkpt lat="1.352724057437225" lon="103.82772386421577">
        <ele>20.0</ele>
      </trkpt>
      <trkpt lat="1.352780295522399" lon="103.8276534945432">
        <ele>20.0</ele>
      </trkpt>
      <trkpt lat="1.3528365336054795" lon="103.82758312486739">
        <ele>20.0</ele>
      </trkpt>
      <trkpt lat="1.3528927716864665" lon="103.82751275518834">
        <ele>20.0</ele>
      </trkpt>
      <trkpt lat="1.352948557041631" lon="103.82744203201297">
        <ele>20.0</ele>
      </trkpt>
      <trkpt lat="1.353004077015395" lon="103.8273711016225">
        <ele>20.0</ele>
      </trkpt>
      <trkpt lat="1.3530595969870318" lon="103.82730017122881">
        <ele>20.0</ele>
      </trkpt>
      <trkpt lat="1.3531123855916525" lon="103.82722787907143">
        <ele>20.0</ele>
      </trkpt>
      <trkpt lat="1.3531364327492237" lon="103.82714125745935">
        <ele>20.0</ele>
      </trkpt>
      <trkpt lat="1.3531604799036698" lon="103.82705463584558">
        <ele>20.0</ele>
      </trkpt>
      <trkpt lat="1.3531553688306512" lon="103.82696650651054">
        <ele>20.0</ele>
      </trkpt>
      <trkpt lat="1.353140501194243" lon="103.82687787268198">
        <ele>20.0</ele>
      </trkpt>
      <trkpt lat="1.3531256335545792" lon="103.82678923885452">
        <ele>20.0</ele>
      </trkpt>
      <trkpt lat="1.3531097121295619" lon="103.82670078650543">
        <ele>20.0</ele>
      </trkpt>
      <trkpt lat="1.3530936908557059" lon="103.82661235135245">
        <ele>20.0</ele>
      </trkpt>
      <trkpt lat="1.3530776695786093" lon="103.82652391620064">
        <ele>20.0</ele>
      </trkpt>
      <trkpt lat="1.3530616482982727" lon="103.82643548105001">
        <ele>20.0</ele>
      </trkpt>
      <trkpt lat="1.3530151233183227" lon="103.82635866874682">
        <ele>20.0</ele>
      </trkpt>
      <trkpt lat="1.3529675731831283" lon="103.82628223577198">
        <ele>20.0</ele>
      </trkpt>
      <trkpt lat="1.3529210449658486" lon="103.8262051839708">
        <ele>20.0</ele>
      </trkpt>
      <trkpt lat="1.3528794733119578" lon="103.82612597666807">
        <ele>20.0</ele>
      </trkpt>
      <trkpt lat="1.3528540702608214" lon="103.82603973798676">
        <ele>20.0</ele>
      </trkpt>
      <trkpt lat="1.3528286672066052" lon="103.82595349930729">
        <ele>20.0</ele>
      </trkpt>
      <trkpt lat="1.3528032641493093" lon="103.8258672606296">
        <ele>20.0</ele>
      </trkpt>
      <trkpt lat="1.3527776855623819" lon="103.82578107320626">
        <ele>20.0</ele>
      </trkpt>
      <trkpt lat="1.3527520907144643" lon="103.82569489053193">
        <ele>20.0</ele>
      </trkpt>
      <trkpt lat="1.3527264958634715" lon="103.82560870785943">
        <ele>20.0</ele>
      </trkpt>
      <trkpt lat="1.3527009010094042" lon="103.82552252518876">
        <ele>20.0</ele>
      </trkpt>
      <trkpt lat="1.3526753061522616" lon="103.8254363425199">
        <ele>20.0</ele>
      </trkpt>
      <trkpt lat="1.3526573615739903" lon="103.82534828226729">
        <ele>20.203377602975493</ele>
      </trkpt>
      <trkpt lat="1.3526396258938433" lon="103.82526017074595">
        <ele>20.90430839344454</ele>
      </trkpt>
      <trkpt lat="1.3526062792912952" lon="103.82517776049578">
        <ele>22.075796297959005</ele>
      </trkpt>
      <trkpt lat="1.352562360422011" lon="103.82509921134881">
        <ele>23.514158253542774</ele>
      </trkpt>
      <trkpt lat="1.3525183595531765" lon="103.82502070774763">
        <ele>24.92396791059217</ele>
      </trkpt>
      <trkpt lat="1.3524740229292356" lon="103.82494239063372">
        <ele>26.33222134255533</ele>
      </trkpt>
      <trkpt lat="1.3524296863027538" lon="103.82486407352269">
        <ele>27.75960626447294</ele>
      </trkpt>
      <trkpt lat="1.3523926738649101" lon="103.82478280882069">
        <ele>28.725579191389187</ele>
      </trkpt>
      <trkpt lat="1.3523696590785401" lon="103.82469591081623">
        <ele>29.250946350474205</ele>
      </trkpt>
      <trkpt lat="1.3523595534275825" lon="103.82460682987477">
        <ele>29.329004765507324</ele>
      </trkpt>
      <trkpt lat="1.352352340895794" lon="103.82451725970621">
        <ele>29.68534108858596</ele>
      </trkpt>
      <trkpt lat="1.3523451283606829" lon="103.8244276895382">
        <ele>30.308237077652237</ele>
      </trkpt>
      <trkpt lat="1.3523379158222482" lon="103.82433811937072">
        <ele>31.175049236901305</ele>
      </trkpt>
      <trkpt lat="1.3523283704561087" lon="103.82424876755785">
        <ele>32.04119966511625</ele>
      </trkpt>
      <trkpt lat="1.352318620670417" lon="103.82415943487922">
        <ele>32.89760037718494</ele>
      </trkpt>
      <trkpt lat="1.352308870881421" lon="103.82407010220132">
        <ele>33.890663563703946</ele>
      </trkpt>
      <trkpt lat="1.3522991210891209" lon="103.82398076952414">
        <ele>35.037914885434326</ele>
      </trkpt>
      <trkpt lat="1.3522893712935167" lon="103.8238914368477">
        <ele>36.33935434237597</ele>
      </trkpt>
      <trkpt lat="1.3522796214946082" lon="103.823802104172">
        <ele>37.63569245564366</ele>
      </trkpt>
      <trkpt lat="1.3522620235322111" lon="103.82371444020804">
        <ele>38.855907674851665</ele>
      </trkpt>
      <trkpt lat="1.3522341238328501" lon="103.82362896664654">
        <ele>39.63672968787909</ele>
      </trkpt>
      <trkpt lat="1.3522062241304686" lon="103.823543493087">
        <ele>40.0</ele>
      </trkpt>
      <trkpt lat="1.3521797967717042" lon="103.82345757838833">
        <ele>40.0</ele>
      </trkpt>
      <trkpt lat="1.3521554877733282" lon="103.82337102899234">
        <ele>40.0</ele>
      </trkpt>
      <trkpt lat="1.3521311787718548" lon="103.82328447959809">
        <ele>40.0</ele>
      </trkpt>
      <trkpt lat="1.3521068697672853" lon="103.82319793020558">
        <ele>40.0</ele>
      </trkpt>
      <trkpt lat="1.3520985615301186" lon="103.82310854484815">
        <ele>40.0</ele>
      </trkpt>
      <trkpt lat="1.3520912522894124" lon="103.82301898242922">
        <ele>40.0</ele>
      </trkpt>
      <trkpt lat="1.3520834182674784" lon="103.8229294894673">
        <ele>40.0</ele>
      </trkpt>
      <trkpt lat="1.3520668763739312" lon="103.8228411490275">
        <ele>40.0</ele>
      </trkpt>
      <trkpt lat="1.3520503344771557" lon="103.8227528085889">
        <ele>40.0</ele>
      </trkpt>
      <trkpt lat="1.352033792577153" lon="103.82266446815153">
        <ele>40.0</ele>
      </trkpt>
      <trkpt lat="1.3520133135155918" lon="103.82257699353558">
        <ele>40.0</ele>
      </trkpt>
      <trkpt lat="1.3519907912414761" lon="103.82248996824319">
        <ele>40.0</ele>
      </trkpt>
      <trkpt lat="1.3519682689642305" lon="103.82240294295245">
        <ele>40.0</ele>
      </trkpt>
      <trkpt lat="1.351945746683855" lon="103.82231591766335">
        <ele>40.0</ele>
      </trkpt>
      <trkpt lat="1.3519232244003492" lon="103.82222889237585">
        <ele>40.0</ele>
      </trkpt>
      <trkpt lat="1.3519015641315457" lon="103.82214174835491">
        <ele>40.0</ele>
      </trkpt>
      <trkpt lat="1.3518994105637983" lon="103.82205191746456">
        <ele>40.0</ele>
      </trkpt>
      <trkpt lat="1.3518972569927075" lon="103.82196208657442">
        <ele>40.0</ele>
      </trkpt>
      <trkpt lat="1.3518951034182742" lon="103.82187225568447">
        <ele>40.0</ele>
      </trkpt>
      <trkpt lat="1.3518929498404977" lon="103.82178242479469">
        <ele>40.0</ele>
      </trkpt>
      <trkpt lat="1.3518907962593787" lon="103.82169259390511">
        <ele>40.0</ele>
      </trkpt>
      <trkpt lat="1.3518886426749164" lon="103.8216027630157">
        <ele>40.0</ele>
      </trkpt>
      <trkpt lat="1.351896419049307" lon="103.82151375958983">
        <ele>40.0</ele>
      </trkpt>
      <trkpt lat="1.351913601755319" lon="103.82142553999256">
        <ele>40.0</ele>
      </trkpt>
      <trkpt lat="1.3519324481593222" lon="103.82133793343446">
        <ele>40.0</ele>
      </trkpt>
      <trkpt lat="1.3519773143738685" lon="103.82125991465128">
        <ele>40.0</ele>
      </trkpt>
      <trkpt lat="1.3520202594363764" lon="103.82118096507557">
        <ele>40.0</ele>
      </trkpt>
      <trkpt lat="1.3520544988584562" lon="103.82109779764876">
        <ele>40.0</ele>
      </trkpt>
      <trkpt lat="1.3520838563154098" lon="103.82101311129944">
        <ele>40.0</ele>
      </trkpt>
      <trkpt lat="1.3521034726801708" lon="103.82092539421285">
        <ele>40.0</ele>
      </trkpt>
      <trkpt lat="1.352099161561612" lon="103.82083598793882">
        <ele>40.0</ele>
      </trkpt>
      <trkpt lat="1.352092224630368" lon="103.82074639629343">
        <ele>40.0</ele>
      </trkpt>
      <trkpt lat="1.352121480088545" lon="103.82066249333985">
        <ele>40.0</ele>
      </trkpt>
      <trkpt lat="1.3521801270421903" lon="103.82060862694688">
        <ele>40.0</ele>
      </trkpt>
      <trkpt lat="1.3522688068231326" lon="103.82059100245368">
        <ele>40.0</ele>
      </trkpt>
      <trkpt lat="1.352357624053897" lon="103.82060305158464">
        <ele>40.570250799099234</ele>
      </trkpt>
      <trkpt lat="1.3524467744458948" lon="103.820617071472">
        <ele>41.825921887360856</ele>
      </trkpt>
      <trkpt lat="1.3525371638922832" lon="103.82061996783563">
        <ele>43.76701326478544</ele>
      </trkpt>
      <trkpt lat="1.3526275533386023" lon="103.82062286419942">
        <ele>45.80554033232723</ele>
      </trkpt>
      <trkpt lat="1.3527023057482606" lon="103.82057907587097">
        <ele>47.77464431197114</ele>
      </trkpt>
      <trkpt lat="1.3527648577502347" lon="103.82051619898128">
        <ele>49.05117892378686</ele>
      </trkpt>
      <trkpt lat="1.3528084379189242" lon="103.82043746381568">
        <ele>49.45457447539527</ele>
      </trkpt>
      <trkpt lat="1.352831935668229" lon="103.8203529742422">
        <ele>48.87979267744182</ele>
      </trkpt>
      <trkpt lat="1.3528351816395752" lon="103.82026326844476">
        <ele>47.94918090941081</ele>
      </trkpt>
      <trkpt lat="1.3528302552473304" lon="103.82017354545756">
        <ele>46.905078925139485</ele>
      </trkpt>
      <trkpt lat="1.3528253288517502" lon="103.82008382247076">
        <ele>45.90421430193379</ele>
      </trkpt>
      <trkpt lat="1.3528204024528347" lon="103.81999409948438">
        <ele>44.8049200796948</ele>
      </trkpt>
      <trkpt lat="1.3528154760505844" lon="103.81990437649837">
        <ele>43.62327015871802</ele>
      </trkpt>
      <trkpt lat="1.3528206326167285" lon="103.81981471388211">
        <ele>42.82754537246566</ele>
      </trkpt>
      <trkpt lat="1.3528718256716594" lon="103.81974630329056">
        <ele>42.71510784966938</ele>
      </trkpt>
      <trkpt lat="1.3529380861173357" lon="103.81968517927544">
        <ele>43.30113754886265</ele>
      </trkpt>
      <trkpt lat="1.3530098548571399" lon="103.81963050495901">
        <ele>44.11735363658395</ele>
      </trkpt>
      <trkpt lat="1.353081623595628" lon="103.81957583063937">
        <ele>44.860770749841414</ele>
      </trkpt>
      <trkpt lat="1.3531540191890927" lon="103.8195220679706">
        <ele>45.48085977606761</ele>
      </trkpt>
      <trkpt lat="1.3532313730118997" lon="103.81947551618781">
        <ele>45.97762071526194</ele>
      </trkpt>
      <trkpt lat="1.3533087268337276" lon="103.81942896440205">
        <ele>46.49914266222933</ele>
      </trkpt>
      <trkpt lat="1.3533860806545766" lon="103.81938241261334">
        <ele>47.02066460919673</ele>
      </trkpt>
      <trkpt lat="1.353463434474446" lon="103.81933586082165">
        <ele>47.54233934669199</ele>
      </trkpt>
      <trkpt lat="1.3535407882933355" lon="103.819289309027">
        <ele>48.077660072067964</ele>
      </trkpt>
      <trkpt lat="1.3536181421112454" lon="103.81924275722939">
        <ele>48.47605944388295</ele>
      </trkpt>
      <trkpt lat="1.3536854480633909" lon="103.81918382250922">
        <ele>48.66078951140408</ele>
      </trkpt>
      <trkpt lat="1.3537476425613533" lon="103.81911858846682">
        <ele>47.57830899913336</ele>
      </trkpt>
      <trkpt lat="1.3537921708905987" lon="103.819042039364">
        <ele>44.95347274771843</ele>
      </trkpt>
      <trkpt lat="1.353826289372734" lon="103.81895882282569">
        <ele>42.08068705529241</ele>
      </trkpt>
      <trkpt lat="1.353859321043126" lon="103.8188751885305">
        <ele>40.28762530578824</ele>
      </trkpt>
      <trkpt lat="1.353890452747987" lon="103.81879082391319">
        <ele>40.0</ele>
      </trkpt>
      <trkpt lat="1.3539215844498624" lon="103.81870645929376">
        <ele>40.0</ele>
      </trkpt>
      <trkpt lat="1.3539527161487523" lon="103.81862209467221">
        <ele>40.0</ele>
      </trkpt>
      <trkpt lat="1.3539838478446564" lon="103.81853773004853">
        <ele>40.0</ele>
      </trkpt>
      <trkpt lat="1.354014979537574" lon="103.81845336542274">
        <ele>40.0</ele>
      </trkpt>
      <trkpt lat="1.3540474123365904" lon="103.81837023007867">
        <ele>40.0</ele>
      </trkpt>
      <trkpt lat="1.354130647786128" lon="103.81833509292206">
        <ele>40.0</ele>
      </trkpt>
      <trkpt lat="1.3542174216541012" lon="103.81830997006206">
        <ele>40.0</ele>
      </trkpt>
      <trkpt lat="1.3543047594100628" lon="103.8182882664164">
        <ele>40.0</ele>
      </trkpt>
      <trkpt lat="1.3543949691232515" lon="103.81829462512641">
        <ele>40.00000000000001</ele>
      </trkpt>
      <trkpt lat="1.3544852007593415" lon="103.81830036471516">
        <ele>40.0</ele>
      </trkpt>
      <trkpt lat="1.3545756371856916" lon="103.81830032086874">
        <ele>40.0</ele>
      </trkpt>
      <trkpt lat="1.354666073611974" lon="103.81830027702229">
        <ele>40.0</ele>
      </trkpt>
      <trkpt lat="1.3547559229005175" lon="103.81830615415521">
        <ele>40.0</ele>
      </trkpt>
      <trkpt lat="1.3548446117828319" lon="103.81832373338354">
        <ele>40.0</ele>
      </trkpt>
      <trkpt lat="1.3549329703248048" lon="103.81833399392725">
        <ele>40.0</ele>
      </trkpt>
      <trkpt lat="1.355019719423789" lon="103.81830859726938">
        <ele>40.0</ele>
      </trkpt>
      <trkpt lat="1.355109845878316" lon="103.8183064223839">
        <ele>40.0</ele>
      </trkpt>
      <trkpt lat="1.355200282304243" lon="103.81830637862431">
        <ele>40.0</ele>
      </trkpt>
      <trkpt lat="1.355290718729916" lon="103.81830633448486">
        <ele>40.0</ele>
      </trkpt>
      <trkpt lat="1.355380912150276" lon="103.81830895586091">
        <ele>40.0</ele>
      </trkpt>
      <trkpt lat="1.355469868601125" lon="103.81832514550902">
        <ele>40.0</ele>
      </trkpt>
      <trkpt lat="1.355558825051813" lon="103.8183413351583">
        <ele>40.0</ele>
      </trkpt>
      <trkpt lat="1.3556477815023393" lon="103.81835752480872">
        <ele>40.0</ele>
      </trkpt>
      <trkpt lat="1.355737442212291" lon="103.81835817765139">
        <ele>40.0</ele>
      </trkpt>
      <trkpt lat="1.3558275032469553" lon="103.81834999884923">
        <ele>40.0</ele>
      </trkpt>
      <trkpt lat="1.3559175642815178" lon="103.81834182004643">
        <ele>40.0</ele>
      </trkpt>
      <trkpt lat="1.356007625315978" lon="103.818333641243">
        <ele>40.0</ele>
      </trkpt>
      <trkpt lat="1.3560979597111127" lon="103.81833138624852">
        <ele>40.0</ele>
      </trkpt>
      <trkpt lat="1.356188396136204" lon="103.8183313422751">
        <ele>40.0</ele>
      </trkpt>
      <trkpt lat="1.356278832561228" lon="103.81833129830164">
        <ele>40.0</ele>
      </trkpt>
      <trkpt lat="1.3563692689861844" lon="103.81833125432817">
        <ele>40.0</ele>
      </trkpt>
      <trkpt lat="1.3564597054110723" lon="103.81833121035463">
        <ele>40.0</ele>
      </trkpt>
      <trkpt lat="1.356550141837439" lon="103.818331169667">
        <ele>40.0</ele>
      </trkpt>
      <trkpt lat="1.3566405782640247" lon="103.81833112958732">
        <ele>40.0</ele>
      </trkpt>
      <trkpt lat="1.356731014690542" lon="103.81833108950761">
        <ele>40.0</ele>
      </trkpt>
      <trkpt lat="1.3568214511169916" lon="103.81833104942785">
        <ele>40.0</ele>
      </trkpt>
      <trkpt lat="1.3569118875433734" lon="103.81833100934806">
        <ele>40.0</ele>
      </trkpt>
      <trkpt lat="1.3570023239696871" lon="103.8183309692682">
        <ele>40.0</ele>
      </trkpt>
      <trkpt lat="1.3570372015012844" lon="103.81833095381108">
        <ele>40.0</ele>
      </trkpt>
      <trkpt lat="1.3570424950022637" lon="103.81842065630951">
        <ele>40.0</ele>
      </trkpt>
      <trkpt lat="1.3570477884998995" lon="103.81851035880835">
        <ele>40.0</ele>
      </trkpt>
      <trkpt lat="1.357053081994192" lon="103.81860006130762">
        <ele>40.0</ele>
      </trkpt>
      <trkpt lat="1.357058375485141" lon="103.81868976380733">
        <ele>40.0</ele>
      </trkpt>
      <trkpt lat="1.3570636689727467" lon="103.81877946630746">
        <ele>40.0</ele>
      </trkpt>
      <trkpt lat="1.3570722176948486" lon="103.81886851082247">
        <ele>40.0</ele>
      </trkpt>
      <trkpt lat="1.3570937463488844" lon="103.8189557842043">
        <ele>40.0</ele>
      </trkpt>
      <trkpt lat="1.3571384776090154" lon="103.81903159917425">
        <ele>40.0</ele>
      </trkpt>
      <trkpt lat="1.3571954961951425" lon="103.81910134615346">
        <ele>40.0</ele>
      </trkpt>
      <trkpt lat="1.3572740419786822" lon="103.81914470365689">
        <ele>40.0</ele>
      </trkpt>
      <trkpt lat="1.3573558839241753" lon="103.8191825943413">
        <ele>40.0</ele>
      </trkpt>
      <trkpt lat="1.3574408304695067" lon="103.81921342493995">
        <ele>40.0</ele>
      </trkpt>
      <trkpt lat="1.3575261534501184" lon="103.81924315999626">
        <ele>40.0</ele>
      </trkpt>
      <trkpt lat="1.3576123405150744" lon="103.81927038030052">
        <ele>40.0</ele>
      </trkpt>
      <trkpt lat="1.35769852757968" lon="103.81929760060667">
        <ele>40.0</ele>
      </trkpt>
      <trkpt lat="1.357784714643936" lon="103.81932482091472">
        <ele>40.0</ele>
      </trkpt>
      <trkpt lat="1.3578709017078425" lon="103.81935204122468">
        <ele>40.0</ele>
      </trkpt>
      <trkpt lat="1.3579553531529291" lon="103.81938390379263">
        <ele>40.0</ele>
      </trkpt>
      <trkpt lat="1.35803852364882" lon="103.81941919251439">
        <ele>40.0</ele>
      </trkpt>
      <trkpt lat="1.3581216941441598" lon="103.81945448123854">
        <ele>40.0</ele>
      </trkpt>
      <trkpt lat="1.3582048646389493" lon="103.81948976996509">
        <ele>40.0</ele>
      </trkpt>
      <trkpt lat="1.3582869199413135" lon="103.81952736309297">
        <ele>40.0</ele>
      </trkpt>
      <trkpt lat="1.3583665950290278" lon="103.819569874626">
        <ele>40.0</ele>
      </trkpt>
      <trkpt lat="1.3584462701159656" lon="103.81961238616182">
        <ele>40.0</ele>
      </trkpt>
      <trkpt lat="1.3585259452021266" lon="103.81965489770039">
        <ele>40.0</ele>
      </trkpt>
      <trkpt lat="1.3586037874746142" lon="103.81970030830287">
        <ele>40.00000000000001</ele>
      </trkpt>
      <trkpt lat="1.3586769201018658" lon="103.8197531684121">
        <ele>40.0</ele>
      </trkpt>
      <trkpt lat="1.3587500527279415" lon="103.81980602852451">
        <ele>40.0</ele>
      </trkpt>
      <trkpt lat="1.3588148279512704" lon="103.8198680482221">
        <ele>40.0</ele>
      </trkpt>
      <trkpt lat="1.3588749245476996" lon="103.81993519562332">
        <ele>40.0</ele>
      </trkpt>
      <trkpt lat="1.3589350211422544" lon="103.82000234302785">
        <ele>39.63684956340969</ele>
      </trkpt>
      <trkpt lat="1.3589989011455361" lon="103.8200658072413">
        <ele>38.63262467681697</ele>
      </trkpt>
      <trkpt lat="1.3590652411255648" lon="103.8201268766404">
        <ele>37.541081652294814</ele>
      </trkpt>
      <trkpt lat="1.3591315811040356" lon="103.82018794604285">
        <ele>36.73164965298301</ele>
      </trkpt>
      <trkpt lat="1.3591979210809486" lon="103.82024901544862">
        <ele>36.488613865711635</ele>
      </trkpt>
      <trkpt lat="1.3592649843052906" lon="103.82030929264366">
        <ele>36.26312183932851</ele>
      </trkpt>
      <trkpt lat="1.3593326050844483" lon="103.82036895912015">
        <ele>36.048894847284146</ele>
      </trkpt>
      <trkpt lat="1.3594002258621167" lon="103.82042862559996">
        <ele>35.83957171616034</ele>
      </trkpt>
      <trkpt lat="1.359467846638295" lon="103.82048829208308">
        <ele>35.63024858503653</ele>
      </trkpt>
      <trkpt lat="1.3595354674129836" lon="103.82054795856952">
        <ele>35.43230945436447</ele>
      </trkpt>
      <trkpt lat="1.3596042671812452" lon="103.82060612948888">
        <ele>35.14978007401295</ele>
      </trkpt>
      <trkpt lat="1.3596787677664486" lon="103.82065706885018">
        <ele>34.74964014358354</ele>
      </trkpt>
      <trkpt lat="1.3597538300230632" lon="103.82070688258442">
        <ele>34.36405907854002</ele>
      </trkpt>
      <trkpt lat="1.3598397376214442" lon="103.82073496151202">
        <ele>34.06101532309612</ele>
      </trkpt>
      <trkpt lat="1.3599256452194537" lon="103.82076304044158">
        <ele>33.72134321413002</ele>
      </trkpt>
      <trkpt lat="1.360008138472135" lon="103.8207997278963">
        <ele>33.1966744120184</ele>
      </trkpt>
      <trkpt lat="1.3600902294468986" lon="103.82083742960765">
        <ele>32.51500472267911</ele>
      </trkpt>
      <trkpt lat="1.3601723204210368" lon="103.82087513132154">
        <ele>31.828520109632052</ele>
      </trkpt>
      <trkpt lat="1.36025441139455" lon="103.82091283303795">
        <ele>31.142035496584995</ele>
      </trkpt>
      <trkpt lat="1.3603365023674383" lon="103.82095053475689">
        <ele>30.35150047648224</ele>
      </trkpt>
      <trkpt lat="1.3604175082775183" lon="103.82099038104157">
        <ele>29.312641740958203</ele>
      </trkpt>
      <trkpt lat="1.3604969318366065" lon="103.8210333547535">
        <ele>28.000376949844767</ele>
      </trkpt>
      <trkpt lat="1.360571126417007" lon="103.82108440992918">
        <ele>26.502121581462863</ele>
      </trkpt>
      <trkpt lat="1.3605994447715333" lon="103.82116708181174">
        <ele>25.02077211712616</ele>
      </trkpt>
      <trkpt lat="1.3605991659562104" lon="103.82125613811708">
        <ele>23.64950984453633</ele>
      </trkpt>
      <trkpt lat="1.3605809149777748" lon="103.82134317041947">
        <ele>22.656467464468204</ele>
      </trkpt>
      <trkpt lat="1.3605240115290946" lon="103.82140556450203">
        <ele>22.129171624697516</ele>
      </trkpt>
      <trkpt lat="1.3605128718263964" lon="103.82141139934187">
        <ele>21.99127259083228</ele>
      </trkpt>
      <trkpt lat="1.3605310064170724" lon="103.8214994309498">
        <ele>20.819042341755004</ele>
      </trkpt>
      <trkpt lat="1.3605491410045247" lon="103.82158746255905">
        <ele>20.15253454919142</ele>
      </trkpt>
      <trkpt lat="1.3605590966259005" lon="103.82167659366102">
        <ele>20.0</ele>
      </trkpt>
      <trkpt lat="1.360568146823806" lon="103.82176585328436">
        <ele>20.0</ele>
      </trkpt>
      <trkpt lat="1.3606178413511565" lon="103.82183917387579">
        <ele>20.0</ele>
      </trkpt>
      <trkpt lat="1.360653962945721" lon="103.8219204808037">
        <ele>20.0</ele>
      </trkpt>
      <trkpt lat="1.3607253076841515" lon="103.82195936919669">
        <ele>20.0</ele>
      </trkpt>
      <trkpt lat="1.3607875388353217" lon="103.82201539849895">
        <ele>20.0</ele>
      </trkpt>
      <trkpt lat="1.360784290815508" lon="103.82210514544866">
        <ele>20.0</ele>
      </trkpt>
      <trkpt lat="1.3607928270561849" lon="103.82219456023162">
        <ele>20.0</ele>
      </trkpt>
      <trkpt lat="1.3608075714387462" lon="103.82228084748819">
        <ele>20.0</ele>
      </trkpt>
      <trkpt lat="1.3608055397721746" lon="103.82237068151034">
        <ele>20.0</ele>
      </trkpt>
      <trkpt lat="1.360790789473956" lon="103.82245870056107">
        <ele>20.000000000000004</ele>
      </trkpt>
      <trkpt lat="1.360757236147015" lon="103.82254167516965">
        <ele>20.0</ele>
      </trkpt>
      <trkpt lat="1.3607575475629068" lon="103.82262747997012">
        <ele>20.0</ele>
      </trkpt>
      <trkpt lat="1.3607316427148948" lon="103.82271146380785">
        <ele>20.0</ele>
      </trkpt>
      <trkpt lat="1.3607079387226546" lon="103.82279817901616">
        <ele>20.0</ele>
      </trkpt>
      <trkpt lat="1.3606650688157553" lon="103.82287107734145">
        <ele>20.0</ele>
      </trkpt>
      <trkpt lat="1.3605868125084024" lon="103.82291548790067">
        <ele>20.0</ele>
      </trkpt>
      <trkpt lat="1.3605785466873406" lon="103.82300301879893">
        <ele>20.0</ele>
      </trkpt>
      <trkpt lat="1.3606095843404522" lon="103.82308741785403">
        <ele>20.0</ele>
      </trkpt>
      <trkpt lat="1.3605957851235977" lon="103.82317029620143">
        <ele>20.0</ele>
      </trkpt>
      <trkpt lat="1.3605512270001532" lon="103.82324847582821">
        <ele>20.0</ele>
      </trkpt>
      <trkpt lat="1.360472038669454" lon="103.82328279110575">
        <ele>20.0</ele>
      </trkpt>
      <trkpt lat="1.3604245208583536" lon="103.82335614299134">
        <ele>20.0</ele>
      </trkpt>
      <trkpt lat="1.360405298772654" lon="103.8234407224391">
        <ele>20.000000000000004</ele>
      </trkpt>
      <trkpt lat="1.3604177970945428" lon="103.8235297168894">
        <ele>20.0</ele>
      </trkpt>
      <trkpt lat="1.3604076004136163" lon="103.82361855530944">
        <ele>20.0</ele>
      </trkpt>
      <trkpt lat="1.3603922991877988" lon="103.82370711652257">
        <ele>20.0</ele>
      </trkpt>
      <trkpt lat="1.3603879694027474" lon="103.82379482267379">
        <ele>20.0</ele>
      </trkpt>
      <trkpt lat="1.3604213140032884" lon="103.82387834854485">
        <ele>20.0</ele>
      </trkpt>
      <trkpt lat="1.3604536253937705" lon="103.82396208462106">
        <ele>20.0</ele>
      </trkpt>
      <trkpt lat="1.3604439855288752" lon="103.82404846511861">
        <ele>20.0</ele>
      </trkpt>
      <trkpt lat="1.360423713287452" lon="103.82408041290911">
        <ele>20.0</ele>
      </trkpt>
      <trkpt lat="1.3604546502838895" lon="103.82400076930931">
        <ele>20.0</ele>
      </trkpt>
      <trkpt lat="1.3604356743394763" lon="103.82391432017647">
        <ele>20.0</ele>
      </trkpt>
      <trkpt lat="1.3604023297401857" lon="103.82383079430441">
        <ele>20.0</ele>
      </trkpt>
      <trkpt lat="1.3603857094913967" lon="103.82374525669641">
        <ele>20.0</ele>
      </trkpt>
      <trkpt lat="1.360401010718627" lon="103.82365669548376">
        <ele>20.0</ele>
      </trkpt>
      <trkpt lat="1.3604163119425767" lon="103.82356813427">
        <ele>20.0</ele>
      </trkpt>
      <trkpt lat="1.3604106813571162" lon="103.82347904919307">
        <ele>20.0</ele>
      </trkpt>
      <trkpt lat="1.3604080730256554" lon="103.82339121139876">
        <ele>20.0</ele>
      </trkpt>
      <trkpt lat="1.3604466024044242" lon="103.82330992785411">
        <ele>20.0</ele>
      </trkpt>
      <trkpt lat="1.3605215826942325" lon="103.82327111703914">
        <ele>20.0</ele>
      </trkpt>
      <trkpt lat="1.3605769568572674" lon="103.82320416287892">
        <ele>20.0</ele>
      </trkpt>
      <trkpt lat="1.3606189080292235" lon="103.82312486309822">
        <ele>20.0</ele>
      </trkpt>
      <trkpt lat="1.3605919135043307" lon="103.82303936647898">
        <ele>20.0</ele>
      </trkpt>
      <trkpt lat="1.360575941968696" lon="103.8229523040082">
        <ele>20.0</ele>
      </trkpt>
      <trkpt lat="1.3606310375752355" lon="103.82288989801219">
        <ele>20.0</ele>
      </trkpt>
      <trkpt lat="1.3606977302527479" lon="103.82283552418102">
        <ele>20.0</ele>
      </trkpt>
      <trkpt lat="1.3607214342463467" lon="103.82274880897343">
        <ele>20.0</ele>
      </trkpt>
      <trkpt lat="1.3607487909100617" lon="103.8226634587652">
        <ele>20.0</ele>
      </trkpt>
      <trkpt lat="1.3607494036828045" lon="103.82257696557424">
        <ele>20.0</ele>
      </trkpt>
      <trkpt lat="1.3607781054110235" lon="103.8224952889895">
        <ele>20.0</ele>
      </trkpt>
      <trkpt lat="1.3608035697928325" lon="103.82240924704755">
        <ele>20.0</ele>
      </trkpt>
      <trkpt lat="1.3608066964724082" lon="103.8223195358161">
        <ele>20.0</ele>
      </trkpt>
      <trkpt lat="1.3608066434136812" lon="103.82223018119734">
        <ele>20.0</ele>
      </trkpt>
      <trkpt lat="1.3607866308773684" lon="103.82214377341373">
        <ele>20.0</ele>
      </trkpt>
      <trkpt lat="1.3607860952356203" lon="103.82205406791526">
        <ele>20.0</ele>
      </trkpt>
      <trkpt lat="1.3607608637949997" lon="103.82197407180863">
        <ele>20.0</ele>
      </trkpt>
      <trkpt lat="1.360674982402266" lon="103.82194907915198">
        <ele>20.0</ele>
      </trkpt>
      <trkpt lat="1.3606374174934812" lon="103.82187262853905">
        <ele>20.0</ele>
      </trkpt>
      <trkpt lat="1.3605894159039842" lon="103.82179683005654">
        <ele>20.0</ele>
      </trkpt>
      <trkpt lat="1.3605617068215836" lon="103.82171520474931">
        <ele>20.0</ele>
      </trkpt>
      <trkpt lat="1.3605556459648245" lon="103.82162555007714">
        <ele>20.0</ele>
      </trkpt>
      <trkpt lat="1.3605388163412466" lon="103.82153734304221">
        <ele>20.4451577416857</ele>
      </trkpt>
      <trkpt lat="1.360520681751959" lon="103.82144931143371">
        <ele>21.111665534249283</ele>
      </trkpt>
      <trkpt lat="1.3605128718263964" lon="103.82141139934187">
        <ele>21.667498301373925</ele>
      </trkpt>
    </trkseg>
  </trk>
</gpx>