<?xml version="1.0" encoding="UTF-8"?>
<gpx xmlns="http://www.topografix.com/GPX/1/1" xmlns:xsi="http://www.w3.org/2001/XMLSchema-instance" xsi:schemaLocation="http://www.topografix.com/GPX/1/1 http://www.topografix.com/GPX/1/1/gpx.xsd" version="1.1" creator="gpx.py -- https://github.com/tkrajina/gpxpy">
  <trk>
    <name>point_to_point_05000m_008</name>
    <trkseg>
      <trkpt lat="1.3372309120547352" lon="103.67016153840491">
        <ele>20.0</ele>
      </trkpt>
      <trkpt lat="1.337242194506217" lon="103.67025069187397">
        <ele>20.0</ele>
      </trkpt>
      <trkpt lat="1.3372534769545399" lon="103.67033984534423">
        <ele>20.0</ele>
      </trkpt>
      <trkpt lat="1.3373233147766164" lon="103.6703910091086">
        <ele>20.0</ele>
      </trkpt>
      <trkpt lat="1.3374009313212973" lon="103.6704371261756">
        <ele>20.0</ele>
      </trkpt>
      <trkpt lat="1.3374785478654152" lon="103.6704832432453">
        <ele>20.0</ele>
      </trkpt>
      <trkpt lat="1.3375602455743314" lon="103.67051938966468">
        <ele>20.0</ele>
      </trkpt>
      <trkpt lat="1.3376482260003435" lon="103.67054018684375">
        <ele>20.0</ele>
      </trkpt>
      <trkpt lat="1.3377362064262974" lon="103.67056098402396">
        <ele>20.0</ele>
      </trkpt>
      <trkpt lat="1.337824186852193" lon="103.6705817812053">
        <ele>20.0</ele>
      </trkpt>
      <trkpt lat="1.3379121672780305" lon="103.67060257838776">
        <ele>20.0</ele>
      </trkpt>
      <trkpt lat="1.338000773596309" lon="103.67061997122921">
        <ele>20.0</ele>
      </trkpt>
      <trkpt lat="1.3380904722820892" lon="103.67063142248747">
        <ele>20.0</ele>
      </trkpt>
      <trkpt lat="1.3381801709678522" lon="103.67064287374615">
        <ele>20.0</ele>
      </trkpt>
      <trkpt lat="1.3382698696535982" lon="103.67065432500529">
        <ele>20.0</ele>
      </trkpt>
      <trkpt lat="1.338359568339327" lon="103.67066577626487">
        <ele>20.0</ele>
      </trkpt>
      <trkpt lat="1.3384492670250385" lon="103.67067722752486">
        <ele>20.0</ele>
      </trkpt>
      <trkpt lat="1.3385389189786394" lon="103.6706890293378">
        <ele>20.135525623132697</ele>
      </trkpt>
      <trkpt lat="1.3386285250598415" lon="103.67070117525468">
        <ele>20.808528089550833</ele>
      </trkpt>
      <trkpt lat="1.3387181311410263" lon="103.67071332117206">
        <ele>22.019007399254154</ele>
      </trkpt>
      <trkpt lat="1.338807737222193" lon="103.67072546708994">
        <ele>23.63143792911031</ele>
      </trkpt>
      <trkpt lat="1.3388973433033424" lon="103.6707376130083">
        <ele>25.24386845896612</ele>
      </trkpt>
      <trkpt lat="1.3389869493844735" lon="103.67074975892716">
        <ele>26.849898132195992</ele>
      </trkpt>
      <trkpt lat="1.3390767137873911" lon="103.67076065222902">
        <ele>28.446215653090054</ele>
      </trkpt>
      <trkpt lat="1.3391665600934384" lon="103.67077089752627">
        <ele>30.035313070245937</ele>
      </trkpt>
      <trkpt lat="1.3392562950084281" lon="103.6707816754882">
        <ele>31.69557411199227</ele>
      </trkpt>
      <trkpt lat="1.3393428123909987" lon="103.67080783947058">
        <ele>32.71521682948396</ele>
      </trkpt>
      <trkpt lat="1.339429329773452" lon="103.67083400345444">
        <ele>32.99744736631095</ele>
      </trkpt>
      <trkpt lat="1.339515847155789" lon="103.67086016743983">
        <ele>32.48052119351018</ele>
      </trkpt>
      <trkpt lat="1.3396020941175129" lon="103.67088717115715">
        <ele>31.819430677756703</ele>
      </trkpt>
      <trkpt lat="1.3396878280930866" lon="103.67091576783957">
        <ele>31.061490824087883</ele>
      </trkpt>
      <trkpt lat="1.3397729295494312" lon="103.67094612753853">
        <ele>30.21238242224527</ele>
      </trkpt>
      <trkpt lat="1.3398575375685562" lon="103.67097786259201">
        <ele>29.699534403748185</ele>
      </trkpt>
      <trkpt lat="1.339924099056639" lon="103.67103634972253">
        <ele>29.668936449472366</ele>
      </trkpt>
      <trkpt lat="1.339985796611943" lon="103.67110204712071">
        <ele>30.47398841818772</ele>
      </trkpt>
      <trkpt lat="1.3400160496483104" lon="103.67118469005301">
        <ele>31.843513651790392</ele>
      </trkpt>
      <trkpt lat="1.3400381895772748" lon="103.67127179964451">
        <ele>33.62940537344365</ele>
      </trkpt>
      <trkpt lat="1.3400655595919946" lon="103.67135744130161">
        <ele>35.40762431627282</ele>
      </trkpt>
      <trkpt lat="1.3401011745988356" lon="103.67143970883733">
        <ele>37.12275820014584</ele>
      </trkpt>
      <trkpt lat="1.3401431087027662" lon="103.67151931799678">
        <ele>39.01631982140378</ele>
      </trkpt>
      <trkpt lat="1.3401855746428422" lon="103.67159865113436">
        <ele>41.42721251994775</ele>
      </trkpt>
      <trkpt lat="1.3402149866805222" lon="103.67168303342456">
        <ele>44.27171472660921</ele>
      </trkpt>
      <trkpt lat="1.340248587588876" lon="103.67176335688067">
        <ele>47.153920591734895</ele>
      </trkpt>
      <trkpt lat="1.3403164205338334" lon="103.67182278414272">
        <ele>49.7848866218603</ele>
      </trkpt>
      <trkpt lat="1.3403845635745097" lon="103.67188177982686">
        <ele>52.03137030002987</ele>
      </trkpt>
      <trkpt lat="1.3404631643800777" lon="103.67192622078758">
        <ele>53.997371071867065</ele>
      </trkpt>
      <trkpt lat="1.3405440396928134" lon="103.67196445668786">
        <ele>55.43752094074824</ele>
      </trkpt>
      <trkpt lat="1.3406329953321443" lon="103.67198064872599">
        <ele>56.4641358109798</ele>
      </trkpt>
      <trkpt lat="1.3407222198171043" lon="103.67199136411696">
        <ele>56.96398949989844</ele>
      </trkpt>
      <trkpt lat="1.3408123391646634" lon="103.6719838502825">
        <ele>57.31938346240691</ele>
      </trkpt>
      <trkpt lat="1.3409021556650376" lon="103.67197473980077">
        <ele>57.85005035740581</ele>
      </trkpt>
      <trkpt lat="1.3409888456805192" lon="103.6719491461112">
        <ele>58.7230112983602</ele>
      </trkpt>
      <trkpt lat="1.341074124577268" lon="103.67192014957287">
        <ele>59.51644720526756</ele>
      </trkpt>
      <trkpt lat="1.341149154712849" lon="103.67187217594156">
        <ele>59.22713697483322</ele>
      </trkpt>
      <trkpt lat="1.341204643895561" lon="103.67180122255985">
        <ele>57.951384909905435</ele>
      </trkpt>
      <trkpt lat="1.3412380835324658" lon="103.67171780198737">
        <ele>56.121291310166754</ele>
      </trkpt>
      <trkpt lat="1.3412518454542586" lon="103.67163167971974">
        <ele>54.577270103341895</ele>
      </trkpt>
      <trkpt lat="1.3412413343277743" lon="103.67154243307937">
        <ele>52.651078318403016</ele>
      </trkpt>
      <trkpt lat="1.3412140017356866" lon="103.67145694688791">
        <ele>50.191069201757365</ele>
      </trkpt>
      <trkpt lat="1.3411853111405334" lon="103.67137173342044">
        <ele>47.10769393504061</ele>
      </trkpt>
      <trkpt lat="1.3411572401644405" lon="103.67128631660663">
        <ele>44.019064175971806</ele>
      </trkpt>
      <trkpt lat="1.3411292529639771" lon="103.6712008724703">
        <ele>41.650988730475724</ele>
      </trkpt>
      <trkpt lat="1.3411143092892355" lon="103.67111303360039">
        <ele>40.311457476457136</ele>
      </trkpt>
      <trkpt lat="1.3411178722751023" lon="103.67102369979821">
        <ele>40.0</ele>
      </trkpt>
      <trkpt lat="1.3411311688190184" lon="103.67093482092082">
        <ele>40.0</ele>
      </trkpt>
      <trkpt lat="1.3411453708638488" lon="103.6708460802062">
        <ele>40.0</ele>
      </trkpt>
      <trkpt lat="1.3411595729053138" lon="103.67075733949093">
        <ele>40.0</ele>
      </trkpt>
      <trkpt lat="1.341186210191174" lon="103.67067173762014">
        <ele>40.0</ele>
      </trkpt>
      <trkpt lat="1.3412163586603747" lon="103.67058702202445">
        <ele>40.0</ele>
      </trkpt>
      <trkpt lat="1.3412962726286464" lon="103.67055084931006">
        <ele>40.0</ele>
      </trkpt>
      <trkpt lat="1.3413803839473826" lon="103.67051784591033">
        <ele>40.0</ele>
      </trkpt>
      <trkpt lat="1.3414643543176894" lon="103.67048448076788">
        <ele>40.0</ele>
      </trkpt>
      <trkpt lat="1.3415503019626338" lon="103.67045740243316">
        <ele>40.0</ele>
      </trkpt>
      <trkpt lat="1.341638451912648" lon="103.67043732639722">
        <ele>40.0</ele>
      </trkpt>
      <trkpt lat="1.3417282785454638" lon="103.67043072578404">
        <ele>40.0</ele>
      </trkpt>
      <trkpt lat="1.3418186952943132" lon="103.67042886790615">
        <ele>40.0</ele>
      </trkpt>
      <trkpt lat="1.3419091120430773" lon="103.67042701002771">
        <ele>40.0</ele>
      </trkpt>
      <trkpt lat="1.3419995287917559" lon="103.67042515214874">
        <ele>40.0</ele>
      </trkpt>
      <trkpt lat="1.3420898145153366" lon="103.67042093957551">
        <ele>40.0</ele>
      </trkpt>
      <trkpt lat="1.34217988633238" lon="103.67041288281902">
        <ele>40.0</ele>
      </trkpt>
      <trkpt lat="1.3422699581492568" lon="103.67040482606154">
        <ele>40.0</ele>
      </trkpt>
      <trkpt lat="1.3423600299659681" lon="103.6703967693031">
        <ele>40.0</ele>
      </trkpt>
      <trkpt lat="1.3424492537920325" lon="103.67038262086979">
        <ele>40.0</ele>
      </trkpt>
      <trkpt lat="1.3425381451146319" lon="103.6703660838459">
        <ele>40.0</ele>
      </trkpt>
      <trkpt lat="1.34262495917341" lon="103.67034487539928">
        <ele>40.0</ele>
      </trkpt>
      <trkpt lat="1.3426971194880264" lon="103.67029071311171">
        <ele>40.0</ele>
      </trkpt>
      <trkpt lat="1.3427200455975825" lon="103.6702051514796">
        <ele>39.99999999999999</ele>
      </trkpt>
      <trkpt lat="1.3427356981055907" lon="103.67011686494644">
        <ele>40.0</ele>
      </trkpt>
      <trkpt lat="1.3427416605904847" lon="103.67002720478209">
        <ele>40.0</ele>
      </trkpt>
      <trkpt lat="1.342744700001254" lon="103.66993744877234">
        <ele>40.0</ele>
      </trkpt>
      <trkpt lat="1.3427447000013366" lon="103.66984759310292">
        <ele>40.0</ele>
      </trkpt>
      <trkpt lat="1.3427367460872732" lon="103.66975849942624">
        <ele>40.0</ele>
      </trkpt>
      <trkpt lat="1.3427194670761329" lon="103.6696702991039">
        <ele>40.0</ele>
      </trkpt>
      <trkpt lat="1.3427030619037055" lon="103.66958193464977">
        <ele>40.0</ele>
      </trkpt>
      <trkpt lat="1.3426867438833803" lon="103.66949355382688">
        <ele>40.0</ele>
      </trkpt>
      <trkpt lat="1.342705262464271" lon="103.6694060692206">
        <ele>40.0</ele>
      </trkpt>
      <trkpt lat="1.3427512421089158" lon="103.66933385992178">
        <ele>40.0</ele>
      </trkpt>
      <trkpt lat="1.3428199583108489" lon="103.66927544297559">
        <ele>40.0</ele>
      </trkpt>
      <trkpt lat="1.3428956754749635" lon="103.66922698896029">
        <ele>40.0</ele>
      </trkpt>
      <trkpt lat="1.3429745464940028" lon="103.66918302313267">
        <ele>40.0</ele>
      </trkpt>
      <trkpt lat="1.3430534175118465" lon="103.66913905730202">
        <ele>40.0</ele>
      </trkpt>
      <trkpt lat="1.3431267487288312" lon="103.66908687357088">
        <ele>40.0</ele>
      </trkpt>
      <trkpt lat="1.3431976883352073" lon="103.66903114205523">
        <ele>40.0</ele>
      </trkpt>
      <trkpt lat="1.3432378525138098" lon="103.66895662172045">
        <ele>40.0</ele>
      </trkpt>
      <trkpt lat="1.3432522786574546" lon="103.66886814180315">
        <ele>40.0</ele>
      </trkpt>
      <trkpt lat="1.3432555070959282" lon="103.66877834339371">
        <ele>40.0</ele>
      </trkpt>
      <trkpt lat="1.3432507714681134" lon="103.66868887660988">
        <ele>40.0</ele>
      </trkpt>
      <trkpt lat="1.3432399922618836" lon="103.66859966148287">
        <ele>40.0</ele>
      </trkpt>
      <trkpt lat="1.3432405439286108" lon="103.6685099580563">
        <ele>40.0</ele>
      </trkpt>
      <trkpt lat="1.343243529741145" lon="103.66842015228035">
        <ele>40.0</ele>
      </trkpt>
      <trkpt lat="1.343254241837412" lon="103.66833092917504">
        <ele>40.0</ele>
      </trkpt>
      <trkpt lat="1.3432753790473224" lon="103.66824421528038">
        <ele>40.0</ele>
      </trkpt>
      <trkpt lat="1.3433069496104277" lon="103.66816001257837">
        <ele>40.0</ele>
      </trkpt>
      <trkpt lat="1.3433438182247326" lon="103.66807882983301">
        <ele>40.0</ele>
      </trkpt>
      <trkpt lat="1.3434010418750648" lon="103.66800924971643">
        <ele>40.0</ele>
      </trkpt>
      <trkpt lat="1.3434582655229723" lon="103.66793966959669">
        <ele>40.0</ele>
      </trkpt>
      <trkpt lat="1.3434471353180861" lon="103.66786218912608">
        <ele>40.0</ele>
      </trkpt>
      <trkpt lat="1.343407514766911" lon="103.66778141573947">
        <ele>40.0</ele>
      </trkpt>
      <trkpt lat="1.3433662174159902" lon="103.66770147881573">
        <ele>40.0</ele>
      </trkpt>
      <trkpt lat="1.3433246881074055" lon="103.66762165760443">
        <ele>40.0</ele>
      </trkpt>
      <trkpt lat="1.3432832028036212" lon="103.66754181629089">
        <ele>40.0</ele>
      </trkpt>
      <trkpt lat="1.3432492504318723" lon="103.66745853347206">
        <ele>40.0</ele>
      </trkpt>
      <trkpt lat="1.3432237821550461" lon="103.66737314036268">
        <ele>40.0</ele>
      </trkpt>
      <trkpt lat="1.343214237222716" lon="103.66728378655894">
        <ele>39.94106587434734</ele>
      </trkpt>
      <trkpt lat="1.3432156686977503" lon="103.6671962309701">
        <ele>38.76910662548925</ele>
      </trkpt>
      <trkpt lat="1.3432535797253018" lon="103.66711465165461">
        <ele>36.45065220536218</ele>
      </trkpt>
      <trkpt lat="1.3432988964841817" lon="103.66703764954939">
        <ele>32.99231777775329</ele>
      </trkpt>
      <trkpt lat="1.343355789570845" lon="103.66696780234606">
        <ele>29.446509945799747</ele>
      </trkpt>
      <trkpt lat="1.3434140175170612" lon="103.66689926508293">
        <ele>25.83236511476315</ele>
      </trkpt>
      <trkpt lat="1.3434836046979735" lon="103.66684187500346">
        <ele>22.962093186419015</ele>
      </trkpt>
      <trkpt lat="1.343553191877082" lon="103.66678448492067">
        <ele>21.994366146135505</ele>
      </trkpt>
      <trkpt lat="1.343626486500453" lon="103.66673188291423">
        <ele>22.940535290969816</ele>
      </trkpt>
      <trkpt lat="1.3437007144355264" lon="103.66668090094291">
        <ele>24.98150929200577</ele>
      </trkpt>
      <trkpt lat="1.3437873887984206" lon="103.66665525503328">
        <ele>26.96030055829081</ele>
      </trkpt>
      <trkpt lat="1.3438740631607555" lon="103.66662960912149">
        <ele>28.901028238113216</ele>
      </trkpt>
      <trkpt lat="1.3439546947720473" lon="103.66659312322578">
        <ele>30.90756704981612</ele>
      </trkpt>
      <trkpt lat="1.344022554543548" lon="103.66653372615527">
        <ele>32.844150461411104</ele>
      </trkpt>
      <trkpt lat="1.344090414313146" lon="103.66647432908142">
        <ele>34.27997395524073</ele>
      </trkpt>
      <trkpt lat="1.3441557266681534" lon="103.66641220587924">
        <ele>35.25992377885402</ele>
      </trkpt>
      <trkpt lat="1.3442203717468997" lon="103.6663493685873">
        <ele>36.636652424003664</ele>
      </trkpt>
      <trkpt lat="1.3442850168235687" lon="103.66628653129206">
        <ele>38.246531356680975</ele>
      </trkpt>
      <trkpt lat="1.3443612185123486" lon="103.66623906937306">
        <ele>39.606609201934525</ele>
      </trkpt>
      <trkpt lat="1.3444402133925302" lon="103.66619532362577">
        <ele>40.0</ele>
      </trkpt>
      <trkpt lat="1.3445192082715172" lon="103.66615157787544">
        <ele>40.0</ele>
      </trkpt>
      <trkpt lat="1.344598202529875" lon="103.66610783102256">
        <ele>40.0</ele>
      </trkpt>
      <trkpt lat="1.3446770359936528" lon="103.66606379875246">
        <ele>40.0</ele>
      </trkpt>
      <trkpt lat="1.3447558694562238" lon="103.66601976647932">
        <ele>41.31687613754507</ele>
      </trkpt>
      <trkpt lat="1.3448347029175882" lon="103.66597573420314">
        <ele>43.84029265494616</ele>
      </trkpt>
      <trkpt lat="1.3449008258701265" lon="103.66591556212477">
        <ele>47.22682873254103</ele>
      </trkpt>
      <trkpt lat="1.3449369997403733" lon="103.6658333563447">
        <ele>50.344302978615296</ele>
      </trkpt>
      <trkpt lat="1.344989979095125" lon="103.66576545888275">
        <ele>51.894491442978556</ele>
      </trkpt>
      <trkpt lat="1.3450674243740026" lon="103.66571994740215">
        <ele>52.04759602644185</ele>
      </trkpt>
      <trkpt lat="1.3451556737531747" lon="103.66570030741258">
        <ele>50.61892198317474</ele>
      </trkpt>
      <trkpt lat="1.345243923131946" lon="103.66568066742121">
        <ele>49.15452141770819</ele>
      </trkpt>
      <trkpt lat="1.3453321725103156" lon="103.66566102742807">
        <ele>47.87998266608279</ele>
      </trkpt>
      <trkpt lat="1.345419173788222" lon="103.66563747033247">
        <ele>46.81886968154268</ele>
      </trkpt>
      <trkpt lat="1.3455027205534669" lon="103.66560307141859">
        <ele>46.1727736332391</ele>
      </trkpt>
      <trkpt lat="1.3455816581676607" lon="103.6655644631381">
        <ele>45.31789854500676</ele>
      </trkpt>
      <trkpt lat="1.3456091306965354" lon="103.66547885372587">
        <ele>44.20201422579091</ele>
      </trkpt>
      <trkpt lat="1.345631633606852" lon="103.66539212670973">
        <ele>42.42723089512313</ele>
      </trkpt>
      <trkpt lat="1.3456439417939814" lon="103.66530310703186">
        <ele>41.01700407392269</ele>
      </trkpt>
      <trkpt lat="1.3456382564392158" lon="103.66521472566849">
        <ele>40.18832503732646</ele>
      </trkpt>
      <trkpt lat="1.3456195900107228" lon="103.66512680480568">
        <ele>40.0</ele>
      </trkpt>
      <trkpt lat="1.3456068117848206" lon="103.66503800117444">
        <ele>40.0</ele>
      </trkpt>
      <trkpt lat="1.3455985375038422" lon="103.66494852230453">
        <ele>39.91911469972607</ele>
      </trkpt>
      <trkpt lat="1.345590263219637" lon="103.66485904343564">
        <ele>39.473606680681634</ele>
      </trkpt>
      <trkpt lat="1.3455819889322052" lon="103.66476956456778">
        <ele>39.473606680681634</ele>
      </trkpt>
      <trkpt lat="1.3455737146415463" lon="103.66468008570091">
        <ele>39.55449198095557</ele>
      </trkpt>
      <trkpt lat="1.345565440347661" lon="103.66459060683506">
        <ele>40.0</ele>
      </trkpt>
      <trkpt lat="1.345557166050549" lon="103.66450112797021">
        <ele>40.0</ele>
      </trkpt>
      <trkpt lat="1.3455488917502103" lon="103.6644116491064">
        <ele>40.0</ele>
      </trkpt>
      <trkpt lat="1.3455406174466453" lon="103.66432217024358">
        <ele>40.0</ele>
      </trkpt>
      <trkpt lat="1.3455323431398538" lon="103.6642326913818">
        <ele>40.0</ele>
      </trkpt>
      <trkpt lat="1.3455298230360342" lon="103.66420543883146">
        <ele>40.0</ele>
      </trkpt>
    </trkseg>
  </trk>
</gpx>