<?xml version="1.0" encoding="UTF-8"?>
<gpx xmlns="http://www.topografix.com/GPX/1/1" xmlns:xsi="http://www.w3.org/2001/XMLSchema-instance" xsi:schemaLocation="http://www.topografix.com/GPX/1/1 http://www.topografix.com/GPX/1/1/gpx.xsd" version="1.1" creator="gpx.py -- https://github.com/tkrajina/gpxpy">
  <trk>
    <name>point_to_point_05000m_018</name>
    <trkseg>
      <trkpt lat="1.3512825234457582" lon="103.66381938003556">
        <ele>20.0</ele>
      </trkpt>
      <trkpt lat="1.351343371034159" lon="103.66375290441034">
        <ele>20.0</ele>
      </trkpt>
      <trkpt lat="1.3514042186202775" lon="103.66368642878187">
        <ele>20.0</ele>
      </trkpt>
      <trkpt lat="1.351465066204114" lon="103.66361995315012">
        <ele>20.0</ele>
      </trkpt>
      <trkpt lat="1.3515259137856686" lon="103.6635534775151">
        <ele>20.0</ele>
      </trkpt>
      <trkpt lat="1.351586761364941" lon="103.6634870018768">
        <ele>20.403753902453015</ele>
      </trkpt>
      <trkpt lat="1.3516283655725423" lon="103.6634082594798">
        <ele>21.696764195388184</ele>
      </trkpt>
      <trkpt lat="1.351663818671014" lon="103.6633255960357">
        <ele>23.879030878805708</ele>
      </trkpt>
      <trkpt lat="1.3516992717663388" lon="103.6632429325895">
        <ele>26.58247301989792</ele>
      </trkpt>
      <trkpt lat="1.351729989311215" lon="103.66315859975231">
        <ele>29.365332949782754</ele>
      </trkpt>
      <trkpt lat="1.351754899776415" lon="103.6630722197861">
        <ele>32.22761066845998</ele>
      </trkpt>
      <trkpt lat="1.3517798102382939" lon="103.66298583981849">
        <ele>35.05229805933923</ele>
      </trkpt>
      <trkpt lat="1.3518047206968506" lon="103.66289945984947">
        <ele>37.44090867869435</ele>
      </trkpt>
      <trkpt lat="1.351809900000536" lon="103.66281032659907">
        <ele>39.82908503491429</ele>
      </trkpt>
      <trkpt lat="1.35180905229969" lon="103.66272047725705">
        <ele>42.571247197616145</ele>
      </trkpt>
      <trkpt lat="1.3518076293224486" lon="103.66263063241266">
        <ele>46.02213679137904</ele>
      </trkpt>
      <trkpt lat="1.3518062063418756" lon="103.66254078756877">
        <ele>49.44916867720091</ele>
      </trkpt>
      <trkpt lat="1.3518047833579707" lon="103.66245094272544">
        <ele>52.32294219180485</ele>
      </trkpt>
      <trkpt lat="1.3518027409908095" lon="103.66236118475632">
        <ele>54.880528474150786</ele>
      </trkpt>
      <trkpt lat="1.3517790776003462" lon="103.66227445933428">
        <ele>56.3716611451483</ele>
      </trkpt>
      <trkpt lat="1.35174555050705" lon="103.66219216728985">
        <ele>57.03758919764106</ele>
      </trkpt>
      <trkpt lat="1.3516956194930194" lon="103.66211724821497">
        <ele>56.678491264106675</ele>
      </trkpt>
      <trkpt lat="1.351642665145397" lon="103.66204499853305">
        <ele>56.61974401702306</ele>
      </trkpt>
      <trkpt lat="1.3515736533487976" lon="103.66198692645406">
        <ele>56.900235066487454</ele>
      </trkpt>
      <trkpt lat="1.3515035998038893" lon="103.66193044970582">
        <ele>57.7443735309407</ele>
      </trkpt>
      <trkpt lat="1.3514221032452067" lon="103.66189149674369">
        <ele>58.78556879622358</ele>
      </trkpt>
      <trkpt lat="1.3513384576344472" lon="103.66186071167509">
        <ele>59.01657245324717</ele>
      </trkpt>
      <trkpt lat="1.3512482011306766" lon="103.66185505259809">
        <ele>57.638898840213564</ele>
      </trkpt>
      <trkpt lat="1.3511581113907143" lon="103.66184743345535">
        <ele>54.65916582581582</ele>
      </trkpt>
      <trkpt lat="1.3510681795854123" lon="103.66183795802097">
        <ele>51.060800956806666</ele>
      </trkpt>
      <trkpt lat="1.3509782477800956" lon="103.66182848258687">
        <ele>47.38063100510558</ele>
      </trkpt>
      <trkpt lat="1.3508883159747642" lon="103.66181900715306">
        <ele>43.682828870913056</ele>
      </trkpt>
      <trkpt lat="1.3507996391153052" lon="103.66180329202169">
        <ele>40.29051227093771</ele>
      </trkpt>
      <trkpt lat="1.3507129489257614" lon="103.661777698999">
        <ele>37.20368120517952</ele>
      </trkpt>
      <trkpt lat="1.350626258736118" lon="103.66175210597777">
        <ele>34.43996785612989</ele>
      </trkpt>
      <trkpt lat="1.3505395685463748" lon="103.661726512958">
        <ele>31.676254507079637</ele>
      </trkpt>
      <trkpt lat="1.3504528783565315" lon="103.66170091993969">
        <ele>28.912541158029388</ele>
      </trkpt>
      <trkpt lat="1.3503661881665887" lon="103.66167532692283">
        <ele>25.885752417226694</ele>
      </trkpt>
      <trkpt lat="1.3502794979765456" lon="103.66164973390742">
        <ele>22.914905364550435</ele>
      </trkpt>
      <trkpt lat="1.3501928077864038" lon="103.6616241408935">
        <ele>20.865296094890745</ele>
      </trkpt>
      <trkpt lat="1.3501061175961617" lon="103.66159854788101">
        <ele>20.0</ele>
      </trkpt>
      <trkpt lat="1.3500171707128288" lon="103.66158282444744">
        <ele>20.0</ele>
      </trkpt>
      <trkpt lat="1.3499278606436855" lon="103.66156868939643">
        <ele>20.0</ele>
      </trkpt>
      <trkpt lat="1.3498385505745265" lon="103.66155455434607">
        <ele>20.0</ele>
      </trkpt>
      <trkpt lat="1.349749240505352" lon="103.66154041929632">
        <ele>20.0</ele>
      </trkpt>
      <trkpt lat="1.3497308415268154" lon="103.66153750730138">
        <ele>20.0</ele>
      </trkpt>
      <trkpt lat="1.3497015816150484" lon="103.6616225301628">
        <ele>20.0</ele>
      </trkpt>
      <trkpt lat="1.3496723217000222" lon="103.66170755302254">
        <ele>20.0</ele>
      </trkpt>
      <trkpt lat="1.3496567527289218" lon="103.66179567916001">
        <ele>20.0</ele>
      </trkpt>
      <trkpt lat="1.3496460061615858" lon="103.66188489837519">
        <ele>20.0</ele>
      </trkpt>
      <trkpt lat="1.3496352595908543" lon="103.66197411759002">
        <ele>20.0</ele>
      </trkpt>
      <trkpt lat="1.3496245130167281" lon="103.66206333680448">
        <ele>20.0</ele>
      </trkpt>
      <trkpt lat="1.3496137664392063" lon="103.66215255601855">
        <ele>20.0</ele>
      </trkpt>
      <trkpt lat="1.3496030198582898" lon="103.66224177523226">
        <ele>20.0</ele>
      </trkpt>
      <trkpt lat="1.349592273273979" lon="103.6623309944456">
        <ele>20.0</ele>
      </trkpt>
      <trkpt lat="1.3495815266862725" lon="103.66242021365858">
        <ele>20.42979376449207</ele>
      </trkpt>
      <trkpt lat="1.3495707800951722" lon="103.66250943287116">
        <ele>21.664639447852675</ele>
      </trkpt>
      <trkpt lat="1.3495601194466496" lon="103.66259865568726">
        <ele>23.603534490272768</ele>
      </trkpt>
      <trkpt lat="1.3495632621129097" lon="103.6626884573027">
        <ele>25.816685127260413</ele>
      </trkpt>
      <trkpt lat="1.349566404775863" lon="103.6627782589188">
        <ele>27.75060385010693</ele>
      </trkpt>
      <trkpt lat="1.34957793463765" lon="103.66286691540799">
        <ele>29.30385993293748</ele>
      </trkpt>
      <trkpt lat="1.3495992875108982" lon="103.66295423073576">
        <ele>30.476453375751845</ele>
      </trkpt>
      <trkpt lat="1.3496206403811835" lon="103.66304154606544">
        <ele>31.158796234813952</ele>
      </trkpt>
      <trkpt lat="1.3496702652664894" lon="103.66311480979194">
        <ele>31.47298280101022</ele>
      </trkpt>
      <trkpt lat="1.349727781772687" lon="103.6631841512701">
        <ele>31.281170554343003</ele>
      </trkpt>
      <trkpt lat="1.3497852982772833" lon="103.66325349275162">
        <ele>30.804416843318815</ele>
      </trkpt>
      <trkpt lat="1.349842814780279" lon="103.66332283423648">
        <ele>30.02714372841238</ele>
      </trkpt>
      <trkpt lat="1.3499072060671395" lon="103.66338446299424">
        <ele>28.92203769527501</ele>
      </trkpt>
      <trkpt lat="1.349983434807132" lon="103.66343281147263">
        <ele>27.555858693469087</ele>
      </trkpt>
      <trkpt lat="1.3500596635464934" lon="103.66348115995386">
        <ele>26.02452365731742</ele>
      </trkpt>
      <trkpt lat="1.3501358922852227" lon="103.66352950843792">
        <ele>24.493188621165768</ele>
      </trkpt>
      <trkpt lat="1.3502121210233202" lon="103.66357785692482">
        <ele>22.961853585014108</ele>
      </trkpt>
      <trkpt lat="1.3502883497607858" lon="103.66362620541454">
        <ele>21.464124044625294</ele>
      </trkpt>
      <trkpt lat="1.3503645784976195" lon="103.66367455390711">
        <ele>20.47683951628746</ele>
      </trkpt>
      <trkpt lat="1.3504408072338205" lon="103.66372290240251">
        <ele>20.0</ele>
      </trkpt>
      <trkpt lat="1.3504412806041743" lon="103.66372320264027">
        <ele>20.0</ele>
      </trkpt>
      <trkpt lat="1.3504254992978282" lon="103.66381167988123">
        <ele>20.147426250356364</ele>
      </trkpt>
      <trkpt lat="1.3504097179880945" lon="103.66390015712143">
        <ele>20.4886583698092</ele>
      </trkpt>
      <trkpt lat="1.3503939366749729" lon="103.66398863436089">
        <ele>20.83219677079771</ele>
      </trkpt>
      <trkpt lat="1.3503939334976067" lon="103.66407759135942">
        <ele>20.905485222054494</ele>
      </trkpt>
      <trkpt lat="1.3504042400950786" lon="103.66416686184418">
        <ele>20.662144104840234</ele>
      </trkpt>
      <trkpt lat="1.3504145466893456" lon="103.66425613233008">
        <ele>20.31860570385172</ele>
      </trkpt>
      <trkpt lat="1.3504421387721783" lon="103.66433960302666">
        <ele>20.097891002238573</ele>
      </trkpt>
      <trkpt lat="1.3504884123293797" lon="103.66441680554136">
        <ele>20.0</ele>
      </trkpt>
      <trkpt lat="1.3505434106338952" lon="103.66448675069499">
        <ele>20.0</ele>
      </trkpt>
      <trkpt lat="1.350611762702237" lon="103.66454558800987">
        <ele>20.0</ele>
      </trkpt>
      <trkpt lat="1.350680114769523" lon="103.66460442532798">
        <ele>20.0</ele>
      </trkpt>
      <trkpt lat="1.3507481383957975" lon="103.66466356173085">
        <ele>20.0</ele>
      </trkpt>
      <trkpt lat="1.3508011857140443" lon="103.6647363357484">
        <ele>20.0</ele>
      </trkpt>
      <trkpt lat="1.3508542330304738" lon="103.66480910976924">
        <ele>20.0</ele>
      </trkpt>
      <trkpt lat="1.3509072803450852" lon="103.66488188379336">
        <ele>20.0</ele>
      </trkpt>
      <trkpt lat="1.3509554417904435" lon="103.66495770641544">
        <ele>20.0</ele>
      </trkpt>
      <trkpt lat="1.3509983757252626" lon="103.66503679080618">
        <ele>20.0</ele>
      </trkpt>
      <trkpt lat="1.3510394005334252" lon="103.66511665587824">
        <ele>20.0</ele>
      </trkpt>
      <trkpt lat="1.3510649306053264" lon="103.66520285705244">
        <ele>20.0</ele>
      </trkpt>
      <trkpt lat="1.3510904606743717" lon="103.6652890582288">
        <ele>20.0</ele>
      </trkpt>
      <trkpt lat="1.3511159907405603" lon="103.6653752594073">
        <ele>20.0</ele>
      </trkpt>
      <trkpt lat="1.3511192074299414" lon="103.66546412304068">
        <ele>20.0</ele>
      </trkpt>
      <trkpt lat="1.3511149447131878" lon="103.66555387912378">
        <ele>20.0</ele>
      </trkpt>
      <trkpt lat="1.3511070425248473" lon="103.66564315415235">
        <ele>20.0</ele>
      </trkpt>
      <trkpt lat="1.3510875401812183" lon="103.66573089590504">
        <ele>20.000000000000004</ele>
      </trkpt>
      <trkpt lat="1.3510680378342212" lon="103.6658186376567">
        <ele>20.0</ele>
      </trkpt>
      <trkpt lat="1.3510485354838568" lon="103.66590637940733">
        <ele>20.0</ele>
      </trkpt>
      <trkpt lat="1.3510290331301251" lon="103.66599412115694">
        <ele>20.0</ele>
      </trkpt>
      <trkpt lat="1.351009530773026" lon="103.66608186290554">
        <ele>20.0</ele>
      </trkpt>
      <trkpt lat="1.3509927405868989" lon="103.66617015327022">
        <ele>20.0</ele>
      </trkpt>
      <trkpt lat="1.3510032470019728" lon="103.66625921073292">
        <ele>20.0</ele>
      </trkpt>
      <trkpt lat="1.3510289868627763" lon="103.66634378404497">
        <ele>20.0</ele>
      </trkpt>
      <trkpt lat="1.3510734119409806" lon="103.66642183546841">
        <ele>20.0</ele>
      </trkpt>
      <trkpt lat="1.3511369452151376" lon="103.66648578258747">
        <ele>20.0</ele>
      </trkpt>
      <trkpt lat="1.3512004784879836" lon="103.66654972970986">
        <ele>20.0</ele>
      </trkpt>
      <trkpt lat="1.3512640117595176" lon="103.66661367683558">
        <ele>20.0</ele>
      </trkpt>
      <trkpt lat="1.3513275450297395" lon="103.66667762396463">
        <ele>20.0</ele>
      </trkpt>
      <trkpt lat="1.3513910782986491" lon="103.666741571097">
        <ele>20.0</ele>
      </trkpt>
      <trkpt lat="1.3514546115662462" lon="103.6668055182327">
        <ele>20.0</ele>
      </trkpt>
      <trkpt lat="1.3515181448325304" lon="103.66686946537175">
        <ele>20.0</ele>
      </trkpt>
      <trkpt lat="1.3515816780975018" lon="103.66693341251411">
        <ele>20.0</ele>
      </trkpt>
      <trkpt lat="1.35164521136116" lon="103.6669973596598">
        <ele>20.0</ele>
      </trkpt>
      <trkpt lat="1.3517087446235039" lon="103.66706130680883">
        <ele>20.0</ele>
      </trkpt>
      <trkpt lat="1.3517699196290196" lon="103.66712717625371">
        <ele>20.0</ele>
      </trkpt>
      <trkpt lat="1.3518206228538276" lon="103.66720158159734">
        <ele>20.0</ele>
      </trkpt>
      <trkpt lat="1.3518713260767048" lon="103.6672759869442">
        <ele>20.0</ele>
      </trkpt>
      <trkpt lat="1.3519220292976502" lon="103.66735039229432">
        <ele>20.0</ele>
      </trkpt>
      <trkpt lat="1.351972732516664" lon="103.66742479764768">
        <ele>20.0</ele>
      </trkpt>
      <trkpt lat="1.3520173089504102" lon="103.66750256008567">
        <ele>20.0</ele>
      </trkpt>
      <trkpt lat="1.3520535874129758" lon="103.66758486927728">
        <ele>20.0</ele>
      </trkpt>
      <trkpt lat="1.3520898658730254" lon="103.6676671784716">
        <ele>20.0</ele>
      </trkpt>
      <trkpt lat="1.3521261443305597" lon="103.66774948766864">
        <ele>20.0</ele>
      </trkpt>
      <trkpt lat="1.3521476013915956" lon="103.66783580427438">
        <ele>20.0</ele>
      </trkpt>
      <trkpt lat="1.3521583029634083" lon="103.66792502894812">
        <ele>20.0</ele>
      </trkpt>
      <trkpt lat="1.3521690045320174" lon="103.66801425362303">
        <ele>20.0</ele>
      </trkpt>
      <trkpt lat="1.3521797060974226" lon="103.66810347829912">
        <ele>20.0</ele>
      </trkpt>
      <trkpt lat="1.3521904076596225" lon="103.6681927029764">
        <ele>19.999999999999996</ele>
      </trkpt>
      <trkpt lat="1.3522011092186186" lon="103.66828192765485">
        <ele>20.0</ele>
      </trkpt>
      <trkpt lat="1.3522118107744103" lon="103.66837115233449">
        <ele>20.0</ele>
      </trkpt>
      <trkpt lat="1.3522225123269977" lon="103.6684603770153">
        <ele>20.0</ele>
      </trkpt>
      <trkpt lat="1.3522332138763806" lon="103.66854960169728">
        <ele>20.0</ele>
      </trkpt>
      <trkpt lat="1.3522439154225583" lon="103.66863882638046">
        <ele>20.0</ele>
      </trkpt>
      <trkpt lat="1.3522546169655314" lon="103.66872805106479">
        <ele>20.0</ele>
      </trkpt>
      <trkpt lat="1.3522653185053" lon="103.66881727575031">
        <ele>20.0</ele>
      </trkpt>
      <trkpt lat="1.3522700720397673" lon="103.66885690861838">
        <ele>20.0</ele>
      </trkpt>
      <trkpt lat="1.3522696877876186" lon="103.66894676382128">
        <ele>20.0</ele>
      </trkpt>
      <trkpt lat="1.3522693035321198" lon="103.66903661902455">
        <ele>20.0</ele>
      </trkpt>
      <trkpt lat="1.3522689192732702" lon="103.66912647422822">
        <ele>20.0</ele>
      </trkpt>
      <trkpt lat="1.3522685350110704" lon="103.66921632943226">
        <ele>20.0</ele>
      </trkpt>
      <trkpt lat="1.3522806898716524" lon="103.66930489167135">
        <ele>20.0</ele>
      </trkpt>
      <trkpt lat="1.3523018094793309" lon="103.66939196283765">
        <ele>20.0</ele>
      </trkpt>
      <trkpt lat="1.352344460699172" lon="103.66947119817173">
        <ele>20.0</ele>
      </trkpt>
      <trkpt lat="1.3523871119167346" lon="103.66955043350882">
        <ele>20.0</ele>
      </trkpt>
      <trkpt lat="1.3524297631320188" lon="103.6696296688489">
        <ele>20.0</ele>
      </trkpt>
      <trkpt lat="1.3524724143450237" lon="103.66970890419195">
        <ele>20.0</ele>
      </trkpt>
      <trkpt lat="1.3525150655557499" lon="103.669788139538">
        <ele>20.0</ele>
      </trkpt>
      <trkpt lat="1.352557716764197" lon="103.66986737488705">
        <ele>20.0</ele>
      </trkpt>
      <trkpt lat="1.3526003679703638" lon="103.66994661023908">
        <ele>20.0</ele>
      </trkpt>
      <trkpt lat="1.3526430191742513" lon="103.67002584559411">
        <ele>20.0</ele>
      </trkpt>
      <trkpt lat="1.3526856703758585" lon="103.67010508095213">
        <ele>20.0</ele>
      </trkpt>
      <trkpt lat="1.3527283215751855" lon="103.67018431631314">
        <ele>20.0</ele>
      </trkpt>
      <trkpt lat="1.3527709727722315" lon="103.67026355167714">
        <ele>20.0</ele>
      </trkpt>
      <trkpt lat="1.3528136239669972" lon="103.67034278704412">
        <ele>20.0</ele>
      </trkpt>
      <trkpt lat="1.3528562751594815" lon="103.67042202241412">
        <ele>20.0</ele>
      </trkpt>
      <trkpt lat="1.3528893772003658" lon="103.67050556193354">
        <ele>20.0</ele>
      </trkpt>
      <trkpt lat="1.3529125650653857" lon="103.67059133015015">
        <ele>20.0</ele>
      </trkpt>
      <trkpt lat="1.3529148254165073" lon="103.6706811581249">
        <ele>20.0</ele>
      </trkpt>
      <trkpt lat="1.3529170857643031" lon="103.67077098610025">
        <ele>20.0</ele>
      </trkpt>
      <trkpt lat="1.352910342176721" lon="103.67086054517061">
        <ele>20.0</ele>
      </trkpt>
      <trkpt lat="1.3529026558390715" lon="103.67095007608539">
        <ele>20.0</ele>
      </trkpt>
      <trkpt lat="1.352894969498029" lon="103.67103960700001">
        <ele>20.0</ele>
      </trkpt>
      <trkpt lat="1.3528872831535925" lon="103.67112913791445">
        <ele>20.0</ele>
      </trkpt>
      <trkpt lat="1.352879596805763" lon="103.67121866882873">
        <ele>20.0</ele>
      </trkpt>
      <trkpt lat="1.3528719104545401" lon="103.67130819974284">
        <ele>20.0</ele>
      </trkpt>
      <trkpt lat="1.352864224099924" lon="103.67139773065676">
        <ele>20.0</ele>
      </trkpt>
      <trkpt lat="1.352856537741915" lon="103.67148726157053">
        <ele>20.0</ele>
      </trkpt>
      <trkpt lat="1.3528488513805124" lon="103.67157679248416">
        <ele>20.0</ele>
      </trkpt>
      <trkpt lat="1.3528411650157166" lon="103.67166632339757">
        <ele>20.0</ele>
      </trkpt>
      <trkpt lat="1.352833478647528" lon="103.67175585431085">
        <ele>20.0</ele>
      </trkpt>
      <trkpt lat="1.352812685520139" lon="103.67184326560893">
        <ele>20.0</ele>
      </trkpt>
      <trkpt lat="1.3527913993680762" lon="103.67193059717482">
        <ele>20.0</ele>
      </trkpt>
      <trkpt lat="1.3527701132126628" lon="103.67201792873952">
        <ele>20.0</ele>
      </trkpt>
      <trkpt lat="1.3527488270538985" lon="103.67210526030307">
        <ele>20.0</ele>
      </trkpt>
      <trkpt lat="1.3527275408917847" lon="103.67219259186545">
        <ele>20.0</ele>
      </trkpt>
      <trkpt lat="1.35270625472632" lon="103.67227992342667">
        <ele>20.0</ele>
      </trkpt>
      <trkpt lat="1.3527014163332856" lon="103.67236925013019">
        <ele>20.0</ele>
      </trkpt>
      <trkpt lat="1.3527009311196674" lon="103.67245910488246">
        <ele>20.0</ele>
      </trkpt>
      <trkpt lat="1.3527004459026966" lon="103.67254895963511">
        <ele>20.0</ele>
      </trkpt>
      <trkpt lat="1.3526999606823737" lon="103.6726388143881">
        <ele>20.0</ele>
      </trkpt>
      <trkpt lat="1.3526994754586978" lon="103.67272866914146">
        <ele>20.0</ele>
      </trkpt>
      <trkpt lat="1.3526989902316708" lon="103.67281852389519">
        <ele>20.0</ele>
      </trkpt>
      <trkpt lat="1.35269850500129" lon="103.67290837864928">
        <ele>20.0</ele>
      </trkpt>
      <trkpt lat="1.3526980197675578" lon="103.67299823340372">
        <ele>20.0</ele>
      </trkpt>
      <trkpt lat="1.3526975345304726" lon="103.67308808815854">
        <ele>20.0</ele>
      </trkpt>
      <trkpt lat="1.352718745225191" lon="103.67317438330875">
        <ele>20.0</ele>
      </trkpt>
      <trkpt lat="1.3527744593443374" lon="103.67323939909348">
        <ele>20.0</ele>
      </trkpt>
      <trkpt lat="1.3528498570645586" lon="103.67328884270971">
        <ele>20.0</ele>
      </trkpt>
      <trkpt lat="1.3529323258283228" lon="103.67332572054232">
        <ele>20.0</ele>
      </trkpt>
      <trkpt lat="1.3530147945917643" lon="103.67336259837717">
        <ele>20.0</ele>
      </trkpt>
      <trkpt lat="1.3530972633548846" lon="103.67339947621423">
        <ele>20.0</ele>
      </trkpt>
      <trkpt lat="1.3531797321176824" lon="103.67343635405354">
        <ele>20.0</ele>
      </trkpt>
      <trkpt lat="1.3532622008801576" lon="103.67347323189506">
        <ele>20.0</ele>
      </trkpt>
      <trkpt lat="1.3533412414203208" lon="103.673515920874">
        <ele>20.0</ele>
      </trkpt>
      <trkpt lat="1.353413917153518" lon="103.67356939875731">
        <ele>20.0</ele>
      </trkpt>
      <trkpt lat="1.353486592885866" lon="103.67362287664368">
        <ele>20.0</ele>
      </trkpt>
      <trkpt lat="1.3535592686173636" lon="103.67367635453311">
        <ele>20.0</ele>
      </trkpt>
      <trkpt lat="1.353628832095739" lon="103.67373351452146">
        <ele>20.0</ele>
      </trkpt>
      <trkpt lat="1.3536944049884605" lon="103.67379539576096">
        <ele>20.0</ele>
      </trkpt>
      <trkpt lat="1.3537599778799538" lon="103.67385727700376">
        <ele>20.0</ele>
      </trkpt>
      <trkpt lat="1.3538255507702193" lon="103.67391915824989">
        <ele>20.0</ele>
      </trkpt>
      <trkpt lat="1.3538921123381928" lon="103.67397981362237">
        <ele>20.0</ele>
      </trkpt>
      <trkpt lat="1.3539671860719757" lon="103.6740299146425">
        <ele>20.0</ele>
      </trkpt>
      <trkpt lat="1.3540519547575902" lon="103.67405932316258">
        <ele>20.0</ele>
      </trkpt>
      <trkpt lat="1.3541384630418152" lon="103.67408525098497">
        <ele>20.0</ele>
      </trkpt>
      <trkpt lat="1.3542208746852242" lon="103.67412225468851">
        <ele>20.0</ele>
      </trkpt>
      <trkpt lat="1.354303286328306" lon="103.6741592583943">
        <ele>20.0</ele>
      </trkpt>
      <trkpt lat="1.3543856979710607" lon="103.67419626210233">
        <ele>20.0</ele>
      </trkpt>
      <trkpt lat="1.3544662528322355" lon="103.67423707928486">
        <ele>20.0</ele>
      </trkpt>
      <trkpt lat="1.354546605246826" lon="103.67427831225542">
        <ele>20.0</ele>
      </trkpt>
      <trkpt lat="1.3546215188197286" lon="103.67432673324784">
        <ele>20.0</ele>
      </trkpt>
      <trkpt lat="1.3546837055423004" lon="103.67439197415675">
        <ele>20.0</ele>
      </trkpt>
      <trkpt lat="1.3547458922634683" lon="103.67445721506901">
        <ele>20.0</ele>
      </trkpt>
      <trkpt lat="1.3548080789832313" lon="103.67452245598463">
        <ele>20.0</ele>
      </trkpt>
      <trkpt lat="1.3548585017049821" lon="103.67459659927103">
        <ele>20.0</ele>
      </trkpt>
      <trkpt lat="1.3549052759378157" lon="103.67467350354154">
        <ele>20.0</ele>
      </trkpt>
      <trkpt lat="1.3549520501685244" lon="103.67475040781521">
        <ele>20.0</ele>
      </trkpt>
      <trkpt lat="1.3549988243971087" lon="103.67482731209199">
        <ele>20.0</ele>
      </trkpt>
      <trkpt lat="1.355045598623567" lon="103.67490421637191">
        <ele>20.0</ele>
      </trkpt>
      <trkpt lat="1.3550908133573363" lon="103.67498202233962">
        <ele>20.0</ele>
      </trkpt>
      <trkpt lat="1.3551349984212342" lon="103.67506042365578">
        <ele>20.0</ele>
      </trkpt>
      <trkpt lat="1.3551791834828977" lon="103.675138824975">
        <ele>20.0</ele>
      </trkpt>
      <trkpt lat="1.3551937490067332" lon="103.67522712307526">
        <ele>20.0</ele>
      </trkpt>
      <trkpt lat="1.35520622126521" lon="103.67531612059875">
        <ele>20.0</ele>
      </trkpt>
      <trkpt lat="1.3552186935205028" lon="103.67540511812352">
        <ele>20.0</ele>
      </trkpt>
      <trkpt lat="1.355212823847852" lon="103.67549462196986">
        <ele>20.0</ele>
      </trkpt>
      <trkpt lat="1.3552053440955034" lon="103.6755841702615">
        <ele>20.0</ele>
      </trkpt>
      <trkpt lat="1.3551966876270924" lon="103.67567344191994">
        <ele>20.0</ele>
      </trkpt>
      <trkpt lat="1.3551629863377201" lon="103.67575682579864">
        <ele>20.0</ele>
      </trkpt>
      <trkpt lat="1.3551292850451782" lon="103.67584020967533">
        <ele>20.0</ele>
      </trkpt>
      <trkpt lat="1.3550915316520895" lon="103.67592162425389">
        <ele>20.0</ele>
      </trkpt>
      <trkpt lat="1.3550459722459691" lon="103.67599924515382">
        <ele>20.0</ele>
      </trkpt>
      <trkpt lat="1.3550004128369872" lon="103.67607686605103">
        <ele>20.0</ele>
      </trkpt>
      <trkpt lat="1.3549530721104768" lon="103.67615327326685">
        <ele>20.0</ele>
      </trkpt>
      <trkpt lat="1.3548966143095318" lon="103.67622346866546">
        <ele>20.0</ele>
      </trkpt>
      <trkpt lat="1.3548401565061323" lon="103.6762936640609">
        <ele>20.0</ele>
      </trkpt>
      <trkpt lat="1.3547836987002784" lon="103.67636385945319">
        <ele>20.0</ele>
      </trkpt>
      <trkpt lat="1.3547144519300804" lon="103.6764199293023">
        <ele>20.0</ele>
      </trkpt>
      <trkpt lat="1.3546382442739082" lon="103.67646831077974">
        <ele>20.0</ele>
      </trkpt>
      <trkpt lat="1.3545620366163618" lon="103.67651669225401">
        <ele>20.0</ele>
      </trkpt>
      <trkpt lat="1.3544858289574409" lon="103.6765650737251">
        <ele>20.0</ele>
      </trkpt>
      <trkpt lat="1.3544065157909286" lon="103.67660824277444">
        <ele>20.0</ele>
      </trkpt>
      <trkpt lat="1.3543271684712752" lon="103.67665135449856">
        <ele>20.0</ele>
      </trkpt>
      <trkpt lat="1.3542478211504694" lon="103.67669446621969">
        <ele>20.0</ele>
      </trkpt>
      <trkpt lat="1.354167243457837" lon="103.67673524936508">
        <ele>20.0</ele>
      </trkpt>
      <trkpt lat="1.3540864693909949" lon="103.67677566085602">
        <ele>20.0</ele>
      </trkpt>
      <trkpt lat="1.3540452279338726" lon="103.67679629407074">
        <ele>20.0</ele>
      </trkpt>
      <trkpt lat="1.3539614024032514" lon="103.67683001706699">
        <ele>20.0</ele>
      </trkpt>
      <trkpt lat="1.3538775768718287" lon="103.67686374006067">
        <ele>20.0</ele>
      </trkpt>
      <trkpt lat="1.3537937513396046" lon="103.67689746305173">
        <ele>20.0</ele>
      </trkpt>
      <trkpt lat="1.3537099258065795" lon="103.6769311860402">
        <ele>20.0</ele>
      </trkpt>
      <trkpt lat="1.353626100272753" lon="103.6769649090261">
        <ele>20.0</ele>
      </trkpt>
      <trkpt lat="1.3535419920248672" lon="103.67699784769046">
        <ele>20.0</ele>
      </trkpt>
      <trkpt lat="1.353455678517002" lon="103.67702466839894">
        <ele>20.0</ele>
      </trkpt>
      <trkpt lat="1.3533693650085554" lon="103.6770514891052">
        <ele>20.0</ele>
      </trkpt>
      <trkpt lat="1.3532830514995267" lon="103.67707830980923">
        <ele>20.0</ele>
      </trkpt>
      <trkpt lat="1.353196737989916" lon="103.67710513051107">
        <ele>20.0</ele>
      </trkpt>
      <trkpt lat="1.3531082954188607" lon="103.6771181000001">
        <ele>20.0</ele>
      </trkpt>
      <trkpt lat="1.353017859315724" lon="103.67711810000002">
        <ele>20.0</ele>
      </trkpt>
      <trkpt lat="1.3529347629420672" lon="103.67708312564878">
        <ele>20.0</ele>
      </trkpt>
      <trkpt lat="1.352852178071111" lon="103.67704666528472">
        <ele>20.0</ele>
      </trkpt>
      <trkpt lat="1.3527788165912438" lon="103.67699411986243">
        <ele>20.0</ele>
      </trkpt>
      <trkpt lat="1.3527054551105573" lon="103.67694157444316">
        <ele>20.0</ele>
      </trkpt>
      <trkpt lat="1.352632093629051" lon="103.67688902902695">
        <ele>20.0</ele>
      </trkpt>
      <trkpt lat="1.3525587321467247" lon="103.67683648361376">
        <ele>20.0</ele>
      </trkpt>
      <trkpt lat="1.3524853706635789" lon="103.6767839382036">
        <ele>20.0</ele>
      </trkpt>
      <trkpt lat="1.352412009179614" lon="103.67673139279647">
        <ele>20.0</ele>
      </trkpt>
      <trkpt lat="1.352333120966447" lon="103.6766883838952">
        <ele>20.0</ele>
      </trkpt>
      <trkpt lat="1.352250555672282" lon="103.67665171988733">
        <ele>20.0</ele>
      </trkpt>
      <trkpt lat="1.3521619512360599" lon="103.67663639735991">
        <ele>20.0</ele>
      </trkpt>
      <trkpt lat="1.3520722535397183" lon="103.67662493826053">
        <ele>20.0</ele>
      </trkpt>
      <trkpt lat="1.3519825558433547" lon="103.67661347916163">
        <ele>20.0</ele>
      </trkpt>
      <trkpt lat="1.3518928581469685" lon="103.6766020200632">
        <ele>20.0</ele>
      </trkpt>
      <trkpt lat="1.3518031604505607" lon="103.67659056096524">
        <ele>20.0</ele>
      </trkpt>
      <trkpt lat="1.3517149345099224" lon="103.67657371818554">
        <ele>20.0</ele>
      </trkpt>
      <trkpt lat="1.3516317280120207" lon="103.67653851428683">
        <ele>20.0</ele>
      </trkpt>
      <trkpt lat="1.3515485215138296" lon="103.67650331039027">
        <ele>20.0</ele>
      </trkpt>
      <trkpt lat="1.3514653150153493" lon="103.67646810649582">
        <ele>20.0</ele>
      </trkpt>
      <trkpt lat="1.3513941305477712" lon="103.67641336491431">
        <ele>20.0</ele>
      </trkpt>
      <trkpt lat="1.3513246661930736" lon="103.67635582788073">
        <ele>20.068912921123914</ele>
      </trkpt>
      <trkpt lat="1.3512608416083787" lon="103.676292461933">
        <ele>20.498841370481312</ele>
      </trkpt>
      <trkpt lat="1.3512002410374062" lon="103.67622576384667">
        <ele>21.0671745478185</ele>
      </trkpt>
      <trkpt lat="1.351177008225998" lon="103.67620019339483">
        <ele>21.497392440041878</ele>
      </trkpt>
    </trkseg>
  </trk>
</gpx>