{
"type": "FeatureCollection",
"name": "point_to_point_05000m_006",
"crs": { "type": "name", "properties": { "name": "urn:ogc:def:crs:OGC:1.3:CRS84" } },
"features": [
{ "type": "Feature", "properties": { "route_id": "point_to_point_05000m_006", "budget_km": 5.0, "mode": "point_to_point", "rank": 6, "distance_m": 2880.3940645958069, "ascent_m": 89.544006674441675, "descent_m": 54.960884972228008, "gain_density_m_per_km": 31.087415355789869, "source_confidence": 0.65 }, "geometry": { "type": "LineString", "coordinates": [ [ 103.803358738146429, 1.396766319344893 ], [ 103.8033606, 1.3967652 ], [ 103.8033709, 1.3967267 ], [ 103.8033775, 1.3966449 ], [ 103.8033695, 1.396575 ], [ 103.803408100000013, 1.3964982 ], [ 103.8034159, 1.3964275 ], [ 103.8033751, 1.39635 ], [ 103.8031852, 1.3962126 ], [ 103.8030544, 1.3961285 ], [ 103.8029462, 1.3961641 ], [ 103.8028149, 1.3961155 ], [ 103.8027276, 1.3959482 ], [ 103.802631, 1.395817 ], [ 103.8026105, 1.3957275 ], [ 103.8025825, 1.3955807 ], [ 103.8025179, 1.3953892 ], [ 103.8023547, 1.3952335 ], [ 103.8022378, 1.3951028 ], [ 103.8021581, 1.3950121 ], [ 103.802111, 1.3947608 ], [ 103.8020002, 1.3946562 ], [ 103.801921, 1.394521 ], [ 103.8019388, 1.3944289 ], [ 103.801862, 1.3943774 ], [ 103.8017723, 1.3941727 ], [ 103.8017217, 1.394074 ], [ 103.8016853, 1.394049 ], [ 103.8016488, 1.3939228 ], [ 103.8015696, 1.3937793 ], [ 103.801527400000012, 1.3937008 ], [ 103.8014765, 1.39362 ], [ 103.8014264, 1.3935153 ], [ 103.8013499, 1.3934709 ], [ 103.8012979, 1.3933798 ], [ 103.8012095, 1.3932488 ], [ 103.8011421, 1.3931315 ], [ 103.8011345, 1.39296 ], [ 103.801039, 1.392722 ], [ 103.8009999, 1.3926144 ], [ 103.8010306, 1.3924559 ], [ 103.8010553, 1.3922891 ], [ 103.801064, 1.3921578 ], [ 103.800973, 1.392042 ], [ 103.8009222, 1.3920059 ], [ 103.8008518, 1.3919799 ], [ 103.8007093, 1.391857 ], [ 103.8006603, 1.3917945 ], [ 103.800651, 1.391732 ], [ 103.8006052, 1.3916415 ], [ 103.8005566, 1.3916124 ], [ 103.8004697, 1.3916203 ], [ 103.8003903, 1.3915941 ], [ 103.8002239, 1.391593 ], [ 103.8000833, 1.3915674 ], [ 103.7999757, 1.3915493 ], [ 103.799901, 1.391432 ], [ 103.7998501, 1.3913576 ], [ 103.7997877, 1.3912909 ], [ 103.7997213, 1.3911951 ], [ 103.79963, 1.391096 ], [ 103.799548, 1.3909715 ], [ 103.799445800000015, 1.3909162 ], [ 103.7993278, 1.3908839 ], [ 103.7992622, 1.3908347 ], [ 103.7992201, 1.3907426 ], [ 103.7991649, 1.3906984 ], [ 103.7991036, 1.3907232 ], [ 103.7990227, 1.3907447 ], [ 103.7989343, 1.3907465 ], [ 103.798861500000015, 1.3906688 ], [ 103.7988356, 1.390581 ], [ 103.798787200000021, 1.390562 ], [ 103.7987268, 1.3905326 ], [ 103.7986223, 1.3904342 ], [ 103.798531, 1.3903952 ], [ 103.798487, 1.390272 ], [ 103.7984699, 1.3901726 ], [ 103.7984793, 1.3900763 ], [ 103.7984308, 1.389907 ], [ 103.7983772, 1.3897612 ], [ 103.7983508, 1.3897042 ], [ 103.7982583, 1.3896897 ], [ 103.798194, 1.389672 ], [ 103.79816630000002, 1.3895765 ], [ 103.798143, 1.3894665 ], [ 103.7981172, 1.3893747 ], [ 103.7980495, 1.3892734 ], [ 103.7980358, 1.3891209 ], [ 103.7979908, 1.3890093 ], [ 103.797974, 1.388899 ], [ 103.797941, 1.388582 ], [ 103.797953, 1.388452 ], [ 103.797988, 1.388393 ], [ 103.798111, 1.388236 ], [ 103.798385, 1.387968 ], [ 103.798626, 1.387611 ], [ 103.798712, 1.387535 ], [ 103.799203, 1.387258 ], [ 103.799389, 1.387178 ], [ 103.79954, 1.387063 ], [ 103.799794, 1.386917 ], [ 103.799832, 1.386848 ], [ 103.799833, 1.386792 ], [ 103.799788, 1.386692 ], [ 103.799562, 1.386337 ], [ 103.799364, 1.386073 ], [ 103.799237, 1.385952 ], [ 103.7991949, 1.3858944 ], [ 103.799177, 1.38587 ], [ 103.798757, 1.384944 ], [ 103.798486, 1.38469 ], [ 103.798429, 1.384605 ], [ 103.798396, 1.384399 ], [ 103.798409725616423, 1.383950961066292 ], [ 103.798524, 1.3836118 ], [ 103.7985513, 1.38352 ], [ 103.798538400000012, 1.3834281 ], [ 103.7985009, 1.3833155 ], [ 103.7983024, 1.3829696 ], [ 103.7982541, 1.3829012 ], [ 103.7981576, 1.3828543 ], [ 103.7978454, 1.3828103 ], [ 103.7976458, 1.3828253 ], [ 103.797494, 1.3828029 ], [ 103.797277800000018, 1.3826679 ], [ 103.7971652, 1.3825955 ], [ 103.7969306, 1.3821939 ], [ 103.7966889, 1.3820971 ], [ 103.7963534, 1.3820003 ], [ 103.7960883, 1.3819496 ], [ 103.7959037, 1.3818882 ], [ 103.7956564, 1.3818516 ], [ 103.7954734, 1.3818231 ], [ 103.7952417, 1.3818251 ], [ 103.7949123, 1.3817807 ], [ 103.7943654, 1.3816433 ], [ 103.7940813, 1.3816293 ], [ 103.7939718, 1.3816656 ], [ 103.7938467, 1.3816471 ], [ 103.7936179, 1.3816153 ], [ 103.7933928, 1.3815594 ], [ 103.793285800000021, 1.3814928 ], [ 103.7930788, 1.3814455 ], [ 103.792796700000011, 1.3814196 ], [ 103.7926294, 1.3813678 ], [ 103.792552400000019, 1.381291 ], [ 103.7924465, 1.3813252 ], [ 103.7921205, 1.3816263 ], [ 103.791311995785691, 1.382373001449359 ] ] } }
]
}
