{
"type": "FeatureCollection",
"name": "point_to_point_05000m_007",
"crs": { "type": "name", "properties": { "name": "urn:ogc:def:crs:OGC:1.3:CRS84" } },
"features": [
{ "type": "Feature", "properties": { "route_id": "point_to_point_05000m_007", "budget_km": 5.0, "mode": "point_to_point", "rank": 7, "distance_m": 2994.4535219952413, "ascent_m": 83.87486070926137, "descent_m": 75.506222913517746, "gain_density_m_per_km": 28.010072653715632, "source_confidence": 0.65 }, "geometry": { "type": "LineString", "coordinates": [ [ 103.772537284480634, 1.409644489964969 ], [ 103.7726894, 1.4096097 ], [ 103.7727348, 1.4095149 ], [ 103.772733300000013, 1.4094306 ], [ 103.7726792, 1.4092846 ], [ 103.7727279, 1.4089602 ], [ 103.772782, 1.4088196 ], [ 103.772733300000013, 1.408679 ], [ 103.7727225, 1.408587 ], [ 103.7727387, 1.4084951 ], [ 103.7727712, 1.4084465 ], [ 103.7727928, 1.4083491 ], [ 103.7728361, 1.4082247 ], [ 103.7728631, 1.4080247 ], [ 103.7728685, 1.4078516 ], [ 103.7728198, 1.4077759 ], [ 103.772733300000013, 1.4077164 ], [ 103.7727495, 1.4076137 ], [ 103.7727874, 1.4075163 ], [ 103.7728577, 1.4074406 ], [ 103.7728685, 1.4073595 ], [ 103.7728577, 1.4072622 ], [ 103.7729172, 1.407127 ], [ 103.7729875, 1.4067755 ], [ 103.7730416, 1.4066836 ], [ 103.7730903, 1.4064673 ], [ 103.7731065, 1.4063808 ], [ 103.773166, 1.4062456 ], [ 103.773166, 1.4061969 ], [ 103.7732039, 1.4061428 ], [ 103.7732093, 1.4060671 ], [ 103.773285, 1.4059698 ], [ 103.7732688, 1.405813 ], [ 103.7733013, 1.4057535 ], [ 103.7733013, 1.405575 ], [ 103.7733283, 1.4053425 ], [ 103.7733499, 1.4051803 ], [ 103.7733716, 1.4050721 ], [ 103.7733941, 1.4048539 ], [ 103.7732492, 1.4044692 ], [ 103.7726699, 1.4027906 ], [ 103.772615, 1.4024763 ], [ 103.772563300000016, 1.4022952 ], [ 103.7725076, 1.4018937 ], [ 103.773178392807353, 1.396827414592286 ], [ 103.7728538, 1.3969883 ], [ 103.772457538419147, 1.397351926781181 ], [ 103.7725855, 1.3976053 ], [ 103.7726413, 1.3977952 ], [ 103.7726357, 1.3980689 ], [ 103.7725743, 1.3983202 ], [ 103.772467571278682, 1.398565040320596 ], [ 103.772564100000011, 1.398699 ], [ 103.7726604, 1.3989518 ], [ 103.7726249, 1.3993447 ], [ 103.7724605, 1.4003428 ], [ 103.7723601, 1.401598 ], [ 103.772300900000019, 1.4020257 ], [ 103.7723084, 1.4022476 ], [ 103.7723722, 1.4023737 ], [ 103.7725057, 1.4024505 ], [ 103.772615, 1.4024763 ], [ 103.7729131, 1.402518 ], [ 103.7730208, 1.4025441 ], [ 103.7731939, 1.4026276 ], [ 103.7733858, 1.4026454 ], [ 103.7734988, 1.4028329 ], [ 103.773528, 1.4029532 ], [ 103.773509, 1.4032599 ], [ 103.7735318, 1.4034486 ], [ 103.7738584, 1.4040029 ], [ 103.774135, 1.4043818 ], [ 103.7748714, 1.4052133 ], [ 103.7756008, 1.4059878 ], [ 103.7761438, 1.4066893 ], [ 103.7761884, 1.4067633 ], [ 103.776313, 1.4071093 ], [ 103.7764229, 1.407309 ], [ 103.776508634357057, 1.407425011446803 ], [ 103.7766521, 1.4075223 ], [ 103.7769859, 1.4077499 ], [ 103.777027736497558, 1.407837956515717 ] ] } }
]
}
