{
"type": "FeatureCollection",
"name": "point_to_point_05000m_032",
"crs": { "type": "name", "properties": { "name": "urn:ogc:def:crs:OGC:1.3:CRS84" } },
"features": [
{ "type": "Feature", "properties": { "route_id": "point_to_point_05000m_032", "budget_km": 5.0, "mode": "point_to_point", "rank": 32, "distance_m": 1293.5201648919117, "ascent_m": 34.051822453411091, "descent_m": 25.607661838919913, "gain_density_m_per_km": 26.324925870990583, "source_confidence": 0.65 }, "geometry": { "type": "LineString", "coordinates": [ [ 103.850702074006222, 1.214430694591608 ], [ 103.8507651, 1.2145474 ], [ 103.8507686, 1.2146016 ], [ 103.850757, 1.2146546 ], [ 103.8506659, 1.2148437 ], [ 103.8506028, 1.2150502 ], [ 103.850584, 1.215262 ], [ 103.8505519, 1.2155677 ], [ 103.8504902, 1.215911 ], [ 103.8504785, 1.2159516 ], [ 103.850454, 1.2159861 ], [ 103.8504195, 1.2160106 ], [ 103.85037890000001, 1.2160222 ], [ 103.8501871, 1.2161349 ], [ 103.8500476, 1.2162676 ], [ 103.8497418, 1.2166229 ], [ 103.8494629, 1.2169755 ], [ 103.849206700000011, 1.2173925 ], [ 103.848915125345485, 1.217815383322058 ], [ 103.8482425, 1.2186918 ], [ 103.847983010348287, 1.218996761027814 ], [ 103.8476913, 1.2193367 ], [ 103.847533, 1.2195164 ], [ 103.8474533, 1.219674 ], [ 103.847418, 1.2198552 ], [ 103.8474348, 1.220039 ], [ 103.8475093, 1.2202166 ], [ 103.8476225, 1.220334 ], [ 103.8479153, 1.2206574 ], [ 103.8481486, 1.2210087 ], [ 103.8483551, 1.221423 ], [ 103.848414672324481, 1.221563256990887 ], [ 103.8484904, 1.2215025 ], [ 103.8490722, 1.2211432 ], [ 103.8493587, 1.2209561 ], [ 103.8494957, 1.2208659 ], [ 103.8498364, 1.220646 ], [ 103.8499732, 1.2206199 ], [ 103.8501782, 1.2205019 ], [ 103.850337763057439, 1.220364870959553 ], [ 103.8504184, 1.2201177 ], [ 103.8504613, 1.2198871 ], [ 103.8504318, 1.2198411 ], [ 103.850456272759956, 1.219608730359125 ] ] } }
]
}
