{
"type": "FeatureCollection",
"name": "point_to_point_05000m_019",
"crs": { "type": "name", "properties": { "name": "urn:ogc:def:crs:OGC:1.3:CRS84" } },
"features": [
{ "type": "Feature", "properties": { "route_id": "point_to_point_05000m_019", "budget_km": 5.0, "mode": "point_to_point", "rank": 19, "distance_m": 1945.3434060060752, "ascent_m": 49.059365722591281, "descent_m": 37.907863481360771, "gain_density_m_per_km": 25.218871676396486, "source_confidence": 0.65 }, "geometry": { "type": "LineString", "coordinates": [ [ 103.769088763809236, 1.397260586227182 ], [ 103.7689222, 1.3973715 ], [ 103.7688455, 1.3972948 ], [ 103.7688674, 1.3971525 ], [ 103.7690207, 1.3968185 ], [ 103.7690454, 1.3964762 ], [ 103.769029, 1.3958356 ], [ 103.7690344, 1.3955865 ], [ 103.7685525, 1.39508 ], [ 103.7684758, 1.3950335 ], [ 103.767939, 1.3950115 ], [ 103.7676597, 1.3950937 ], [ 103.767385800000014, 1.395143 ], [ 103.7671695, 1.3952579 ], [ 103.7670408, 1.3953565 ], [ 103.7669367, 1.3955865 ], [ 103.7669011, 1.3963996 ], [ 103.7669038, 1.3966679 ], [ 103.767018900000011, 1.3969499 ], [ 103.7670243, 1.3971333 ], [ 103.7670216, 1.3972729 ], [ 103.7670846, 1.3973195 ], [ 103.7671859, 1.3973304 ], [ 103.7675364, 1.3972456 ], [ 103.7677199, 1.3972894 ], [ 103.7679171, 1.3973304 ], [ 103.7680403, 1.3973961 ], [ 103.7680568, 1.397648 ], [ 103.7680239, 1.3978342 ], [ 103.7679527, 1.3979492 ], [ 103.7677829, 1.3979273 ], [ 103.767621300000016, 1.3978506 ], [ 103.7674324, 1.3977329 ], [ 103.7673119, 1.397648 ], [ 103.7672242, 1.3975933 ], [ 103.7668545, 1.3975741 ], [ 103.7664328, 1.3975029 ], [ 103.766145300000019, 1.397481 ], [ 103.765896, 1.3976124 ], [ 103.7657071, 1.3976261 ], [ 103.7655072, 1.3975713 ], [ 103.7653785, 1.3975166 ], [ 103.7652881, 1.3975056 ], [ 103.7651265, 1.3975412 ], [ 103.7649951, 1.3975878 ], [ 103.764874600000013, 1.3975412 ], [ 103.7646911, 1.3972675 ], [ 103.7645706, 1.3970813 ], [ 103.7643268, 1.3967801 ], [ 103.764249933208077, 1.396470215303426 ], [ 103.7642639, 1.3963777 ], [ 103.7642721, 1.3962463 ], [ 103.7642283, 1.3960081 ], [ 103.7642639, 1.395863 ], [ 103.764288861049025, 1.395807318063279 ], [ 103.7643649, 1.3958096 ], [ 103.7645562, 1.3958655 ], [ 103.7647476, 1.3960448 ], [ 103.7648473, 1.3961724 ], [ 103.764939, 1.3963039 ], [ 103.7650228, 1.3964753 ], [ 103.7651264, 1.3965869 ], [ 103.765274037736958, 1.396706465096143 ], [ 103.7652461, 1.3969537 ], [ 103.7651703, 1.3971729 ], [ 103.7651185, 1.3972048 ], [ 103.7649869, 1.3972088 ], [ 103.7649111, 1.3972407 ], [ 103.7648752, 1.3973124 ], [ 103.7648992, 1.3974081 ], [ 103.7649789, 1.3974559 ], [ 103.7650826, 1.3974519 ], [ 103.7651783, 1.3973961 ], [ 103.765274, 1.3972925 ], [ 103.7653776, 1.3972407 ], [ 103.7654973, 1.3972726 ], [ 103.7655929, 1.3972566 ], [ 103.7656567, 1.397145 ], [ 103.7657285, 1.3970493 ], [ 103.7658442, 1.3969058 ], [ 103.7658957, 1.3968419 ], [ 103.76594383699134, 1.396782270175414 ], [ 103.7657963, 1.3967823 ], [ 103.7655132, 1.3967185 ], [ 103.765274037736958, 1.396706465096143 ] ] } }
]
}
