{
"type": "FeatureCollection",
"name": "point_to_point_05000m_031",
"crs": { "type": "name", "properties": { "name": "urn:ogc:def:crs:OGC:1.3:CRS84" } },
"features": [
{ "type": "Feature", "properties": { "route_id": "point_to_point_05000m_031", "budget_km": 5.0, "mode": "point_to_point", "rank": 31, "distance_m": 811.00352000127873, "ascent_m": 34.390466353022738, "descent_m": 30.884120630783723, "gain_density_m_per_km": 42.404829948171511, "source_confidence": 0.65 }, "geometry": { "type": "LineString", "coordinates": [ [ 103.836776028091279, 1.253014769091126 ], [ 103.836827, 1.2528324 ], [ 103.8368417, 1.2527761 ], [ 103.8370027, 1.2525964 ], [ 103.8370241, 1.2525348 ], [ 103.8370416, 1.2524282 ], [ 103.8370362, 1.2523886 ], [ 103.8370275, 1.2523578 ], [ 103.8370094, 1.252333 ], [ 103.8369779, 1.2523102 ], [ 103.8368263, 1.252244 ], [ 103.83666, 1.2521714 ], [ 103.836597, 1.252162 ], [ 103.8363127, 1.2521432 ], [ 103.8362523, 1.2521298 ], [ 103.8356743, 1.2518818 ], [ 103.8355811, 1.2518556 ], [ 103.8354088, 1.251853 ], [ 103.8353726, 1.2518496 ], [ 103.8353417, 1.2518362 ], [ 103.8350923, 1.2516619 ], [ 103.8350628, 1.2516532 ], [ 103.8350306, 1.2516478 ], [ 103.8350078, 1.2516525 ], [ 103.8349756, 1.2516646 ], [ 103.8349548, 1.2516787 ], [ 103.8347469, 1.2519287 ], [ 103.8346852, 1.251973 ], [ 103.8340268, 1.2524034 ], [ 103.8338497, 1.2524811 ], [ 103.8331617, 1.2527017 ], [ 103.8327078, 1.2529464 ], [ 103.832691, 1.2529685 ], [ 103.832681, 1.2529913 ], [ 103.832685, 1.2530194 ], [ 103.832738, 1.2531193 ], [ 103.8329016, 1.2533808 ], [ 103.8329163, 1.2534317 ], [ 103.8329177, 1.2534894 ], [ 103.8329141, 1.2535568 ], [ 103.8328949, 1.2535987 ], [ 103.832747, 1.2537228 ], [ 103.832672, 1.2537547 ], [ 103.8326084, 1.2538651 ], [ 103.8325638, 1.2539413 ], [ 103.8324924, 1.2539934 ], [ 103.8322753, 1.2540418 ], [ 103.832231, 1.2540619 ], [ 103.832154355335177, 1.254164580927275 ] ] } }
]
}
