<?xml version="1.0" encoding="UTF-8"?>
<gpx xmlns="http://www.topografix.com/GPX/1/1" xmlns:xsi="http://www.w3.org/2001/XMLSchema-instance" xsi:schemaLocation="http://www.topografix.com/GPX/1/1 http://www.topografix.com/GPX/1/1/gpx.xsd" version="1.1" creator="gpx.py -- https://github.com/tkrajina/gpxpy">
  <trk>
    <name>point_to_point_05000m_024</name>
    <trkseg>
      <trkpt lat="1.423775969486606" lon="103.94494595634649">
        <ele>2.7085957757184174</ele>
      </trkpt>
      <trkpt lat="1.4236858048399748" lon="103.94495291488171">
        <ele>3.165758421050535</ele>
      </trkpt>
      <trkpt lat="1.4235956401932945" lon="103.94495987341665">
        <ele>4.095117115789407</ele>
      </trkpt>
      <trkpt lat="1.423507308473072" lon="103.94494092786393">
        <ele>5.039687963374404</ele>
      </trkpt>
      <trkpt lat="1.4234283038384103" lon="103.94489885061472">
        <ele>5.998656187851001</ele>
      </trkpt>
      <trkpt lat="1.423341905546361" lon="103.94487250996495">
        <ele>6.957814701911647</ele>
      </trkpt>
      <trkpt lat="1.4232533503658142" lon="103.9448542780135">
        <ele>7.930612593685141</ele>
      </trkpt>
      <trkpt lat="1.4231647951849433" lon="103.94483604606368">
        <ele>8.904236802225492</ele>
      </trkpt>
      <trkpt lat="1.423076240003749" lon="103.94481781411551">
        <ele>9.877861010765896</ele>
      </trkpt>
      <trkpt lat="1.4229876848222311" lon="103.94479958216898">
        <ele>10.84539086283474</ele>
      </trkpt>
      <trkpt lat="1.4228974402692975" lon="103.94479584713844">
        <ele>11.805716988599514</ele>
      </trkpt>
      <trkpt lat="1.4228070424416135" lon="103.94479409973705">
        <ele>12.723412198858687</ele>
      </trkpt>
      <trkpt lat="1.4227176016344547" lon="103.94479853691294">
        <ele>13.181705119071877</ele>
      </trkpt>
      <trkpt lat="1.422630390793375" lon="103.94482232106483">
        <ele>14.153594225811974</ele>
      </trkpt>
      <trkpt lat="1.422543741611549" lon="103.94484794589536">
        <ele>14.570415037752086</ele>
      </trkpt>
      <trkpt lat="1.422457921534537" lon="103.94487628788175">
        <ele>14.758413391397719</ele>
      </trkpt>
      <trkpt lat="1.4223721014572759" lon="103.94490462986627">
        <ele>14.722124157558364</ele>
      </trkpt>
      <trkpt lat="1.4222862813797674" lon="103.94493297184893">
        <ele>14.571110808477671</ele>
      </trkpt>
      <trkpt lat="1.4222030285152698" lon="103.94496783746216">
        <ele>14.39602344364888</ele>
      </trkpt>
      <trkpt lat="1.4221206221787437" lon="103.94500485421493">
        <ele>14.250286776394772</ele>
      </trkpt>
      <trkpt lat="1.42203821584177" lon="103.94504187096527">
        <ele>14.300702638438414</ele>
      </trkpt>
      <trkpt lat="1.4219558095043496" lon="103.94507888771318">
        <ele>14.549738364397731</ele>
      </trkpt>
      <trkpt lat="1.4218741556007854" lon="103.94511738431619">
        <ele>14.740387534756929</ele>
      </trkpt>
      <trkpt lat="1.4217952729278698" lon="103.94516133126275">
        <ele>14.705369666346899</ele>
      </trkpt>
      <trkpt lat="1.4217163902542964" lon="103.94520527820647">
        <ele>14.44818721956293</ele>
      </trkpt>
      <trkpt lat="1.4216375075800645" lon="103.94524922514735">
        <ele>14.172421900598009</ele>
      </trkpt>
      <trkpt lat="1.4215586249051748" lon="103.94529317208539">
        <ele>13.896656581633087</ele>
      </trkpt>
      <trkpt lat="1.4214797422296268" lon="103.94533711902059">
        <ele>13.692009208153953</ele>
      </trkpt>
      <trkpt lat="1.4214008595534218" lon="103.94538106595296">
        <ele>13.562232961306194</ele>
      </trkpt>
      <trkpt lat="1.4213219769433063" lon="103.94542501300005">
        <ele>13.506479430820699</ele>
      </trkpt>
      <trkpt lat="1.4212433219653329" lon="103.94546936102181">
        <ele>13.453630671211684</ele>
      </trkpt>
      <trkpt lat="1.421164666986688" lon="103.94551370904068">
        <ele>13.392284241559464</ele>
      </trkpt>
      <trkpt lat="1.42108822169803" lon="103.94556160459985">
        <ele>13.318400251209981</ele>
      </trkpt>
      <trkpt lat="1.4210131885233204" lon="103.94561176723258">
        <ele>13.231978700163127</ele>
      </trkpt>
      <trkpt lat="1.4209381553477252" lon="103.94566192986218">
        <ele>13.140668848193103</ele>
      </trkpt>
      <trkpt lat="1.4208631221712438" lon="103.94571209248865">
        <ele>13.049358996222965</ele>
      </trkpt>
      <trkpt lat="1.4207880889938769" lon="103.94576225511199">
        <ele>12.974332359625018</ele>
      </trkpt>
      <trkpt lat="1.4207085084090647" lon="103.94580479870044">
        <ele>12.920178003751667</ele>
      </trkpt>
      <trkpt lat="1.4206282213900094" lon="103.94584615867954">
        <ele>12.897616234469927</ele>
      </trkpt>
      <trkpt lat="1.4205457607592251" lon="103.94588242713934">
        <ele>12.905642681333115</ele>
      </trkpt>
      <trkpt lat="1.4204600313773164" lon="103.94591103880022">
        <ele>12.939668278988725</ele>
      </trkpt>
      <trkpt lat="1.420374301995157" lon="103.94593965045921">
        <ele>12.98897272156985</ele>
      </trkpt>
      <trkpt lat="1.4202885726127463" lon="103.94596826211631">
        <ele>13.038277164151083</ele>
      </trkpt>
      <trkpt lat="1.420202843230085" lon="103.94599687377153">
        <ele>13.087581606732314</ele>
      </trkpt>
      <trkpt lat="1.4201171138471722" lon="103.94602548542487">
        <ele>13.136886049313597</ele>
      </trkpt>
      <trkpt lat="1.420031384464009" lon="103.94605409707633">
        <ele>13.18619049189477</ele>
      </trkpt>
      <trkpt lat="1.4199456550805958" lon="103.94608270872588">
        <ele>13.235494934476053</ele>
      </trkpt>
      <trkpt lat="1.4198599256969315" lon="103.94611132037356">
        <ele>13.284799377057288</ele>
      </trkpt>
      <trkpt lat="1.4197741963130166" lon="103.94613993201935">
        <ele>13.369077001405701</ele>
      </trkpt>
      <trkpt lat="1.419684630565079" lon="103.94615135779401">
        <ele>13.493171843701097</ele>
      </trkpt>
      <trkpt lat="1.4195947659312171" lon="103.9461614446405">
        <ele>13.674254735333166</ele>
      </trkpt>
      <trkpt lat="1.4195045254416014" lon="103.94616139480426">
        <ele>13.88317838908628</ele>
      </trkpt>
      <trkpt lat="1.4194141574277426" lon="103.94615790569165">
        <ele>14.115098768780582</ele>
      </trkpt>
      <trkpt lat="1.4193237894137865" lon="103.94615441657959">
        <ele>14.363137134363098</ele>
      </trkpt>
      <trkpt lat="1.4192339387091588" lon="103.94614448886698">
        <ele>14.631092413374938</ele>
      </trkpt>
      <trkpt lat="1.4191452700409748" lon="103.94612819890662">
        <ele>14.931349100114604</ele>
      </trkpt>
      <trkpt lat="1.4190582746782143" lon="103.94610364806796">
        <ele>15.2671111066982</ele>
      </trkpt>
      <trkpt lat="1.4189755434227507" lon="103.94606890276287">
        <ele>15.640937225538451</ele>
      </trkpt>
      <trkpt lat="1.4188966616203715" lon="103.94602495433065">
        <ele>16.050890869311484</ele>
      </trkpt>
      <trkpt lat="1.4188241990551187" lon="103.94597159072696">
        <ele>16.486944831369694</ele>
      </trkpt>
      <trkpt lat="1.4187538677316691" lon="103.94591510120611">
        <ele>16.93615838997868</ele>
      </trkpt>
      <trkpt lat="1.4186830354891902" lon="103.94585931142065">
        <ele>17.379094713695107</ele>
      </trkpt>
      <trkpt lat="1.4186062559925645" lon="103.94581182936186">
        <ele>17.813567313885805</ele>
      </trkpt>
      <trkpt lat="1.4185303979782018" lon="103.94576312647554">
        <ele>18.252137306935513</ele>
      </trkpt>
      <trkpt lat="1.4184630224787256" lon="103.94570318550035">
        <ele>18.703793617312844</ele>
      </trkpt>
      <trkpt lat="1.418395646977369" lon="103.94564324452865">
        <ele>19.167253936845896</ele>
      </trkpt>
      <trkpt lat="1.4183282714741332" lon="103.94558330356044">
        <ele>19.59932273107493</ele>
      </trkpt>
      <trkpt lat="1.4182608959690177" lon="103.94552336259574">
        <ele>19.87690475212632</ele>
      </trkpt>
      <trkpt lat="1.418193520462023" lon="103.94546342163451">
        <ele>20.0</ele>
      </trkpt>
      <trkpt lat="1.4181261449531497" lon="103.94540348067682">
        <ele>20.0</ele>
      </trkpt>
      <trkpt lat="1.418053106298986" lon="103.94535094968468">
        <ele>20.0</ele>
      </trkpt>
      <trkpt lat="1.4179769046878008" lon="103.94530255727747">
        <ele>20.0</ele>
      </trkpt>
      <trkpt lat="1.4179007030752948" lon="103.94525416487355">
        <ele>20.0</ele>
      </trkpt>
      <trkpt lat="1.4178245014614674" lon="103.9452057724729">
        <ele>20.0</ele>
      </trkpt>
      <trkpt lat="1.4177484794341177" lon="103.94515711499007">
        <ele>20.0</ele>
      </trkpt>
      <trkpt lat="1.4176746786090495" lon="103.94510517884228">
        <ele>20.0</ele>
      </trkpt>
      <trkpt lat="1.4176008777824993" lon="103.9450532426979">
        <ele>20.0</ele>
      </trkpt>
      <trkpt lat="1.4175486186019168" lon="103.94501646614296">
        <ele>20.0</ele>
      </trkpt>
      <trkpt lat="1.4174748018104826" lon="103.94496455240518">
        <ele>20.0</ele>
      </trkpt>
      <trkpt lat="1.4174061871925796" lon="103.94490635807803">
        <ele>20.0</ele>
      </trkpt>
      <trkpt lat="1.4173407156770013" lon="103.94484436908047">
        <ele>20.0</ele>
      </trkpt>
      <trkpt lat="1.4172752441594392" lon="103.94478238008642">
        <ele>20.0</ele>
      </trkpt>
      <trkpt lat="1.4172097726398931" lon="103.94472039109586">
        <ele>20.0</ele>
      </trkpt>
      <trkpt lat="1.417144301118364" lon="103.94465840210881">
        <ele>20.0</ele>
      </trkpt>
      <trkpt lat="1.4170788295948509" lon="103.94459641312523">
        <ele>20.0</ele>
      </trkpt>
      <trkpt lat="1.417018759544379" lon="103.94452929661601">
        <ele>20.0</ele>
      </trkpt>
      <trkpt lat="1.4169594231825533" lon="103.9444614836298">
        <ele>20.0</ele>
      </trkpt>
      <trkpt lat="1.4169000868184256" lon="103.94439367064697">
        <ele>20.0</ele>
      </trkpt>
      <trkpt lat="1.4168603134627353" lon="103.94431436602822">
        <ele>20.0</ele>
      </trkpt>
      <trkpt lat="1.4168507595325692" lon="103.94424616438866">
        <ele>20.0</ele>
      </trkpt>
      <trkpt lat="1.4168438092691347" lon="103.94415657150053">
        <ele>19.56335904179735</ele>
      </trkpt>
      <trkpt lat="1.416836859002172" lon="103.94406697861268">
        <ele>18.677504108929835</ele>
      </trkpt>
      <trkpt lat="1.4168299087316796" lon="103.94397738572509">
        <ele>17.34177100378089</ele>
      </trkpt>
      <trkpt lat="1.416814716594362" lon="103.94388930861462">
        <ele>15.991947114018076</ele>
      </trkpt>
      <trkpt lat="1.4167889327088032" lon="103.94380317945352">
        <ele>14.64060545610387</ele>
      </trkpt>
      <trkpt lat="1.4167631488198666" lon="103.94371705029408">
        <ele>13.288410227654893</ele>
      </trkpt>
      <trkpt lat="1.4167373649275519" lon="103.94363092113633">
        <ele>11.947529052894268</ele>
      </trkpt>
      <trkpt lat="1.4166997798802945" lon="103.94354944654643">
        <ele>10.620934613003614</ele>
      </trkpt>
      <trkpt lat="1.4166590941675408" lon="103.94346919491078">
        <ele>9.310466591563632</ele>
      </trkpt>
      <trkpt lat="1.4166174091527182" lon="103.94338951598468">
        <ele>8.077646318508124</ele>
      </trkpt>
      <trkpt lat="1.4165678686435295" lon="103.94331433911167">
        <ele>7.448093009936909</ele>
      </trkpt>
      <trkpt lat="1.4165183281316143" lon="103.94323916224172">
        <ele>7.4199669822692185</ele>
      </trkpt>
      <trkpt lat="1.4164687876169728" lon="103.94316398537488">
        <ele>7.9204328518832225</ele>
      </trkpt>
      <trkpt lat="1.4164192470996049" lon="103.94308880851112">
        <ele>8.420898721497222</ele>
      </trkpt>
      <trkpt lat="1.4163697065795118" lon="103.94301363165043">
        <ele>8.910560421790382</ele>
      </trkpt>
      <trkpt lat="1.4163235690118139" lon="103.94293653663406">
        <ele>9.368426588694648</ele>
      </trkpt>
      <trkpt lat="1.4162840430248707" lon="103.9428557148398">
        <ele>9.761242854925753</ele>
      </trkpt>
      <trkpt lat="1.4162549324396676" lon="103.94277103477064">
        <ele>10.081487738827477</ele>
      </trkpt>
      <trkpt lat="1.4162315615204801" lon="103.94268422850287">
        <ele>10.306441373954783</ele>
      </trkpt>
      <trkpt lat="1.4162218028038887" lon="103.94259508434308">
        <ele>10.409936127750536</ele>
      </trkpt>
      <trkpt lat="1.4162304531728451" lon="103.9425060996966">
        <ele>10.342708158977443</ele>
      </trkpt>
      <trkpt lat="1.4162599112157288" lon="103.94242189337454">
        <ele>10.123746916291465</ele>
      </trkpt>
      <trkpt lat="1.4162969659349038" lon="103.94233992384177">
        <ele>10.048585265548644</ele>
      </trkpt>
      <trkpt lat="1.4163444064353357" lon="103.94226353130462">
        <ele>10.10322300156564</ele>
      </trkpt>
      <trkpt lat="1.4163930946958776" lon="103.94218780832644">
        <ele>10.174614726691361</ele>
      </trkpt>
      <trkpt lat="1.4164329464191263" lon="103.94210714460189">
        <ele>10.026649574910941</ele>
      </trkpt>
      <trkpt lat="1.4164727981397502" lon="103.94202648087442">
        <ele>9.81413773355489</ele>
      </trkpt>
      <trkpt lat="1.4164926556534767" lon="103.9419390350264">
        <ele>9.681243180997804</ele>
      </trkpt>
      <trkpt lat="1.4165107664001402" lon="103.94185099666714">
        <ele>9.69843644904006</ele>
      </trkpt>
      <trkpt lat="1.4165088775943477" lon="103.94176131950388">
        <ele>9.828985449173835</ele>
      </trkpt>
      <trkpt lat="1.4164962993191623" lon="103.94167295313167">
        <ele>10.106437398593785</ele>
      </trkpt>
      <trkpt lat="1.4164719591270234" lon="103.94158641022902">
        <ele>10.548768835737857</ele>
      </trkpt>
      <trkpt lat="1.416420106928118" lon="103.9415133935076">
        <ele>11.158160358654895</ele>
      </trkpt>
      <trkpt lat="1.416355586450994" lon="103.94145042774102">
        <ele>11.89671083042393</ele>
      </trkpt>
      <trkpt lat="1.4162813779284047" lon="103.94139932737994">
        <ele>12.384143748396424</ele>
      </trkpt>
      <trkpt lat="1.416206067982218" lon="103.9413495759857">
        <ele>12.581790113098512</ele>
      </trkpt>
      <trkpt lat="1.4161307580346594" lon="103.94129982459476">
        <ele>12.487607045390154</ele>
      </trkpt>
      <trkpt lat="1.4160554480857286" lon="103.94125007320714">
        <ele>12.462831224009541</ele>
      </trkpt>
      <trkpt lat="1.4159801381354271" lon="103.94120032182286">
        <ele>12.446553723301754</ele>
      </trkpt>
      <trkpt lat="1.415919531989847" lon="103.94113466498553">
        <ele>12.39782732027084</ele>
      </trkpt>
      <trkpt lat="1.4158677439687661" lon="103.94106148793634">
        <ele>12.199649478666702</ele>
      </trkpt>
      <trkpt lat="1.4158276744990639" lon="103.94098094690865">
        <ele>11.82068072203019</ele>
      </trkpt>
      <trkpt lat="1.4158011239409318" lon="103.94089504804248">
        <ele>11.240557517501516</ele>
      </trkpt>
      <trkpt lat="1.415767183128736" lon="103.94081189320845">
        <ele>10.511057218179253</ele>
      </trkpt>
      <trkpt lat="1.4157305322324976" lon="103.94072974464086">
        <ele>9.724428226177473</ele>
      </trkpt>
      <trkpt lat="1.415693881333121" lon="103.94064759607569">
        <ele>8.941981297352143</ele>
      </trkpt>
      <trkpt lat="1.4156572304306057" lon="103.94056544751291">
        <ele>8.1866346664836</ele>
      </trkpt>
      <trkpt lat="1.4156082233474152" lon="103.94049031050737">
        <ele>7.498685204998625</ele>
      </trkpt>
      <trkpt lat="1.4155431750970324" lon="103.94042789230431">
        <ele>6.841186933365353</ele>
      </trkpt>
      <trkpt lat="1.415478073684928" lon="103.94036551969506">
        <ele>6.209236021414692</ele>
      </trkpt>
      <trkpt lat="1.415407423714451" lon="103.9403104138329">
        <ele>5.612299376133645</ele>
      </trkpt>
      <trkpt lat="1.4153265412796108" lon="103.94027136509784">
        <ele>5.124645384301162</ele>
      </trkpt>
      <trkpt lat="1.415240366696411" lon="103.94024410579023">
        <ele>4.729085299376454</ele>
      </trkpt>
      <trkpt lat="1.4151538822309333" lon="103.9402183857762">
        <ele>4.434235611882272</ele>
      </trkpt>
      <trkpt lat="1.415063785148075" lon="103.94021061090058">
        <ele>4.202773914571053</ele>
      </trkpt>
      <trkpt lat="1.414973688065074" lon="103.94020283602582">
        <ele>4.098997798259133</ele>
      </trkpt>
      <trkpt lat="1.4148844944314802" lon="103.94021581240882">
        <ele>4.072877231208263</ele>
      </trkpt>
      <trkpt lat="1.4147954096497461" lon="103.9402312890022">
        <ele>4.141508533009879</ele>
      </trkpt>
      <trkpt lat="1.4147078341000785" lon="103.94025174776554">
        <ele>4.2887559368848684</ele>
      </trkpt>
      <trkpt lat="1.4146249522613332" lon="103.94028770107607">
        <ele>4.506269205634755</ele>
      </trkpt>
      <trkpt lat="1.4145420704221638" lon="103.94032365438422">
        <ele>4.7998654250237855</ele>
      </trkpt>
      <trkpt lat="1.4144662961665337" lon="103.94037140776273">
        <ele>5.015325346546639</ele>
      </trkpt>
      <trkpt lat="1.4143952407236966" lon="103.94042699535379">
        <ele>5.079451785638486</ele>
      </trkpt>
      <trkpt lat="1.4143204303336507" lon="103.94047710108438">
        <ele>4.977195030431241</ele>
      </trkpt>
      <trkpt lat="1.4142672637973022" lon="103.94050792575139">
        <ele>4.889468060545106</ele>
      </trkpt>
      <trkpt lat="1.414252645288502" lon="103.94059660258804">
        <ele>5.259260357635693</ele>
      </trkpt>
      <trkpt lat="1.4142380267763768" lon="103.94068527942333">
        <ele>5.708915931125191</ele>
      </trkpt>
      <trkpt lat="1.4142234082609257" lon="103.94077395625727">
        <ele>6.158571504614689</ele>
      </trkpt>
      <trkpt lat="1.414208789742149" lon="103.94086263308985">
        <ele>6.608227078104334</ele>
      </trkpt>
      <trkpt lat="1.4141941712200463" lon="103.94095130992106">
        <ele>7.0578826515936965</ele>
      </trkpt>
      <trkpt lat="1.4141795526946193" lon="103.94103998675091">
        <ele>7.633732932718587</ele>
      </trkpt>
      <trkpt lat="1.4141625855886402" lon="103.94112816592491">
        <ele>8.411741265566425</ele>
      </trkpt>
      <trkpt lat="1.4141395228493132" lon="103.94121505345659">
        <ele>9.400786385516042</ele>
      </trkpt>
      <trkpt lat="1.4141240151033743" lon="103.9413031175895">
        <ele>10.487259240430967</ele>
      </trkpt>
      <trkpt lat="1.4141192166025807" lon="103.94139284956272">
        <ele>11.596880474094748</ele>
      </trkpt>
      <trkpt lat="1.4141217227056018" lon="103.94148207241768">
        <ele>12.724195534675275</ele>
      </trkpt>
      <trkpt lat="1.4141390818314001" lon="103.94157026004471">
        <ele>13.856618766673108</ele>
      </trkpt>
      <trkpt lat="1.414156440953723" lon="103.94165844767282">
        <ele>14.977139415594381</ele>
      </trkpt>
      <trkpt lat="1.4141922446781934" lon="103.94174067744692">
        <ele>16.080383577074727</ele>
      </trkpt>
      <trkpt lat="1.4142303947412396" lon="103.94182214932361">
        <ele>17.16635125111462</ele>
      </trkpt>
      <trkpt lat="1.414268544801189" lon="103.94190362120277">
        <ele>18.200361217871976</ele>
      </trkpt>
      <trkpt lat="1.4143284327338803" lon="103.94197044822036">
        <ele>19.144910800833852</ele>
      </trkpt>
      <trkpt lat="1.4143904855004317" lon="103.9420358167856">
        <ele>19.728121066054864</ele>
      </trkpt>
      <trkpt lat="1.4144341531662348" lon="103.94211371429061">
        <ele>20.0</ele>
      </trkpt>
      <trkpt lat="1.41447317633242" lon="103.94219477689428">
        <ele>20.0</ele>
      </trkpt>
      <trkpt lat="1.4145121994955316" lon="103.94227583950048">
        <ele>20.0</ele>
      </trkpt>
      <trkpt lat="1.4145512226555694" lon="103.94235690210924">
        <ele>20.0</ele>
      </trkpt>
      <trkpt lat="1.4145902458125337" lon="103.94243796472051">
        <ele>20.0</ele>
      </trkpt>
      <trkpt lat="1.414623242152537" lon="103.94252137488448">
        <ele>20.0</ele>
      </trkpt>
      <trkpt lat="1.4146500599115368" lon="103.9426071917152">
        <ele>20.0</ele>
      </trkpt>
      <trkpt lat="1.4146667360535496" lon="103.94269537232243">
        <ele>20.0</ele>
      </trkpt>
      <trkpt lat="1.414680046160489" lon="103.94278421465044">
        <ele>20.0</ele>
      </trkpt>
      <trkpt lat="1.4146871380594346" lon="103.94287379650088">
        <ele>20.0</ele>
      </trkpt>
      <trkpt lat="1.414694229954857" lon="103.94296337835158">
        <ele>20.0</ele>
      </trkpt>
      <trkpt lat="1.4147002644361775" lon="103.94305302963683">
        <ele>20.0</ele>
      </trkpt>
      <trkpt lat="1.4147050988331415" lon="103.94314275972486">
        <ele>20.0</ele>
      </trkpt>
      <trkpt lat="1.414709933226585" lon="103.94323248981301">
        <ele>20.0</ele>
      </trkpt>
      <trkpt lat="1.4147147676165068" lon="103.94332221990123">
        <ele>20.0</ele>
      </trkpt>
      <trkpt lat="1.4147149713314835" lon="103.94332600101326">
        <ele>20.0</ele>
      </trkpt>
    </trkseg>
  </trk>
</gpx>