{
"type": "FeatureCollection",
"name": "point_to_point_10000m_005",
"crs": { "type": "name", "properties": { "name": "urn:ogc:def:crs:OGC:1.3:CRS84" } },
"features": [
{ "type": "Feature", "properties": { "route_id": "point_to_point_10000m_005", "budget_km": 10.0, "mode": "point_to_point", "rank": 5, "distance_m": 7345.0504938761806, "ascent_m": 65.755324083225673, "descent_m": 59.43185015077907, "gain_density_m_per_km": 8.9523311157694749, "source_confidence": 0.85 }, "geometry": { "type": "LineString", "coordinates": [ [ 103.988475015658082, 1.391145097586203 ], [ 103.988451640208822, 1.391063793480188 ], [ 103.988306306056884, 1.390712920142316 ], [ 103.988279542353439, 1.390649389659644 ], [ 103.988042958771061, 1.390765933070081 ], [ 103.987959140968627, 1.390813012386286 ], [ 103.987756383398093, 1.390751213586356 ], [ 103.987821745866626, 1.390573520467848 ], [ 103.987874251851935, 1.390359500021001 ], [ 103.987650796345505, 1.390294526455039 ], [ 103.987542929272934, 1.390662840827816 ], [ 103.98744565519354, 1.390708241612946 ], [ 103.987377362835602, 1.390753451479833 ], [ 103.98734616265007, 1.390741655237143 ], [ 103.987036191309031, 1.390591586937495 ], [ 103.986943526271475, 1.39054371523887 ], [ 103.986855563634506, 1.39049823978471 ], [ 103.986829077855489, 1.390479923688446 ], [ 103.986779887802541, 1.390447951419088 ], [ 103.98675469044133, 1.390427472910742 ], [ 103.98645071183175, 1.390710711466587 ], [ 103.986135226543325, 1.390946573986156 ], [ 103.985968446356793, 1.39105597724525 ], [ 103.985874989988019, 1.391096977101588 ], [ 103.985791938592627, 1.3911298216558 ], [ 103.985684656899963, 1.3911593135071 ], [ 103.985594898478354, 1.391191292112867 ], [ 103.985503747668147, 1.391215578311841 ], [ 103.985402552343018, 1.391236132861419 ], [ 103.985342937527122, 1.391254208571311 ], [ 103.985311428893567, 1.391266793891717 ], [ 103.985214911584208, 1.391316040789548 ], [ 103.985136350229396, 1.391361049590355 ], [ 103.985043588992511, 1.391424921563746 ], [ 103.984949969773638, 1.391477267509323 ], [ 103.984870336846939, 1.391529163080159 ], [ 103.984784949156406, 1.391576614086421 ], [ 103.984698604350527, 1.391622043000653 ], [ 103.984555634258896, 1.391657204738491 ], [ 103.984250794238946, 1.391697936002455 ], [ 103.984116297976428, 1.391751601298911 ], [ 103.983953873459825, 1.391740399474665 ], [ 103.983741667050225, 1.391659638291257 ], [ 103.983597963387012, 1.391647286701685 ], [ 103.983530041270328, 1.391623664623777 ], [ 103.983453931504869, 1.391602722689727 ], [ 103.983379515821625, 1.391585996775629 ], [ 103.983206000499294, 1.391551098636258 ], [ 103.98287557255307, 1.391476684495235 ], [ 103.982709696152227, 1.391443700362451 ], [ 103.982613992117706, 1.391423646826233 ], [ 103.982427171779122, 1.391391494209536 ], [ 103.982342269519606, 1.391357069677756 ], [ 103.982257873489417, 1.391342224527236 ], [ 103.982182095248717, 1.391334572114276 ], [ 103.982004519884015, 1.391323499531922 ], [ 103.981908664130103, 1.39131991981651 ], [ 103.981854656973624, 1.391318647184774 ], [ 103.981826271923538, 1.391319415880865 ], [ 103.981798792802209, 1.391322820731755 ], [ 103.981772924118061, 1.39132926865538 ], [ 103.981745281001096, 1.391339777272279 ], [ 103.981674347625571, 1.391371225491477 ], [ 103.981637142762239, 1.39138166688508 ], [ 103.981607734388476, 1.391384915401418 ], [ 103.981508604449658, 1.391384983165167 ], [ 103.981473766809202, 1.391387052736107 ], [ 103.981441379844298, 1.391393299395582 ], [ 103.981404142192758, 1.391411131226493 ], [ 103.981339607174831, 1.391465146458749 ], [ 103.981294170643309, 1.391478560097422 ], [ 103.981256169725285, 1.391475975118409 ], [ 103.981227530422458, 1.391463069883797 ], [ 103.981189456938694, 1.391463996542372 ], [ 103.981159999590488, 1.391474464570961 ], [ 103.981133904685592, 1.391484517285495 ], [ 103.981098853825003, 1.391496923711852 ], [ 103.981069990363721, 1.391506257633149 ], [ 103.981018508551927, 1.391525114997154 ], [ 103.980961240928167, 1.391545849273781 ], [ 103.980908826198018, 1.391561568561281 ], [ 103.980852800655953, 1.391571901700145 ], [ 103.980791494880023, 1.391578960478319 ], [ 103.98073125835127, 1.391585097643705 ], [ 103.980679494261594, 1.391587539959901 ], [ 103.980628052462109, 1.391585175575395 ], [ 103.980564547841738, 1.391577283587867 ], [ 103.980506175858764, 1.391568966226632 ], [ 103.980462909758373, 1.391559501185949 ], [ 103.980425314572884, 1.39155010723315 ], [ 103.980377042974368, 1.391548162267642 ], [ 103.980325038205038, 1.391523818318791 ], [ 103.980275080767612, 1.391505548834049 ], [ 103.980220426751458, 1.391462669262919 ], [ 103.980166388034718, 1.391430655550789 ], [ 103.980089651147708, 1.391396139986554 ], [ 103.980056780190722, 1.391364352845451 ], [ 103.980011321295251, 1.391321327091039 ], [ 103.979970093916208, 1.391294846358062 ], [ 103.979929228421412, 1.391249878651067 ], [ 103.979901184962415, 1.391209147073736 ], [ 103.979853164031198, 1.391148263960418 ], [ 103.979809704669265, 1.391079264823931 ], [ 103.979771503849179, 1.391026077208406 ], [ 103.979748751670854, 1.390992864156852 ], [ 103.979733789076477, 1.390956952005041 ], [ 103.979707294968478, 1.390890299528298 ], [ 103.979667209854838, 1.390778972457688 ], [ 103.979648003214322, 1.390727201692417 ], [ 103.97960772296571, 1.390657221120323 ], [ 103.979570529353424, 1.390573094337449 ], [ 103.979527245729116, 1.390482937652882 ], [ 103.979485882395977, 1.390393309898755 ], [ 103.979472434171413, 1.390361661712863 ], [ 103.97944823468444, 1.390303847410216 ], [ 103.979401674212397, 1.390232301774809 ], [ 103.979365372148806, 1.390165194104411 ], [ 103.979329779394476, 1.390103481807865 ], [ 103.979294230932751, 1.390046010961762 ], [ 103.979258367298002, 1.389992205510358 ], [ 103.979203845113688, 1.389914949323696 ], [ 103.979157294197194, 1.389852437344936 ], [ 103.979113194147075, 1.38979726500817 ], [ 103.97907046120261, 1.389748147283632 ], [ 103.979014511510357, 1.389690705733601 ], [ 103.978948932536198, 1.389630712671956 ], [ 103.978875117110334, 1.389568793829372 ], [ 103.97874856831433, 1.389454453336044 ], [ 103.978661789113076, 1.389406464259804 ], [ 103.978570511672913, 1.389329426471569 ], [ 103.978505133233938, 1.389271599327812 ], [ 103.978466600966598, 1.389248954696093 ], [ 103.978419157934795, 1.389218146041091 ], [ 103.978362726590547, 1.389189459571596 ], [ 103.97835779777067, 1.389142991083098 ], [ 103.978280360642088, 1.389087997135934 ], [ 103.978206424605759, 1.389036974020009 ], [ 103.978151838691602, 1.389004199718038 ], [ 103.978088325448979, 1.388971579706302 ], [ 103.97802812196484, 1.388943997685243 ], [ 103.977864617497616, 1.388872954802556 ], [ 103.977805915640786, 1.388847093682291 ], [ 103.977774844880358, 1.38883481165433 ], [ 103.977693274792344, 1.388772613797556 ], [ 103.977659278817498, 1.388724843003203 ], [ 103.977618515728167, 1.388677882931532 ], [ 103.977582116409479, 1.388606077074058 ], [ 103.977565359607112, 1.388573386347647 ], [ 103.977555072801806, 1.388544986418049 ], [ 103.97754737392907, 1.388517208530085 ], [ 103.977541432899798, 1.388478422648862 ], [ 103.977534115787975, 1.388433608379838 ], [ 103.977548394313985, 1.388406881819352 ], [ 103.97758281725045, 1.388353285449015 ], [ 103.977621774054853, 1.388308950363581 ], [ 103.977667194293886, 1.388279273672312 ], [ 103.977763062727547, 1.388197479158228 ], [ 103.977864867751535, 1.388111013249869 ], [ 103.977910482780715, 1.388078151382256 ], [ 103.977951918779524, 1.38804924182972 ], [ 103.978039537032402, 1.387991240653908 ], [ 103.97808580115337, 1.387963741605586 ], [ 103.978136512235594, 1.387934899306048 ], [ 103.97818126320243, 1.387908177195609 ], [ 103.978233492128751, 1.387881876960115 ], [ 103.978326934585951, 1.387818291889553 ], [ 103.97844953516227, 1.387759474617026 ], [ 103.978648091273286, 1.387685379792245 ], [ 103.978879958741089, 1.387631379604782 ], [ 103.979008397446563, 1.387603886303376 ], [ 103.979048548844219, 1.387581232279759 ], [ 103.979091482184998, 1.387572582116397 ], [ 103.979118611688293, 1.387568569592268 ], [ 103.979247955762503, 1.387549433424136 ], [ 103.979445799700542, 1.387526528137274 ], [ 103.979557577724151, 1.38751032679195 ], [ 103.979649027166687, 1.387491871229866 ], [ 103.979690310740224, 1.387483539493787 ], [ 103.980007218712458, 1.38743624697751 ], [ 103.980112257069209, 1.387428928662497 ], [ 103.98029526413157, 1.387412566380902 ], [ 103.980348834080246, 1.387246985355826 ], [ 103.980409680183669, 1.387058914221767 ], [ 103.980201394658636, 1.386976306610519 ], [ 103.98016058886293, 1.386951019602514 ], [ 103.980095875735884, 1.386927721871443 ], [ 103.980067983281799, 1.38691598138622 ], [ 103.980032516536212, 1.386900778574098 ], [ 103.979984178468456, 1.38688311398847 ], [ 103.979947358152643, 1.386862727461072 ], [ 103.979901856396808, 1.386837150440802 ], [ 103.979879451402084, 1.38682325542285 ], [ 103.979820092949467, 1.386786444385054 ], [ 103.979783973288022, 1.38676221970226 ], [ 103.97974009843405, 1.386729829119962 ], [ 103.979696114481953, 1.386691384749688 ], [ 103.979660776480728, 1.386665506843796 ], [ 103.97959554357459, 1.386606168527501 ], [ 103.979542601898203, 1.386570206277826 ], [ 103.979510081319773, 1.386550702131925 ], [ 103.979476195905733, 1.386532784319842 ], [ 103.979439506058284, 1.386515104528353 ], [ 103.979405026767878, 1.386498489936514 ], [ 103.979298619554953, 1.386411841553668 ], [ 103.979253379299834, 1.386371604807635 ], [ 103.979229254830628, 1.386349362635195 ], [ 103.979184711605299, 1.386304784006156 ], [ 103.979153073587284, 1.386273123376399 ], [ 103.979106280198835, 1.386226293025541 ], [ 103.979075983658149, 1.386193076810105 ], [ 103.979042000872283, 1.386154997167775 ], [ 103.979025003100574, 1.386134498159942 ], [ 103.978968728414628, 1.386065537769101 ], [ 103.978915944782813, 1.385998095583108 ], [ 103.978890593848249, 1.385962455370618 ], [ 103.978855999157332, 1.385939378211172 ], [ 103.978831455285885, 1.385876625198217 ], [ 103.978808115409961, 1.38584178160248 ], [ 103.978750571163545, 1.385745160490522 ], [ 103.978729830850483, 1.385710110538778 ], [ 103.978708704111654, 1.385674406757445 ], [ 103.978668725554357, 1.385598578535807 ], [ 103.978620313045795, 1.385494159452885 ], [ 103.9785834140649, 1.385435703818581 ], [ 103.978551502314872, 1.38535014959547 ], [ 103.978538340974183, 1.385321648557999 ], [ 103.978507310398641, 1.385230682581827 ], [ 103.978476845403605, 1.385131116094543 ], [ 103.978457918364498, 1.385065589957572 ], [ 103.978448576616231, 1.385033060658846 ], [ 103.978436703710571, 1.384987776404844 ], [ 103.978425563207097, 1.384943553825732 ], [ 103.978420367187866, 1.384906281800964 ], [ 103.978410039530942, 1.384856090387292 ], [ 103.978406641199413, 1.384812936286085 ], [ 103.978406863828369, 1.384765025926008 ], [ 103.978404331153783, 1.384727312408774 ], [ 103.978389912148799, 1.38463036215218 ], [ 103.978391583135149, 1.384594883052697 ], [ 103.978375884114669, 1.384505322410438 ], [ 103.978376891006249, 1.384380307969396 ], [ 103.978384251503186, 1.38425193614815 ], [ 103.978385759399217, 1.384135126945818 ], [ 103.97839612094505, 1.384018510731796 ], [ 103.978404674460947, 1.383944595854838 ], [ 103.978412013182364, 1.383901511632505 ], [ 103.978429141891951, 1.383785124709632 ], [ 103.978450251009562, 1.383619970764842 ], [ 103.97843593766973, 1.383546411804753 ], [ 103.978433398863658, 1.383496469514403 ], [ 103.978434082599279, 1.383436021060863 ], [ 103.978437976673064, 1.3833268906427 ], [ 103.97844055144445, 1.383244083549085 ], [ 103.97843909674846, 1.383216026734595 ], [ 103.978447318129611, 1.383132894627798 ], [ 103.978447544435028, 1.383101088228039 ], [ 103.978451471660193, 1.383064341979299 ], [ 103.978459250664031, 1.383006198305935 ], [ 103.97846486385464, 1.382914293150875 ], [ 103.978468263003336, 1.382823052837527 ], [ 103.978473929051958, 1.382728551257922 ], [ 103.97847754857014, 1.382626123981995 ], [ 103.978480722063821, 1.382518216304127 ], [ 103.978483671459983, 1.382404490883895 ], [ 103.978491726594569, 1.382291610727336 ], [ 103.978496606040011, 1.382176504228585 ], [ 103.978521485791788, 1.38200039371416 ], [ 103.978519464589297, 1.38184723663902 ], [ 103.978525216702593, 1.38173467495899 ], [ 103.978535172532048, 1.381625356964276 ], [ 103.978544260452068, 1.381517873067564 ], [ 103.978551784258144, 1.381415327983932 ], [ 103.978557713077706, 1.381312429393074 ], [ 103.978565768156543, 1.381213461929906 ], [ 103.978570244871207, 1.381169558531948 ], [ 103.97857551995979, 1.38111813984267 ], [ 103.978583463936758, 1.381024469230273 ], [ 103.978589757379794, 1.380933143728126 ], [ 103.978594739536575, 1.380837367040364 ], [ 103.97859790681855, 1.380745538905481 ], [ 103.978606012912593, 1.380613631887969 ], [ 103.978615325567674, 1.380478096498729 ], [ 103.97862302078515, 1.380386828789302 ], [ 103.978629786863237, 1.380295291637323 ], [ 103.978631011608812, 1.380265563397908 ], [ 103.978633621655391, 1.380201347255758 ], [ 103.978636880530658, 1.380108510752127 ], [ 103.978642464048107, 1.380016303540992 ], [ 103.978647293682243, 1.379924393006663 ], [ 103.978652354100603, 1.37983003435212 ], [ 103.978658293425866, 1.379707778810883 ], [ 103.978667998104712, 1.379591136408649 ], [ 103.978675008998664, 1.379491469937683 ], [ 103.978682853888216, 1.379393811097451 ], [ 103.978683450373197, 1.379272595899813 ], [ 103.978469825193969, 1.379260884878991 ], [ 103.978417255920618, 1.379257999574374 ], [ 103.978364461105187, 1.379255101621336 ], [ 103.978366097550207, 1.379227847688791 ], [ 103.97837029862589, 1.379157867049236 ], [ 103.978376120885997, 1.379060882986087 ], [ 103.978383166320242, 1.378937831537689 ], [ 103.978387249847586, 1.378826034142896 ], [ 103.978382394700631, 1.378793553399952 ], [ 103.9783754764983, 1.378747267708106 ], [ 103.978370732819798, 1.378715534865042 ], [ 103.978366750538953, 1.378688892625064 ], [ 103.978359501393655, 1.378638148452117 ], [ 103.978353729436733, 1.378586374121031 ], [ 103.978347715636204, 1.378532476364336 ], [ 103.978341543601843, 1.378477160578753 ], [ 103.978336007201875, 1.378427540421672 ], [ 103.978325780327481, 1.378378979559002 ], [ 103.978319753680765, 1.378350368649438 ], [ 103.978310551471779, 1.378306670474594 ], [ 103.978300363248664, 1.37825829952516 ], [ 103.978288113112782, 1.378200131755789 ], [ 103.978272592909619, 1.378139157048981 ], [ 103.978261695484292, 1.378101815733175 ], [ 103.978247801969488, 1.378060244902823 ], [ 103.978230201181432, 1.378007580498966 ], [ 103.978201589118186, 1.377921972694596 ], [ 103.978162013096906, 1.377828050862356 ], [ 103.978121596041476, 1.377734532425604 ], [ 103.978062714458943, 1.377614421467268 ], [ 103.978020973181955, 1.377540159674548 ], [ 103.977997309488046, 1.377498057674206 ], [ 103.977980990030773, 1.377474512719448 ], [ 103.977942473057325, 1.377418939354769 ], [ 103.977896569195593, 1.377352707637433 ], [ 103.977856776145515, 1.377295293069087 ], [ 103.977826621999569, 1.377251786084871 ], [ 103.977804213684976, 1.377225770784764 ], [ 103.977726125381594, 1.377123702090281 ], [ 103.977631931935903, 1.377020373693774 ], [ 103.977602890482515, 1.376966160808383 ], [ 103.977577818061476, 1.376942621809133 ], [ 103.977516609375598, 1.376884731034316 ], [ 103.977462264699454, 1.376824003762818 ], [ 103.977437742745579, 1.376794483282233 ], [ 103.977350473868555, 1.376708831097621 ], [ 103.977328218992668, 1.376694007254342 ], [ 103.977306159722474, 1.376674468058794 ], [ 103.977264280552902, 1.376637610642437 ], [ 103.977243531292316, 1.376616294296517 ], [ 103.977194826762002, 1.37656736859072 ], [ 103.977155667619044, 1.376531372863279 ], [ 103.977113231220045, 1.376492498751661 ], [ 103.977042915129317, 1.376412571036459 ], [ 103.976920635909124, 1.376292044258612 ], [ 103.976818315017056, 1.376189563700855 ], [ 103.976739320605645, 1.376110445903196 ], [ 103.97665828003359, 1.376029278943083 ], [ 103.976544747927221, 1.375915401381923 ], [ 103.976425632677007, 1.375795806778233 ], [ 103.976355186884945, 1.375725077305325 ], [ 103.976256045355711, 1.375625536604916 ], [ 103.976187948575088, 1.375557165558896 ], [ 103.976150503839804, 1.375519577127496 ], [ 103.976050591309857, 1.375419280416823 ], [ 103.975968865123946, 1.37533724076025 ], [ 103.975922238264189, 1.375290433816208 ], [ 103.97585152830743, 1.375219452928313 ], [ 103.97579772594726, 1.375165444077908 ], [ 103.9757293254589, 1.375096780925219 ], [ 103.975676294122749, 1.375043546158541 ], [ 103.975586875750437, 1.374953784604995 ], [ 103.975482923078204, 1.374849750381348 ], [ 103.975388963488129, 1.374747114601051 ], [ 103.975360919114735, 1.374716332720198 ], [ 103.975302049730317, 1.374646876761186 ], [ 103.975217781484773, 1.374548616597645 ], [ 103.975126998200537, 1.374458502403296 ], [ 103.975042181932139, 1.374377022691779 ], [ 103.974970753955873, 1.37431933321503 ], [ 103.974856800619804, 1.374221375959227 ], [ 103.974923608157212, 1.374141896688605 ], [ 103.974848963578538, 1.374058176258023 ], [ 103.974827750608199, 1.374035297176909 ], [ 103.974776020160419, 1.373992520343791 ], [ 103.974731695027018, 1.373937933916029 ], [ 103.974638495516388, 1.374031071515278 ], [ 103.97455187925182, 1.374022808091918 ], [ 103.974502987740053, 1.373986017956547 ], [ 103.974474688462635, 1.373959827521409 ], [ 103.974419960586175, 1.373904984866739 ], [ 103.97440085408509, 1.373885822581815 ], [ 103.974339243661987, 1.373824001376067 ], [ 103.974314806548136, 1.373799685450649 ], [ 103.974260497459269, 1.373745646743987 ], [ 103.974179464390488, 1.373667071580145 ], [ 103.974149504368924, 1.37363753690992 ], [ 103.974100200634993, 1.373588933114673 ], [ 103.974035568310114, 1.37352660744468 ], [ 103.974016502296195, 1.37350822380885 ], [ 103.973930239234718, 1.373423880022313 ], [ 103.973885110486023, 1.373379128554552 ], [ 103.973844279843163, 1.37333863818299 ], [ 103.973806123412814, 1.37329934683583 ], [ 103.973763137784246, 1.37325508540243 ], [ 103.973680579546411, 1.373170847196066 ], [ 103.973598354687383, 1.373086676793628 ], [ 103.973511324109822, 1.372999448120492 ], [ 103.973431049413165, 1.372919680027857 ], [ 103.973348673638043, 1.372835959091393 ], [ 103.97332405589529, 1.372811013728502 ], [ 103.973267662889498, 1.372753870443634 ], [ 103.973185581207289, 1.372674445200301 ], [ 103.97310282020436, 1.372594878913074 ], [ 103.973033161048363, 1.372527550577315 ], [ 103.972980021058177, 1.372473571454004 ], [ 103.972956715307021, 1.372449899350451 ], [ 103.972887952658226, 1.372377869181038 ], [ 103.972849068427308, 1.372338735216637 ], [ 103.9728057837346, 1.372203541127592 ], [ 103.972742161069746, 1.372134275284405 ], [ 103.972677434122474, 1.372065952752964 ], [ 103.972581007426825, 1.371965639380636 ], [ 103.972473356262853, 1.371857401739704 ], [ 103.97240012047952, 1.371783766572495 ], [ 103.972256449926405, 1.371639314056921 ], [ 103.972127985844523, 1.371510148876372 ], [ 103.972002726256449, 1.371384206645293 ], [ 103.971947098965686, 1.371328276930422 ], [ 103.971922165848369, 1.371303207670468 ], [ 103.971896069316955, 1.37128216017406 ], [ 103.971862572141376, 1.371260478246431 ], [ 103.971832534582759, 1.371241034411865 ], [ 103.971810634695458, 1.371225712183465 ], [ 103.971783184563463, 1.371198423764865 ], [ 103.971751387809476, 1.371166815463298 ], [ 103.971717419546508, 1.371140946366397 ], [ 103.971691121248512, 1.371111350853014 ], [ 103.971667324594776, 1.371082273393007 ], [ 103.97164756814422, 1.371057378370362 ], [ 103.971612131402409, 1.371011995041799 ], [ 103.971587130773244, 1.37098472908709 ], [ 103.971556901135131, 1.370937585567132 ], [ 103.971502489695936, 1.370882846813191 ], [ 103.971424473311686, 1.370804360891018 ], [ 103.97136486066691, 1.370744390702958 ], [ 103.971306448581046, 1.370685626861892 ], [ 103.971251637267443, 1.370630485683181 ], [ 103.971177221668682, 1.370555622415182 ], [ 103.97113169400059, 1.370509817325093 ], [ 103.971073423507207, 1.370507095856209 ], [ 103.970961055996767, 1.370400683406676 ], [ 103.970928573367672, 1.370379757451336 ], [ 103.970813116233089, 1.370251272416843 ], [ 103.970779313488649, 1.370228200485093 ], [ 103.970711011224722, 1.370159492836474 ], [ 103.9706373752785, 1.370094520506755 ], [ 103.970609213238745, 1.370046734755376 ], [ 103.970541101502931, 1.369978408730418 ], [ 103.970470189674117, 1.369907275725667 ], [ 103.970395264616997, 1.369832116731106 ], [ 103.970351540425455, 1.369802530341614 ], [ 103.970333119801964, 1.369771164520619 ], [ 103.970287065374194, 1.369721313327049 ], [ 103.970269487644885, 1.369690584127549 ], [ 103.97022510458892, 1.369641314340919 ], [ 103.970196553248982, 1.369589399289983 ], [ 103.970116197833804, 1.369508381237154 ], [ 103.970003199191879, 1.369394453523032 ], [ 103.969874506014392, 1.369261734969963 ], [ 103.969849982665636, 1.369236291254273 ], [ 103.969804389387406, 1.36922112048562 ], [ 103.969788379470316, 1.369186884981277 ], [ 103.969748247143656, 1.369162103246697 ], [ 103.969688440746637, 1.369106667488241 ], [ 103.96961052146132, 1.369027071836268 ], [ 103.969591155182741, 1.369004926029603 ], [ 103.969501063829611, 1.368907995359363 ], [ 103.969456331377231, 1.368844849048668 ], [ 103.969347485908557, 1.368745671199185 ], [ 103.969270399896445, 1.368671017822875 ], [ 103.969199011768978, 1.368597505423276 ], [ 103.969133598890863, 1.368535919403311 ], [ 103.969066107060399, 1.368464202839299 ], [ 103.968994642842219, 1.368395588459779 ], [ 103.968900661605872, 1.368282073797181 ], [ 103.968752257902125, 1.368139108063384 ], [ 103.968543016484119, 1.367927608712134 ], [ 103.96848568106644, 1.367885761716976 ], [ 103.968421279763888, 1.367819735199701 ], [ 103.968404895027859, 1.367798952085412 ], [ 103.968360522994431, 1.367752661223036 ], [ 103.968315819414528, 1.367706782767373 ], [ 103.968281486790829, 1.367671507365813 ], [ 103.968256993987879, 1.367645375409052 ], [ 103.968207714529598, 1.367592707261478 ], [ 103.968163931698811, 1.367541669366272 ], [ 103.968128856589189, 1.367501478797671 ], [ 103.968078084506089, 1.367446822943917 ], [ 103.968049174088705, 1.367415960517496 ], [ 103.96801967510855, 1.36738505923633 ], [ 103.967978966773771, 1.367342827838453 ], [ 103.967940235758732, 1.367309053919688 ], [ 103.967901079744394, 1.367275670708439 ], [ 103.96782096868489, 1.36720705225211 ], [ 103.967780140830101, 1.367164514278217 ], [ 103.967747406675471, 1.367127495167631 ], [ 103.967680178512552, 1.36704513058472 ], [ 103.967630858380204, 1.366987719951454 ], [ 103.967610634879435, 1.36696513827072 ], [ 103.967563037784373, 1.366916397655439 ], [ 103.967536384777887, 1.366889104610512 ], [ 103.967463951581067, 1.366813035575251 ], [ 103.967389255021374, 1.366739169689829 ], [ 103.967306609140294, 1.366654389504899 ], [ 103.967235340629458, 1.366580654553655 ], [ 103.96716220398514, 1.36650659865608 ], [ 103.967089226613993, 1.366436563539576 ], [ 103.967013261496362, 1.366366226530816 ], [ 103.966941000915696, 1.366291229135301 ], [ 103.96689303434141, 1.366238954278329 ], [ 103.96686970975999, 1.366213825176018 ], [ 103.966806269066424, 1.366146936694851 ], [ 103.96678470296699, 1.366121544323913 ], [ 103.966740216202112, 1.366079297737226 ], [ 103.966703344086881, 1.366056894232011 ], [ 103.966657898149421, 1.366039910141096 ], [ 103.966624217808743, 1.366051306980803 ], [ 103.966582920368253, 1.366079891641918 ], [ 103.966554864036951, 1.366089148446589 ], [ 103.966530372310046, 1.366098245884432 ], [ 103.966503645450558, 1.366116445848822 ], [ 103.966479188380944, 1.36613484916778 ], [ 103.966451682882038, 1.366160654858309 ], [ 103.966423302336409, 1.366189326520104 ], [ 103.966281739307675, 1.36633361810737 ], [ 103.966147399477137, 1.366471309252963 ], [ 103.966024502272745, 1.366597957497805 ], [ 103.965977364334208, 1.366646620212707 ], [ 103.965944744218433, 1.366689471595236 ], [ 103.965901048274759, 1.366747023090557 ], [ 103.96586263910946, 1.366797519364692 ], [ 103.965818241933746, 1.366865151819652 ], [ 103.965760653998373, 1.366952917005802 ], [ 103.965732377794708, 1.367000286336996 ], [ 103.965722384426257, 1.367025685894854 ], [ 103.965695824679642, 1.367093037910638 ], [ 103.965660494338636, 1.367182628671342 ], [ 103.965649571143729, 1.36721152996978 ], [ 103.965637686638715, 1.367243295435577 ], [ 103.965635667790693, 1.367247533387319 ], [ 103.96556630204401, 1.367363052280663 ], [ 103.965563948878895, 1.367366377749736 ], [ 103.965537064632571, 1.367398878388391 ], [ 103.965490845399671, 1.367454761470248 ], [ 103.965474043282413, 1.367474639370925 ], [ 103.965418555055948, 1.367542002030514 ], [ 103.965287973031067, 1.367747552628519 ], [ 103.965196221478919, 1.367900202234081 ], [ 103.965176123364586, 1.367935682366781 ], [ 103.965080228192093, 1.368099068782576 ], [ 103.96501445813405, 1.368208547232222 ], [ 103.964955628941638, 1.36830771466732 ], [ 103.964915535771979, 1.368373855579395 ], [ 103.964801181264633, 1.36856970507622 ], [ 103.96470976487926, 1.368723455258001 ], [ 103.964689473552298, 1.368758799744076 ], [ 103.964689079117306, 1.368759464471816 ], [ 103.964665770546972, 1.368797514974882 ], [ 103.964641597706589, 1.368838372664739 ], [ 103.964617185865009, 1.368879571312016 ], [ 103.964579498907852, 1.368943249509907 ], [ 103.9645374659586, 1.369013949412512 ], [ 103.964488475131532, 1.36909629607027 ], [ 103.964470780361552, 1.36912616088325 ], [ 103.964434585777454, 1.369187249809155 ], [ 103.964398041690131, 1.369249100226617 ], [ 103.964373739457088, 1.369290136080896 ], [ 103.964345110114664, 1.369338428772966 ], [ 103.964302653070916, 1.369409912777647 ], [ 103.964262698324546, 1.369510612055885 ], [ 103.964239260584279, 1.369569593115158 ], [ 103.964221545039337, 1.369614145669819 ], [ 103.964203245506241, 1.369660202210341 ], [ 103.964201911288029, 1.369663062780404 ], [ 103.964140481480158, 1.369777055548674 ], [ 103.964140131971348, 1.369777685003759 ], [ 103.96413965846908, 1.369778479059545 ], [ 103.964104288535623, 1.369835551665279 ], [ 103.964066342623951, 1.369896645205148 ], [ 103.964052525650132, 1.369918887840728 ], [ 103.964001240734859, 1.370001032040083 ], [ 103.963986165903009, 1.370042417373182 ], [ 103.963944926344752, 1.37017929390832 ], [ 103.963922976449425, 1.370284896549702 ], [ 103.963909133121163, 1.370351515321305 ], [ 103.963899668171848, 1.37042838479509 ], [ 103.963893826463405, 1.370476018762267 ], [ 103.96388926465832, 1.370513380012183 ], [ 103.963887601628613, 1.370550633484019 ], [ 103.963885805058268, 1.370594277184496 ], [ 103.963895199380943, 1.370623603317514 ], [ 103.963896195225175, 1.370627860094454 ], [ 103.963896498278913, 1.37063222181537 ], [ 103.963896101347558, 1.370636576339788 ], [ 103.963888240440184, 1.37068207431485 ], [ 103.963888812598825, 1.370711022004149 ], [ 103.963893792272501, 1.370740656766709 ], [ 103.963894110513024, 1.370743377069897 ], [ 103.963898565665858, 1.370810674917667 ], [ 103.963898606143601, 1.370811453571049 ], [ 103.963900501260042, 1.370861878878907 ], [ 103.963900520178427, 1.370862773291802 ], [ 103.963912565947837, 1.371153207555966 ], [ 103.963914589229276, 1.371180931563792 ], [ 103.96391702572997, 1.371206398261577 ], [ 103.963986809220913, 1.37133456060026 ], [ 103.963988500530718, 1.371338318131107 ], [ 103.963989349830584, 1.371341131554369 ], [ 103.964012969465443, 1.371437979278209 ], [ 103.96401333617662, 1.371439734624528 ], [ 103.964013706563065, 1.371442982167804 ], [ 103.964022739112792, 1.371611173994934 ], [ 103.964027227527211, 1.371711726131326 ], [ 103.96403435026123, 1.371840150556741 ], [ 103.964038306273238, 1.371915825534825 ], [ 103.96404069265283, 1.371961460409725 ], [ 103.964046903719407, 1.372080279657032 ], [ 103.964050761752461, 1.372155282699356 ], [ 103.964059850387144, 1.37233017313036 ], [ 103.964069062185885, 1.372506123466301 ], [ 103.964074952702248, 1.372629242971188 ], [ 103.964080314684367, 1.372732565118668 ], [ 103.964080351602462, 1.372733978634273 ], [ 103.964080015769497, 1.372738247240916 ], [ 103.96407589544684, 1.372764275907386 ], [ 103.964075513657292, 1.372766159714224 ], [ 103.964065769981048, 1.372806743490439 ], [ 103.964057079146329, 1.372891782022144 ], [ 103.964053352147062, 1.372929760000695 ], [ 103.964048673179121, 1.372977214839918 ], [ 103.964043717069117, 1.373034168207395 ], [ 103.9640468418079, 1.37305832715917 ], [ 103.964046934404507, 1.373059136557979 ], [ 103.964058544891103, 1.373176281532884 ], [ 103.964058678025552, 1.373178972906549 ], [ 103.964058600860326, 1.373181029429755 ], [ 103.964053768238941, 1.373245057613471 ], [ 103.964050044708387, 1.373297265726177 ], [ 103.964049589317568, 1.37330064896908 ], [ 103.964048715188852, 1.373303948129362 ], [ 103.964047436696546, 1.373307110753262 ], [ 103.964034214849093, 1.373334696327328 ], [ 103.963995171044942, 1.37341616158622 ], [ 103.963984371656039, 1.373442212324692 ], [ 103.963977955383555, 1.37346633381812 ], [ 103.963967728796774, 1.37351655269233 ], [ 103.963967561704408, 1.373517317791682 ], [ 103.963951860156143, 1.373584495561275 ], [ 103.963951430727434, 1.373586106253422 ], [ 103.963928692061359, 1.373662102842804 ], [ 103.96390570005147, 1.373739094244067 ], [ 103.96389688398483, 1.37376848920353 ], [ 103.96389640871962, 1.373769927165078 ], [ 103.963896073600921, 1.373770806223273 ], [ 103.96385867840074, 1.37386402809475 ], [ 103.96382530008438, 1.373945859307004 ], [ 103.963824754720306, 1.373947106452021 ], [ 103.963806908504225, 1.373985279644163 ], [ 103.963806574273747, 1.373985968786288 ], [ 103.963780276880911, 1.374038323741633 ], [ 103.963779935460067, 1.374038980327127 ], [ 103.963754354869593, 1.374086631656639 ], [ 103.963754031416272, 1.374087216796557 ], [ 103.963732880205015, 1.374124392658692 ], [ 103.963732603471172, 1.374124864750811 ], [ 103.96371519616055, 1.374153954507426 ], [ 103.963683941221305, 1.374203837208841 ], [ 103.963683451541684, 1.374204590569193 ], [ 103.963646843164526, 1.374258928450937 ], [ 103.963645778439201, 1.374260399906196 ], [ 103.963595325477783, 1.37432543081809 ], [ 103.963557437238009, 1.374374310944908 ], [ 103.963516723197174, 1.37442692714528 ], [ 103.963515951377232, 1.37442787767198 ], [ 103.963496466214977, 1.374450433526583 ], [ 103.963496072665507, 1.374450878494226 ], [ 103.963459786100898, 1.374491060379158 ], [ 103.963459362000776, 1.374491518913894 ], [ 103.96343639766846, 1.37451579686393 ], [ 103.963435885512226, 1.374516324135012 ], [ 103.963386404853111, 1.374565865983656 ], [ 103.963385928636271, 1.374566330851777 ], [ 103.963361715225616, 1.37458940968579 ], [ 103.963361253384008, 1.374589840187356 ], [ 103.963326400473775, 1.374621539077337 ], [ 103.963325873038556, 1.374622006661351 ], [ 103.963284922629143, 1.374657343228423 ], [ 103.963284456292513, 1.3746577339383 ], [ 103.963245323503628, 1.374689647395419 ], [ 103.963244706212535, 1.374690135784659 ], [ 103.963203490523512, 1.37472178799461 ], [ 103.963165185111194, 1.374749922076868 ], [ 103.963164644193, 1.374750308269003 ], [ 103.963120081297106, 1.374781370112511 ], [ 103.96308632414069, 1.374803892379178 ], [ 103.963026826446793, 1.374841155343113 ], [ 103.963015817525005, 1.374847768639202 ], [ 103.962961794517341, 1.374879504746748 ], [ 103.962961180812854, 1.374879852959616 ], [ 103.962922111251444, 1.374901327358968 ], [ 103.962921290880402, 1.374901759688782 ], [ 103.962878768115047, 1.374923255980776 ], [ 103.962835926305431, 1.374943803613844 ], [ 103.962835383582814, 1.374944056864815 ], [ 103.962792148145425, 1.374963614242334 ], [ 103.962754561827595, 1.374979659673601 ], [ 103.962710616421887, 1.374997422834412 ], [ 103.962709941609958, 1.374997685136165 ], [ 103.962646639523641, 1.375021301477444 ], [ 103.962645965609042, 1.375021541170087 ], [ 103.962584662689551, 1.375042367444278 ], [ 103.96258276404167, 1.37504293548701 ], [ 103.962531064637972, 1.37505633461646 ], [ 103.962471435467194, 1.375071855809619 ], [ 103.962393679694586, 1.375092075243477 ], [ 103.962290973426477, 1.375130909608916 ], [ 103.962220541337928, 1.375157504391003 ], [ 103.962161900943642, 1.375179639121981 ], [ 103.962157204186283, 1.375180915431769 ], [ 103.962032951977392, 1.375202626863207 ], [ 103.962028336044284, 1.375203026841623 ], [ 103.961892210759544, 1.375202969109021 ], [ 103.961835212657903, 1.375202905274657 ], [ 103.961762411403868, 1.37520284229459 ], [ 103.961658055153336, 1.375221287882833 ], [ 103.961513921028313, 1.375273973856332 ], [ 103.961362162994561, 1.375301682659785 ], [ 103.961254394031158, 1.375321359251809 ], [ 103.961250156396645, 1.375321779104304 ], [ 103.961245905247452, 1.375321520686043 ], [ 103.961241747513895, 1.375320592130519 ], [ 103.961237786532735, 1.375319016041189 ], [ 103.961234122047358, 1.375316832204601 ], [ 103.961230844816257, 1.375314094877608 ], [ 103.961217641436392, 1.375301159595768 ], [ 103.961187185588528, 1.375306589218242 ], [ 103.961126405082368, 1.375317426750319 ], [ 103.960940348883, 1.375350173767095 ], [ 103.960731216716113, 1.375387073030936 ], [ 103.960543990582195, 1.375420149268237 ], [ 103.960166515487415, 1.375485976291236 ], [ 103.959961825770051, 1.375521886784118 ], [ 103.959774973401238, 1.375554704295146 ], [ 103.959680964055636, 1.375571366749932 ], [ 103.959503267903656, 1.375600278717088 ], [ 103.959445776001473, 1.37560836315444 ], [ 103.959412201170011, 1.375613106509928 ], [ 103.959314391581316, 1.375626279219535 ], [ 103.959253762728196, 1.375633596919989 ], [ 103.959180908892108, 1.375642197653127 ], [ 103.9591277704085, 1.375647379754088 ], [ 103.959081220208205, 1.375651907650752 ], [ 103.95902402469649, 1.375657428195987 ], [ 103.958899590894632, 1.375678870882235 ], [ 103.958811165394337, 1.375715470573845 ], [ 103.958772393101498, 1.375734994184761 ], [ 103.958769034319218, 1.3757364087847 ], [ 103.958765516465505, 1.375737354933522 ], [ 103.958761905135106, 1.375737815444839 ], [ 103.958643325655729, 1.375744794345982 ], [ 103.958641753159952, 1.375744840551556 ], [ 103.958638313420877, 1.375744619164617 ], [ 103.958591946874691, 1.37573861755467 ], [ 103.958591338538028, 1.375738531672403 ], [ 103.958469216455399, 1.375719868469811 ], [ 103.958293574093233, 1.37569103672147 ], [ 103.958250976500395, 1.375691722663644 ], [ 103.958176316151039, 1.375693038824982 ], [ 103.95805878232548, 1.375694625835039 ], [ 103.957945957011191, 1.375696270471009 ], [ 103.957857705759722, 1.375697136059856 ], [ 103.957815921360563, 1.375697597669724 ], [ 103.957748032608848, 1.375698384410294 ], [ 103.957554224406351, 1.375697608680539 ], [ 103.95752028179669, 1.375697410594416 ], [ 103.957420118967789, 1.375695835013095 ], [ 103.957318616353177, 1.375693931214155 ], [ 103.957265594343298, 1.375692688679298 ], [ 103.957177444437633, 1.375689864440101 ], [ 103.957070070468149, 1.375686114229654 ], [ 103.956952535407154, 1.375681259413549 ], [ 103.956461637282473, 1.375661759775764 ], [ 103.956387564432603, 1.375712561642525 ], [ 103.956331543677379, 1.376742028916266 ], [ 103.956319070928942, 1.376958560990611 ], [ 103.955962639307899, 1.37694145808313 ], [ 103.9559176843796, 1.377304502125182 ], [ 103.955908772105658, 1.377686553088918 ], [ 103.955903450743946, 1.377914666054572 ], [ 103.9558909115852, 1.378080803455876 ], [ 103.955875292931708, 1.378403390241012 ], [ 103.95586781245872, 1.378388441522159 ], [ 103.9558909115852, 1.378080803455876 ], [ 103.9558481, 1.3781033 ], [ 103.9557901, 1.378103 ], [ 103.95580080000002, 1.3777973 ], [ 103.955258482122275, 1.377787370592224 ] ] } }
]
}
