{
"type": "FeatureCollection",
"name": "point_to_point_05000m_035",
"crs": { "type": "name", "properties": { "name": "urn:ogc:def:crs:OGC:1.3:CRS84" } },
"features": [
{ "type": "Feature", "properties": { "route_id": "point_to_point_05000m_035", "budget_km": 5.0, "mode": "point_to_point", "rank": 35, "distance_m": 1909.8228992307202, "ascent_m": 33.399788816773295, "descent_m": 13.32153882385942, "gain_density_m_per_km": 17.488422005111985, "source_confidence": 0.65 }, "geometry": { "type": "LineString", "coordinates": [ [ 104.073172282197731, 1.402960883085866 ], [ 104.0729284, 1.4027839 ], [ 104.072628, 1.402623 ], [ 104.0706861, 1.4009605 ], [ 104.0705788, 1.4008935 ], [ 104.0704608, 1.400856 ], [ 104.0622827, 1.398617 ], [ 104.0620869, 1.3985634 ], [ 104.0619501, 1.3984936 ], [ 104.061081095807069, 1.397823271803469 ], [ 104.0600726, 1.3987511 ], [ 104.0599036, 1.3989602 ], [ 104.0594101, 1.3996064 ], [ 104.0593564, 1.399719 ], [ 104.0593457, 1.3998049 ], [ 104.0593511, 1.4004645 ], [ 104.0593189, 1.4006549 ], [ 104.059188815740484, 1.400918979265213 ] ] } }
]
}
