<?xml version="1.0" encoding="UTF-8"?>
<gpx xmlns="http://www.topografix.com/GPX/1/1" xmlns:xsi="http://www.w3.org/2001/XMLSchema-instance" xsi:schemaLocation="http://www.topografix.com/GPX/1/1 http://www.topografix.com/GPX/1/1/gpx.xsd" version="1.1" creator="gpx.py -- https://github.com/tkrajina/gpxpy">
  <trk>
    <name>point_to_point_05000m_012</name>
    <trkseg>
      <trkpt lat="1.267199980581743" lon="103.82122970891943">
        <ele>20.0</ele>
      </trkpt>
      <trkpt lat="1.26728916372301" lon="103.8212446164401">
        <ele>20.0</ele>
      </trkpt>
      <trkpt lat="1.2673783468641384" lon="103.82125952396174">
        <ele>20.0</ele>
      </trkpt>
      <trkpt lat="1.2674674683281593" lon="103.82127479119995">
        <ele>20.0</ele>
      </trkpt>
      <trkpt lat="1.26755658905501" lon="103.82129006273772">
        <ele>20.0</ele>
      </trkpt>
      <trkpt lat="1.2676457097817195" lon="103.82130533427649">
        <ele>20.65649174985195</ele>
      </trkpt>
      <trkpt lat="1.2677340901383258" lon="103.82132386003822">
        <ele>22.041607811847047</ele>
      </trkpt>
      <trkpt lat="1.267821157292767" lon="103.82134815784883">
        <ele>24.15294923335911</ele>
      </trkpt>
      <trkpt lat="1.2679085708667104" lon="103.82137118120546">
        <ele>26.330861566469476</ele>
      </trkpt>
      <trkpt lat="1.26799608879202" lon="103.82139318916565">
        <ele>28.25396192821574</ele>
      </trkpt>
      <trkpt lat="1.2680790726149318" lon="103.82135924509357">
        <ele>29.66885024487813</ele>
      </trkpt>
      <trkpt lat="1.2681422312385762" lon="103.82129650431642">
        <ele>30.44782958941099</ele>
      </trkpt>
      <trkpt lat="1.2681933258076576" lon="103.82122265830955">
        <ele>31.010142600278556</ele>
      </trkpt>
      <trkpt lat="1.2682536417832537" lon="103.82117228364511">
        <ele>32.093130692188744</ele>
      </trkpt>
      <trkpt lat="1.2683284074923944" lon="103.82122202829309">
        <ele>33.845484289444634</ele>
      </trkpt>
      <trkpt lat="1.268413077584772" lon="103.82124533868985">
        <ele>35.96190415517338</ele>
      </trkpt>
      <trkpt lat="1.2684972422028666" lon="103.82121453634026">
        <ele>38.019352991755405</ele>
      </trkpt>
      <trkpt lat="1.2685852054922118" lon="103.82119752233933">
        <ele>39.40273601085556</ele>
      </trkpt>
      <trkpt lat="1.2686743975166344" lon="103.82121111208669">
        <ele>41.168052483103615</ele>
      </trkpt>
      <trkpt lat="1.2687638290215477" lon="103.82121533712944">
        <ele>42.92466795814847</ele>
      </trkpt>
      <trkpt lat="1.2688487187784478" lon="103.82118810275628">
        <ele>45.141792861769765</ele>
      </trkpt>
      <trkpt lat="1.2689283202260113" lon="103.82115298080909">
        <ele>47.58503155621102</ele>
      </trkpt>
      <trkpt lat="1.268995120733698" lon="103.82120946954542">
        <ele>50.31774856675164</ele>
      </trkpt>
      <trkpt lat="1.269065917166608" lon="103.82126366801099">
        <ele>53.204679996201826</ele>
      </trkpt>
      <trkpt lat="1.269136195360392" lon="103.82131767401263">
        <ele>55.791832483158316</ele>
      </trkpt>
      <trkpt lat="1.2691593716759393" lon="103.82140324696758">
        <ele>57.9691666642395</ele>
      </trkpt>
      <trkpt lat="1.2691755561995797" lon="103.82149164982644">
        <ele>59.44932362065014</ele>
      </trkpt>
      <trkpt lat="1.2692259444223153" lon="103.82156046344699">
        <ele>60.0</ele>
      </trkpt>
      <trkpt lat="1.2693148775120477" lon="103.82156319092914">
        <ele>60.0</ele>
      </trkpt>
      <trkpt lat="1.26940487434417" lon="103.82155434157195">
        <ele>60.0</ele>
      </trkpt>
      <trkpt lat="1.2694948711761926" lon="103.82154549221413">
        <ele>60.0</ele>
      </trkpt>
      <trkpt lat="1.2695849228785847" lon="103.82153755265945">
        <ele>60.0</ele>
      </trkpt>
      <trkpt lat="1.2696743423950327" lon="103.82154401597896">
        <ele>60.0</ele>
      </trkpt>
      <trkpt lat="1.2697555260266864" lon="103.82158100696013">
        <ele>60.0</ele>
      </trkpt>
      <trkpt lat="1.2698430528465892" lon="103.82158201724228">
        <ele>60.0</ele>
      </trkpt>
      <trkpt lat="1.2699306050162467" lon="103.82156207976531">
        <ele>60.0</ele>
      </trkpt>
      <trkpt lat="1.2700199999725852" lon="103.82155086488395">
        <ele>60.0</ele>
      </trkpt>
      <trkpt lat="1.270031639333115" lon="103.82154858566315">
        <ele>60.0</ele>
      </trkpt>
      <trkpt lat="1.2701063168984434" lon="103.82149790451014">
        <ele>60.0</ele>
      </trkpt>
      <trkpt lat="1.2701809944627" lon="103.82144722335421">
        <ele>61.06019447446079</ele>
      </trkpt>
      <trkpt lat="1.2702546590251285" lon="103.82139510883502">
        <ele>63.22568699947035</ele>
      </trkpt>
      <trkpt lat="1.270327994637393" lon="103.82134252886158">
        <ele>66.49647757502926</ele>
      </trkpt>
      <trkpt lat="1.2704013302485107" lon="103.82128994888518">
        <ele>68.85174060860386</ele>
      </trkpt>
      <trkpt lat="1.2704109287796965" lon="103.82128306695489">
        <ele>70.02937212539148</ele>
      </trkpt>
      <trkpt lat="1.2704316898724204" lon="103.82119596018042">
        <ele>74.00442909653363</ele>
      </trkpt>
      <trkpt lat="1.2704939097251273" lon="103.82114194520416">
        <ele>76.91673461065722</ele>
      </trkpt>
      <trkpt lat="1.2705218030493381" lon="103.82109733932062">
        <ele>78.23730776002937</ele>
      </trkpt>
      <trkpt lat="1.270506519484889" lon="103.821140199497">
        <ele>77.74930528240887</ele>
      </trkpt>
      <trkpt lat="1.2705017003768326" lon="103.82105154219813">
        <ele>78.12003423386425</ele>
      </trkpt>
      <trkpt lat="1.2705258204299752" lon="103.82096494343395">
        <ele>78.25437062775195</ele>
      </trkpt>
      <trkpt lat="1.2705499404801763" lon="103.8208783446682">
        <ele>77.96369475214115</ele>
      </trkpt>
      <trkpt lat="1.2705860652852816" lon="103.82079660062529">
        <ele>77.76203186331325</ele>
      </trkpt>
      <trkpt lat="1.2706234538375556" lon="103.82071568781859">
        <ele>77.17159618937474</ele>
      </trkpt>
      <trkpt lat="1.2706395958973447" lon="103.82062727724644">
        <ele>76.61280886452745</ele>
      </trkpt>
      <trkpt lat="1.2706676186029517" lon="103.82054286435195">
        <ele>76.12670842236602</ele>
      </trkpt>
      <trkpt lat="1.2707088692262314" lon="103.82046290247281">
        <ele>76.33343142622033</ele>
      </trkpt>
      <trkpt lat="1.2707594676188958" lon="103.82038877375248">
        <ele>77.08770304235219</ele>
      </trkpt>
      <trkpt lat="1.2708140516894866" lon="103.82031713215825">
        <ele>77.96599696238451</ele>
      </trkpt>
      <trkpt lat="1.2708611221021588" lon="103.82024049826828">
        <ele>78.56505476277563</ele>
      </trkpt>
      <trkpt lat="1.270898486850268" lon="103.82015916535256">
        <ele>78.81642098980439</ele>
      </trkpt>
      <trkpt lat="1.270927178146021" lon="103.82007397012403">
        <ele>79.22796132950293</ele>
      </trkpt>
      <trkpt lat="1.2709938763032347" lon="103.82003769494854">
        <ele>79.44276706675802</ele>
      </trkpt>
    </trkseg>
  </trk>
</gpx>