{
"type": "FeatureCollection",
"name": "point_to_point_10000m_008",
"crs": { "type": "name", "properties": { "name": "urn:ogc:def:crs:OGC:1.3:CRS84" } },
"features": [
{ "type": "Feature", "properties": { "route_id": "point_to_point_10000m_008", "budget_km": 10.0, "mode": "point_to_point", "rank": 8, "distance_m": 8581.7182408836106, "ascent_m": 33.718286443728999, "descent_m": 14.344389025106029, "gain_density_m_per_km": 3.9290833720331069, "source_confidence": 0.96666666666666667 }, "geometry": { "type": "LineString", "coordinates": [ [ 103.863501144479301, 1.422154071217463 ], [ 103.864175420052121, 1.422057882261751 ], [ 103.864411938968587, 1.421865957707475 ], [ 103.864412743149941, 1.421861720752408 ], [ 103.864412868894888, 1.421857409648696 ], [ 103.864412315306268, 1.421853132920017 ], [ 103.864411094965774, 1.421848998185473 ], [ 103.864409238426902, 1.421845110350852 ], [ 103.864406793316221, 1.42184156799114 ], [ 103.864390547441531, 1.421821621564199 ], [ 103.864323640891811, 1.421736487473879 ], [ 103.864258217903512, 1.421650192158401 ], [ 103.864194301840158, 1.421562757322287 ], [ 103.864179033612231, 1.42154109258942 ], [ 103.864131912471152, 1.421474219139937 ], [ 103.864071067768435, 1.421384593889803 ], [ 103.864011641926922, 1.42129369708346 ], [ 103.863983623316699, 1.421249600680847 ], [ 103.86397229544994, 1.421231055044455 ], [ 103.863923924220614, 1.421151846085232 ], [ 103.863895123800489, 1.42110468480304 ], [ 103.863522170351544, 1.420474993907706 ], [ 103.863379213333928, 1.420233626517803 ], [ 103.863291456087779, 1.420085458511958 ], [ 103.86306639414984, 1.419705464959196 ], [ 103.862622075504248, 1.418955280104262 ], [ 103.862513965786889, 1.418772746500122 ], [ 103.862480407269089, 1.418715299928955 ], [ 103.862433246489005, 1.418631766251419 ], [ 103.862411764331412, 1.418592121927532 ], [ 103.862343452002193, 1.418462557302484 ], [ 103.862300768871791, 1.418376794308611 ], [ 103.86225958008832, 1.418290296047243 ], [ 103.862219896435036, 1.41820308784052 ], [ 103.862181732289542, 1.418115194106187 ], [ 103.862145096637917, 1.418026643783821 ], [ 103.862110003857822, 1.417937464908595 ], [ 103.862076461138074, 1.417847681898341 ], [ 103.862044481957767, 1.417757326405674 ], [ 103.862014074404314, 1.417666420135305 ], [ 103.861985245666602, 1.417574993835559 ], [ 103.861958009223684, 1.417483075541628 ], [ 103.86193237136581, 1.417390692384379 ], [ 103.861922853966632, 1.417353937348763 ], [ 103.861908337484735, 1.417297874207839 ], [ 103.861885917465017, 1.41720464814284 ], [ 103.861865117596963, 1.417111039511532 ], [ 103.861845943272314, 1.417017081775366 ], [ 103.861829555542712, 1.416928994229946 ], [ 103.861828403477105, 1.416922802065177 ], [ 103.861812499110044, 1.416828227511929 ], [ 103.861798237360048, 1.416733388863922 ], [ 103.861785623618744, 1.416638314156405 ], [ 103.861778496162046, 1.416576371653688 ], [ 103.861774659683505, 1.416543031424667 ], [ 103.861765348250245, 1.416447571417087 ], [ 103.861757694710676, 1.416351963977593 ], [ 103.86175170265922, 1.416256235332754 ], [ 103.861747369400291, 1.416160412613485 ], [ 103.861744697629874, 1.416064532898723 ], [ 103.86174425951036, 1.416022869767338 ], [ 103.861743851497664, 1.416018445624567 ], [ 103.861743456096292, 1.416016576309419 ], [ 103.861737035372187, 1.415990726053163 ], [ 103.861744038833564, 1.4159061209227 ], [ 103.86174413136294, 1.415904055354598 ], [ 103.861744345743716, 1.415872703771377 ], [ 103.861746665628289, 1.415776813142451 ], [ 103.861750646103317, 1.41568097765917 ], [ 103.861756289864786, 1.415585228069846 ], [ 103.861760664389919, 1.415527931141511 ], [ 103.861760742539659, 1.415525681083353 ], [ 103.861760688570683, 1.415521269597286 ], [ 103.861760604021015, 1.415514501339483 ], [ 103.861791493227429, 1.415167189075059 ], [ 103.861798091013085, 1.415122748555194 ], [ 103.861806321436546, 1.415070497929122 ], [ 103.861817002170952, 1.415007062100902 ], [ 103.861823913631213, 1.414968235867682 ], [ 103.8618347013674, 1.414910598818904 ], [ 103.861843356023769, 1.41486663668186 ], [ 103.861854438542636, 1.414812844079952 ], [ 103.861862727526486, 1.414773236459185 ], [ 103.861870685849269, 1.414735209670438 ], [ 103.86187799542968, 1.414700280335794 ], [ 103.861888842541205, 1.414648451110463 ], [ 103.861898857609091, 1.414600596574393 ], [ 103.861910049757, 1.414547117785026 ], [ 103.861921747779419, 1.414491221624797 ], [ 103.861928363689728, 1.414459611313813 ], [ 103.861937380484164, 1.414416524596025 ], [ 103.861945026114583, 1.414379990011161 ], [ 103.861952236854137, 1.414345536372839 ], [ 103.86196098498597, 1.414303737472348 ], [ 103.861968281085851, 1.414268875060456 ], [ 103.861978583681591, 1.414219643174261 ], [ 103.861989308588178, 1.414168399073233 ], [ 103.862001608624581, 1.414109594470936 ], [ 103.862011475416409, 1.414061346537834 ], [ 103.862021635107581, 1.414009872735232 ], [ 103.862031881032252, 1.413955920974592 ], [ 103.862038337846045, 1.413920748376049 ], [ 103.862046041798905, 1.413877485323101 ], [ 103.862053240763117, 1.413835642127637 ], [ 103.862058906834534, 1.413801666012197 ], [ 103.862062370621516, 1.413780067951977 ], [ 103.86206815438176, 1.413743992806589 ], [ 103.862073447531387, 1.413709380023621 ], [ 103.862079723631368, 1.413666350314169 ], [ 103.862085210813021, 1.413626663143237 ], [ 103.862090699763954, 1.413584723201965 ], [ 103.862093315288632, 1.413563468810504 ], [ 103.8620961752043, 1.413540214867542 ], [ 103.862098104268227, 1.413523807874773 ], [ 103.862102739569593, 1.413482541695144 ], [ 103.862106656949791, 1.413445321648233 ], [ 103.862110704575713, 1.413404101598436 ], [ 103.862114067532033, 1.413367236973413 ], [ 103.862118283976727, 1.413316652233943 ], [ 103.862121106876003, 1.41327928298058 ], [ 103.862124422058983, 1.413230403882505 ], [ 103.862127100191316, 1.413185373764849 ], [ 103.862129065834552, 1.413147668098785 ], [ 103.862129775531741, 1.413132544413453 ], [ 103.862132865698641, 1.413053695604842 ], [ 103.862134089938678, 1.413010379274733 ], [ 103.862135048147266, 1.412963018632829 ], [ 103.862135477269561, 1.412930373805924 ], [ 103.862135750828699, 1.412888982878244 ], [ 103.862135707150898, 1.412844677189845 ], [ 103.862135399371326, 1.412807083693142 ], [ 103.862134850778446, 1.412770126871604 ], [ 103.862134386823669, 1.412747052033961 ], [ 103.862133712546353, 1.412719646200491 ], [ 103.862132429749394, 1.412677897164067 ], [ 103.862130942105622, 1.41263865140929 ], [ 103.862129588456455, 1.412607949178062 ], [ 103.862127634451298, 1.41256909682735 ], [ 103.862126510070311, 1.412548837282545 ], [ 103.862125016311026, 1.412523759291777 ], [ 103.862122597757846, 1.412486610768307 ], [ 103.862119307474231, 1.412441194561414 ], [ 103.862114676360193, 1.412384419561302 ], [ 103.862109703813559, 1.412330080017245 ], [ 103.862107427410123, 1.412306967218796 ], [ 103.862104119320463, 1.412274974484595 ], [ 103.862097861773208, 1.412218782819311 ], [ 103.862092707854231, 1.412175936837513 ], [ 103.862087048015312, 1.412131779534405 ], [ 103.862080688147543, 1.412085150613583 ], [ 103.862072418660674, 1.412028451625017 ], [ 103.862067795066565, 1.411998477447133 ], [ 103.862066900902192, 1.41199268681653 ], [ 103.862061237579724, 1.411957474576143 ], [ 103.862057737327603, 1.411936379428528 ], [ 103.862051138537197, 1.411897905159317 ], [ 103.862044366326671, 1.411859985267267 ], [ 103.862037958983308, 1.411825402473245 ], [ 103.862032080056196, 1.411794688541194 ], [ 103.862026680115875, 1.411767255635222 ], [ 103.862024038111286, 1.411754087225997 ], [ 103.862017142847989, 1.411720458541792 ], [ 103.862011948718148, 1.411695792082227 ], [ 103.86200494384228, 1.41166335535089 ], [ 103.862001439163862, 1.411647618558987 ], [ 103.861996300766222, 1.411624546492132 ], [ 103.861989437898103, 1.411594615751198 ], [ 103.861982638841837, 1.411565672574759 ], [ 103.861977832059722, 1.411545613844086 ], [ 103.861970931472072, 1.411517368837757 ], [ 103.861963329062419, 1.411486955175567 ], [ 103.861952615610406, 1.411445265038958 ], [ 103.861942876285752, 1.411408464785594 ], [ 103.861932873675855, 1.411371675387792 ], [ 103.861922588909664, 1.411334835349046 ], [ 103.861910559926585, 1.411292919137479 ], [ 103.86189795583995, 1.411250264972033 ], [ 103.861888014383879, 1.411217457487253 ], [ 103.861881254953687, 1.411195555686883 ], [ 103.861867065734302, 1.411150573708198 ], [ 103.861853884781453, 1.411109915480576 ], [ 103.861842683497798, 1.411076165663956 ], [ 103.861829223098013, 1.411036523944563 ], [ 103.861815812133941, 1.410997955704373 ], [ 103.861805256983374, 1.410968216733262 ], [ 103.861792906405142, 1.410934075340924 ], [ 103.861780060698493, 1.410899272864607 ], [ 103.861762317552376, 1.410852323033058 ], [ 103.861752853349401, 1.41082778594916 ], [ 103.861743174382028, 1.410803036342336 ], [ 103.861730283776254, 1.410770597873368 ], [ 103.861714113242726, 1.410730712008174 ], [ 103.861700760766496, 1.410698420955968 ], [ 103.861686594155501, 1.410664766132957 ], [ 103.861674258921056, 1.410635947825337 ], [ 103.861668514102277, 1.410622677260422 ], [ 103.861656758479555, 1.410595805136616 ], [ 103.861641731022942, 1.410561998390693 ], [ 103.861621111527882, 1.410516558880667 ], [ 103.861607384375631, 1.410486887774521 ], [ 103.861597545508388, 1.410465898513854 ], [ 103.861577010510231, 1.410422792261112 ], [ 103.861548461742288, 1.410364378843155 ], [ 103.861516226910922, 1.410300402727545 ], [ 103.861494751115657, 1.410258873695997 ], [ 103.861470433939672, 1.410212841871089 ], [ 103.861446629880348, 1.410168757135053 ], [ 103.861428096150462, 1.410135069806139 ], [ 103.861401642127305, 1.410087906647157 ], [ 103.861381339960957, 1.410052416942078 ], [ 103.861369582626182, 1.410032135820461 ], [ 103.861352553186137, 1.410003097807268 ], [ 103.86133213421941, 1.409968800054711 ], [ 103.861300909559546, 1.409917393676859 ], [ 103.861281819643509, 1.409886565047548 ], [ 103.86127382657412, 1.40987378738694 ], [ 103.861261305448551, 1.40985392228131 ], [ 103.861241778823626, 1.409823307086751 ], [ 103.861227004010672, 1.409800428667672 ], [ 103.861209593593586, 1.409773045643798 ], [ 103.86119676422193, 1.409750452980036 ], [ 103.861186920017616, 1.4097334646232 ], [ 103.861180390764559, 1.409722353687245 ], [ 103.861166537897887, 1.409699179529652 ], [ 103.86114000575806, 1.409656227086424 ], [ 103.86110893031092, 1.409608121632044 ], [ 103.86109112902173, 1.409581552539354 ], [ 103.861077304048735, 1.409561405286716 ], [ 103.861076688507637, 1.409560544339683 ], [ 103.8610594147288, 1.409537364796191 ], [ 103.860973108741774, 1.409421553894848 ], [ 103.860967105198981, 1.409413497893121 ], [ 103.860958502906684, 1.40940195469528 ], [ 103.860957551290753, 1.409400750998323 ], [ 103.860923833205916, 1.409360646479962 ], [ 103.86092253473214, 1.409359102746311 ], [ 103.860784861475608, 1.409195352119858 ], [ 103.860765239697557, 1.409172010720701 ], [ 103.860737612313883, 1.409139150986297 ], [ 103.860658691225382, 1.409048720957176 ], [ 103.860611321443827, 1.408974002067404 ], [ 103.860569486899337, 1.408895001852818 ], [ 103.860533918155483, 1.40881295204876 ], [ 103.860504833573671, 1.408728353670543 ], [ 103.860482335594725, 1.408641440947453 ], [ 103.86047462978236, 1.408602839169614 ], [ 103.860462908607261, 1.408522239684187 ], [ 103.860456916805518, 1.408441252159435 ], [ 103.860456648082774, 1.4083595582594 ], [ 103.860468398224086, 1.40799233302468 ], [ 103.860469667465424, 1.407952652235306 ], [ 103.860470228779548, 1.407926596600635 ], [ 103.860470232363923, 1.407925736550526 ], [ 103.860468682304472, 1.407847935047331 ], [ 103.860468595122143, 1.407846239366053 ], [ 103.86046223045264, 1.407768959737146 ], [ 103.860462039034616, 1.407767272196364 ], [ 103.860450882220505, 1.407690545189788 ], [ 103.8604507573082, 1.407689762012116 ], [ 103.860450585668289, 1.40768887392879 ], [ 103.860434681642744, 1.407612998888402 ], [ 103.860434281753584, 1.40761134933334 ], [ 103.860413691624245, 1.407536624698404 ], [ 103.860413437314833, 1.407535759225132 ], [ 103.860413089549766, 1.407534643244139 ], [ 103.860412231369864, 1.407531893987926 ], [ 103.860411360609405, 1.407529113983489 ], [ 103.860409502269249, 1.40752326910133 ], [ 103.86040931895144, 1.407522699354224 ], [ 103.860407358170306, 1.407516649182666 ], [ 103.860398665866512, 1.407490976201897 ], [ 103.860398264186813, 1.407489896396094 ], [ 103.860392814114164, 1.407476211625247 ], [ 103.860378683464504, 1.40744073088141 ], [ 103.860375609317146, 1.407432925352486 ], [ 103.860360094803028, 1.407393541390069 ], [ 103.860359219558902, 1.407391554512797 ], [ 103.860332876038157, 1.407337716228219 ], [ 103.860318187438949, 1.407308292015469 ], [ 103.860315840292103, 1.407304432217676 ], [ 103.860312889301667, 1.407301019182675 ], [ 103.860309415341334, 1.407298146963358 ], [ 103.860305515459146, 1.407295895142633 ], [ 103.86030129748589, 1.40729432702471 ], [ 103.860298747296653, 1.407293745548385 ], [ 103.860131555280844, 1.40701354841979 ], [ 103.859843129779705, 1.406561698066626 ], [ 103.859801026427562, 1.40654460245218 ], [ 103.859727074575787, 1.406528996686967 ], [ 103.859714256242938, 1.406526292784712 ], [ 103.85966821358231, 1.406516576822122 ], [ 103.859667361722714, 1.406516411333211 ], [ 103.86008817710146, 1.406231554495212 ], [ 103.86014488725634, 1.406198232552262 ], [ 103.860231742796898, 1.406138006336697 ], [ 103.860232679113636, 1.406137327148554 ], [ 103.860233229940803, 1.406136908421681 ], [ 103.860234572413589, 1.406135889187986 ], [ 103.860277043615, 1.406103640886881 ], [ 103.860285740034797, 1.406097038929332 ], [ 103.860287454519977, 1.406095906645804 ], [ 103.860288852705281, 1.406094919064165 ], [ 103.860289343327779, 1.406094541034353 ], [ 103.860317852445348, 1.406072296063889 ], [ 103.86036214595039, 1.406038111496934 ], [ 103.860426231487381, 1.405988652896063 ], [ 103.860454437783517, 1.405966749777036 ], [ 103.860465518121416, 1.405958072275795 ], [ 103.860477932844233, 1.405948350218584 ], [ 103.860519575567508, 1.40591808519286 ], [ 103.860530239874009, 1.405910567995084 ], [ 103.860541856673407, 1.405902536203025 ], [ 103.860568696268601, 1.405884709066792 ], [ 103.860579400117217, 1.40587759973645 ], [ 103.860651800257457, 1.405829511143147 ], [ 103.860668468859046, 1.405818439723885 ], [ 103.8607088589917, 1.405791612196795 ], [ 103.860724956996421, 1.405780918807993 ], [ 103.860739495071584, 1.405771262742897 ], [ 103.860788230285706, 1.405738892269489 ], [ 103.860811884467026, 1.405727007743404 ], [ 103.860824339663964, 1.405720749397652 ], [ 103.860825905885363, 1.405719880285377 ], [ 103.860875902791307, 1.405694544842036 ], [ 103.860876955926258, 1.405694097169405 ], [ 103.860886818725831, 1.405689307541073 ], [ 103.860893872567004, 1.405685761446443 ], [ 103.860907689109851, 1.405678813054415 ], [ 103.860909118747585, 1.405678039806287 ], [ 103.860910489077867, 1.405677187879202 ], [ 103.860926691315768, 1.405666424851765 ], [ 103.860968776158543, 1.405638469558281 ], [ 103.861001696416253, 1.405616607977317 ], [ 103.861022590122388, 1.405602726646527 ], [ 103.861033957117996, 1.405595180498445 ], [ 103.861042146746158, 1.405589736129966 ], [ 103.861045116542201, 1.405587763676826 ], [ 103.861047594814266, 1.405585903370688 ], [ 103.861048258860819, 1.405585323665485 ], [ 103.861054088810164, 1.405580064719748 ], [ 103.861071921913421, 1.405563977681515 ], [ 103.861082899794098, 1.405554074765503 ], [ 103.861101506569312, 1.405537291357594 ], [ 103.861104619237437, 1.405535097333501 ], [ 103.861105625640661, 1.405534203809921 ], [ 103.861118212862635, 1.405522450545946 ], [ 103.86113101664931, 1.405511216384185 ], [ 103.861152512400125, 1.405496938029282 ], [ 103.861159453006181, 1.405492328403249 ], [ 103.861192264532221, 1.405470534648248 ], [ 103.861234489546248, 1.405442488007581 ], [ 103.861249006949919, 1.405432845505066 ], [ 103.861255548587593, 1.405428500862178 ], [ 103.861275766560979, 1.405415071719238 ], [ 103.861291129524872, 1.405404867596293 ], [ 103.86130368982829, 1.405396525592291 ], [ 103.861319100416495, 1.405386289815857 ], [ 103.861331775737511, 1.405377870035038 ], [ 103.861334502018806, 1.405376059465622 ], [ 103.861347021885948, 1.405367743688437 ], [ 103.86138102312384, 1.405345160406759 ], [ 103.861398661282578, 1.405333445063525 ], [ 103.861421201176029, 1.405318473950799 ], [ 103.861452974841342, 1.405297370234385 ], [ 103.861477477225151, 1.405281095004606 ], [ 103.861502649946658, 1.405264374819393 ], [ 103.861539860896613, 1.405239659910753 ], [ 103.861550828022217, 1.405232376030569 ], [ 103.861569947033203, 1.40521967581577 ], [ 103.861615491379453, 1.405189426097465 ], [ 103.861633236466432, 1.405177639306434 ], [ 103.861655143759094, 1.405163088728413 ], [ 103.86166186511052, 1.405158624706174 ], [ 103.861688270676183, 1.4051410860546 ], [ 103.861699607115739, 1.405133556182247 ], [ 103.861700324179694, 1.405133080478071 ], [ 103.861712069471423, 1.40512527929148 ], [ 103.861728658988227, 1.405114260318822 ], [ 103.861742195142412, 1.405105269871641 ], [ 103.861769454354388, 1.405087163268203 ], [ 103.861810592975786, 1.405059839217312 ], [ 103.86185008360728, 1.405033609466282 ], [ 103.861889018917736, 1.405007747797529 ], [ 103.861925893792005, 1.404983257169184 ], [ 103.861964841680859, 1.40495738826413 ], [ 103.861975826775264, 1.404950087198835 ], [ 103.861997965896322, 1.404935382872924 ], [ 103.862018649323673, 1.404921648042881 ], [ 103.862028989240088, 1.404914780175625 ], [ 103.862041053524166, 1.404906766457948 ], [ 103.862070068549315, 1.404887491391152 ], [ 103.862090184974207, 1.4048741300698 ], [ 103.862102731793271, 1.404865796200998 ], [ 103.862113627927855, 1.40485856025039 ], [ 103.862137336859746, 1.404842815885209 ], [ 103.862156459458646, 1.404830114761261 ], [ 103.862177257901848, 1.404816301248743 ], [ 103.86220137478638, 1.404800281046876 ], [ 103.862223697214063, 1.404785450105606 ], [ 103.862234532244699, 1.404778254851558 ], [ 103.862245042889327, 1.404771275744493 ], [ 103.86226198913576, 1.404760017107205 ], [ 103.862268660164588, 1.404755584736601 ], [ 103.862286678411962, 1.404743607116483 ], [ 103.86231095344435, 1.404727480196582 ], [ 103.862326918445149, 1.40471687813928 ], [ 103.862353749027307, 1.404699060026527 ], [ 103.86238291141386, 1.404679695422027 ], [ 103.862412503319248, 1.404660043224086 ], [ 103.8624352822209, 1.404644912930656 ], [ 103.86244406849697, 1.404639077864628 ], [ 103.862450985734938, 1.404634483609292 ], [ 103.862466780005008, 1.404623992789942 ], [ 103.862477912462822, 1.404616600379734 ], [ 103.862491559136117, 1.404607537577771 ], [ 103.862508341839373, 1.404596390177544 ], [ 103.86253110276823, 1.404581268022695 ], [ 103.862549617026929, 1.404568971153886 ], [ 103.862563310425614, 1.404559876698188 ], [ 103.862574037625023, 1.404552751079963 ], [ 103.862585874565639, 1.404544888391138 ], [ 103.86259481719317, 1.404538948416379 ], [ 103.86260314070185, 1.404533420839335 ], [ 103.862607926517143, 1.404530241035531 ], [ 103.862616859260214, 1.404524309200092 ], [ 103.862621871516581, 1.404520978364637 ], [ 103.862626433586428, 1.40451794868804 ], [ 103.862636981968862, 1.40451094244782 ], [ 103.862640740711825, 1.404508445451657 ], [ 103.86264146047111, 1.404507967938437 ], [ 103.862648499914613, 1.404503291383854 ], [ 103.862658847914503, 1.404496418991931 ], [ 103.862671229391538, 1.404488195454614 ], [ 103.862685266943814, 1.404478871285435 ], [ 103.862705042801394, 1.40446573514976 ], [ 103.862726098239321, 1.404452434403506 ], [ 103.86274067404716, 1.404443478303294 ], [ 103.862753658476066, 1.404435499840517 ], [ 103.862764827780623, 1.404428638290093 ], [ 103.862775120973126, 1.404422313942877 ], [ 103.862785817626374, 1.40441574269917 ], [ 103.862802969652208, 1.404405203929071 ], [ 103.862816849961348, 1.404396676505699 ], [ 103.862825767433165, 1.404391198660347 ], [ 103.862838918996744, 1.404383118001864 ], [ 103.862842977866094, 1.404380623714655 ], [ 103.862851124365136, 1.404376084608737 ], [ 103.862863560677098, 1.404369667988788 ], [ 103.862864583258641, 1.404369172384369 ], [ 103.862866380413166, 1.404368214640142 ], [ 103.862869750078573, 1.404366474601158 ], [ 103.862885631536372, 1.404358279957843 ], [ 103.862900255884213, 1.404350733759347 ], [ 103.862907262991072, 1.404347118927642 ], [ 103.862922824554801, 1.404339071699467 ], [ 103.862940799696517, 1.404329710399687 ], [ 103.862945969212092, 1.404327017138104 ], [ 103.862950811646328, 1.404324560824008 ], [ 103.86295467193861, 1.404322862379384 ], [ 103.862970767251511, 1.404314104314054 ], [ 103.86298969308767, 1.404304248314734 ], [ 103.862994708050707, 1.404301863443089 ], [ 103.863007936913263, 1.404295522778834 ], [ 103.863011660620771, 1.404293823431482 ], [ 103.863014244032186, 1.404292600698486 ], [ 103.863015638625953, 1.404292012844136 ], [ 103.863036176526293, 1.404282649702141 ], [ 103.863040561588107, 1.404280718829152 ], [ 103.8630457985021, 1.404278413538583 ], [ 103.863052982635111, 1.404275250886121 ], [ 103.863066214201282, 1.404269555032964 ], [ 103.863070890402966, 1.404267542763428 ], [ 103.86307545787669, 1.404265576617839 ], [ 103.863088282388517, 1.404260198201482 ], [ 103.863096757781747, 1.404256737996641 ], [ 103.863106154217974, 1.404252899755823 ], [ 103.863110696532999, 1.404251068360717 ], [ 103.863111312059075, 1.404250797043646 ], [ 103.863115124728537, 1.404249283089612 ], [ 103.863125001904919, 1.404245301048704 ], [ 103.863152358238608, 1.40423473501428 ], [ 103.863179772089126, 1.404224779424422 ], [ 103.863198667407019, 1.404217695299146 ], [ 103.86321071017143, 1.404213932086116 ], [ 103.863211751624931, 1.40421358298826 ], [ 103.863238324406694, 1.404204070546836 ], [ 103.863255690360532, 1.40419894529302 ], [ 103.863256552098392, 1.404198674877102 ], [ 103.86328691240071, 1.404188591732747 ], [ 103.86329855440637, 1.404185587285738 ], [ 103.863299814215452, 1.404185229141385 ], [ 103.863318128167066, 1.404179535934321 ], [ 103.863325750818092, 1.404177166402506 ], [ 103.863345290441472, 1.404171820455161 ], [ 103.863380067293647, 1.404162853237584 ], [ 103.863409166914863, 1.404155281526496 ], [ 103.863453879380259, 1.40414471345507 ], [ 103.863470883224423, 1.404141170841168 ], [ 103.863481079420509, 1.404139045453705 ], [ 103.863521769848518, 1.404130155028218 ], [ 103.863542361732641, 1.404126423355117 ], [ 103.8635574345317, 1.404123692884461 ], [ 103.863562677752313, 1.404122743234147 ], [ 103.863593329259174, 1.404117789634063 ], [ 103.863612511276287, 1.404114852914571 ], [ 103.863628523998983, 1.404112571900075 ], [ 103.863640262169341, 1.404110899578129 ], [ 103.863645387678318, 1.404110169689607 ], [ 103.86368678623765, 1.404105074867274 ], [ 103.86374194210002, 1.404099600031353 ], [ 103.863779674466585, 1.404096589814132 ], [ 103.863827063914826, 1.404094241463962 ], [ 103.863853830887535, 1.404092513777434 ], [ 103.863886022617635, 1.404091628886434 ], [ 103.86392293011717, 1.404091132809376 ], [ 103.863947379669412, 1.40409137485687 ], [ 103.863985853409119, 1.404091628475831 ], [ 103.864015596522961, 1.404092499890022 ], [ 103.864062379485887, 1.404094653466514 ], [ 103.864094394241405, 1.404097317298888 ], [ 103.864127597816065, 1.404099490045462 ], [ 103.86415377537682, 1.404102254338767 ], [ 103.86415436394951, 1.404102310401526 ], [ 103.864167988282233, 1.404103445197422 ], [ 103.864183409786975, 1.404105014968426 ], [ 103.864207874651086, 1.404107988191902 ], [ 103.864240668507591, 1.404112867703444 ], [ 103.864241408042858, 1.404112967173633 ], [ 103.864264853013239, 1.404115791190032 ], [ 103.864292112493146, 1.404120434735541 ], [ 103.864314042467541, 1.404124405505047 ], [ 103.864314555559673, 1.404124492317143 ], [ 103.864326592106451, 1.404126409408045 ], [ 103.864341894111277, 1.404128846464549 ], [ 103.864353368150404, 1.404131173239673 ], [ 103.864369513935941, 1.404134445916958 ], [ 103.864393627476801, 1.404139108494917 ], [ 103.864432217253722, 1.404148391274002 ], [ 103.864453221699648, 1.404153248331195 ], [ 103.864482024972133, 1.404159849801589 ], [ 103.86450247590264, 1.40416558500308 ], [ 103.864522343651089, 1.40417119541001 ], [ 103.864561371960676, 1.404182216368427 ], [ 103.864575407886605, 1.404186476637999 ], [ 103.864576548193241, 1.404186822089671 ], [ 103.864586949335575, 1.404189978179733 ], [ 103.864602409521638, 1.404194668907181 ], [ 103.864623951352328, 1.404201880014772 ], [ 103.864645937983838, 1.404209242144946 ], [ 103.864666185849273, 1.404216021888013 ], [ 103.864669379429472, 1.404217186665617 ], [ 103.864710509579623, 1.40423218950734 ], [ 103.864749430115921, 1.404247319893515 ], [ 103.864791770683894, 1.404264207411741 ], [ 103.864815144769551, 1.404274600949228 ], [ 103.864839509992237, 1.404284961011575 ], [ 103.864856831189755, 1.404292971631886 ], [ 103.864874432745083, 1.404300963256615 ], [ 103.864892001059673, 1.404309454090517 ], [ 103.864907802752469, 1.404317404138703 ], [ 103.864908520725152, 1.404317752309037 ], [ 103.86491922561423, 1.404322745156501 ], [ 103.864927775688486, 1.404326823721356 ], [ 103.864952878687902, 1.404340075023779 ], [ 103.86496950438756, 1.404348442876429 ], [ 103.864983772223582, 1.404358199864009 ], [ 103.864997397572182, 1.404367918876969 ], [ 103.86500971097928, 1.404376890903176 ], [ 103.865028790784862, 1.404390794333244 ], [ 103.865054094239483, 1.404409232158668 ], [ 103.865073633226132, 1.404423470196723 ], [ 103.865085843295745, 1.404432368066073 ], [ 103.865091708406425, 1.404436638392145 ], [ 103.865101046572548, 1.404443207563695 ], [ 103.865115270377373, 1.404452836131364 ], [ 103.86512675976833, 1.404460611694777 ], [ 103.865135033998882, 1.404466209593921 ], [ 103.865141466116924, 1.40447056311357 ], [ 103.865151726234828, 1.404477504870191 ], [ 103.865159064133167, 1.404482470631732 ], [ 103.865185249090288, 1.404500190378674 ], [ 103.865210285647791, 1.404517133292503 ], [ 103.865218768352022, 1.404522873173616 ], [ 103.865231238107029, 1.40453131162176 ], [ 103.865232902297421, 1.404532351617351 ], [ 103.865240745193177, 1.404536819067195 ], [ 103.865248626728331, 1.40454130822121 ], [ 103.865262846919279, 1.404549410221759 ], [ 103.865280526682881, 1.404559482783531 ], [ 103.865291755466984, 1.404565879194767 ], [ 103.865304607105202, 1.40457320074785 ], [ 103.865314582355992, 1.404578883633126 ], [ 103.865325202794651, 1.404584933681204 ], [ 103.865332271105913, 1.404588959811817 ], [ 103.8653418231589, 1.404597202956939 ], [ 103.865351102039469, 1.404605210971191 ], [ 103.865368839384416, 1.404620516180879 ], [ 103.865391070597823, 1.404639700145049 ], [ 103.865404899958335, 1.404651633939851 ], [ 103.865417503636849, 1.404662510550103 ], [ 103.865437462320116, 1.404680698840594 ], [ 103.865467953454754, 1.404710256647817 ], [ 103.86549000857751, 1.404731637313304 ], [ 103.865506380085307, 1.4047475077682 ], [ 103.865528271670001, 1.404769138944356 ], [ 103.865546269650167, 1.404787629318547 ], [ 103.865563216273202, 1.404805038088005 ], [ 103.865574753348099, 1.404816888712063 ], [ 103.865585075521238, 1.404827492235148 ], [ 103.865592890611381, 1.404835520164712 ], [ 103.865596221707079, 1.404838943135694 ], [ 103.865606100872526, 1.404849091769802 ], [ 103.865625854710714, 1.404869384516152 ], [ 103.86564385359101, 1.404887874889539 ], [ 103.865657632664096, 1.404902029801104 ], [ 103.865672630233732, 1.404917436335223 ], [ 103.86569078996348, 1.404936093108921 ], [ 103.86570422487479, 1.404949892609998 ], [ 103.865713214430954, 1.404959127848513 ], [ 103.865719036435635, 1.404965108325601 ], [ 103.865726272830727, 1.404972542095692 ], [ 103.865745585460246, 1.404992381760803 ], [ 103.865793089749701, 1.405041181476023 ], [ 103.865830764296462, 1.40507988500957 ], [ 103.865888155844715, 1.405138841494918 ], [ 103.865895468621574, 1.405146353943032 ], [ 103.865923482362348, 1.405175132216982 ], [ 103.865949211871822, 1.405201563698438 ], [ 103.865954949409641, 1.405207457357145 ], [ 103.865986501824452, 1.405239870218949 ], [ 103.866008176868334, 1.405262137161104 ], [ 103.866026535193228, 1.405280996506716 ], [ 103.866030724449772, 1.405285299410993 ], [ 103.866033130890997, 1.405287771907903 ], [ 103.866036698310666, 1.405290848503535 ], [ 103.866399596443344, 1.40565687378348 ], [ 103.866408338092782, 1.405672998466545 ], [ 103.866454878127641, 1.405714577739975 ], [ 103.866470502000155, 1.405728536373109 ], [ 103.866470993531692, 1.405728977695645 ], [ 103.866481552024894, 1.405738481504657 ], [ 103.867182340524266, 1.406369147606951 ], [ 103.867384418222628, 1.406592036875646 ], [ 103.867456174017533, 1.406671912853098 ], [ 103.867506954731795, 1.406728796591046 ], [ 103.867598744803743, 1.4068316205009 ], [ 103.867636264924982, 1.406875288058535 ], [ 103.867679705021089, 1.40692584497154 ], [ 103.867680552399776, 1.406926786401745 ], [ 103.867767478293004, 1.407018862916591 ], [ 103.867768368803155, 1.407019762745388 ], [ 103.867810570511068, 1.407060466630128 ], [ 103.867859482044324, 1.407107642041765 ], [ 103.867860413888806, 1.407108499364796 ], [ 103.867955711781718, 1.407192159737545 ], [ 103.867956895231458, 1.407193123771713 ], [ 103.868033350346508, 1.407251764292604 ], [ 103.868287463815307, 1.407440322142072 ], [ 103.868549805658574, 1.407628613050013 ], [ 103.868551311701225, 1.407629618679693 ], [ 103.868743198122601, 1.407748666209357 ], [ 103.868830789368204, 1.407803008091258 ], [ 103.869113041931385, 1.407978119333647 ], [ 103.869155950793996, 1.408014125915976 ], [ 103.86921649820178, 1.408064933946878 ], [ 103.869219169724104, 1.408066909036085 ], [ 103.869355180845986, 1.408155028135302 ], [ 103.869356294202873, 1.408155711817033 ], [ 103.869359423997125, 1.408157267274124 ], [ 103.869460356372201, 1.408199500396685 ], [ 103.869645929340948, 1.408312867637988 ], [ 103.869706491828026, 1.408349819897343 ], [ 103.869803984703125, 1.408409305606834 ], [ 103.870124796007858, 1.408605033799687 ], [ 103.87013220401208, 1.408609553692271 ], [ 103.870164201127096, 1.408629075684988 ], [ 103.870289240408539, 1.408705362205699 ], [ 103.870297726725553, 1.408710539553001 ], [ 103.870379035061831, 1.408760146225467 ], [ 103.871159903120741, 1.409236557871109 ], [ 103.871623239757398, 1.409519241710019 ], [ 103.871790000040463, 1.409625782945989 ], [ 103.871953216400044, 1.409737284663887 ], [ 103.871992525493397, 1.409766510331563 ], [ 103.872012747503987, 1.409781545041351 ], [ 103.872013552646393, 1.409782151855997 ], [ 103.872090887654267, 1.409840418719785 ], [ 103.872188254179633, 1.409913779075869 ], [ 103.87232101522477, 1.410049328310309 ], [ 103.872338136262499, 1.41006680846898 ], [ 103.872394964730347, 1.410128656043782 ], [ 103.87239691559121, 1.41013057507076 ], [ 103.872450524193312, 1.410178206100055 ], [ 103.872559303676283, 1.410305171504276 ], [ 103.872551672257501, 1.41042850876362 ], [ 103.872551763089646, 1.410432988980161 ], [ 103.872552586267688, 1.410437392313359 ], [ 103.872554117527827, 1.410441600291971 ], [ 103.872556316431783, 1.41044549625377 ], [ 103.873049454492346, 1.410164425147836 ], [ 103.872970093242557, 1.410059059991666 ], [ 103.872869893136851, 1.409967261549465 ], [ 103.872835864032155, 1.4099330147794 ], [ 103.87276450152072, 1.409852219233659 ], [ 103.872762387113539, 1.409850077736296 ], [ 103.872672527219905, 1.40976868652691 ], [ 103.872671821820163, 1.409768069762818 ], [ 103.872670668021229, 1.409767148235754 ], [ 103.872634632499725, 1.409739949203434 ], [ 103.872483547898582, 1.409627911945951 ], [ 103.872659745611969, 1.40933234569604 ], [ 103.872661434894567, 1.409328928076665 ], [ 103.872662631749137, 1.409325305175058 ], [ 103.872663310117829, 1.40932154843643 ], [ 103.872663458320389, 1.409317733827544 ], [ 103.872663072763672, 1.409313935506264 ], [ 103.872627123179043, 1.409105914362255 ], [ 103.872474336511118, 1.40822861173803 ], [ 103.872357500692047, 1.407577422044818 ], [ 103.872269876007621, 1.40708225630871 ], [ 103.87225352653374, 1.406989867682634 ], [ 103.872250625632333, 1.406973474328871 ], [ 103.87223242928718, 1.406864030336737 ], [ 103.872218199076656, 1.406795731212982 ], [ 103.872165627735001, 1.406543415499374 ], [ 103.872126856153528, 1.406357328827022 ], [ 103.871990995018663, 1.405608623677121 ], [ 103.871938149024515, 1.405317398610425 ], [ 103.871821372218022, 1.404738836513942 ], [ 103.871686699814106, 1.403916650845948 ], [ 103.871641805952819, 1.40360041183591 ], [ 103.871641710692913, 1.403599788730802 ], [ 103.871615117216891, 1.403439218467345 ], [ 103.871615116024188, 1.403365863708635 ], [ 103.871761434983284, 1.403037021945833 ], [ 103.871763915018306, 1.4030337625776 ], [ 103.871765810069832, 1.403030127003698 ], [ 103.871767064427502, 1.403026220131226 ], [ 103.87182990986004, 1.402773202510155 ], [ 103.871865797032569, 1.402637752631959 ], [ 103.871866108819347, 1.402636446725418 ], [ 103.871892584416614, 1.402512088120676 ], [ 103.871909634316694, 1.402469188435288 ], [ 103.871951659354494, 1.40236767289792 ], [ 103.872052264293089, 1.40229173179469 ], [ 103.872176711382934, 1.402220157462208 ], [ 103.872284400042588, 1.402156933395122 ], [ 103.872365218688117, 1.402111741884486 ], [ 103.872369030430733, 1.402109111026146 ], [ 103.872372339855616, 1.402105863400118 ], [ 103.872375049018885, 1.402102093966222 ], [ 103.872429077472816, 1.4020114595248 ], [ 103.872429958056429, 1.402009830750752 ], [ 103.872540590861746, 1.401754977353501 ], [ 103.872540440720897, 1.4017503099343 ], [ 103.872539497133545, 1.401745737486676 ], [ 103.872537788856619, 1.401741395664721 ], [ 103.87253536621283, 1.40173741288722 ], [ 103.872532300192148, 1.401733906720289 ], [ 103.872528682451673, 1.401730982068596 ], [ 103.872524619924192, 1.401728725749267 ], [ 103.87245975618707, 1.401699713040266 ], [ 103.872459755908707, 1.401682942517392 ], [ 103.87245975347777, 1.401536471751253 ], [ 103.872459746278409, 1.4015358260356 ], [ 103.872457750926117, 1.401451544786132 ], [ 103.872455721404179, 1.401365831929214 ], [ 103.872450761350322, 1.401156331608497 ], [ 103.872450818890897, 1.401104047621102 ], [ 103.872454357422185, 1.401098961419452 ], [ 103.872457005448339, 1.401093246699867 ], [ 103.872459170643666, 1.400961580332571 ], [ 103.872459169521477, 1.400893931204495 ], [ 103.872459166006124, 1.400681994443486 ], [ 103.872459164539194, 1.400593545851302 ], [ 103.872479336752221, 1.400536470206067 ], [ 103.872525950800537, 1.400489720141893 ], [ 103.87208109731786, 1.400500183839645 ], [ 103.872134577887252, 1.400371553471069 ], [ 103.872135461947167, 1.400362771179041 ], [ 103.872136043184653, 1.400353962665515 ], [ 103.872134162847772, 1.400159359875792 ], [ 103.872082750052741, 1.400077226406852 ], [ 103.872070320587682, 1.400005109022829 ], [ 103.872142957804527, 1.399973550942034 ], [ 103.872193227000878, 1.399800764156179 ], [ 103.872257326992454, 1.399618135850851 ], [ 103.872359886595831, 1.399401815729329 ], [ 103.872448864328291, 1.399251961148132 ], [ 103.872646537605277, 1.398915091332987 ], [ 103.872834283306204, 1.398524593797851 ], [ 103.872861641420059, 1.398465998696095 ], [ 103.872864410488873, 1.398444624009527 ], [ 103.872860837310014, 1.398419451102269 ], [ 103.872850584173946, 1.398399845572035 ], [ 103.872827950426384, 1.398382386306799 ], [ 103.872858804066055, 1.398326637178913 ], [ 103.872945210151997, 1.398293695164413 ], [ 103.872990376366104, 1.398183371050789 ], [ 103.873003094285991, 1.398148043669409 ], [ 103.873022127033821, 1.398089046265437 ], [ 103.873039116397536, 1.398029421267585 ], [ 103.873054041711114, 1.397969238312231 ], [ 103.873066885004334, 1.397908571557557 ], [ 103.873077630104078, 1.397847492448611 ], [ 103.87308626533023, 1.397786075143476 ], [ 103.873092779901214, 1.397724393800149 ], [ 103.87309837842875, 1.397639553522806 ], [ 103.873098391752819, 1.397630359759627 ], [ 103.873098549811147, 1.39751804680967 ], [ 103.873091783495326, 1.39741091959989 ], [ 103.873082780831652, 1.397316774571249 ], [ 103.87303611349229, 1.397128783441197 ], [ 103.873007353873874, 1.396828004266441 ], [ 103.873012512510797, 1.396606992120401 ], [ 103.872927491048017, 1.395717832955469 ], [ 103.872909592700722, 1.395530648024157 ], [ 103.872836397705669, 1.395406263959245 ], [ 103.872818121943084, 1.395379434504883 ], [ 103.872796117129155, 1.395355859014551 ], [ 103.872770536025172, 1.395335696653576 ], [ 103.872743529856507, 1.395320482091117 ], [ 103.873172998849242, 1.395267023289772 ], [ 103.873177509614749, 1.395260804806915 ], [ 103.873182230650585, 1.39525474639287 ], [ 103.873187157463974, 1.395248857091351 ], [ 103.873192283764993, 1.395243142328639 ], [ 103.873197602365067, 1.395237608435424 ], [ 103.873203108771463, 1.395232263551043 ], [ 103.873208794897067, 1.395227114006186 ], [ 103.8732146544519, 1.395222164322771 ], [ 103.873220681145995, 1.39521742173582 ], [ 103.873226866892267, 1.395212891671642 ], [ 103.873233204502142, 1.395208579556551 ], [ 103.873239685888507, 1.395204490816874 ], [ 103.873246303862814, 1.395200629974527 ], [ 103.873253051236489, 1.395197001551477 ], [ 103.873259919023795, 1.395193609165325 ], [ 103.873266899137619, 1.395190459146763 ], [ 103.873273982592195, 1.395187552400288 ], [ 103.873281162199007, 1.395184895256575 ], [ 103.873288428972231, 1.395182488620139 ], [ 103.873295773926174, 1.395180336108599 ], [ 103.873303188075056, 1.395178440435195 ], [ 103.873310663331736, 1.395176804313151 ], [ 103.873635671941798, 1.395149300645826 ], [ 103.873667849642871, 1.395176435528831 ], [ 103.87375266286179, 1.395169312198762 ], [ 103.873779439087684, 1.395137134469343 ], [ 103.874031323177789, 1.395115835042815 ], [ 103.874144889102055, 1.395106260371904 ], [ 103.874307258165004, 1.395118734136145 ], [ 103.874475369585682, 1.395104373503607 ], [ 103.874601108992778, 1.39506776806502 ], [ 103.874885586298248, 1.395043805524262 ], [ 103.874942430379335, 1.395040125561306 ], [ 103.875132187462569, 1.39506475523968 ], [ 103.875216171493733, 1.395069573996261 ], [ 103.875294865635169, 1.395077113171189 ], [ 103.875385264763182, 1.39508961437743 ], [ 103.875394025036584, 1.395090781753602 ], [ 103.875419362424353, 1.395098567870435 ], [ 103.875443452621923, 1.395108499160493 ], [ 103.875467589595146, 1.395121203229033 ], [ 103.875488633665668, 1.395134364961165 ], [ 103.875509058686191, 1.39515152037502 ], [ 103.87552610240887, 1.39517187910645 ], [ 103.875535468566881, 1.395186602885207 ], [ 103.8759663675132, 1.39525607101137 ], [ 103.875974153634459, 1.395252094381571 ], [ 103.87598207005459, 1.395248386345429 ], [ 103.875990106889262, 1.395244952329314 ], [ 103.875998255152808, 1.395241795046474 ], [ 103.876006505859479, 1.395238919018887 ], [ 103.876014849124971, 1.395236327864178 ], [ 103.876023275064938, 1.395234023391287 ], [ 103.876031774693658, 1.395232009217808 ], [ 103.876040336329623, 1.395230287152678 ], [ 103.876048951885679, 1.395228859909149 ], [ 103.876057611477449, 1.395227728391762 ], [ 103.876066303423443, 1.395226894409456 ], [ 103.876075018737893, 1.395226358866756 ], [ 103.87610383533881, 1.395229116649497 ], [ 103.876118438199782, 1.395231493050495 ], [ 103.876786855905962, 1.395391629992279 ], [ 103.877658879304718, 1.395600465592564 ], [ 103.878219293709449, 1.395734730314847 ], [ 103.878385634697736, 1.395802121209696 ], [ 103.878676911595903, 1.395872173023013 ], [ 103.878711855725527, 1.395880285392418 ], [ 103.878738984978384, 1.395892164588382 ], [ 103.878746356121439, 1.395896974756216 ], [ 103.878753563727642, 1.395902029105436 ], [ 103.878760600608302, 1.395907323114357 ], [ 103.878767456878919, 1.395912850452619 ], [ 103.878774127147878, 1.395918604789792 ], [ 103.878780602429288, 1.395924579795517 ], [ 103.878786875534345, 1.395930769139365 ], [ 103.878792941071467, 1.395937164682184 ], [ 103.878798790054702, 1.395943760997958 ], [ 103.878804417991049, 1.395950550851879 ], [ 103.878809817691646, 1.395957524296069 ], [ 103.878814982866359, 1.395964676808842 ], [ 103.879182843353021, 1.396049480857014 ], [ 103.879188040643854, 1.396044551067982 ], [ 103.879193403276915, 1.396039804861536 ], [ 103.879198924962239, 1.396035245855281 ], [ 103.879204598511294, 1.396030880379859 ], [ 103.879210417634155, 1.396026713861616 ], [ 103.879216375142221, 1.396022750822504 ], [ 103.879222464745553, 1.39601899578444 ], [ 103.879228679255618, 1.396015454173771 ], [ 103.879235010585262, 1.396012128703741 ], [ 103.879241451545894, 1.396009023896286 ], [ 103.879247994948997, 1.396006144273408 ], [ 103.879254632707386, 1.396003492548334 ], [ 103.87926135673392, 1.39600107143431 ], [ 103.879268159839995, 1.395998883644562 ], [ 103.879275033938455, 1.395996932796715 ], [ 103.879281970043579, 1.395995220699686 ], [ 103.879288960068138, 1.395993749162325 ], [ 103.879295996823558, 1.39599251999353 ], [ 103.879327449769249, 1.395990105627705 ], [ 103.879445447747727, 1.395993143773277 ], [ 103.879534845688482, 1.395994313158588 ], [ 103.879624134799528, 1.395990290590087 ], [ 103.879713190189449, 1.395981678376608 ], [ 103.879801822259537, 1.395968586854325 ], [ 103.880013000380629, 1.395931362649467 ], [ 103.880155983708605, 1.395906121708859 ], [ 103.880602910594405, 1.395827078552165 ], [ 103.880685477208772, 1.39581248406678 ], [ 103.880928374153228, 1.395769548080021 ], [ 103.882406295284866, 1.395508700817004 ], [ 103.882492745522541, 1.395493443288365 ], [ 103.882726993599476, 1.39545212972703 ], [ 103.882492745522541, 1.395493443288365 ], [ 103.882406295284866, 1.395508700817004 ], [ 103.880928374153228, 1.395769548080021 ], [ 103.880685477208772, 1.39581248406678 ], [ 103.880602910594405, 1.395827078552165 ], [ 103.880155983708605, 1.395906121708859 ], [ 103.880013000380629, 1.395931362649467 ], [ 103.879801822259537, 1.395968586854325 ], [ 103.879713190189449, 1.395981678376608 ], [ 103.879624134799528, 1.395990290590087 ], [ 103.879534845688482, 1.395994313158588 ], [ 103.879445447747727, 1.395993143773277 ], [ 103.879327449769249, 1.395990105627705 ], [ 103.879295996823558, 1.39599251999353 ], [ 103.879288960068138, 1.395993749162325 ], [ 103.879281970043579, 1.395995220699686 ], [ 103.879275033938455, 1.395996932796715 ], [ 103.879268159839995, 1.395998883644562 ], [ 103.87926135673392, 1.39600107143431 ], [ 103.879254632707386, 1.396003492548334 ], [ 103.879247994948997, 1.396006144273408 ], [ 103.879241451545894, 1.396009023896286 ], [ 103.879235010585262, 1.396012128703741 ], [ 103.879228679255618, 1.396015454173771 ], [ 103.879222464745553, 1.39601899578444 ], [ 103.879216375142221, 1.396022750822504 ], [ 103.879210417634155, 1.396026713861616 ], [ 103.879204598511294, 1.396030880379859 ], [ 103.879198924962239, 1.396035245855281 ], [ 103.879193403276915, 1.396039804861536 ], [ 103.879188040643854, 1.396044551067982 ], [ 103.879182843353021, 1.396049480857014 ], [ 103.878814982866359, 1.395964676808842 ], [ 103.878809817691646, 1.395957524296069 ], [ 103.878804417991049, 1.395950550851879 ], [ 103.878798790054702, 1.395943760997958 ], [ 103.878792941071467, 1.395937164682184 ], [ 103.878786875534345, 1.395930769139365 ], [ 103.878780602429288, 1.395924579795517 ], [ 103.878774127147878, 1.395918604789792 ], [ 103.878767456878919, 1.395912850452619 ], [ 103.878760600608302, 1.395907323114357 ], [ 103.878753563727642, 1.395902029105436 ], [ 103.878746356121439, 1.395896974756216 ], [ 103.878738984978384, 1.395892164588382 ], [ 103.878711855725527, 1.395880285392418 ], [ 103.878676911595903, 1.395872173023013 ], [ 103.878385634697736, 1.395802121209696 ], [ 103.878219293709449, 1.395734730314847 ], [ 103.877658879304718, 1.395600465592564 ], [ 103.876786855905962, 1.395391629992279 ], [ 103.876118438199782, 1.395231493050495 ], [ 103.87610383533881, 1.395229116649497 ], [ 103.876075018737893, 1.395226358866756 ], [ 103.876066303423443, 1.395226894409456 ], [ 103.876057611477449, 1.395227728391762 ], [ 103.876048951885679, 1.395228859909149 ], [ 103.876040336329623, 1.395230287152678 ], [ 103.876031774693658, 1.395232009217808 ], [ 103.876023275064938, 1.395234023391287 ], [ 103.876014849124971, 1.395236327864178 ], [ 103.876006505859479, 1.395238919018887 ], [ 103.875998255152808, 1.395241795046474 ], [ 103.875990106889262, 1.395244952329314 ], [ 103.87598207005459, 1.395248386345429 ], [ 103.875974153634459, 1.395252094381571 ], [ 103.8759663675132, 1.39525607101137 ], [ 103.875535468566881, 1.395186602885207 ], [ 103.87552610240887, 1.39517187910645 ], [ 103.875509058686191, 1.39515152037502 ], [ 103.875488633665668, 1.395134364961165 ], [ 103.875467589595146, 1.395121203229033 ], [ 103.875443452621923, 1.395108499160493 ], [ 103.875419362424353, 1.395098567870435 ], [ 103.875394025036584, 1.395090781753602 ], [ 103.875385264763182, 1.39508961437743 ], [ 103.875294865635169, 1.395077113171189 ], [ 103.875216171493733, 1.395069573996261 ], [ 103.875132187462569, 1.39506475523968 ], [ 103.874942430379335, 1.395040125561306 ], [ 103.874885586298248, 1.395043805524262 ], [ 103.874601108992778, 1.39506776806502 ], [ 103.874475369585682, 1.395104373503607 ], [ 103.874307258165004, 1.395118734136145 ], [ 103.874144889102055, 1.395106260371904 ], [ 103.874031323177789, 1.395115835042815 ], [ 103.873779439087684, 1.395137134469343 ], [ 103.87375266286179, 1.395169312198762 ], [ 103.873667849642871, 1.395176435528831 ], [ 103.873635671941798, 1.395149300645826 ], [ 103.873310663331736, 1.395176804313151 ], [ 103.873303188075056, 1.395178440435195 ], [ 103.873295773926174, 1.395180336108599 ], [ 103.873288428972231, 1.395182488620139 ], [ 103.873281162199007, 1.395184895256575 ], [ 103.873273982592195, 1.395187552400288 ], [ 103.873266899137619, 1.395190459146763 ], [ 103.873259919023795, 1.395193609165325 ], [ 103.873253051236489, 1.395197001551477 ], [ 103.873246303862814, 1.395200629974527 ], [ 103.873239685888507, 1.395204490816874 ], [ 103.873233204502142, 1.395208579556551 ], [ 103.873226866892267, 1.395212891671642 ], [ 103.873220681145995, 1.39521742173582 ], [ 103.8732146544519, 1.395222164322771 ], [ 103.873208794897067, 1.395227114006186 ], [ 103.873203108771463, 1.395232263551043 ], [ 103.873197602365067, 1.395237608435424 ], [ 103.873192283764993, 1.395243142328639 ], [ 103.873187157463974, 1.395248857091351 ], [ 103.873182230650585, 1.39525474639287 ], [ 103.873177509614749, 1.395260804806915 ], [ 103.873172998849242, 1.395267023289772 ], [ 103.872743529856507, 1.395320482091117 ], [ 103.872770536025172, 1.395335696653576 ], [ 103.872796117129155, 1.395355859014551 ], [ 103.872818121943084, 1.395379434504883 ], [ 103.872836397705669, 1.395406263959245 ], [ 103.872909592700722, 1.395530648024157 ], [ 103.872927491048017, 1.395717832955469 ], [ 103.873012512510797, 1.396606992120401 ], [ 103.873007353873874, 1.396828004266441 ], [ 103.87303611349229, 1.397128783441197 ], [ 103.873082780831652, 1.397316774571249 ], [ 103.873091783495326, 1.39741091959989 ], [ 103.873098549811147, 1.39751804680967 ], [ 103.873098391752819, 1.397630359759627 ], [ 103.87309837842875, 1.397639553522806 ], [ 103.873092779901214, 1.397724393800149 ], [ 103.87308626533023, 1.397786075143476 ], [ 103.873077630104078, 1.397847492448611 ], [ 103.873066885004334, 1.397908571557557 ], [ 103.873054041711114, 1.397969238312231 ], [ 103.873039116397536, 1.398029421267585 ], [ 103.873022127033821, 1.398089046265437 ], [ 103.873003094285991, 1.398148043669409 ], [ 103.872990376366104, 1.398183371050789 ], [ 103.872945210151997, 1.398293695164413 ], [ 103.872858804066055, 1.398326637178913 ], [ 103.872827950426384, 1.398382386306799 ], [ 103.872850584173946, 1.398399845572035 ], [ 103.872860837310014, 1.398419451102269 ], [ 103.872864410488873, 1.398444624009527 ], [ 103.872861641420059, 1.398465998696095 ], [ 103.872834283306204, 1.398524593797851 ], [ 103.872646537605277, 1.398915091332987 ], [ 103.872448864328291, 1.399251961148132 ], [ 103.872359886595831, 1.399401815729329 ], [ 103.872257326992454, 1.399618135850851 ], [ 103.872193227000878, 1.399800764156179 ], [ 103.872142957804527, 1.399973550942034 ], [ 103.872070320587682, 1.400005109022829 ], [ 103.872082750052741, 1.400077226406852 ], [ 103.872134162847772, 1.400159359875792 ], [ 103.872136043184653, 1.400353962665515 ], [ 103.872135461947167, 1.400362771179041 ], [ 103.872134577887252, 1.400371553471069 ], [ 103.87208109731786, 1.400500183839645 ], [ 103.872525950800537, 1.400489720141893 ] ] } }
]
}
