<?xml version="1.0" encoding="UTF-8"?>
<gpx xmlns="http://www.topografix.com/GPX/1/1" xmlns:xsi="http://www.w3.org/2001/XMLSchema-instance" xsi:schemaLocation="http://www.topografix.com/GPX/1/1 http://www.topografix.com/GPX/1/1/gpx.xsd" version="1.1" creator="gpx.py -- https://github.com/tkrajina/gpxpy">
  <trk>
    <name>point_to_point_10000m_007</name>
    <trkseg>
      <trkpt lat="1.3978597646022293" lon="103.92137282356288">
        <ele>0.6217295379266752</ele>
      </trkpt>
      <trkpt lat="1.3978865464347976" lon="103.92128699620702">
        <ele>0.7744201126539295</ele>
      </trkpt>
      <trkpt lat="1.3979133282643275" lon="103.92120116884901">
        <ele>1.0507486424708137</ele>
      </trkpt>
      <trkpt lat="1.3979662741695515" lon="103.92112915857385">
        <ele>1.2942297172754793</ele>
      </trkpt>
      <trkpt lat="1.3980226973929624" lon="103.92105893419091">
        <ele>1.5048633370679008</ele>
      </trkpt>
      <trkpt lat="1.398079120614446" lon="103.92098870980458">
        <ele>1.711702121485702</ele>
      </trkpt>
      <trkpt lat="1.3981355438340015" lon="103.92091848541484">
        <ele>1.9201538430493696</ele>
      </trkpt>
      <trkpt lat="1.398190847234609" lon="103.92084738882284">
        <ele>2.1304293403776513</ele>
      </trkpt>
      <trkpt lat="1.3982460042326745" lon="103.92077617822278">
        <ele>2.343367899106702</ele>
      </trkpt>
      <trkpt lat="1.3983005637213053" lon="103.92070451845352">
        <ele>2.558185518467006</ele>
      </trkpt>
      <trkpt lat="1.398354533079074" lon="103.92063241505036">
        <ele>2.77467135983993</ele>
      </trkpt>
      <trkpt lat="1.3984085024347976" lon="103.92056031164387">
        <ele>2.993289201637266</ele>
      </trkpt>
      <trkpt lat="1.3984615206803441" lon="103.92048751826431">
        <ele>3.213671872049661</ele>
      </trkpt>
      <trkpt lat="1.398514201881239" lon="103.92041448037804">
        <ele>3.4358193710769727</ele>
      </trkpt>
      <trkpt lat="1.398566883080029" lon="103.92034144248845">
        <ele>3.6595706820201115</ele>
      </trkpt>
      <trkpt lat="1.3986187123166298" lon="103.92026780568888">
        <ele>3.884843309808623</ele>
      </trkpt>
      <trkpt lat="1.3986702559401127" lon="103.9201939708374">
        <ele>4.1116454018784</ele>
      </trkpt>
      <trkpt lat="1.3987217934045055" lon="103.92012013173495">
        <ele>4.338834910880613</ele>
      </trkpt>
      <trkpt lat="1.3987733308667398" lon="103.9200462926292">
        <ele>4.566031923387722</ele>
      </trkpt>
      <trkpt lat="1.3988248688133262" lon="103.91997245385589">
        <ele>4.793228883927951</ele>
      </trkpt>
      <trkpt lat="1.3988764063105474" lon="103.91989861477064">
        <ele>5.020425792501364</ele>
      </trkpt>
      <trkpt lat="1.3989279438056093" lon="103.91982477568207">
        <ele>5.247623293038868</ele>
      </trkpt>
      <trkpt lat="1.3989794812985121" lon="103.91975093659022">
        <ele>5.474820793576371</ele>
      </trkpt>
      <trkpt lat="1.3990310187892556" lon="103.91967709749507">
        <ele>5.702018291638699</ele>
      </trkpt>
      <trkpt lat="1.3990825562797118" lon="103.9196032583979">
        <ele>5.929215784199104</ele>
      </trkpt>
      <trkpt lat="1.3991340937702967" lon="103.91952941929902">
        <ele>6.156413271257591</ele>
      </trkpt>
      <trkpt lat="1.3991856312587223" lon="103.91945558019684">
        <ele>6.383842294436447</ele>
      </trkpt>
      <trkpt lat="1.399235933134871" lon="103.91938195539525">
        <ele>6.611269339077324</ele>
      </trkpt>
      <trkpt lat="1.399287472115353" lon="103.91930811731764">
        <ele>6.838694405180221</ele>
      </trkpt>
      <trkpt lat="1.399339011093674" lon="103.91923427923675">
        <ele>7.065885953597945</ele>
      </trkpt>
      <trkpt lat="1.3993905500698347" lon="103.91916044115256">
        <ele>7.293077502015695</ele>
      </trkpt>
      <trkpt lat="1.3994420890438335" lon="103.91908660306505">
        <ele>7.520269050433446</ele>
      </trkpt>
      <trkpt lat="1.399493628015671" lon="103.91901276497427">
        <ele>7.7474605988511955</ele>
      </trkpt>
      <trkpt lat="1.399545166985346" lon="103.91893892688019">
        <ele>7.97465214726892</ele>
      </trkpt>
      <trkpt lat="1.399596705952859" lon="103.9188650887828">
        <ele>8.201843695686641</ele>
      </trkpt>
      <trkpt lat="1.3996482449182097" lon="103.9187912506821">
        <ele>8.429035244104364</ele>
      </trkpt>
      <trkpt lat="1.399699783881398" lon="103.91871741257813">
        <ele>8.6553861574899</ele>
      </trkpt>
      <trkpt lat="1.3997519488529224" lon="103.9186440156591">
        <ele>8.879644396426707</ele>
      </trkpt>
      <trkpt lat="1.3998050462005813" lon="103.91857127584127">
        <ele>9.045209530681907</ele>
      </trkpt>
      <trkpt lat="1.399859583878488" lon="103.91849961938472">
        <ele>9.139063064892044</ele>
      </trkpt>
      <trkpt lat="1.399915643071476" lon="103.918429107698">
        <ele>9.161160014146388</ele>
      </trkpt>
      <trkpt lat="1.399973513772269" lon="103.91836007743224">
        <ele>9.167392792985744</ele>
      </trkpt>
      <trkpt lat="1.4000323733326532" lon="103.91829185583845">
        <ele>9.169997816107239</ele>
      </trkpt>
      <trkpt lat="1.400093420622632" lon="103.91822557462123">
        <ele>9.169983435004955</ele>
      </trkpt>
      <trkpt lat="1.4001549849015622" lon="103.91815975193872">
        <ele>9.166181696407039</ele>
      </trkpt>
      <trkpt lat="1.4002190799750738" lon="103.91809636192633">
        <ele>9.159897539075649</ele>
      </trkpt>
      <trkpt lat="1.4002835742361575" lon="103.91803338107555">
        <ele>9.1497443259537</ele>
      </trkpt>
      <trkpt lat="1.4003501582399505" lon="103.91797257353822">
        <ele>9.13680279506386</ele>
      </trkpt>
      <trkpt lat="1.4004176974508984" lon="103.91791283795773">
        <ele>9.120329788164105</ele>
      </trkpt>
      <trkpt lat="1.4004865110253906" lon="103.91785453249972">
        <ele>9.113865081650877</ele>
      </trkpt>
      <trkpt lat="1.4005568697932718" lon="103.91779809679477">
        <ele>9.127629225873521</ele>
      </trkpt>
      <trkpt lat="1.4006278575000366" lon="103.91774242598143">
        <ele>9.159602339535889</ele>
      </trkpt>
      <trkpt lat="1.4007008399038825" lon="103.91768936056502">
        <ele>9.196923093734082</ele>
      </trkpt>
      <trkpt lat="1.4007744325969378" lon="103.91763715698262">
        <ele>9.228001312666992</ele>
      </trkpt>
      <trkpt lat="1.4008493506382111" lon="103.91758682502335">
        <ele>9.256045516841759</ele>
      </trkpt>
      <trkpt lat="1.4009241925922353" lon="103.91753638153288">
        <ele>9.282124004483698</ele>
      </trkpt>
      <trkpt lat="1.4009989919837085" lon="103.91748587565203">
        <ele>9.311857049945685</ele>
      </trkpt>
      <trkpt lat="1.4010716606969702" lon="103.91743239053912">
        <ele>9.346392326915582</ele>
      </trkpt>
      <trkpt lat="1.401143496281834" lon="103.9173778308019">
        <ele>9.388017076088286</ele>
      </trkpt>
      <trkpt lat="1.4012137836833458" lon="103.91732128762433">
        <ele>9.435706800727978</ele>
      </trkpt>
      <trkpt lat="1.4012823774692929" lon="103.91726275271373">
        <ele>9.489449322695021</ele>
      </trkpt>
      <trkpt lat="1.4013500834980432" lon="103.91720318693626">
        <ele>9.55016947350182</ele>
      </trkpt>
      <trkpt lat="1.401415367189618" lon="103.91714100298408">
        <ele>9.616860068220856</ele>
      </trkpt>
      <trkpt lat="1.4014795408732668" lon="103.91707771572393">
        <ele>9.690266862331661</ele>
      </trkpt>
      <trkpt lat="1.401542148287013" lon="103.91701287164871">
        <ele>9.770070010761895</ele>
      </trkpt>
      <trkpt lat="1.4016023096896242" lon="103.9169458033956">
        <ele>9.858894366314843</ele>
      </trkpt>
      <trkpt lat="1.4016589604431902" lon="103.91687578731432">
        <ele>9.958799102200288</ele>
      </trkpt>
      <trkpt lat="1.4017118578130925" lon="103.91680293002779">
        <ele>10.070786538513813</ele>
      </trkpt>
      <trkpt lat="1.401760858139816" lon="103.91672743020612">
        <ele>10.194900699549724</ele>
      </trkpt>
      <trkpt lat="1.401805565965151" lon="103.91664934853766">
        <ele>10.330618266656185</ele>
      </trkpt>
      <trkpt lat="1.4018463026021686" lon="103.91656916615085">
        <ele>10.477478857459138</ele>
      </trkpt>
      <trkpt lat="1.4018828803226424" lon="103.91648703026877">
        <ele>10.634764933457594</ele>
      </trkpt>
      <trkpt lat="1.4019152067916019" lon="103.91640314592749">
        <ele>10.802168539975106</ele>
      </trkpt>
      <trkpt lat="1.4019431992407414" lon="103.91631772221594">
        <ele>10.979307847893933</ele>
      </trkpt>
      <trkpt lat="1.4019667340375725" lon="103.91623096012634">
        <ele>11.16620901676933</ele>
      </trkpt>
      <trkpt lat="1.4019850101185702" lon="103.91614295761245">
        <ele>11.360461645037434</ele>
      </trkpt>
      <trkpt lat="1.4020019398067383" lon="103.91605469040496">
        <ele>11.558334323241935</ele>
      </trkpt>
      <trkpt lat="1.4020198562291453" lon="103.91596661950682">
        <ele>11.755467961818844</ele>
      </trkpt>
      <trkpt lat="1.4020393051967939" lon="103.91587887032188">
        <ele>11.949155405045838</ele>
      </trkpt>
      <trkpt lat="1.4020616693486783" lon="103.91579180306313">
        <ele>12.140004290812863</ele>
      </trkpt>
      <trkpt lat="1.402084033497399" lon="103.91570473580256">
        <ele>12.32720004737917</ele>
      </trkpt>
      <trkpt lat="1.4021090045032911" lon="103.91561838640445">
        <ele>12.511969261796622</ele>
      </trkpt>
      <trkpt lat="1.4021349375696075" lon="103.91553230193257">
        <ele>12.692290269810039</ele>
      </trkpt>
      <trkpt lat="1.4021637000074092" lon="103.91544711337353">
        <ele>12.869484173164182</ele>
      </trkpt>
      <trkpt lat="1.4021930758196661" lon="103.91536213459577">
        <ele>13.042252909973469</ele>
      </trkpt>
      <trkpt lat="1.4022250637257427" lon="103.91527808517942">
        <ele>13.211841088007779</ele>
      </trkpt>
      <trkpt lat="1.4022580465318033" lon="103.91519442968553">
        <ele>13.377157839934611</ele>
      </trkpt>
      <trkpt lat="1.4022930038783807" lon="103.91511155599582">
        <ele>13.538871651517285</ele>
      </trkpt>
      <trkpt lat="1.4023295350040108" lon="103.91502937041801">
        <ele>13.69665727718393</ele>
      </trkpt>
      <trkpt lat="1.4023674175287795" lon="103.91494777571937">
        <ele>13.850241258967458</ele>
      </trkpt>
      <trkpt lat="1.4024074325970701" lon="103.91486720427983">
        <ele>14.00027263945247</ele>
      </trkpt>
      <trkpt lat="1.4024481930804442" lon="103.91478699051198">
        <ele>14.145482269457583</ele>
      </trkpt>
      <trkpt lat="1.4024916229877198" lon="103.91470817528824">
        <ele>14.28722774349311</ele>
      </trkpt>
      <trkpt lat="1.4025355550594976" lon="103.91462963739241">
        <ele>14.42437343389038</ele>
      </trkpt>
      <trkpt lat="1.4025814048321805" lon="103.91455218364938">
        <ele>14.55929079188796</ele>
      </trkpt>
      <trkpt lat="1.4026272546024423" lon="103.91447472990322">
        <ele>14.691263530837587</ele>
      </trkpt>
      <trkpt lat="1.4026743363997183" lon="103.91439801681548">
        <ele>14.821402113385128</ele>
      </trkpt>
      <trkpt lat="1.4027221104203345" lon="103.91432171987128">
        <ele>14.949461904228473</ele>
      </trkpt>
      <trkpt lat="1.402770133577149" lon="103.91424558123776">
        <ele>15.0750020492171</ele>
      </trkpt>
      <trkpt lat="1.402819801660854" lon="103.91417048786353">
        <ele>15.198682362203874</ele>
      </trkpt>
      <trkpt lat="1.4028694697422974" lon="103.91409539448604">
        <ele>15.31957360546152</ele>
      </trkpt>
      <trkpt lat="1.4029202982392692" lon="103.9140210795356">
        <ele>15.43858000775433</ele>
      </trkpt>
      <trkpt lat="1.402971829552681" lon="103.91394723604597">
        <ele>15.55548373529559</ele>
      </trkpt>
      <trkpt lat="1.4030235698609355" lon="103.91387354039843">
        <ele>15.66976716764268</ele>
      </trkpt>
      <trkpt lat="1.403076933042484" lon="103.91380099277659">
        <ele>15.782141272730945</ele>
      </trkpt>
      <trkpt lat="1.4031302962219352" lon="103.91372844515139">
        <ele>15.891654017505516</ele>
      </trkpt>
      <trkpt lat="1.4031847485777058" lon="103.91365670930621">
        <ele>15.999234249557707</ele>
      </trkpt>
      <trkpt lat="1.4032399109758749" lon="103.91358550266595">
        <ele>16.104693203827004</ele>
      </trkpt>
      <trkpt lat="1.4032952438779516" lon="103.91351442981282">
        <ele>16.207436137325306</ele>
      </trkpt>
      <trkpt lat="1.4033521706981706" lon="103.91344460765407">
        <ele>16.308225695933313</ele>
      </trkpt>
      <trkpt lat="1.40340909751646" lon="103.9133747854919">
        <ele>16.406090045302314</ele>
      </trkpt>
      <trkpt lat="1.4034670411426995" lon="103.91330580279457">
        <ele>16.50198032164744</ele>
      </trkpt>
      <trkpt lat="1.4035256974574335" lon="103.91323740848397">
        <ele>16.595772083007166</ele>
      </trkpt>
      <trkpt lat="1.4035844599032423" lon="103.91316910572718">
        <ele>16.6872705317529</ele>
      </trkpt>
      <trkpt lat="1.4036443783258414" lon="103.91310180019049">
        <ele>16.77728914149928</ele>
      </trkpt>
      <trkpt lat="1.4037042967466584" lon="103.91303449465035">
        <ele>16.865952354207852</ele>
      </trkpt>
      <trkpt lat="1.4037642151656924" lon="103.91296718910674">
        <ele>16.954615566916456</ele>
      </trkpt>
      <trkpt lat="1.4038241335829427" lon="103.91289988355969">
        <ele>17.043278779624973</ele>
      </trkpt>
      <trkpt lat="1.40388405199841" lon="103.91283257800919">
        <ele>17.13194199233352</ele>
      </trkpt>
      <trkpt lat="1.4039439704120924" lon="103.91276527245523">
        <ele>17.220605205042038</ele>
      </trkpt>
      <trkpt lat="1.4040038888239914" lon="103.91269796689784">
        <ele>17.309268417750637</ele>
      </trkpt>
      <trkpt lat="1.4040638072341063" lon="103.91263066133699">
        <ele>17.397931630459208</ele>
      </trkpt>
      <trkpt lat="1.404123725642436" lon="103.91256335577268">
        <ele>17.486594843167754</ele>
      </trkpt>
      <trkpt lat="1.4041836440489814" lon="103.91249605020492">
        <ele>17.575258055876276</ele>
      </trkpt>
      <trkpt lat="1.4042435624537415" lon="103.91242874463371">
        <ele>17.662446255334217</ele>
      </trkpt>
      <trkpt lat="1.4043047065477963" lon="103.91236254157991">
        <ele>17.747133523555945</ele>
      </trkpt>
      <trkpt lat="1.4043666802772752" lon="103.9122971176009">
        <ele>17.826227342604266</ele>
      </trkpt>
      <trkpt lat="1.404431113698072" lon="103.91223406409381">
        <ele>17.89918685817323</ele>
      </trkpt>
      <trkpt lat="1.4044970573904947" lon="103.9121726056072">
        <ele>17.96527105928911</ele>
      </trkpt>
      <trkpt lat="1.4045643248516917" lon="103.91211254517228">
        <ele>18.024635350870458</ele>
      </trkpt>
      <trkpt lat="1.4046336703934208" lon="103.91205487418145">
        <ele>18.07697368351644</ele>
      </trkpt>
      <trkpt lat="1.4047045888189933" lon="103.91199912957919">
        <ele>18.1217604904667</ele>
      </trkpt>
      <trkpt lat="1.4047770013723182" lon="103.91194531844151">
        <ele>18.160155444274015</ele>
      </trkpt>
      <trkpt lat="1.4048505411595154" lon="103.91189302307949">
        <ele>18.193655287979862</ele>
      </trkpt>
      <trkpt lat="1.4049245911741455" lon="103.9118414384176">
        <ele>18.224552831077407</ele>
      </trkpt>
      <trkpt lat="1.404998640996168" lon="103.911789853481">
        <ele>18.254625160173486</ele>
      </trkpt>
      <trkpt lat="1.4050726910332583" lon="103.91173826884744">
        <ele>18.28469714484454</ele>
      </trkpt>
      <trkpt lat="1.4051467412551788" lon="103.91168668447408">
        <ele>18.315797485831464</ele>
      </trkpt>
      <trkpt lat="1.4052201551628785" lon="103.91163421385455">
        <ele>18.350427000793925</ele>
      </trkpt>
      <trkpt lat="1.4052919730364575" lon="103.91157961636088">
        <ele>18.39176708920039</ele>
      </trkpt>
      <trkpt lat="1.405361664697182" lon="103.91152236429474">
        <ele>18.441460540374866</ele>
      </trkpt>
      <trkpt lat="1.4054294731049866" lon="103.91146293480634">
        <ele>18.4997391742157</ele>
      </trkpt>
      <trkpt lat="1.4054952766637536" lon="103.91140132087183">
        <ele>18.566131392803097</ele>
      </trkpt>
      <trkpt lat="1.4055590087930059" lon="103.91133758529361">
        <ele>18.640651889114263</ele>
      </trkpt>
      <trkpt lat="1.4056206030766807" lon="103.9112717910411">
        <ele>18.72385254955543</ele>
      </trkpt>
      <trkpt lat="1.4056794451539956" lon="103.91120355437744">
        <ele>18.81565143450587</ele>
      </trkpt>
      <trkpt lat="1.4057359698668186" lon="103.91113342539214">
        <ele>18.91398728255508</ele>
      </trkpt>
      <trkpt lat="1.4057919430831243" lon="103.9110628461585">
        <ele>19.018759660851767</ele>
      </trkpt>
      <trkpt lat="1.4058449641858295" lon="103.91099005124862">
        <ele>19.127942891295657</ele>
      </trkpt>
      <trkpt lat="1.4058973989231556" lon="103.91091685259876">
        <ele>19.243432832671814</ele>
      </trkpt>
      <trkpt lat="1.4059473775569702" lon="103.91084196281297">
        <ele>19.363221793383804</ele>
      </trkpt>
      <trkpt lat="1.4059961528697722" lon="103.9107663149651">
        <ele>19.488586799010104</ele>
      </trkpt>
      <trkpt lat="1.4060430057023947" lon="103.91068945600418">
        <ele>19.6187282724375</ele>
      </trkpt>
      <trkpt lat="1.4060880088215602" lon="103.91061153462523">
        <ele>19.75373121455513</ele>
      </trkpt>
      <trkpt lat="1.4061316569869604" lon="103.9105328350026">
        <ele>19.88139562943493</ele>
      </trkpt>
      <trkpt lat="1.406172792227406" lon="103.91045282508824">
        <ele>19.963905573432097</ele>
      </trkpt>
      <trkpt lat="1.4062131739623205" lon="103.9103724222793">
        <ele>20.0</ele>
      </trkpt>
      <trkpt lat="1.406250320316952" lon="103.91029049604687">
        <ele>20.0</ele>
      </trkpt>
      <trkpt lat="1.4062867768811922" lon="103.91020827427711">
        <ele>20.0</ele>
      </trkpt>
      <trkpt lat="1.4063204521892914" lon="103.91012487797964">
        <ele>20.0</ele>
      </trkpt>
      <trkpt lat="1.406352812423452" lon="103.91004098801227">
        <ele>19.98395954679089</ele>
      </trkpt>
      <trkpt lat="1.4063830486964857" lon="103.90995630072526">
        <ele>19.93931256684779</ele>
      </trkpt>
      <trkpt lat="1.4064112376831117" lon="103.90987093802963">
        <ele>19.865606821819473</ele>
      </trkpt>
      <trkpt lat="1.4064379845200858" lon="103.9097850995624">
        <ele>19.778055095523538</ele>
      </trkpt>
      <trkpt lat="1.4064619358388495" lon="103.90969846263057">
        <ele>19.689004821286904</ele>
      </trkpt>
      <trkpt lat="1.4064851486808754" lon="103.90961161477205">
        <ele>19.597916629169422</ele>
      </trkpt>
      <trkpt lat="1.4065048068684114" lon="103.90952390537024">
        <ele>19.505468061316375</ele>
      </trkpt>
      <trkpt lat="1.4065238971514358" lon="103.9094360792937">
        <ele>19.411189961434967</ele>
      </trkpt>
      <trkpt lat="1.4065403675909827" lon="103.90934772703812">
        <ele>19.315641410535346</ele>
      </trkpt>
      <trkpt lat="1.406555125816503" lon="103.90925907383449">
        <ele>19.21925754215623</ele>
      </trkpt>
      <trkpt lat="1.406571021881038" lon="103.90917061448478">
        <ele>19.123655351770832</ele>
      </trkpt>
      <trkpt lat="1.406590441548707" lon="103.90908287327518">
        <ele>19.030113199888667</ele>
      </trkpt>
      <trkpt lat="1.4066129054099237" lon="103.90899586134574">
        <ele>18.93922002633839</ele>
      </trkpt>
      <trkpt lat="1.406638393076182" lon="103.9089096592008">
        <ele>18.851229029627348</ele>
      </trkpt>
      <trkpt lat="1.4066677354316413" lon="103.90882466203283">
        <ele>18.76644432778585</ele>
      </trkpt>
      <trkpt lat="1.4067005702811408" lon="103.90874095545392">
        <ele>18.684992294876963</ele>
      </trkpt>
      <trkpt lat="1.4067362981227216" lon="103.90865843867095">
        <ele>18.60671504708233</ele>
      </trkpt>
      <trkpt lat="1.4067748861480662" lon="103.90857718802852">
        <ele>18.531785604067903</ele>
      </trkpt>
      <trkpt lat="1.4068169823656094" lon="103.90849765809494">
        <ele>18.461192336593797</ele>
      </trkpt>
      <trkpt lat="1.4068639129419442" lon="103.90842091799021">
        <ele>18.39487899299255</ele>
      </trkpt>
      <trkpt lat="1.4069131620372897" lon="103.90834555252293">
        <ele>18.33245448539501</ele>
      </trkpt>
      <trkpt lat="1.406964484357702" lon="103.90827158325818">
        <ele>18.27232906105759</ele>
      </trkpt>
      <trkpt lat="1.4070166942224804" lon="103.90819821170446">
        <ele>18.214636569986286</ele>
      </trkpt>
      <trkpt lat="1.407071235057279" lon="103.90812654739224">
        <ele>18.158704605664088</ele>
      </trkpt>
      <trkpt lat="1.4071263246841517" lon="103.90805528502307">
        <ele>18.105410768702207</ele>
      </trkpt>
      <trkpt lat="1.4071839799981816" lon="103.90798606220439">
        <ele>18.05417953955176</ele>
      </trkpt>
      <trkpt lat="1.4072424802929726" lon="103.90791777950085">
        <ele>18.019218153292396</ele>
      </trkpt>
      <trkpt lat="1.4073225834676928" lon="103.90787606952637">
        <ele>17.99964088420531</ele>
      </trkpt>
      <trkpt lat="1.4074031015758326" lon="103.90783515546329">
        <ele>17.99523819830039</ele>
      </trkpt>
      <trkpt lat="1.4074838773599496" lon="103.90779492364683">
        <ele>18.000099183576683</ele>
      </trkpt>
      <trkpt lat="1.4075716065510089" lon="103.90777310226564">
        <ele>18.013832980214485</ele>
      </trkpt>
      <trkpt lat="1.4076593357152312" lon="103.90775128077718">
        <ele>18.042494524153827</ele>
      </trkpt>
      <trkpt lat="1.4077492721757514" lon="103.90774454580918">
        <ele>18.079885850545537</ele>
      </trkpt>
      <trkpt lat="1.4078396017538095" lon="103.90774358939878">
        <ele>18.12843467361169</ele>
      </trkpt>
      <trkpt lat="1.407929886440915" lon="103.90774879080475">
        <ele>18.18176899894127</ele>
      </trkpt>
      <trkpt lat="1.4080201711279174" lon="103.9077539922113">
        <ele>18.23753099176638</ele>
      </trkpt>
      <trkpt lat="1.4081104558148163" lon="103.90775919361842">
        <ele>18.293292984591492</ele>
      </trkpt>
      <trkpt lat="1.4082007405016121" lon="103.90776439502613">
        <ele>18.347714995565735</ele>
      </trkpt>
      <trkpt lat="1.4082908990136866" lon="103.90776626741483">
        <ele>18.395239837435465</ele>
      </trkpt>
      <trkpt lat="1.408380534252928" lon="103.9077543336571">
        <ele>18.43586751020068</ele>
      </trkpt>
      <trkpt lat="1.4084701694920878" lon="103.90774239989861">
        <ele>18.470937995712237</ele>
      </trkpt>
      <trkpt lat="1.4085598047311652" lon="103.9077304661394">
        <ele>18.506008481223827</ele>
      </trkpt>
      <trkpt lat="1.4086494399701612" lon="103.90771853237946">
        <ele>18.541091418597254</ele>
      </trkpt>
      <trkpt lat="1.4087390791998355" lon="103.90770662824951">
        <ele>18.57618690520734</ele>
      </trkpt>
      <trkpt lat="1.4088287184606358" lon="103.90769472435055">
        <ele>18.61129494105407</ele>
      </trkpt>
      <trkpt lat="1.4089183577213549" lon="103.90768282045086">
        <ele>18.643315185906115</ele>
      </trkpt>
      <trkpt lat="1.4090065495012178" lon="103.90766378043695">
        <ele>18.670306644810342</ele>
      </trkpt>
      <trkpt lat="1.4090938314643502" lon="103.90764025500513">
        <ele>18.692269317766712</ele>
      </trkpt>
      <trkpt lat="1.409181113427271" lon="103.90761672957174">
        <ele>18.71229109314474</ele>
      </trkpt>
      <trkpt lat="1.40926839538998" lon="103.90759320413675">
        <ele>18.729390046800855</ele>
      </trkpt>
      <trkpt lat="1.4093535711221932" lon="103.90756326475729">
        <ele>18.742558810955178</ele>
      </trkpt>
      <trkpt lat="1.409438020929329" lon="103.90753111477237">
        <ele>18.751797385607684</ele>
      </trkpt>
      <trkpt lat="1.4095224707360794" lon="103.90749896478528">
        <ele>18.76002859248026</ele>
      </trkpt>
      <trkpt lat="1.4096069205424455" lon="103.90746681479602">
        <ele>18.76825979935283</ele>
      </trkpt>
      <trkpt lat="1.4096913703484264" lon="103.90743466480457">
        <ele>18.776491006225395</ele>
      </trkpt>
      <trkpt lat="1.4097758201540231" lon="103.90740251481094">
        <ele>18.77450528485183</ele>
      </trkpt>
      <trkpt lat="1.4098488292214413" lon="103.90734983197207">
        <ele>18.761623035208174</ele>
      </trkpt>
      <trkpt lat="1.4099210772835156" lon="103.90729578334562">
        <ele>18.737844257294466</ele>
      </trkpt>
      <trkpt lat="1.4099933253444594" lon="103.90724173471587">
        <ele>18.713385879356803</ele>
      </trkpt>
      <trkpt lat="1.4100655734042724" lon="103.90718768608285">
        <ele>18.68542107645071</ele>
      </trkpt>
      <trkpt lat="1.4101322273539998" lon="103.90712736247727">
        <ele>18.651482213813704</ele>
      </trkpt>
      <trkpt lat="1.4101949444668382" lon="103.90706262287975">
        <ele>18.611569291445814</ele>
      </trkpt>
      <trkpt lat="1.4102576615780147" lon="103.90699788327876">
        <ele>18.56918873431545</ele>
      </trkpt>
      <trkpt lat="1.4103203786875282" lon="103.9069331436743">
        <ele>18.525086796997034</ele>
      </trkpt>
      <trkpt lat="1.4103796927643948" lon="103.90686562751763">
        <ele>18.475417230140195</ele>
      </trkpt>
      <trkpt lat="1.4104314031118412" lon="103.90679190744127">
        <ele>18.420180033744984</ele>
      </trkpt>
      <trkpt lat="1.4104831134570865" lon="103.9067181873616">
        <ele>18.36109658799943</ele>
      </trkpt>
      <trkpt lat="1.4105348238001303" lon="103.90664446727861">
        <ele>18.30188910699202</ele>
      </trkpt>
      <trkpt lat="1.4105862515302983" lon="103.90657056443737">
        <ele>18.24057102245079</ele>
      </trkpt>
      <trkpt lat="1.4106331529211225" lon="103.90649373456145">
        <ele>18.177142334375763</ele>
      </trkpt>
      <trkpt lat="1.410680054309537" lon="103.90641690468239">
        <ele>18.111727078028807</ele>
      </trkpt>
      <trkpt lat="1.4107269556955417" lon="103.90634007480014">
        <ele>18.046311821681865</ele>
      </trkpt>
      <trkpt lat="1.410773857079136" lon="103.90626324491474">
        <ele>17.98089656533489</ele>
      </trkpt>
      <trkpt lat="1.4108207584603192" lon="103.90618641502617">
        <ele>17.91204537496472</ele>
      </trkpt>
      <trkpt lat="1.410867659839092" lon="103.90610958513444">
        <ele>17.81433599508181</ele>
      </trkpt>
      <trkpt lat="1.4109134430829262" lon="103.90603211454254">
        <ele>17.755087982360298</ele>
      </trkpt>
      <trkpt lat="1.4109568784201163" lon="103.90595329858364">
        <ele>17.733573696563</ele>
      </trkpt>
      <trkpt lat="1.4110003137547555" lon="103.9058744826217">
        <ele>17.67803138239731</ele>
      </trkpt>
      <trkpt lat="1.411043749086844" lon="103.90579566665676">
        <ele>17.51970220093878</ele>
      </trkpt>
      <trkpt lat="1.4110871844163806" lon="103.90571685068878">
        <ele>17.25960395013744</ele>
      </trkpt>
      <trkpt lat="1.4111306197433664" lon="103.90563803471778">
        <ele>17.0304201507313</ele>
      </trkpt>
      <trkpt lat="1.4111740550678005" lon="103.90555921874376">
        <ele>16.89444667937828</ele>
      </trkpt>
      <trkpt lat="1.4112174903896826" lon="103.90548040276673">
        <ele>16.853979549708214</ele>
      </trkpt>
      <trkpt lat="1.4112602055246397" lon="103.90540123171485">
        <ele>16.866651745721672</ele>
      </trkpt>
      <trkpt lat="1.411297100360675" lon="103.90531919108494">
        <ele>16.87160667301109</ele>
      </trkpt>
      <trkpt lat="1.4113339951939208" lon="103.90523715045234">
        <ele>16.86969409425703</ele>
      </trkpt>
      <trkpt lat="1.4113708900243762" lon="103.90515510981702">
        <ele>16.86704490893216</ele>
      </trkpt>
      <trkpt lat="1.4114071383710503" lon="103.90507280987867">
        <ele>16.857411628612592</ele>
      </trkpt>
      <trkpt lat="1.411437903621599" lon="103.90498831069638">
        <ele>16.838702788059965</ele>
      </trkpt>
      <trkpt lat="1.4114686688691638" lon="103.90490381151173">
        <ele>16.809299698595495</ele>
      </trkpt>
      <trkpt lat="1.411499434113745" lon="103.90481931232472">
        <ele>16.772789253878646</ele>
      </trkpt>
      <trkpt lat="1.4115275769167732" lon="103.90473396799607">
        <ele>16.728081181690793</ele>
      </trkpt>
      <trkpt lat="1.411552583609269" lon="103.90464761298477">
        <ele>16.677530777281614</ele>
      </trkpt>
      <trkpt lat="1.4115775902986274" lon="103.90456125797151">
        <ele>16.623798635415515</ele>
      </trkpt>
      <trkpt lat="1.4116025969848478" lon="103.90447490295622">
        <ele>16.56151765232943</ele>
      </trkpt>
      <trkpt lat="1.4116187709037336" lon="103.90438660108056">
        <ele>16.488670169395373</ele>
      </trkpt>
      <trkpt lat="1.411632860150446" lon="103.90429783971493">
        <ele>16.40525618661329</ele>
      </trkpt>
      <trkpt lat="1.411646949393802" lon="103.90420907834805">
        <ele>16.319824545203197</ele>
      </trkpt>
      <trkpt lat="1.411661038633801" lon="103.90412031697994">
        <ele>16.234109012743406</ele>
      </trkpt>
      <trkpt lat="1.411674821644311" lon="103.90403151536371">
        <ele>16.144251614153113</ele>
      </trkpt>
      <trkpt lat="1.4116844431507778" lon="103.90394216680605">
        <ele>16.04814951784084</ele>
      </trkpt>
      <trkpt lat="1.4116917486354665" lon="103.90385261041502">
        <ele>15.944131830301146</ele>
      </trkpt>
      <trkpt lat="1.4116968758498218" lon="103.90376290867098">
        <ele>15.834139220503516</ele>
      </trkpt>
      <trkpt lat="1.411699843918912" lon="103.90367310716687">
        <ele>15.718175835013739</ele>
      </trkpt>
      <trkpt lat="1.411700417648912" lon="103.90358325496356">
        <ele>15.586061871522295</ele>
      </trkpt>
      <trkpt lat="1.4116862318576446" lon="103.90349484068004">
        <ele>15.421950095049084</ele>
      </trkpt>
      <trkpt lat="1.4116475195450684" lon="103.90341405126937">
        <ele>15.215566299053071</ele>
      </trkpt>
      <trkpt lat="1.4115867098006103" lon="103.90334805501884">
        <ele>14.974009584596628</ele>
      </trkpt>
      <trkpt lat="1.4115095600431202" lon="103.90330197124776">
        <ele>14.717187962695336</ele>
      </trkpt>
      <trkpt lat="1.4114223621412842" lon="103.90327956305116">
        <ele>14.467292836963898</ele>
      </trkpt>
      <trkpt lat="1.4113324221734969" lon="103.90328375794458">
        <ele>14.243322704599573</ele>
      </trkpt>
      <trkpt lat="1.4112464466697685" lon="103.90331091555761">
        <ele>14.045856203731256</ele>
      </trkpt>
      <trkpt lat="1.4111615768730115" lon="103.90334192044273">
        <ele>13.854713773876504</ele>
      </trkpt>
      <trkpt lat="1.41107578117132" lon="103.90337033540959">
        <ele>13.653298410521122</ele>
      </trkpt>
      <trkpt lat="1.4109890356247463" lon="103.90339565403661">
        <ele>13.4375831030016</ele>
      </trkpt>
      <trkpt lat="1.4109017578236407" lon="103.90341917427631">
        <ele>13.284624512317968</ele>
      </trkpt>
      <trkpt lat="1.4108139223518092" lon="103.90344056945504">
        <ele>13.2865179847303</ele>
      </trkpt>
      <trkpt lat="1.4107250871946122" lon="103.90345702476155">
        <ele>13.443269278860127</ele>
      </trkpt>
      <trkpt lat="1.4106357554768851" lon="103.90347102635029">
        <ele>13.683320455045203</ele>
      </trkpt>
      <trkpt lat="1.4105464237590581" lon="103.90348502793812">
        <ele>13.914986206092728</ele>
      </trkpt>
      <trkpt lat="1.410457105160178" lon="103.90349904805038">
        <ele>14.138500641163128</ele>
      </trkpt>
      <trkpt lat="1.410367579154707" lon="103.90351126975962">
        <ele>14.23339110587227</ele>
      </trkpt>
      <trkpt lat="1.4102775034987582" lon="103.90351928702579">
        <ele>14.25964543801697</ele>
      </trkpt>
      <trkpt lat="1.4101874278427426" lon="103.9035273042915">
        <ele>14.264077253602396</ele>
      </trkpt>
      <trkpt lat="1.4100973521866604" lon="103.90353532155679">
        <ele>14.3055950869002</ele>
      </trkpt>
      <trkpt lat="1.4100070300437935" lon="103.90353871206742">
        <ele>14.325659140144607</ele>
      </trkpt>
      <trkpt lat="1.4099166059190724" lon="103.90354018829774">
        <ele>14.278520832158966</ele>
      </trkpt>
      <trkpt lat="1.4098261817942859" lon="103.9035416645281">
        <ele>14.230248790558269</ele>
      </trkpt>
      <trkpt lat="1.409735775445474" lon="103.90354222797707">
        <ele>14.179457246754973</ele>
      </trkpt>
      <trkpt lat="1.4096454764863318" lon="103.9035372770726">
        <ele>14.126146200749124</ele>
      </trkpt>
      <trkpt lat="1.409555177527089" lon="103.90353232616869">
        <ele>14.070673472134862</ele>
      </trkpt>
      <trkpt lat="1.409464878567746" lon="103.90352737526533">
        <ele>14.013776508338056</ele>
      </trkpt>
      <trkpt lat="1.4093749272429112" lon="103.9035186630545">
        <ele>13.954409916333345</ele>
      </trkpt>
      <trkpt lat="1.409285231082798" lon="103.90350719003291">
        <ele>13.892573696120714</ele>
      </trkpt>
      <trkpt lat="1.409195534922514" lon="103.90349571701236">
        <ele>13.8296920828827</ele>
      </trkpt>
      <trkpt lat="1.4091058387620596" lon="103.90348424399285">
        <ele>13.764764954420833</ele>
      </trkpt>
      <trkpt lat="1.409017079330087" lon="103.90346716644284">
        <ele>13.69747402277961</ele>
      </trkpt>
      <trkpt lat="1.4089284656554737" lon="103.90344921681334">
        <ele>13.627819287959051</ele>
      </trkpt>
      <trkpt lat="1.408839851980586" lon="103.90343126718538">
        <ele>13.556937901389198</ele>
      </trkpt>
      <trkpt lat="1.4087518496126465" lon="103.90341073831769">
        <ele>13.484197804839363</ele>
      </trkpt>
      <trkpt lat="1.4086644868047242" lon="103.9033875110042">
        <ele>13.409488513115354</ele>
      </trkpt>
      <trkpt lat="1.408577220000051" lon="103.9033639599567">
        <ele>13.332352975704689</ele>
      </trkpt>
      <trkpt lat="1.4084911396411097" lon="103.90333640807098">
        <ele>13.253741538793584</ele>
      </trkpt>
      <trkpt lat="1.408405059281675" lon="103.90330885618744">
        <ele>13.171573765369317</ele>
      </trkpt>
      <trkpt lat="1.408321639513015" lon="103.90327453433125">
        <ele>13.086122463073442</ele>
      </trkpt>
      <trkpt lat="1.4082395465728896" lon="103.90323683631055">
        <ele>12.99738763190598</ele>
      </trkpt>
      <trkpt lat="1.4081574536319605" lon="103.90319913829262">
        <ele>12.907560194073824</ele>
      </trkpt>
      <trkpt lat="1.4080753606902274" lon="103.90316144027743">
        <ele>12.817732756241695</ele>
      </trkpt>
      <trkpt lat="1.40799326774769" lon="103.903123742265">
        <ele>12.728846015000022</ele>
      </trkpt>
      <trkpt lat="1.407909864270319" lon="103.9030890288576">
        <ele>12.639917980158858</ele>
      </trkpt>
      <trkpt lat="1.4078278478370154" lon="103.90305119105025">
        <ele>12.550100391553448</ele>
      </trkpt>
      <trkpt lat="1.4077471801035724" lon="103.90301058465424">
        <ele>12.457626460518552</ele>
      </trkpt>
      <trkpt lat="1.4076679852177985" lon="103.90296720824992">
        <ele>12.363293223298797</ele>
      </trkpt>
      <trkpt lat="1.4075891385716737" lon="103.90292320311507">
        <ele>12.26746499312808</ele>
      </trkpt>
      <trkpt lat="1.4075112566001498" lon="103.9028775281007">
        <ele>12.170967862081179</ele>
      </trkpt>
      <trkpt lat="1.4074333746275218" lon="103.90283185308944">
        <ele>12.074120962926854</ele>
      </trkpt>
      <trkpt lat="1.407355231554992" lon="103.90278663812524">
        <ele>11.978972193463996</ele>
      </trkpt>
      <trkpt lat="1.407274234468732" lon="103.90274669770133">
        <ele>11.88276635752454</ele>
      </trkpt>
      <trkpt lat="1.4071992540247509" lon="103.90269700755171">
        <ele>11.78088329695432</ele>
      </trkpt>
      <trkpt lat="1.4071427043066316" lon="103.90262744667105">
        <ele>11.670488039694446</ele>
      </trkpt>
      <trkpt lat="1.4071034797328286" lon="103.9025466540416">
        <ele>11.554764822058852</ele>
      </trkpt>
      <trkpt lat="1.4070781266651626" lon="103.90246052580765">
        <ele>11.439984005024272</ele>
      </trkpt>
      <trkpt lat="1.4070692152265623" lon="103.90237129867582">
        <ele>11.33188201316964</ele>
      </trkpt>
      <trkpt lat="1.407082932518013" lon="103.90228288655798">
        <ele>11.236166624934057</ele>
      </trkpt>
      <trkpt lat="1.407117867852463" lon="103.90220016763531">
        <ele>11.156126369348913</ele>
      </trkpt>
      <trkpt lat="1.4071660210167836" lon="103.90212415516059">
        <ele>11.090023078853383</ele>
      </trkpt>
      <trkpt lat="1.407220227574489" lon="103.90205223530708">
        <ele>11.031555612076176</ele>
      </trkpt>
      <trkpt lat="1.4072740886863024" lon="103.90198005993201">
        <ele>10.974725897583463</ele>
      </trkpt>
      <trkpt lat="1.4073259710904555" lon="103.90190646159684">
        <ele>10.917984476326142</ele>
      </trkpt>
      <trkpt lat="1.407380360660102" lon="103.9018346802279">
        <ele>10.862789705250629</ele>
      </trkpt>
      <trkpt lat="1.4074373864821577" lon="103.90176494997338">
        <ele>10.811450179669988</ele>
      </trkpt>
      <trkpt lat="1.4074970968917468" lon="103.90169747446276">
        <ele>10.764297371208428</ele>
      </trkpt>
      <trkpt lat="1.4075595855146499" lon="103.90163252841528">
        <ele>10.719987654571405</ele>
      </trkpt>
      <trkpt lat="1.4076219799437375" lon="103.90156750059526">
        <ele>10.676599273306858</ele>
      </trkpt>
      <trkpt lat="1.4076834131026446" lon="103.90150155682348">
        <ele>10.63262297901241</ele>
      </trkpt>
      <trkpt lat="1.4077448462598123" lon="103.90143561304824">
        <ele>10.589266724616685</ele>
      </trkpt>
      <trkpt lat="1.407808275420965" lon="103.9013716737422">
        <ele>10.548977443910887</ele>
      </trkpt>
      <trkpt lat="1.4078750071964101" lon="103.90131103076386">
        <ele>10.511102098516936</ele>
      </trkpt>
      <trkpt lat="1.407940661377069" lon="103.90124923567413">
        <ele>10.473831721231612</ele>
      </trkpt>
      <trkpt lat="1.4080052159086816" lon="103.90118630483086">
        <ele>10.434541342451437</ele>
      </trkpt>
      <trkpt lat="1.4080685269796245" lon="103.90112213857573">
        <ele>10.393341936539471</ele>
      </trkpt>
      <trkpt lat="1.4081308737769276" lon="103.90105704829895">
        <ele>10.3503730373402</ele>
      </trkpt>
      <trkpt lat="1.408192278510956" lon="103.90099110206845">
        <ele>10.304911480108869</ele>
      </trkpt>
      <trkpt lat="1.408250980988326" lon="103.90092276747504">
        <ele>10.255268786156568</ele>
      </trkpt>
      <trkpt lat="1.408305194656675" lon="103.90085087172866">
        <ele>10.200302640001357</ele>
      </trkpt>
      <trkpt lat="1.408355859804007" lon="103.9007764386585">
        <ele>10.140097263680273</ele>
      </trkpt>
      <trkpt lat="1.4084034158083205" lon="103.90070001845662">
        <ele>10.07616031703955</ele>
      </trkpt>
      <trkpt lat="1.4084492488360985" lon="103.90062256828412">
        <ele>10.009650101626503</ele>
      </trkpt>
      <trkpt lat="1.4084938878472424" lon="103.90054441918289">
        <ele>9.941458842289</ele>
      </trkpt>
      <trkpt lat="1.4085373726532215" lon="103.90046563364672">
        <ele>9.871615552788628</ele>
      </trkpt>
      <trkpt lat="1.4085790930174924" lon="103.90038591067727">
        <ele>9.79986940456271</ele>
      </trkpt>
      <trkpt lat="1.408618858052782" lon="103.9003052070563">
        <ele>9.725987849695558</ele>
      </trkpt>
      <trkpt lat="1.4086567414300908" lon="103.90022361581906">
        <ele>9.649988193805518</ele>
      </trkpt>
      <trkpt lat="1.408692738867855" lon="103.90014118713022">
        <ele>9.571943687467243</ele>
      </trkpt>
      <trkpt lat="1.4087268039572216" lon="103.9000579523286">
        <ele>9.491879858095063</ele>
      </trkpt>
      <trkpt lat="1.4087588836680802" lon="103.89997394244888">
        <ele>9.409468583251293</ele>
      </trkpt>
      <trkpt lat="1.4087878511610217" lon="103.89988883320183">
        <ele>9.32378781789571</ele>
      </trkpt>
      <trkpt lat="1.408811557481319" lon="103.89980212764506">
        <ele>9.23458950811449</ele>
      </trkpt>
      <trkpt lat="1.4088320209027283" lon="103.89971460196494">
        <ele>9.142608103637466</ele>
      </trkpt>
      <trkpt lat="1.4088514942058854" lon="103.8996268513966">
        <ele>9.049615011544551</ele>
      </trkpt>
      <trkpt lat="1.4088716102743606" lon="103.89953925001784">
        <ele>8.957277463861113</ele>
      </trkpt>
      <trkpt lat="1.4088943949249721" lon="103.89945230717244">
        <ele>8.833491869213182</ele>
      </trkpt>
      <trkpt lat="1.4089215633358911" lon="103.89936663241333">
        <ele>8.66998277125573</ele>
      </trkpt>
      <trkpt lat="1.4089538637607673" lon="103.8992827283338">
        <ele>8.465065466696268</ele>
      </trkpt>
      <trkpt lat="1.4089889651460312" lon="103.89919992880014">
        <ele>8.250067920267403</ele>
      </trkpt>
      <trkpt lat="1.4090277567628862" lon="103.89911888586282">
        <ele>8.03430078275039</ele>
      </trkpt>
      <trkpt lat="1.4090757071331772" lon="103.899042697973">
        <ele>7.900589247299943</ele>
      </trkpt>
      <trkpt lat="1.4091207827641878" lon="103.8989648093561">
        <ele>7.755137292484871</ele>
      </trkpt>
      <trkpt lat="1.4091634968873203" lon="103.89888562939238">
        <ele>7.597628544609738</ele>
      </trkpt>
      <trkpt lat="1.409203819845744" lon="103.89880521347958">
        <ele>7.34728676668421</ele>
      </trkpt>
      <trkpt lat="1.4092413566988335" lon="103.89872346093976">
        <ele>7.099037450152049</ele>
      </trkpt>
      <trkpt lat="1.4092789203635443" lon="103.89864186085673">
        <ele>6.861018326826386</ele>
      </trkpt>
      <trkpt lat="1.4092985389269714" lon="103.8985544078923">
        <ele>6.64285831283707</ele>
      </trkpt>
      <trkpt lat="1.409301137410035" lon="103.89846462217716">
        <ele>6.442027818036297</ele>
      </trkpt>
      <trkpt lat="1.4093072844306636" lon="103.898375017477">
        <ele>6.2444424908618315</ele>
      </trkpt>
      <trkpt lat="1.4093211695430476" lon="103.89828622591278">
        <ele>6.0389665814834395</ele>
      </trkpt>
      <trkpt lat="1.4093356936555015" lon="103.89819753644586">
        <ele>5.830436179282689</ele>
      </trkpt>
      <trkpt lat="1.40934641574343" lon="103.89810831175078">
        <ele>5.625913966275935</ele>
      </trkpt>
      <trkpt lat="1.4093540829594249" lon="103.8980187919318">
        <ele>5.427790006370902</ele>
      </trkpt>
      <trkpt lat="1.4093588102307741" lon="103.89792907786985">
        <ele>5.235341531465661</ele>
      </trkpt>
      <trkpt lat="1.4093611303754174" lon="103.89783925304428">
        <ele>5.047607818954248</ele>
      </trkpt>
      <trkpt lat="1.4093619707825444" lon="103.89774939845138">
        <ele>4.862592409534933</ele>
      </trkpt>
      <trkpt lat="1.4093628110387066" lon="103.89765954385689">
        <ele>4.678628191234712</ele>
      </trkpt>
      <trkpt lat="1.4093636509759302" lon="103.89756968925929">
        <ele>4.494664305098995</ele>
      </trkpt>
      <trkpt lat="1.4093644909096688" lon="103.89747983466144">
        <ele>4.310036769774116</ele>
      </trkpt>
      <trkpt lat="1.4093653308399223" lon="103.89738998006337">
        <ele>4.1239245142368235</ele>
      </trkpt>
      <trkpt lat="1.4093661707666902" lon="103.89730012546508">
        <ele>3.9363275384870207</ele>
      </trkpt>
      <trkpt lat="1.4093670106899732" lon="103.89721027086657">
        <ele>3.7479097180583345</ele>
      </trkpt>
      <trkpt lat="1.409367850609771" lon="103.89712041626784">
        <ele>3.559491897629649</ele>
      </trkpt>
      <trkpt lat="1.4093686905260836" lon="103.89703056166888">
        <ele>3.371074077201008</ele>
      </trkpt>
      <trkpt lat="1.4093695304389111" lon="103.8969407070697">
        <ele>3.1826562567724204</ele>
      </trkpt>
      <trkpt lat="1.4093703703482532" lon="103.89685085247031">
        <ele>2.994238436343734</ele>
      </trkpt>
      <trkpt lat="1.4093712102541098" lon="103.89676099787069">
        <ele>2.8113753626676488</ele>
      </trkpt>
      <trkpt lat="1.4093653944594964" lon="103.8966714699848">
        <ele>2.6719719121997674</ele>
      </trkpt>
      <trkpt lat="1.4093618995266461" lon="103.89663944561363">
        <ele>2.6050475603421495</ele>
      </trkpt>
      <trkpt lat="1.4093024680086417" lon="103.89660829924343">
        <ele>2.5652359570152616</ele>
      </trkpt>
      <trkpt lat="1.4093034063027199" lon="103.8965184456074">
        <ele>2.465504185644115</ele>
      </trkpt>
      <trkpt lat="1.4093043567202561" lon="103.8964285920967">
        <ele>2.2768327708267044</ele>
      </trkpt>
      <trkpt lat="1.4093053071343085" lon="103.89633873858577">
        <ele>2.088151733491608</ele>
      </trkpt>
      <trkpt lat="1.4093062575448756" lon="103.89624888507461">
        <ele>1.8994706961565113</ele>
      </trkpt>
      <trkpt lat="1.4093072079519589" lon="103.89615903156323">
        <ele>1.7109549123315235</ele>
      </trkpt>
      <trkpt lat="1.40930795029072" lon="103.89606917612562">
        <ele>1.514521696056262</ele>
      </trkpt>
      <trkpt lat="1.409319950115882" lon="103.89598066637126">
        <ele>1.29061439622395</ele>
      </trkpt>
      <trkpt lat="1.4093676801935247" lon="103.89590524498396">
        <ele>1.035726824024165</ele>
      </trkpt>
      <trkpt lat="1.4094434505882352" lon="103.89585745858314">
        <ele>0.7728596142880212</ele>
      </trkpt>
      <trkpt lat="1.4095324981507322" lon="103.89584661880369">
        <ele>0.5519869794272646</ele>
      </trkpt>
      <trkpt lat="1.4096172359772046" lon="103.89587477746797">
        <ele>0.41571058414320233</ele>
      </trkpt>
      <trkpt lat="1.409681891241318" lon="103.89593646058717">
        <ele>0.39003030022925245</ele>
      </trkpt>
      <trkpt lat="1.4097140510040571" lon="103.89601969224374">
        <ele>0.4799875340086949</ele>
      </trkpt>
      <trkpt lat="1.4097066616831293" lon="103.89610841109838">
        <ele>0.6615940427219663</ele>
      </trkpt>
      <trkpt lat="1.4096766588076606" lon="103.89619303320147">
        <ele>0.8825041782229252</ele>
      </trkpt>
      <trkpt lat="1.40966445056017" lon="103.89628173243257">
        <ele>1.0992703407604065</ele>
      </trkpt>
      <trkpt lat="1.4096632012707668" lon="103.8963715677135">
        <ele>1.2958612695939757</ele>
      </trkpt>
      <trkpt lat="1.409662919350953" lon="103.89646142576377">
        <ele>1.4841760598228475</ele>
      </trkpt>
      <trkpt lat="1.4096620453106872" lon="103.89655127975622">
        <ele>1.6717216161279893</ele>
      </trkpt>
      <trkpt lat="1.4096617584267195" lon="103.8966411169399">
        <ele>1.8333341355512307</ele>
      </trkpt>
      <trkpt lat="1.4096168395127175" lon="103.89664178881873">
        <ele>1.9138995315419045</ele>
      </trkpt>
      <trkpt lat="1.4096161875469804" lon="103.89673164496828">
        <ele>2.15651195822225</ele>
      </trkpt>
      <trkpt lat="1.4096155355777569" lon="103.89682150111764">
        <ele>2.344481565969143</ele>
      </trkpt>
      <trkpt lat="1.4096148836050464" lon="103.8969113572668">
        <ele>2.5324511737159905</ele>
      </trkpt>
      <trkpt lat="1.4096142316288498" lon="103.89700121341572">
        <ele>2.720420781462883</ele>
      </trkpt>
      <trkpt lat="1.4096135796491664" lon="103.89709106956447">
        <ele>2.9083903892097314</ele>
      </trkpt>
      <trkpt lat="1.409612927665996" lon="103.89718092571299">
        <ele>3.096359996956624</ele>
      </trkpt>
      <trkpt lat="1.4096122756793392" lon="103.89727078186131">
        <ele>3.2843296047034714</ele>
      </trkpt>
      <trkpt lat="1.4096116236891958" lon="103.89736063800942">
        <ele>3.4721688918244573</ele>
      </trkpt>
      <trkpt lat="1.4096111322884077" lon="103.89745049163625">
        <ele>3.656631898931696</ele>
      </trkpt>
      <trkpt lat="1.409614640848366" lon="103.89754028246983">
        <ele>3.83771862602528</ele>
      </trkpt>
      <trkpt lat="1.4096181494048279" lon="103.89763007330355">
        <ele>4.017380962249249</ele>
      </trkpt>
      <trkpt lat="1.4096194311904926" lon="103.8977199201402">
        <ele>4.200423942412116</ele>
      </trkpt>
      <trkpt lat="1.4096187695708695" lon="103.89780977146927">
        <ele>4.388649465324423</ele>
      </trkpt>
      <trkpt lat="1.4096158159933583" lon="103.89789957487828">
        <ele>4.582281012977007</ele>
      </trkpt>
      <trkpt lat="1.4096101980956057" lon="103.89798925086137">
        <ele>4.780047067732603</ele>
      </trkpt>
      <trkpt lat="1.4096042078740036" lon="103.89807891160491">
        <ele>4.980027398893999</ele>
      </trkpt>
      <trkpt lat="1.4095983746170266" lon="103.89816858296747">
        <ele>5.180176955952132</ele>
      </trkpt>
      <trkpt lat="1.4095925413565957" lon="103.89825825432942">
        <ele>5.38047096806815</ele>
      </trkpt>
      <trkpt lat="1.4095863561358142" lon="103.89834789820723">
        <ele>5.582633974427239</ele>
      </trkpt>
      <trkpt lat="1.4095780196793979" lon="103.89843737409927">
        <ele>5.786806268690288</ele>
      </trkpt>
      <trkpt lat="1.4095670042673867" lon="103.89852654597317">
        <ele>5.995309224865672</ele>
      </trkpt>
      <trkpt lat="1.4095510931193358" lon="103.89861498185078">
        <ele>6.209899101769994</ele>
      </trkpt>
      <trkpt lat="1.4095293839861747" lon="103.89870218359636">
        <ele>6.434224553140045</ele>
      </trkpt>
      <trkpt lat="1.4095004322845184" lon="103.8987872350249">
        <ele>6.669978215330659</ele>
      </trkpt>
      <trkpt lat="1.409462109283968" lon="103.89886857794981">
        <ele>6.915856126335123</ele>
      </trkpt>
      <trkpt lat="1.4094184031385488" lon="103.89894720125581">
        <ele>7.169183501842023</ele>
      </trkpt>
      <trkpt lat="1.4093714418056025" lon="103.89902398670087">
        <ele>7.425851818666561</ele>
      </trkpt>
      <trkpt lat="1.4093239601971665" lon="103.89910046389367">
        <ele>7.682979829466508</ele>
      </trkpt>
      <trkpt lat="1.4092789676791062" lon="103.89917838963608">
        <ele>7.937203053885047</ele>
      </trkpt>
      <trkpt lat="1.4092399566718574" lon="103.89925939205924">
        <ele>8.171029566412807</ele>
      </trkpt>
      <trkpt lat="1.4092109406142066" lon="103.89934448343936">
        <ele>8.347117916183583</ele>
      </trkpt>
      <trkpt lat="1.4092174706376732" lon="103.89943238114647">
        <ele>8.464280395181031</ele>
      </trkpt>
      <trkpt lat="1.4092194619625658" lon="103.8995217347521">
        <ele>8.552179983870603</ele>
      </trkpt>
      <trkpt lat="1.4091978832655736" lon="103.89960885536398">
        <ele>8.680759074306295</ele>
      </trkpt>
      <trkpt lat="1.4091724584249725" lon="103.89969508602157">
        <ele>8.852995859410328</ele>
      </trkpt>
      <trkpt lat="1.4091481817729428" lon="103.89978164637648">
        <ele>9.056551010103577</ele>
      </trkpt>
      <trkpt lat="1.4091239051177566" lon="103.89986820672948">
        <ele>9.260876414847816</ele>
      </trkpt>
      <trkpt lat="1.4090965034632228" lon="103.89995383518469">
        <ele>9.460453459104025</ele>
      </trkpt>
      <trkpt lat="1.4090656051421588" lon="103.9000382701154">
        <ele>9.618619722699414</ele>
      </trkpt>
      <trkpt lat="1.4090304017606405" lon="103.90012101770378">
        <ele>9.731992541588973</ele>
      </trkpt>
      <trkpt lat="1.4089893369714195" lon="103.90020103651914">
        <ele>9.803794915985842</ele>
      </trkpt>
      <trkpt lat="1.4089414966697191" lon="103.9002772256108">
        <ele>9.869856888830887</ele>
      </trkpt>
      <trkpt lat="1.4088917239936958" lon="103.90035220485075">
        <ele>9.936944108001144</ele>
      </trkpt>
      <trkpt lat="1.4088534579203011" lon="103.90043352009344">
        <ele>10.009414311300157</ele>
      </trkpt>
      <trkpt lat="1.4088196024797746" lon="103.90051684446762">
        <ele>10.087377265766678</ele>
      </trkpt>
      <trkpt lat="1.4087836850246123" lon="103.90059929647944">
        <ele>10.16415400827742</ele>
      </trkpt>
      <trkpt lat="1.408742166571915" lon="103.90067911832647">
        <ele>10.23794736288881</ele>
      </trkpt>
      <trkpt lat="1.4087001448633578" lon="103.90075868043233">
        <ele>10.308311523477707</ele>
      </trkpt>
      <trkpt lat="1.4086551859317467" lon="103.90083664827162">
        <ele>10.37731238291957</ele>
      </trkpt>
      <trkpt lat="1.4086102269976382" lon="103.90091461610784">
        <ele>10.44411077411955</ele>
      </trkpt>
      <trkpt lat="1.408562789603752" lon="103.90099111701375">
        <ele>10.508731572305747</ele>
      </trkpt>
      <trkpt lat="1.4085127186523176" lon="103.90106594598953">
        <ele>10.570126331095802</ele>
      </trkpt>
      <trkpt lat="1.408460336521942" lon="103.90113919422286">
        <ele>10.629288293964981</ele>
      </trkpt>
      <trkpt lat="1.4084078644327147" lon="103.90121238092574">
        <ele>10.687361002001575</ele>
      </trkpt>
      <trkpt lat="1.4083553923413108" lon="103.90128556762531">
        <ele>10.745460469151388</ele>
      </trkpt>
      <trkpt lat="1.4083030688590215" lon="103.90135885634727">
        <ele>10.804531826344979</ele>
      </trkpt>
      <trkpt lat="1.4082527343840923" lon="103.90143351057559">
        <ele>10.864641136401872</ele>
      </trkpt>
      <trkpt lat="1.4082025483287806" lon="103.9015082631101">
        <ele>10.92580764656356</ele>
      </trkpt>
      <trkpt lat="1.4081525573161073" lon="103.90158314483226">
        <ele>10.987127034349646</ele>
      </trkpt>
      <trkpt lat="1.4081025663011482" lon="103.90165802655117">
        <ele>11.049291345843892</ele>
      </trkpt>
      <trkpt lat="1.408054310312491" lon="103.9017340217055">
        <ele>11.11409879035633</ele>
      </trkpt>
      <trkpt lat="1.4080106014156555" lon="103.9018126775721">
        <ele>11.184229615739426</ele>
      </trkpt>
      <trkpt lat="1.4079739935000621" lon="103.90189482241784">
        <ele>11.260721164841556</ele>
      </trkpt>
      <trkpt lat="1.4079426177756205" lon="103.90197908445356">
        <ele>11.344199878690548</ele>
      </trkpt>
      <trkpt lat="1.4079194926514416" lon="103.90206587671024">
        <ele>11.435181267513357</ele>
      </trkpt>
      <trkpt lat="1.4079086914418466" lon="103.90215504378514">
        <ele>11.534152183932003</ele>
      </trkpt>
      <trkpt lat="1.407909003633766" lon="103.90224483677152">
        <ele>11.640316065479519</ele>
      </trkpt>
      <trkpt lat="1.4079202093178729" lon="103.9023339230832">
        <ele>11.75167891288176</ele>
      </trkpt>
      <trkpt lat="1.4079425055470791" lon="103.90242091431142">
        <ele>11.866557161367936</ele>
      </trkpt>
      <trkpt lat="1.4079752821990172" lon="103.90250456843428">
        <ele>11.983253043854356</ele>
      </trkpt>
      <trkpt lat="1.4080181395199616" lon="103.90258360020078">
        <ele>12.100000501968921</ele>
      </trkpt>
      <trkpt lat="1.4080704187662296" lon="103.90265684465592">
        <ele>12.21485463745418</ele>
      </trkpt>
      <trkpt lat="1.408132299118005" lon="103.90272224236118">
        <ele>12.326489835526374</ele>
      </trkpt>
      <trkpt lat="1.408200180042503" lon="103.90278155501764">
        <ele>12.43363760243912</ele>
      </trkpt>
      <trkpt lat="1.408273883325449" lon="103.90283353966383">
        <ele>12.53592904882064</ele>
      </trkpt>
      <trkpt lat="1.4083517104940866" lon="103.90287928006572">
        <ele>12.634042386974599</ele>
      </trkpt>
      <trkpt lat="1.408430810532257" lon="103.90292283805348">
        <ele>12.729112589689086</ele>
      </trkpt>
      <trkpt lat="1.4085111767372829" lon="103.90296404595635">
        <ele>12.822203352260471</ele>
      </trkpt>
      <trkpt lat="1.4085925772699242" lon="103.903003128546">
        <ele>12.913307482999878</ele>
      </trkpt>
      <trkpt lat="1.4086749900667976" lon="103.90304013115785">
        <ele>13.001884496962392</ele>
      </trkpt>
      <trkpt lat="1.4087590586312864" lon="103.90307323703944">
        <ele>13.087937546190204</ele>
      </trkpt>
      <trkpt lat="1.4088438677768254" lon="103.90310436153145">
        <ele>13.171303302360444</ele>
      </trkpt>
      <trkpt lat="1.4089295721336426" lon="103.90313304733368">
        <ele>13.252236211121827</ele>
      </trkpt>
      <trkpt lat="1.4090162016245726" lon="103.9031588177955">
        <ele>13.330384394483575</ele>
      </trkpt>
      <trkpt lat="1.4091036593810728" lon="103.90318167675005">
        <ele>13.40548765819817</ele>
      </trkpt>
      <trkpt lat="1.4091918603715587" lon="103.90320150959353">
        <ele>13.4773819416868</ele>
      </trkpt>
      <trkpt lat="1.409280722972032" lon="103.90321813432496">
        <ele>13.54607008182945</ele>
      </trkpt>
      <trkpt lat="1.4093700699206615" lon="103.90323201389643">
        <ele>13.611410775443249</ele>
      </trkpt>
      <trkpt lat="1.4094598712352084" lon="103.9032426438449">
        <ele>13.673764698330148</ele>
      </trkpt>
      <trkpt lat="1.4095498898505794" lon="103.9032511830962">
        <ele>13.733106440506042</ele>
      </trkpt>
      <trkpt lat="1.4096401277704025" lon="103.90325703562246">
        <ele>13.789697043415424</ele>
      </trkpt>
      <trkpt lat="1.409730493077181" lon="103.90326044976446">
        <ele>13.843453268902124</ele>
      </trkpt>
      <trkpt lat="1.409820915938653" lon="103.90326163672161">
        <ele>13.894505227832695</ele>
      </trkpt>
      <trkpt lat="1.4099113383049267" lon="103.90326056759889">
        <ele>13.943415667650854</ele>
      </trkpt>
      <trkpt lat="1.4100017485458185" lon="103.90325854726623">
        <ele>13.935880999422352</ele>
      </trkpt>
      <trkpt lat="1.4100919735409243" lon="103.90325240774598">
        <ele>13.872668972373846</ele>
      </trkpt>
      <trkpt lat="1.4101819034160519" lon="103.90324312197544">
        <ele>13.865579239034204</ele>
      </trkpt>
      <trkpt lat="1.4102714371399363" lon="103.90323059676695">
        <ele>13.832278784049032</ele>
      </trkpt>
      <trkpt lat="1.4103603985702093" lon="103.9032145696022">
        <ele>13.761132471693195</ele>
      </trkpt>
      <trkpt lat="1.4104484970265414" lon="103.90319439914347">
        <ele>13.538343081118867</ele>
      </trkpt>
      <trkpt lat="1.4105353002174" lon="103.90316932470881">
        <ele>13.292895168391885</ele>
      </trkpt>
      <trkpt lat="1.4106204648979912" lon="103.90313919968362">
        <ele>13.034237924251967</ele>
      </trkpt>
      <trkpt lat="1.4107040551926484" lon="103.90310496274813">
        <ele>12.763709650085842</ele>
      </trkpt>
      <trkpt lat="1.410786357359221" lon="103.90306773357078">
        <ele>12.618675811805103</ele>
      </trkpt>
      <trkpt lat="1.410867416470093" lon="103.90302788803716">
        <ele>12.620976774403013</ele>
      </trkpt>
      <trkpt lat="1.4109463635111554" lon="103.90298417427941">
        <ele>12.761937041005348</ele>
      </trkpt>
      <trkpt lat="1.4110194258644992" lon="103.9029312740739">
        <ele>12.90611698031699</ele>
      </trkpt>
      <trkpt lat="1.4110893103382618" lon="103.90287425345379">
        <ele>13.02682996010144</ele>
      </trkpt>
      <trkpt lat="1.411158371433103" lon="103.9028162373347">
        <ele>13.134935247423927</ele>
      </trkpt>
      <trkpt lat="1.4112282345742826" lon="103.90275920455116">
        <ele>13.242154773417305</ele>
      </trkpt>
      <trkpt lat="1.411301599310082" lon="103.90270673091352">
        <ele>13.363603373574682</ele>
      </trkpt>
      <trkpt lat="1.4113800039483366" lon="103.9026620867256">
        <ele>13.507430260746027</ele>
      </trkpt>
      <trkpt lat="1.4114635328935374" lon="103.9026280297836">
        <ele>13.67962875103835</ele>
      </trkpt>
      <trkpt lat="1.4115510520526098" lon="103.90260551830247">
        <ele>13.883260785887499</ele>
      </trkpt>
      <trkpt lat="1.4116404819377353" lon="103.90259437097546">
        <ele>14.119763271752356</ele>
      </trkpt>
      <trkpt lat="1.4117296054368145" lon="103.90260825954014">
        <ele>14.381458250295983</ele>
      </trkpt>
      <trkpt lat="1.4118128906467957" lon="103.90264240002722">
        <ele>14.655443330123076</ele>
      </trkpt>
      <trkpt lat="1.4118848866384788" lon="103.90269630801858">
        <ele>14.92494863620504</ele>
      </trkpt>
      <trkpt lat="1.4119438263121749" lon="103.90276430681412">
        <ele>15.176835418640067</ele>
      </trkpt>
      <trkpt lat="1.4119876493591768" lon="103.902842468217">
        <ele>15.399543253522914</ele>
      </trkpt>
      <trkpt lat="1.4120134670393807" lon="103.90292843657043">
        <ele>15.591448783205253</ele>
      </trkpt>
      <trkpt lat="1.4120300107238064" lon="103.90301675153115">
        <ele>15.760656869133571</ele>
      </trkpt>
      <trkpt lat="1.4120446905066653" lon="103.9031054164337">
        <ele>15.915565715639838</ele>
      </trkpt>
      <trkpt lat="1.412053655702094" lon="103.90319479093537">
        <ele>16.0577737134944</ele>
      </trkpt>
      <trkpt lat="1.412055951233145" lon="103.90328459663522">
        <ele>16.184475799495516</ele>
      </trkpt>
      <trkpt lat="1.4120535522913762" lon="103.90337440799655">
        <ele>16.29715781095579</ele>
      </trkpt>
      <trkpt lat="1.4120474341985632" lon="103.9034640547076">
        <ele>16.399341361299193</ele>
      </trkpt>
      <trkpt lat="1.4120387030747643" lon="103.9035534935143">
        <ele>16.495424809640625</ele>
      </trkpt>
      <trkpt lat="1.4120299719475353" lon="103.90364293232014">
        <ele>16.588899816395326</ele>
      </trkpt>
      <trkpt lat="1.4120211721585976" lon="103.9037323643632">
        <ele>16.682003640877863</ele>
      </trkpt>
      <trkpt lat="1.4120120625770938" lon="103.90382176589513">
        <ele>16.77303562922776</ele>
      </trkpt>
      <trkpt lat="1.4120012308072847" lon="103.90391097161645">
        <ele>16.860847525709175</ele>
      </trkpt>
      <trkpt lat="1.4119891750724607" lon="103.90400002241455">
        <ele>16.944056319696962</ele>
      </trkpt>
      <trkpt lat="1.4119754307599375" lon="103.9040888371712">
        <ele>17.022585298265273</ele>
      </trkpt>
      <trkpt lat="1.411959927312555" lon="103.90417736051789">
        <ele>17.096650300686765</ele>
      </trkpt>
      <trkpt lat="1.4119431707100691" lon="103.90426565484807">
        <ele>17.168659801619317</ele>
      </trkpt>
      <trkpt lat="1.4119245306540456" lon="103.90435358399189">
        <ele>17.23954291390708</ele>
      </trkpt>
      <trkpt lat="1.4119050169543392" lon="103.90444131469094">
        <ele>17.30821286822493</ele>
      </trkpt>
      <trkpt lat="1.4118833542800278" lon="103.9045285572597">
        <ele>17.373111373491735</ele>
      </trkpt>
      <trkpt lat="1.4118608443355014" lon="103.90461557678594">
        <ele>17.43297067916129</ele>
      </trkpt>
      <trkpt lat="1.4118361915803386" lon="103.90470203222195">
        <ele>17.489049394938434</ele>
      </trkpt>
      <trkpt lat="1.4118107144877612" lon="103.9047882403457">
        <ele>17.5400307541593</ele>
      </trkpt>
      <trkpt lat="1.4117830932733422" lon="103.90487380520567">
        <ele>17.587208890295003</ele>
      </trkpt>
      <trkpt lat="1.411754667457377" lon="103.90495909862253">
        <ele>17.629270682105844</ele>
      </trkpt>
      <trkpt lat="1.4117241455971494" lon="103.90504368491248">
        <ele>17.667672783315197</ele>
      </trkpt>
      <trkpt lat="1.411692953450579" lon="103.9051280186562">
        <ele>17.700736474524998</ele>
      </trkpt>
      <trkpt lat="1.4116593558083232" lon="103.90521144607553">
        <ele>17.72979267535947</ele>
      </trkpt>
      <trkpt lat="1.4116249925679065" lon="103.90529455393956">
        <ele>17.752780438976774</ele>
      </trkpt>
      <trkpt lat="1.411588031064722" lon="103.90537655905396">
        <ele>17.770210399486707</ele>
      </trkpt>
      <trkpt lat="1.4115492296369891" lon="103.90545772285459">
        <ele>17.77558637917163</ele>
      </trkpt>
      <trkpt lat="1.4115085929456097" lon="103.90553799893877">
        <ele>17.771666106904544</ele>
      </trkpt>
      <trkpt lat="1.4114679562515717" lon="103.90561827502005">
        <ele>17.760393395409945</ele>
      </trkpt>
      <trkpt lat="1.4114272806804928" lon="103.90569853130873">
        <ele>17.747698149852432</ele>
      </trkpt>
      <trkpt lat="1.411385445545055" lon="103.90577819729872">
        <ele>17.733580370232072</ele>
      </trkpt>
      <trkpt lat="1.4113436104070034" lon="103.90585786328572">
        <ele>17.716876829124047</ele>
      </trkpt>
      <trkpt lat="1.4113007646005093" lon="103.90593699271864">
        <ele>17.69830358366228</ele>
      </trkpt>
      <trkpt lat="1.4112573669538866" lon="103.90601582918417">
        <ele>17.70636126879515</ele>
      </trkpt>
      <trkpt lat="1.4112137472660922" lon="103.90609454240386">
        <ele>17.810641254702162</ele>
      </trkpt>
      <trkpt lat="1.411168939344841" lon="103.90617259609132">
        <ele>18.00764722866556</ele>
      </trkpt>
      <trkpt lat="1.411124131421093" lon="103.90625064977574">
        <ele>18.20205037214556</ele>
      </trkpt>
      <trkpt lat="1.4110786416780088" lon="103.90632830982759">
        <ele>18.287380650394592</ele>
      </trkpt>
      <trkpt lat="1.4110325841456441" lon="103.90640564207916">
        <ele>18.307026127948834</ele>
      </trkpt>
      <trkpt lat="1.4109865266108337" lon="103.90648297432762">
        <ele>18.339845268137378</ele>
      </trkpt>
      <trkpt lat="1.4109396627588222" lon="103.90655982513618">
        <ele>18.413608755705443</ele>
      </trkpt>
      <trkpt lat="1.4108925590970742" lon="103.90663653275674">
        <ele>18.489085172182588</ele>
      </trkpt>
      <trkpt lat="1.410845455432925" lon="103.9067132403741">
        <ele>18.55356635470412</ele>
      </trkpt>
      <trkpt lat="1.4107967701012987" lon="103.90678896637192">
        <ele>18.617358791392633</ele>
      </trkpt>
      <trkpt lat="1.410748059422021" lon="103.90686467663666">
        <ele>18.679897998397966</ele>
      </trkpt>
      <trkpt lat="1.4106980674389202" lon="103.90693955293274">
        <ele>18.74168469042966</ele>
      </trkpt>
      <trkpt lat="1.4106476733053626" lon="103.90701416747787">
        <ele>18.802260793481576</ele>
      </trkpt>
      <trkpt lat="1.4105962423725225" lon="103.90708807642919">
        <ele>18.862019477938052</ele>
      </trkpt>
      <trkpt lat="1.41054443267146" lon="103.90716172760857">
        <ele>18.920553034346874</ele>
      </trkpt>
      <trkpt lat="1.4104913624750168" lon="103.90723448363316">
        <ele>18.978197093337698</ele>
      </trkpt>
      <trkpt lat="1.4104380049832865" lon="103.9073070356304">
        <ele>19.034345309519978</ele>
      </trkpt>
      <trkpt lat="1.4103830181430788" lon="103.90737837584716">
        <ele>19.089558642990887</ele>
      </trkpt>
      <trkpt lat="1.410327981446567" lon="103.9074496786715">
        <ele>19.14394320515689</ele>
      </trkpt>
      <trkpt lat="1.410272888642026" lon="103.90752093871302">
        <ele>19.19827665487432</ele>
      </trkpt>
      <trkpt lat="1.4102177958354423" lon="103.90759219875113">
        <ele>19.25223839969762</ele>
      </trkpt>
      <trkpt lat="1.4101620058244955" lon="103.90766291056526">
        <ele>19.30518957300144</ele>
      </trkpt>
      <trkpt lat="1.4101048678704653" lon="103.90773256246972">
        <ele>19.355597911929554</ele>
      </trkpt>
      <trkpt lat="1.4100447866002335" lon="103.90779970313125">
        <ele>19.401876055047897</ele>
      </trkpt>
      <trkpt lat="1.4099812063006734" lon="103.90786357955663">
        <ele>19.442320292235838</ele>
      </trkpt>
      <trkpt lat="1.4099136679330262" lon="103.90792329721094">
        <ele>19.476543484844303</ele>
      </trkpt>
      <trkpt lat="1.4098431512265144" lon="103.90797954116161">
        <ele>19.50470968654204</ele>
      </trkpt>
      <trkpt lat="1.4097701049637452" lon="103.90803248689512">
        <ele>19.526488193239388</ele>
      </trkpt>
      <trkpt lat="1.4096935436786984" lon="103.9080802327965">
        <ele>19.54111019575572</ele>
      </trkpt>
      <trkpt lat="1.4096138393617275" lon="103.90812263770238">
        <ele>19.54779867628891</ele>
      </trkpt>
      <trkpt lat="1.4095315337540004" lon="103.90815981332436">
        <ele>19.546705356059338</ele>
      </trkpt>
      <trkpt lat="1.4094469650300951" lon="103.90819159323947">
        <ele>19.5380047457062</ele>
      </trkpt>
      <trkpt lat="1.4093605047586857" lon="103.90821789409034">
        <ele>19.52177009011007</ele>
      </trkpt>
      <trkpt lat="1.4092725229199643" lon="103.90823865108945">
        <ele>19.498078166127474</ele>
      </trkpt>
      <trkpt lat="1.409183366427568" lon="103.90825370269785">
        <ele>19.466532292775454</ele>
      </trkpt>
      <trkpt lat="1.4090932996981405" lon="103.90826181827006">
        <ele>19.427402963397384</ele>
      </trkpt>
      <trkpt lat="1.409002920780371" lon="103.90826451405019">
        <ele>19.38217103635228</ele>
      </trkpt>
      <trkpt lat="1.4089125027826728" lon="103.90826472241037">
        <ele>19.332064098822766</ele>
      </trkpt>
      <trkpt lat="1.4088221708450617" lon="103.90826063690761">
        <ele>19.277701777761504</ele>
      </trkpt>
      <trkpt lat="1.4087321161368933" lon="103.90825242520414">
        <ele>19.220011517713044</ele>
      </trkpt>
      <trkpt lat="1.4086420737858967" lon="103.90824404681561">
        <ele>19.15951184996202</ele>
      </trkpt>
      <trkpt lat="1.4085523957365496" lon="103.90823255661144">
        <ele>19.09588434703893</ele>
      </trkpt>
      <trkpt lat="1.408463558520535" lon="103.908215874383">
        <ele>19.02786355197578</ele>
      </trkpt>
      <trkpt lat="1.4083755009886592" lon="103.90819547130614">
        <ele>18.955842739146583</ele>
      </trkpt>
      <trkpt lat="1.4082879750103083" lon="103.90817287318616">
        <ele>18.881535043249517</ele>
      </trkpt>
      <trkpt lat="1.4082005871890289" lon="103.90814973899464">
        <ele>18.806510090445006</ele>
      </trkpt>
      <trkpt lat="1.4081130301039555" lon="103.90812729110553">
        <ele>18.73252556077616</ele>
      </trkpt>
      <trkpt lat="1.4080247785714304" lon="103.90810765894454">
        <ele>18.661756886615425</ele>
      </trkpt>
      <trkpt lat="1.407935502745503" lon="103.9080935281294">
        <ele>18.596807287599187</ele>
      </trkpt>
      <trkpt lat="1.4078453681561498" lon="103.9080869835648">
        <ele>18.53982174571294</ele>
      </trkpt>
      <trkpt lat="1.4077549611311333" lon="103.90808848182857">
        <ele>18.49073341834634</ele>
      </trkpt>
      <trkpt lat="1.4076648289737856" lon="103.9080947111689">
        <ele>18.453031411891388</ele>
      </trkpt>
      <trkpt lat="1.4075770513283785" lon="103.9081158598635">
        <ele>18.428547686371353</ele>
      </trkpt>
      <trkpt lat="1.4074926636884733" lon="103.90814798740752">
        <ele>18.424985963711094</ele>
      </trkpt>
      <trkpt lat="1.4074196563851764" lon="103.90819918074389">
        <ele>18.44526521383974</ele>
      </trkpt>
      <trkpt lat="1.4073609194598176" lon="103.90826715742766">
        <ele>18.486911919171078</ele>
      </trkpt>
      <trkpt lat="1.407306917906763" lon="103.9083392373358">
        <ele>18.54133080724434</ele>
      </trkpt>
      <trkpt lat="1.4072551402207119" lon="103.90841289245768">
        <ele>18.599644738573915</ele>
      </trkpt>
      <trkpt lat="1.4072041712237173" lon="103.9084871203907">
        <ele>18.660620330563855</ele>
      </trkpt>
      <trkpt lat="1.4071560613553515" lon="103.90856320199433">
        <ele>18.7236945027841</ele>
      </trkpt>
      <trkpt lat="1.407109096684605" lon="103.90863993461053">
        <ele>18.79166658962892</ele>
      </trkpt>
      <trkpt lat="1.4070700930203093" lon="103.90872100632029">
        <ele>18.86327985741704</ele>
      </trkpt>
      <trkpt lat="1.4070310893533118" lon="103.90880207802724">
        <ele>18.93927608237669</ele>
      </trkpt>
      <trkpt lat="1.4069956827893182" lon="103.90888454110785">
        <ele>19.01949854818064</ele>
      </trkpt>
      <trkpt lat="1.4069692536341378" lon="103.90897047668898">
        <ele>19.103947254828896</ele>
      </trkpt>
      <trkpt lat="1.406942824475871" lon="103.90905641226801">
        <ele>19.192137025328865</ele>
      </trkpt>
      <trkpt lat="1.4069190833235519" lon="103.90914293347345">
        <ele>19.28416255728446</ele>
      </trkpt>
      <trkpt lat="1.4069068993062666" lon="103.90923197259657">
        <ele>19.380023850695622</ele>
      </trkpt>
      <trkpt lat="1.4068947152856108" lon="103.90932101171859">
        <ele>19.4789971109108</ele>
      </trkpt>
      <trkpt lat="1.4068825312615858" lon="103.9094100508395">
        <ele>19.577970371125968</ele>
      </trkpt>
      <trkpt lat="1.4068703472341908" lon="103.9094990899593">
        <ele>19.676943631341146</ele>
      </trkpt>
      <trkpt lat="1.4068581632034256" lon="103.909588129078">
        <ele>19.775916891556324</ele>
      </trkpt>
      <trkpt lat="1.4068459791692915" lon="103.90967716819559">
        <ele>19.874890151771506</ele>
      </trkpt>
      <trkpt lat="1.406833795131787" lon="103.90976620731207">
        <ele>19.949584521252728</ele>
      </trkpt>
      <trkpt lat="1.4068216110909133" lon="103.90985524642747">
        <ele>19.991287803995565</ele>
      </trkpt>
      <trkpt lat="1.4068094270466707" lon="103.90994428554173">
        <ele>20.0</ele>
      </trkpt>
      <trkpt lat="1.4067972429990583" lon="103.9100333246549">
        <ele>20.0</ele>
      </trkpt>
      <trkpt lat="1.406785058948077" lon="103.91012236376697">
        <ele>19.950015450557213</ele>
      </trkpt>
      <trkpt lat="1.406766323737246" lon="103.910209701862">
        <ele>19.84483927553693</ele>
      </trkpt>
      <trkpt lat="1.4067331089996256" lon="103.9102932803287">
        <ele>19.684471474939144</ele>
      </trkpt>
      <trkpt lat="1.4066998942591133" lon="103.91037685879287">
        <ele>19.518896598206613</ele>
      </trkpt>
      <trkpt lat="1.406666679515711" lon="103.91046043725456">
        <ele>19.353321721474085</ele>
      </trkpt>
      <trkpt lat="1.4066334647694174" lon="103.91054401571374">
        <ele>19.188904896716664</ele>
      </trkpt>
      <trkpt lat="1.406598885076472" lon="103.91062694407069">
        <ele>19.0342929656322</ele>
      </trkpt>
      <trkpt lat="1.406554113737578" lon="103.91070501831673">
        <ele>18.88948592822066</ele>
      </trkpt>
      <trkpt lat="1.406509342396205" lon="103.9107830925597">
        <ele>18.753325732506894</ele>
      </trkpt>
      <trkpt lat="1.406464571052352" lon="103.91086116679958">
        <ele>18.617165536793124</ele>
      </trkpt>
      <trkpt lat="1.40641979970602" lon="103.9109392410364">
        <ele>18.482250768232756</ele>
      </trkpt>
      <trkpt lat="1.406373770585556" lon="103.91101650363758">
        <ele>18.35605501225051</ele>
      </trkpt>
      <trkpt lat="1.4063201938002707" lon="103.91108889577383">
        <ele>18.23857826884638</ele>
      </trkpt>
      <trkpt lat="1.4062666170128872" lon="103.91116128790671">
        <ele>18.128575110866908</ele>
      </trkpt>
      <trkpt lat="1.4062130402234045" lon="103.91123368003623">
        <ele>18.02595439927448</ele>
      </trkpt>
      <trkpt lat="1.406152986421149" lon="103.91130073731348">
        <ele>17.932547273283785</ele>
      </trkpt>
      <trkpt lat="1.4060913260618702" lon="103.91136647133335">
        <ele>17.84835373289481</ele>
      </trkpt>
      <trkpt lat="1.4060296657008902" lon="103.91143220534977">
        <ele>17.76599133172057</ele>
      </trkpt>
      <trkpt lat="1.405968005338209" lon="103.9114979393627">
        <ele>17.683628930546334</ele>
      </trkpt>
      <trkpt lat="1.4059063449738272" lon="103.9115636733722">
        <ele>17.609277749779917</ele>
      </trkpt>
      <trkpt lat="1.405838622141209" lon="103.91162310101272">
        <ele>17.544510228464244</ele>
      </trkpt>
      <trkpt lat="1.4057697093688153" lon="103.91168129083901">
        <ele>17.489326366599318</ele>
      </trkpt>
      <trkpt lat="1.405700796595114" lon="103.91173948066194">
        <ele>17.439024964146213</ele>
      </trkpt>
      <trkpt lat="1.4056296915252786" lon="103.91179489757364">
        <ele>17.395220591709034</ele>
      </trkpt>
      <trkpt lat="1.4055564756320362" lon="103.9118476446242">
        <ele>17.35791324928782</ele>
      </trkpt>
      <trkpt lat="1.405483259737735" lon="103.91190039167154">
        <ele>17.3237929165137</ele>
      </trkpt>
      <trkpt lat="1.4054100438423738" lon="103.91195313871565">
        <ele>17.289672583739584</ele>
      </trkpt>
      <trkpt lat="1.405336827945955" lon="103.91200588575653">
        <ele>17.255552250965437</ele>
      </trkpt>
      <trkpt lat="1.4052636120484776" lon="103.91205863279419">
        <ele>17.22143191819129</ele>
      </trkpt>
      <trkpt lat="1.4051903961499421" lon="103.91211137982862">
        <ele>17.187311585417138</ele>
      </trkpt>
      <trkpt lat="1.4051171802503484" lon="103.91216412685982">
        <ele>17.153191252642994</ele>
      </trkpt>
      <trkpt lat="1.4050439643496964" lon="103.91221687388781">
        <ele>17.119070919868875</ele>
      </trkpt>
      <trkpt lat="1.4049707484479876" lon="103.91226962091258">
        <ele>17.084950587094756</ele>
      </trkpt>
      <trkpt lat="1.4048975325452204" lon="103.91232236793412">
        <ele>17.04774854677849</ele>
      </trkpt>
      <trkpt lat="1.40482643561412" lon="103.9123776549034">
        <ele>16.999679309231414</ele>
      </trkpt>
      <trkpt lat="1.4047606919606968" lon="103.91243935868911">
        <ele>16.940742874453566</ele>
      </trkpt>
      <trkpt lat="1.4046949483057936" lon="103.91250106247139">
        <ele>16.8703542202117</ele>
      </trkpt>
      <trkpt lat="1.4046321392771957" lon="103.91256556711632">
        <ele>16.792047349091817</ele>
      </trkpt>
      <trkpt lat="1.4045727328789057" lon="103.91263331929623">
        <ele>16.70582226109401</ele>
      </trkpt>
      <trkpt lat="1.4045133264788041" lon="103.91270107147271">
        <ele>16.610382541188294</ele>
      </trkpt>
      <trkpt lat="1.4044584199382089" lon="103.91277233237051">
        <ele>16.506894571183224</ele>
      </trkpt>
      <trkpt lat="1.4044063105224467" lon="103.9128457742985">
        <ele>16.395358351078656</ele>
      </trkpt>
      <trkpt lat="1.4043542011045258" lon="103.91291921622319">
        <ele>16.280737025680025</ele>
      </trkpt>
      <trkpt lat="1.4043020916844464" lon="103.91299265814456">
        <ele>16.166115700281395</ele>
      </trkpt>
      <trkpt lat="1.4042499822622083" lon="103.91306610006261">
        <ele>16.051494374882765</ele>
      </trkpt>
      <trkpt lat="1.4041978728378124" lon="103.91313954197734">
        <ele>15.936873049484136</ele>
      </trkpt>
      <trkpt lat="1.4041457634112586" lon="103.91321298388874">
        <ele>15.822251724085453</ele>
      </trkpt>
      <trkpt lat="1.404093653982547" lon="103.91328642579684">
        <ele>15.707630398686822</ele>
      </trkpt>
      <trkpt lat="1.4040415445516783" lon="103.91335986770162">
        <ele>15.593009073288192</ele>
      </trkpt>
      <trkpt lat="1.4039894351186526" lon="103.91343330960306">
        <ele>15.479268638136638</ele>
      </trkpt>
      <trkpt lat="1.4039364911146557" lon="103.91350614796801">
        <ele>15.367856135564631</ele>
      </trkpt>
      <trkpt lat="1.4038821761586635" lon="103.91357799490298">
        <ele>15.25877156557212</ele>
      </trkpt>
      <trkpt lat="1.403827861200616" lon="103.91364984183457">
        <ele>15.173022830975016</ele>
      </trkpt>
      <trkpt lat="1.4038066821445947" lon="103.91367785713928">
        <ele>15.130148463676443</ele>
      </trkpt>
      <trkpt lat="1.4037586952314163" lon="103.91375402210683">
        <ele>14.989093810202368</ele>
      </trkpt>
      <trkpt lat="1.4037185923374178" lon="103.91381767353103">
        <ele>14.929059270583151</ele>
      </trkpt>
      <trkpt lat="1.403663102479641" lon="103.91388862855318">
        <ele>14.772170407524044</ele>
      </trkpt>
      <trkpt lat="1.403607612619865" lon="103.91395958357194">
        <ele>14.668359514666912</ele>
      </trkpt>
      <trkpt lat="1.4035521227580914" lon="103.91403053858731">
        <ele>14.564548621809728</ele>
      </trkpt>
      <trkpt lat="1.40349663289432" lon="103.91410149359928">
        <ele>14.4607377289526</ele>
      </trkpt>
      <trkpt lat="1.4034411430285507" lon="103.91417244860786">
        <ele>14.356926836095411</ele>
      </trkpt>
      <trkpt lat="1.4033856531607842" lon="103.91424340361303">
        <ele>14.253115943238283</ele>
      </trkpt>
      <trkpt lat="1.403330163291021" lon="103.91431435861483">
        <ele>14.149305050381097</ele>
      </trkpt>
      <trkpt lat="1.4032746734192605" lon="103.91438531361322">
        <ele>14.045494157523967</ele>
      </trkpt>
      <trkpt lat="1.4032191835455035" lon="103.91445626860822">
        <ele>13.941683264666809</ele>
      </trkpt>
      <trkpt lat="1.4031636936697502" lon="103.91452722359983">
        <ele>13.833689728288283</ele>
      </trkpt>
      <trkpt lat="1.4031121750063344" lon="103.91460103972746">
        <ele>13.72057547303862</ele>
      </trkpt>
      <trkpt lat="1.4030615469971326" lon="103.91467549754272">
        <ele>13.60234049891779</ele>
      </trkpt>
      <trkpt lat="1.403010918985713" lon="103.9147499553547">
        <ele>13.483167449447222</ele>
      </trkpt>
      <trkpt lat="1.4029602909720744" lon="103.91482441316339">
        <ele>13.363994399976654</ele>
      </trkpt>
      <trkpt lat="1.4029096629562183" lon="103.91489887096883">
        <ele>13.244821350506086</ele>
      </trkpt>
      <trkpt lat="1.4028590349381438" lon="103.91497332877098">
        <ele>13.1221096957132</ele>
      </trkpt>
      <trkpt lat="1.4028120696874982" lon="103.91505004496035">
        <ele>12.993641942572232</ele>
      </trkpt>
      <trkpt lat="1.4027673997359442" lon="103.91512817638362">
        <ele>12.859418091083318</ele>
      </trkpt>
      <trkpt lat="1.4027227297819231" lon="103.91520630780383">
        <ele>12.72297674656869</ele>
      </trkpt>
      <trkpt lat="1.402678059825435" lon="103.91528443922097">
        <ele>12.585574175303178</ele>
      </trkpt>
      <trkpt lat="1.4026344927271195" lon="103.91536312635007">
        <ele>12.441526533494136</ele>
      </trkpt>
      <trkpt lat="1.4025974469673588" lon="103.91544509948288">
        <ele>12.290833821141653</ele>
      </trkpt>
      <trkpt lat="1.4025604012048496" lon="103.91552707261299">
        <ele>12.133542813074726</ele>
      </trkpt>
      <trkpt lat="1.4025245185967476" lon="103.91560951341711">
        <ele>11.971305476913619</ele>
      </trkpt>
      <trkpt lat="1.4024937644190019" lon="103.91569401623491">
        <ele>11.804121812658302</ele>
      </trkpt>
      <trkpt lat="1.4024630102383089" lon="103.91577851905035">
        <ele>11.63186739885827</ele>
      </trkpt>
      <trkpt lat="1.4024336993370377" lon="103.91586348794765">
        <ele>11.455559519192898</ele>
      </trkpt>
      <trkpt lat="1.402408576535247" lon="103.9159498093214">
        <ele>11.275062971840347</ele>
      </trkpt>
      <trkpt lat="1.4023836562820509" lon="103.91603618347264">
        <ele>11.08862970009937</ele>
      </trkpt>
      <trkpt lat="1.4023629112461107" lon="103.91612364557145">
        <ele>10.899274296462925</ele>
      </trkpt>
      <trkpt lat="1.4023421662069706" lon="103.91621110766852">
        <ele>10.707131962752866</ele>
      </trkpt>
      <trkpt lat="1.4023214211646304" lon="103.91629856976388">
        <ele>10.514989629042839</ele>
      </trkpt>
      <trkpt lat="1.4023006761190906" lon="103.91638603185751">
        <ele>10.329061687725963</ele>
      </trkpt>
      <trkpt lat="1.4022710222702504" lon="103.9164708532415">
        <ele>10.150198703762264</ele>
      </trkpt>
      <trkpt lat="1.4022401490694443" lon="103.91655531318904">
        <ele>9.978400677151766</ele>
      </trkpt>
      <trkpt lat="1.402209275865697" lon="103.91663977313418">
        <ele>9.807453215501402</ele>
      </trkpt>
      <trkpt lat="1.402178402659008" lon="103.91672423307698">
        <ele>9.643184366702236</ele>
      </trkpt>
      <trkpt lat="1.4021393002077103" lon="103.91680513513705">
        <ele>9.487259727474694</ele>
      </trkpt>
      <trkpt lat="1.402098145441685" lon="103.9168851498852">
        <ele>9.340094520459663</ele>
      </trkpt>
      <trkpt lat="1.4020565483804086" lon="103.91696490631963">
        <ele>9.203217886533919</ele>
      </trkpt>
      <trkpt lat="1.4020062084669416" lon="103.91703955669178">
        <ele>9.074964228977068</ele>
      </trkpt>
      <trkpt lat="1.4019558685512508" lon="103.91711420706066">
        <ele>8.954918325148137</ele>
      </trkpt>
      <trkpt lat="1.4019055286333366" lon="103.91718885742627">
        <ele>8.837843107800003</ele>
      </trkpt>
      <trkpt lat="1.40185245632355" lon="103.91726142851837">
        <ele>8.730636034644892</ele>
      </trkpt>
      <trkpt lat="1.4017930398411442" lon="103.91732917187498">
        <ele>8.633297105682773</ele>
      </trkpt>
      <trkpt lat="1.4017336233569442" lon="103.91739691522814">
        <ele>8.54359014842366</ele>
      </trkpt>
      <trkpt lat="1.4016736217634096" lon="103.91746409603928">
        <ele>8.4623823825451</ele>
      </trkpt>
      <trkpt lat="1.4016074348929253" lon="103.917525330152">
        <ele>8.389673808047176</ele>
      </trkpt>
      <trkpt lat="1.4015412480210019" lon="103.91758656426133">
        <ele>8.328923534586234</ele>
      </trkpt>
      <trkpt lat="1.401472126714215" lon="103.91764436922426">
        <ele>8.275722117377937</ele>
      </trkpt>
      <trkpt lat="1.4014006576259868" lon="103.9176994305967">
        <ele>8.230069556422178</ele>
      </trkpt>
      <trkpt lat="1.4013291885366155" lon="103.91775449196584">
        <ele>8.209139018310331</ele>
      </trkpt>
      <trkpt lat="1.4012543496278422" lon="103.91780487377036">
        <ele>8.214856884365474</ele>
      </trkpt>
      <trkpt lat="1.4011788307940565" lon="103.91785431138246">
        <ele>8.247223154587656</ele>
      </trkpt>
      <trkpt lat="1.401103311959365" lon="103.91790374899146">
        <ele>8.284871038738402</ele>
      </trkpt>
      <trkpt lat="1.401027793123769" lon="103.91795318659739">
        <ele>8.322518922889147</ele>
      </trkpt>
      <trkpt lat="1.400952274287268" lon="103.91800262420023">
        <ele>8.359230545311469</ele>
      </trkpt>
      <trkpt lat="1.4008777606208611" lon="103.91805345498369">
        <ele>8.392076523499332</ele>
      </trkpt>
      <trkpt lat="1.4008063919397304" lon="103.91810864476724">
        <ele>8.421056857452761</ele>
      </trkpt>
      <trkpt lat="1.4007350232574531" lon="103.91816383454753">
        <ele>8.447236381579502</ele>
      </trkpt>
      <trkpt lat="1.4006636545740294" lon="103.9182190243245">
        <ele>8.47086740010018</ele>
      </trkpt>
      <trkpt lat="1.4005954308119644" lon="103.9182779663674">
        <ele>8.491367701205668</ele>
      </trkpt>
      <trkpt lat="1.400527887426896" lon="103.91833772017975">
        <ele>8.50643540385718</ele>
      </trkpt>
      <trkpt lat="1.400486779188428" lon="103.91837408752812">
        <ele>8.513678149278373</ele>
      </trkpt>
    </trkseg>
  </trk>
</gpx>