<?xml version="1.0" encoding="UTF-8"?>
<gpx xmlns="http://www.topografix.com/GPX/1/1" xmlns:xsi="http://www.w3.org/2001/XMLSchema-instance" xsi:schemaLocation="http://www.topografix.com/GPX/1/1 http://www.topografix.com/GPX/1/1/gpx.xsd" version="1.1" creator="gpx.py -- https://github.com/tkrajina/gpxpy">
  <trk>
    <name>point_to_point_05000m_021</name>
    <trkseg>
      <trkpt lat="1.42845815837673" lon="104.04235655690914">
        <ele>4.491253253860113</ele>
      </trkpt>
      <trkpt lat="1.4285062860641817" lon="104.04243263432782">
        <ele>4.5879173224740875</ele>
      </trkpt>
      <trkpt lat="1.4285544137486095" lon="104.04250871174943">
        <ele>4.781245459701938</ele>
      </trkpt>
      <trkpt lat="1.428602541430013" lon="104.042584789174">
        <ele>4.951436360004393</ele>
      </trkpt>
      <trkpt lat="1.4286607050738638" lon="104.04265256318794">
        <ele>5.079075505593762</ele>
      </trkpt>
      <trkpt lat="1.4287272899209869" lon="104.04271336978864">
        <ele>5.143900321390977</ele>
      </trkpt>
      <trkpt lat="1.4288006032292133" lon="104.04276547049213">
        <ele>5.160028204487678</ele>
      </trkpt>
      <trkpt lat="1.428876911696133" lon="104.04281369578683">
        <ele>5.1466010133914395</ele>
      </trkpt>
      <trkpt lat="1.4289532201615107" lon="104.04286192108493">
        <ele>5.059585095145443</ele>
      </trkpt>
      <trkpt lat="1.4290295286253463" lon="104.04291014638645">
        <ele>4.809118675066993</ele>
      </trkpt>
      <trkpt lat="1.429105837087639" lon="104.04295837169137">
        <ele>4.395474412436223</ele>
      </trkpt>
      <trkpt lat="1.4291821455483897" lon="104.0430065969997">
        <ele>3.882948535289117</ele>
      </trkpt>
      <trkpt lat="1.4292584540075977" lon="104.04305482231142">
        <ele>3.3704226581420293</ele>
      </trkpt>
      <trkpt lat="1.4293347624652621" lon="104.04310304762654">
        <ele>2.857896780995082</ele>
      </trkpt>
      <trkpt lat="1.4294110709213843" lon="104.04315127294508">
        <ele>2.345370903848135</ele>
      </trkpt>
      <trkpt lat="1.4294873793759626" lon="104.04319949826701">
        <ele>1.8328450267011884</ele>
      </trkpt>
      <trkpt lat="1.4295636878289977" lon="104.04324772359236">
        <ele>1.3203191495541005</ele>
      </trkpt>
      <trkpt lat="1.42963999628049" lon="104.0432959489211">
        <ele>0.8409780021178047</ele>
      </trkpt>
      <trkpt lat="1.429704299516486" lon="104.0433589995141">
        <ele>0.4085999526839035</ele>
      </trkpt>
      <trkpt lat="1.429763331036762" lon="104.04342573984259">
        <ele>0.13933552854823253</ele>
      </trkpt>
      <trkpt lat="1.4297914945410672" lon="104.04351064210668">
        <ele>0.007728333750799061</ele>
      </trkpt>
      <trkpt lat="1.4297961574593754" lon="104.04360038129329">
        <ele>0.07139226555420046</ele>
      </trkpt>
      <trkpt lat="1.4297672302795272" lon="104.04368545769557">
        <ele>0.3064321722382208</ele>
      </trkpt>
      <trkpt lat="1.4297073340684543" lon="104.04375261139637">
        <ele>0.7063955027744363</ele>
      </trkpt>
      <trkpt lat="1.4296468714884203" lon="104.04381943480662">
        <ele>1.1998899916088053</ele>
      </trkpt>
      <trkpt lat="1.4295864089069186" lon="104.04388625821333">
        <ele>1.6946602631657086</ele>
      </trkpt>
      <trkpt lat="1.4295259463239502" lon="104.04395308161648">
        <ele>2.1894305347226113</ele>
      </trkpt>
      <trkpt lat="1.4294654837395142" lon="104.04401990501609">
        <ele>2.684200806279515</ele>
      </trkpt>
      <trkpt lat="1.4294050211536111" lon="104.04408672841215">
        <ele>3.178971077836259</ele>
      </trkpt>
      <trkpt lat="1.4293445585662414" lon="104.04415355180465">
        <ele>3.7142113453959227</ele>
      </trkpt>
      <trkpt lat="1.4292637216270483" lon="104.0441892167317">
        <ele>4.302598096384107</ele>
      </trkpt>
      <trkpt lat="1.4291740316257986" lon="104.0441938999999">
        <ele>4.938513561594505</ele>
      </trkpt>
      <trkpt lat="1.4290848363114268" lon="104.0441828685463">
        <ele>5.57661958930493</ele>
      </trkpt>
      <trkpt lat="1.428996630604409" lon="104.0441630364236">
        <ele>6.204239692089466</ele>
      </trkpt>
      <trkpt lat="1.428908424896925" lon="104.04414320430288">
        <ele>6.826991639154735</ele>
      </trkpt>
      <trkpt lat="1.428820219188975" lon="104.04412337218413">
        <ele>7.449743586219845</ele>
      </trkpt>
      <trkpt lat="1.4287320134805586" lon="104.04410354006738">
        <ele>8.072495533285114</ele>
      </trkpt>
      <trkpt lat="1.4286438077716759" lon="104.0440837079526">
        <ele>8.697710417613926</ele>
      </trkpt>
      <trkpt lat="1.428555186908055" lon="104.04406906273599">
        <ele>9.335063299786448</ele>
      </trkpt>
      <trkpt lat="1.4284649352098686" lon="104.04407479300254">
        <ele>9.943825204076516</ele>
      </trkpt>
      <trkpt lat="1.4283971033498455" lon="104.04412832756046">
        <ele>10.442750662277213</ele>
      </trkpt>
      <trkpt lat="1.4283651218269107" lon="104.04420977960011">
        <ele>10.797172726203293</ele>
      </trkpt>
      <trkpt lat="1.4283441761076894" lon="104.04429719490462">
        <ele>11.047820371580583</ele>
      </trkpt>
      <trkpt lat="1.4283232303853564" lon="104.04438461020708">
        <ele>11.273476129352618</ele>
      </trkpt>
      <trkpt lat="1.4283022846599098" lon="104.04447202550746">
        <ele>11.499131887124497</ele>
      </trkpt>
      <trkpt lat="1.4282813389313511" lon="104.04455944080583">
        <ele>11.724787644896374</ele>
      </trkpt>
      <trkpt lat="1.4282603931996802" lon="104.04464685610212">
        <ele>11.926773849274305</ele>
      </trkpt>
      <trkpt lat="1.4282494368051566" lon="104.0447359468299">
        <ele>12.096701920495192</ele>
      </trkpt>
      <trkpt lat="1.4282419831276938" lon="104.04482530895326">
        <ele>12.183477972617096</ele>
      </trkpt>
      <trkpt lat="1.4282556099809782" lon="104.04491414164416">
        <ele>12.210771559033963</ele>
      </trkpt>
      <trkpt lat="1.4282692368306489" lon="104.0450029743356">
        <ele>12.181697388181759</ele>
      </trkpt>
      <trkpt lat="1.428282863676705" lon="104.04509180702757">
        <ele>12.092324330656524</ele>
      </trkpt>
      <trkpt lat="1.4282964905191482" lon="104.0451806397201">
        <ele>11.942652386458098</ele>
      </trkpt>
      <trkpt lat="1.4283101173579777" lon="104.0452694724132">
        <ele>11.737955426913757</ele>
      </trkpt>
      <trkpt lat="1.4283237441931926" lon="104.04535830510682">
        <ele>11.529789951456275</ele>
      </trkpt>
      <trkpt lat="1.4283373710247935" lon="104.04544713780098">
        <ele>11.282424345308419</ele>
      </trkpt>
      <trkpt lat="1.4283509978527804" lon="104.04553597049569">
        <ele>11.00404527803209</ele>
      </trkpt>
      <trkpt lat="1.428364624677153" lon="104.04562480319095">
        <ele>10.709416652549544</ele>
      </trkpt>
      <trkpt lat="1.4283782514979109" lon="104.04571363588676">
        <ele>10.434270083638014</ele>
      </trkpt>
      <trkpt lat="1.4283918783150547" lon="104.0458024685831">
        <ele>10.170418901735594</ele>
      </trkpt>
      <trkpt lat="1.4284055051285838" lon="104.04589130128">
        <ele>9.906567719833177</ele>
      </trkpt>
      <trkpt lat="1.4284191319384978" lon="104.04598013397742">
        <ele>9.628211354990981</ele>
      </trkpt>
      <trkpt lat="1.4284327587447974" lon="104.04606896667542">
        <ele>9.239395814538609</ele>
      </trkpt>
      <trkpt lat="1.4284463855474823" lon="104.04615779937394">
        <ele>8.740121098476193</ele>
      </trkpt>
      <trkpt lat="1.428460012346552" lon="104.04624663207301">
        <ele>8.266515232184956</ele>
      </trkpt>
      <trkpt lat="1.4284736391420065" lon="104.04633546477262">
        <ele>7.980797356221483</ele>
      </trkpt>
      <trkpt lat="1.4284872659338455" lon="104.04642429747278">
        <ele>7.882967470585643</ele>
      </trkpt>
      <trkpt lat="1.4285008927220697" lon="104.04651313017348">
        <ele>7.851402732835987</ele>
      </trkpt>
      <trkpt lat="1.4285145195066782" lon="104.04660196287472">
        <ele>7.819837995086332</ele>
      </trkpt>
      <trkpt lat="1.4285281462876713" lon="104.04669079557651">
        <ele>7.7882732573366615</ele>
      </trkpt>
      <trkpt lat="1.428541773065049" lon="104.04677962827884">
        <ele>7.75670851958699</ele>
      </trkpt>
      <trkpt lat="1.428555399838811" lon="104.04686846098171">
        <ele>7.760342549051569</ele>
      </trkpt>
      <trkpt lat="1.428554543842247" lon="104.04695811649366">
        <ele>7.805230696780202</ele>
      </trkpt>
      <trkpt lat="1.4285511963277473" lon="104.04704791355516">
        <ele>7.839527175591172</ele>
      </trkpt>
      <trkpt lat="1.428540863869426" lon="104.04713686616742">
        <ele>7.815875042404923</ele>
      </trkpt>
      <trkpt lat="1.4285224426200742" lon="104.04722484087937">
        <ele>7.728218946171523</ele>
      </trkpt>
      <trkpt lat="1.428504021367543" lon="104.04731281558944">
        <ele>7.656412725707845</ele>
      </trkpt>
      <trkpt lat="1.4285011072174998" lon="104.04732673274714">
        <ele>7.620509615475933</ele>
      </trkpt>
      <trkpt lat="1.4284549610329396" lon="104.0472494527634">
        <ele>7.987680945464124</ele>
      </trkpt>
      <trkpt lat="1.4284088148452785" lon="104.0471721727825">
        <ele>8.362747334049052</ele>
      </trkpt>
      <trkpt lat="1.4283626686545159" lon="104.04709489280442">
        <ele>8.737813722633982</ele>
      </trkpt>
      <trkpt lat="1.428316522460653" lon="104.0470176128292">
        <ele>9.112880111218912</ele>
      </trkpt>
      <trkpt lat="1.4282703762636895" lon="104.04694033285678">
        <ele>9.487946499803888</ele>
      </trkpt>
      <trkpt lat="1.4282242300636254" lon="104.04686305288719">
        <ele>9.863012888388962</ele>
      </trkpt>
      <trkpt lat="1.4281780838604612" lon="104.04678577292043">
        <ele>10.238079276973938</ele>
      </trkpt>
      <trkpt lat="1.4281319376541972" lon="104.04670849295653">
        <ele>10.600231074974099</ele>
      </trkpt>
      <trkpt lat="1.4280857914448337" lon="104.04663121299542">
        <ele>10.929364631575035</ele>
      </trkpt>
      <trkpt lat="1.428039645232371" lon="104.04655393303716">
        <ele>11.221333783125147</ele>
      </trkpt>
      <trkpt lat="1.4279951201304724" lon="104.04647574320083">
        <ele>11.484619852034669</ele>
      </trkpt>
      <trkpt lat="1.4279523283944147" lon="104.04639658048083">
        <ele>11.739326489118133</ele>
      </trkpt>
      <trkpt lat="1.427909536655155" lon="104.04631741776348">
        <ele>11.909093326673192</ele>
      </trkpt>
      <trkpt lat="1.4278990297972658" lon="104.04622832463451">
        <ele>11.99635489405504</ele>
      </trkpt>
      <trkpt lat="1.4278893244738722" lon="104.04613898496301">
        <ele>12.003803144798658</ele>
      </trkpt>
      <trkpt lat="1.42787852056191" lon="104.0460497948035">
        <ele>12.037263952902508</ele>
      </trkpt>
      <trkpt lat="1.4278636913099167" lon="104.04596115247199">
        <ele>12.269306512813614</ele>
      </trkpt>
      <trkpt lat="1.4278488620543115" lon="104.04587251014112">
        <ele>12.697238870996758</ele>
      </trkpt>
      <trkpt lat="1.4278340327950936" lon="104.04578386781091">
        <ele>13.295741684807572</ele>
      </trkpt>
      <trkpt lat="1.427819203532263" lon="104.04569522548132">
        <ele>13.865633725245976</ele>
      </trkpt>
      <trkpt lat="1.4278043742658204" lon="104.04560658315236">
        <ele>14.326478310797773</ele>
      </trkpt>
      <trkpt lat="1.4277895449957658" lon="104.04551794082406">
        <ele>14.6782754414631</ele>
      </trkpt>
      <trkpt lat="1.4277747157220995" lon="104.04542929849639">
        <ele>14.95759614042183</ele>
      </trkpt>
      <trkpt lat="1.4277598864448207" lon="104.04534065616934">
        <ele>15.256255815147883</ele>
      </trkpt>
      <trkpt lat="1.4277450571639307" lon="104.04525201384295">
        <ele>15.57196472805695</ele>
      </trkpt>
      <trkpt lat="1.4277302278794284" lon="104.0451633715172">
        <ele>15.86019728748263</ele>
      </trkpt>
      <trkpt lat="1.427715398591315" lon="104.0450747291921">
        <ele>16.100637897129328</ele>
      </trkpt>
      <trkpt lat="1.4277005692995908" lon="104.04498608686762">
        <ele>16.244468699901983</ele>
      </trkpt>
      <trkpt lat="1.4276857400042544" lon="104.04489744454379">
        <ele>16.330034735888642</ele>
      </trkpt>
      <trkpt lat="1.427670191189138" lon="104.04480894741184">
        <ele>16.38011607593381</ele>
      </trkpt>
      <trkpt lat="1.4276490456875541" lon="104.04472157963606">
        <ele>16.445820314716517</ele>
      </trkpt>
      <trkpt lat="1.4276279001823868" lon="104.0446342118614">
        <ele>16.525367754007664</ele>
      </trkpt>
      <trkpt lat="1.4276067546736353" lon="104.04454684408789">
        <ele>16.589104271509694</ele>
      </trkpt>
      <trkpt lat="1.4275856091613004" lon="104.04445947631551">
        <ele>16.525105863852698</ele>
      </trkpt>
      <trkpt lat="1.427564463645382" lon="104.04437210854424">
        <ele>16.333372531036684</ele>
      </trkpt>
      <trkpt lat="1.4275433181258808" lon="104.04428474077412">
        <ele>16.024320473112912</ele>
      </trkpt>
      <trkpt lat="1.427522172602796" lon="104.04419737300513">
        <ele>15.706537784668773</ele>
      </trkpt>
      <trkpt lat="1.4275010270761284" lon="104.04411000523726">
        <ele>15.380024465704183</ele>
      </trkpt>
      <trkpt lat="1.427479881545878" lon="104.04402263747052">
        <ele>15.050175237956745</ele>
      </trkpt>
      <trkpt lat="1.4274587360120452" lon="104.04393526970493">
        <ele>14.720326010209236</ele>
      </trkpt>
      <trkpt lat="1.4274375904746297" lon="104.04384790194047">
        <ele>14.380680861614344</ele>
      </trkpt>
      <trkpt lat="1.4274241961549967" lon="104.04375945609353">
        <ele>14.01912787572738</ele>
      </trkpt>
      <trkpt lat="1.4274203856317182" lon="104.04366967727776">
        <ele>13.635667052548316</ele>
      </trkpt>
      <trkpt lat="1.4274165751048695" lon="104.04357989846179">
        <ele>13.21533005538472</ele>
      </trkpt>
      <trkpt lat="1.4274333632671554" lon="104.0434929779488">
        <ele>12.767090377775931</ele>
      </trkpt>
      <trkpt lat="1.4274617819917437" lon="104.04340767130712">
        <ele>12.290948019721876</ele>
      </trkpt>
      <trkpt lat="1.427490200713453" lon="104.04332236466293">
        <ele>11.811667238762373</ele>
      </trkpt>
      <trkpt lat="1.4275186194322826" lon="104.04323705801623">
        <ele>11.340515168844327</ele>
      </trkpt>
      <trkpt lat="1.427572794213139" lon="104.04316824978366">
        <ele>10.866896002991169</ele>
      </trkpt>
      <trkpt lat="1.4276392599513061" lon="104.04310731469762">
        <ele>10.390809741202894</ele>
      </trkpt>
      <trkpt lat="1.4277057256883308" lon="104.04304637960811">
        <ele>9.904127672437946</ele>
      </trkpt>
      <trkpt lat="1.4277721914242123" lon="104.04298544451517">
        <ele>9.417445603673002</ele>
      </trkpt>
      <trkpt lat="1.4278386571589508" lon="104.04292450941874">
        <ele>8.930763534908058</ele>
      </trkpt>
      <trkpt lat="1.4279051228925457" lon="104.04286357431887">
        <ele>8.444081466143112</ele>
      </trkpt>
      <trkpt lat="1.427971588624997" lon="104.04280263921552">
        <ele>7.957399397378166</ele>
      </trkpt>
      <trkpt lat="1.4280380543563047" lon="104.04274170410875">
        <ele>7.47071732861322</ele>
      </trkpt>
      <trkpt lat="1.4281045200864677" lon="104.04268076899848">
        <ele>6.9840352598483735</ele>
      </trkpt>
      <trkpt lat="1.428170985815487" lon="104.04261983388477">
        <ele>6.497353191083428</ele>
      </trkpt>
      <trkpt lat="1.428237451543361" lon="104.0425588987676">
        <ele>6.010671122318482</ele>
      </trkpt>
      <trkpt lat="1.4283039172700904" lon="104.04249796364697">
        <ele>5.523989053553536</ele>
      </trkpt>
      <trkpt lat="1.4283703829956753" lon="104.04243702852288">
        <ele>5.03730698478859</ele>
      </trkpt>
      <trkpt lat="1.4284368487201142" lon="104.04237609339533">
        <ele>4.660840362019458</ele>
      </trkpt>
      <trkpt lat="1.42845815837673" lon="104.04235655690914">
        <ele>4.472607050634842</ele>
      </trkpt>
      <trkpt lat="1.4284021883304334" lon="104.04228597512866">
        <ele>4.250993319226994</ele>
      </trkpt>
      <trkpt lat="1.4283462182814222" lon="104.04221539335151">
        <ele>4.1073974532078505</ele>
      </trkpt>
      <trkpt lat="1.4282902482296962" lon="104.04214481157763">
        <ele>3.963801587188805</ele>
      </trkpt>
      <trkpt lat="1.4282342781752562" lon="104.04207422980706">
        <ele>3.820205721169661</ele>
      </trkpt>
      <trkpt lat="1.4281783081181023" lon="104.04200364803977">
        <ele>3.6766098551505166</ele>
      </trkpt>
      <trkpt lat="1.4281223380582344" lon="104.04193306627577">
        <ele>3.5330139891313728</ele>
      </trkpt>
      <trkpt lat="1.4280663679956536" lon="104.04186248451508">
        <ele>3.373368174613663</ele>
      </trkpt>
      <trkpt lat="1.4280103979303593" lon="104.04179190275768">
        <ele>3.1719280943415775</ele>
      </trkpt>
      <trkpt lat="1.4279544278623517" lon="104.04172132100356">
        <ele>2.9393722274802307</ele>
      </trkpt>
      <trkpt lat="1.427898457791632" lon="104.04165073925274">
        <ele>2.7008921833624355</ele>
      </trkpt>
      <trkpt lat="1.4278379595602009" lon="104.04158397941275">
        <ele>2.4833417912888325</ele>
      </trkpt>
      <trkpt lat="1.42777691174936" lon="104.04151768343637">
        <ele>2.276042572094315</ele>
      </trkpt>
      <trkpt lat="1.427715863936046" lon="104.04145138746343">
        <ele>2.0698528649446577</ele>
      </trkpt>
      <trkpt lat="1.4276548161202602" lon="104.04138509149395">
        <ele>1.8655851655578257</ele>
      </trkpt>
      <trkpt lat="1.4275928936885933" lon="104.0413196296536">
        <ele>1.668166430139424</ele>
      </trkpt>
      <trkpt lat="1.427528729233459" lon="104.04125630604992">
        <ele>1.4775966586894527</ele>
      </trkpt>
      <trkpt lat="1.4274645647760162" lon="104.04119298244976">
        <ele>1.2919538434450861</ele>
      </trkpt>
      <trkpt lat="1.4274004003162648" lon="104.0411296588531">
        <ele>1.1028316740270638</ele>
      </trkpt>
      <trkpt lat="1.4273362358542059" lon="104.04106633525996">
        <ele>1.038619341465268</ele>
      </trkpt>
      <trkpt lat="1.4272720713898386" lon="104.04100301167033">
        <ele>1.153349404129877</ele>
      </trkpt>
      <trkpt lat="1.427207573863763" lon="104.04094004038541">
        <ele>1.4236152178816248</ele>
      </trkpt>
      <trkpt lat="1.4271399586740725" lon="104.04088036688171">
        <ele>1.655809088843874</ele>
      </trkpt>
      <trkpt lat="1.427072343482271" lon="104.04082069338156">
        <ele>1.7958984586465652</ele>
      </trkpt>
      <trkpt lat="1.4270047282883587" lon="104.04076101988495">
        <ele>1.8707693256025069</ele>
      </trkpt>
      <trkpt lat="1.4269371130923356" lon="104.0407013463919">
        <ele>1.94564019255861</ele>
      </trkpt>
      <trkpt lat="1.4268694978942023" lon="104.0406416729024">
        <ele>2.020511059514552</ele>
      </trkpt>
      <trkpt lat="1.4268018826939592" lon="104.04058199941642">
        <ele>2.0541127404005146</ele>
      </trkpt>
      <trkpt lat="1.426743110006389" lon="104.0405140145975">
        <ele>2.0344950643969058</ele>
      </trkpt>
      <trkpt lat="1.4266868978116134" lon="104.0404436230979">
        <ele>1.96165803150404</ele>
      </trkpt>
      <trkpt lat="1.426630685614141" lon="104.04037323160158">
        <ele>1.8917836680230298</ele>
      </trkpt>
      <trkpt lat="1.4265744734139718" lon="104.04030284010858">
        <ele>1.8609175446581165</ele>
      </trkpt>
      <trkpt lat="1.4265182612111063" lon="104.04023244861887">
        <ele>1.8690596614092712</ele>
      </trkpt>
      <trkpt lat="1.4264620490055449" lon="104.04016205713245">
        <ele>1.9012971780450816</ele>
      </trkpt>
      <trkpt lat="1.4264058367972874" lon="104.04009166564934">
        <ele>1.9335346946811889</ele>
      </trkpt>
      <trkpt lat="1.4263496245863339" lon="104.04002127416953">
        <ele>1.9657722113171694</ele>
      </trkpt>
      <trkpt lat="1.4262934123726856" lon="104.03995088269302">
        <ele>1.998009727953276</ele>
      </trkpt>
      <trkpt lat="1.4262372001563421" lon="104.03988049121982">
        <ele>2.0302472445890865</ele>
      </trkpt>
      <trkpt lat="1.4261809879373033" lon="104.0398100997499">
        <ele>2.062484761225067</ele>
      </trkpt>
      <trkpt lat="1.4261247757155704" lon="104.03973970828328">
        <ele>2.130007186307042</ele>
      </trkpt>
      <trkpt lat="1.4260608700636865" lon="104.03967622813907">
        <ele>2.241407373049461</ele>
      </trkpt>
      <trkpt lat="1.4259960320933394" lon="104.03961358553593">
        <ele>2.3966853214522774</ele>
      </trkpt>
      <trkpt lat="1.4259311941207269" lon="104.03955094293632">
        <ele>2.560556123069416</ele>
      </trkpt>
      <trkpt lat="1.425866356145849" lon="104.03948830034022">
        <ele>2.724426924686678</ele>
      </trkpt>
      <trkpt lat="1.425801518168706" lon="104.03942565774764">
        <ele>2.8643215644433933</ele>
      </trkpt>
      <trkpt lat="1.4257423193917325" lon="104.03935810896247">
        <ele>2.9578386779093258</ele>
      </trkpt>
      <trkpt lat="1.4256883894215724" lon="104.03928597623224">
        <ele>3.004978265084178</ele>
      </trkpt>
      <trkpt lat="1.4256344594486214" lon="104.03921384350524">
        <ele>3.004048966006788</ele>
      </trkpt>
      <trkpt lat="1.4255805294728807" lon="104.03914171078142">
        <ele>2.8790342737926937</ele>
      </trkpt>
      <trkpt lat="1.4255265994943505" lon="104.03906957806083">
        <ele>2.6299341884419847</ele>
      </trkpt>
      <trkpt lat="1.4254726695130298" lon="104.03899744534345">
        <ele>2.3159393172099736</ele>
      </trkpt>
      <trkpt lat="1.4254178451113162" lon="104.03892602347064">
        <ele>2.202105406377718</ele>
      </trkpt>
      <trkpt lat="1.4253588697739819" lon="104.03885790056898">
        <ele>2.288432455945428</ele>
      </trkpt>
      <trkpt lat="1.4252998944340836" lon="104.0387897776707">
        <ele>2.541397380479374</ele>
      </trkpt>
      <trkpt lat="1.4252409190916207" lon="104.03872165477583">
        <ele>2.794362305013321</ele>
      </trkpt>
      <trkpt lat="1.425181943746595" lon="104.03865353188434">
        <ele>3.0735438702352162</ele>
      </trkpt>
      <trkpt lat="1.4251119900242557" lon="104.03859803892703">
        <ele>3.4035536637828483</ele>
      </trkpt>
      <trkpt lat="1.4250322272651454" lon="104.03855668744043">
        <ele>3.808949099875575</ele>
      </trkpt>
      <trkpt lat="1.4249445622790315" lon="104.03853810916071">
        <ele>4.272506626003046</ele>
      </trkpt>
      <trkpt lat="1.4248544870598199" lon="104.03853009286482">
        <ele>4.769614654527446</ele>
      </trkpt>
      <trkpt lat="1.4247644118404184" lon="104.03852207657008">
        <ele>5.263376728680008</ele>
      </trkpt>
      <trkpt lat="1.424677751766512" lon="104.03850006565948">
        <ele>5.697177304441687</ele>
      </trkpt>
      <trkpt lat="1.4245939849686544" lon="104.03846619865368">
        <ele>6.007537468898761</ele>
      </trkpt>
      <trkpt lat="1.4245317475724821" lon="104.03840248429839">
        <ele>6.169072271138465</ele>
      </trkpt>
      <trkpt lat="1.4244857252727852" lon="104.0383259768904">
        <ele>6.21396821607392</ele>
      </trkpt>
      <trkpt lat="1.424446704909591" lon="104.03824491306798">
        <ele>6.171812815899535</ele>
      </trkpt>
      <trkpt lat="1.4244252617681534" lon="104.03815791747564">
        <ele>6.075113464914626</ele>
      </trkpt>
      <trkpt lat="1.4244065241276596" lon="104.03807000885989">
        <ele>5.935555967002226</ele>
      </trkpt>
      <trkpt lat="1.4243899368873922" lon="104.03798182355585">
        <ele>5.75933770520955</ele>
      </trkpt>
      <trkpt lat="1.4243855206434595" lon="104.03789207222786">
        <ele>5.54021408933463</ele>
      </trkpt>
      <trkpt lat="1.4243811043959598" lon="104.03780232089974">
        <ele>5.28193526642273</ele>
      </trkpt>
      <trkpt lat="1.4243766881448927" lon="104.03771256957143">
        <ele>5.028319337535634</ele>
      </trkpt>
      <trkpt lat="1.4243625059598817" lon="104.03762435857229">
        <ele>4.80649653593606</ele>
      </trkpt>
      <trkpt lat="1.4243387330052515" lon="104.03753766027569">
        <ele>4.640987680656697</ele>
      </trkpt>
      <trkpt lat="1.4243020050575967" lon="104.03745638831946">
        <ele>4.5329652575037285</ele>
      </trkpt>
      <trkpt lat="1.42425613887726" lon="104.03737894401313">
        <ele>4.466760222579352</ele>
      </trkpt>
      <trkpt lat="1.4242102726938417" lon="104.0373014997096">
        <ele>4.452365500374898</ele>
      </trkpt>
      <trkpt lat="1.4241490062176567" lon="104.03723553439038">
        <ele>4.474118016118541</ele>
      </trkpt>
      <trkpt lat="1.424087010861657" lon="104.03717011236112">
        <ele>4.532017769810188</ele>
      </trkpt>
      <trkpt lat="1.4240250155032483" lon="104.03710469033535">
        <ele>4.561944017768411</ele>
      </trkpt>
      <trkpt lat="1.4239630201424311" lon="104.03703926831304">
        <ele>4.55498508326511</ele>
      </trkpt>
      <trkpt lat="1.4239029262361704" lon="104.03697229770712">
        <ele>4.493794976391928</ele>
      </trkpt>
      <trkpt lat="1.423850534079781" lon="104.03689905463317">
        <ele>4.407980697306264</ele>
      </trkpt>
      <trkpt lat="1.423798141920547" lon="104.03682581156235">
        <ele>4.304820428312241</ele>
      </trkpt>
      <trkpt lat="1.423745749758469" lon="104.03675256849468">
        <ele>4.2320534510358865</ele>
      </trkpt>
      <trkpt lat="1.423693357593548" lon="104.03667932543013">
        <ele>4.219212587629161</ele>
      </trkpt>
      <trkpt lat="1.42365047541828" lon="104.03661937712188">
        <ele>4.227988801784631</ele>
      </trkpt>
      <trkpt lat="1.4235608790749619" lon="104.03663159221222">
        <ele>4.660192070970414</ele>
      </trkpt>
      <trkpt lat="1.4234712827316454" lon="104.03664380730208">
        <ele>5.056802021526997</ele>
      </trkpt>
      <trkpt lat="1.4233836607145458" lon="104.03666564656159">
        <ele>5.456625639587741</ele>
      </trkpt>
      <trkpt lat="1.423296400706823" lon="104.03668925049287">
        <ele>5.859662925152861</ele>
      </trkpt>
      <trkpt lat="1.4232091406990472" lon="104.0367128544228">
        <ele>6.263198160543822</ele>
      </trkpt>
      <trkpt lat="1.4231218806912191" lon="104.0367364583514">
        <ele>6.666733395934782</ele>
      </trkpt>
      <trkpt lat="1.4230346206833389" lon="104.03676006227866">
        <ele>7.0702686313257415</ele>
      </trkpt>
      <trkpt lat="1.4229473606754057" lon="104.03678366620458">
        <ele>7.4738038667167</ele>
      </trkpt>
      <trkpt lat="1.4228601006674204" lon="104.03680727012916">
        <ele>7.877339102107752</ele>
      </trkpt>
      <trkpt lat="1.422772840659383" lon="104.0368308740524">
        <ele>8.280874337498675</ele>
      </trkpt>
      <trkpt lat="1.4226855806512932" lon="104.0368544779743">
        <ele>8.684409572889633</ele>
      </trkpt>
      <trkpt lat="1.422598320643151" lon="104.03687808189486">
        <ele>9.087944808280595</ele>
      </trkpt>
      <trkpt lat="1.4225110606349562" lon="104.03690168581407">
        <ele>9.491480043671553</ele>
      </trkpt>
      <trkpt lat="1.4224238006267098" lon="104.03692528973197">
        <ele>9.895015279062513</ele>
      </trkpt>
      <trkpt lat="1.4223365406184112" lon="104.0369488936485">
        <ele>10.298550514453472</ele>
      </trkpt>
      <trkpt lat="1.4222492806100604" lon="104.0369724975637">
        <ele>10.698658034864172</ele>
      </trkpt>
      <trkpt lat="1.4221602101061928" lon="104.03698562259576">
        <ele>11.092919505393363</ele>
      </trkpt>
      <trkpt lat="1.4220700699122364" lon="104.03699186296922">
        <ele>11.458262348288875</ele>
      </trkpt>
      <trkpt lat="1.4219834516989358" lon="104.03696603045992">
        <ele>11.79272654330775</ele>
      </trkpt>
      <trkpt lat="1.4218988266717685" lon="104.03693557510297">
        <ele>12.247332995670765</ele>
      </trkpt>
      <trkpt lat="1.4218202510420686" lon="104.03689108922123">
        <ele>12.851005735629434</ele>
      </trkpt>
      <trkpt lat="1.421741675411017" lon="104.03684660334275">
        <ele>13.609132498407208</ele>
      </trkpt>
      <trkpt lat="1.4216630997786126" lon="104.03680211746754">
        <ele>14.373110713684527</ele>
      </trkpt>
      <trkpt lat="1.4215845241448561" lon="104.03675763159559">
        <ele>15.11682050029735</ele>
      </trkpt>
      <trkpt lat="1.4215122023713207" lon="104.03671668637222">
        <ele>15.488675393603762</ele>
      </trkpt>
      <trkpt lat="1.4215490587075998" lon="104.03679874389817">
        <ele>15.197599051359795</ele>
      </trkpt>
      <trkpt lat="1.4215840647516498" lon="104.03688156698061">
        <ele>14.5823767838188</ele>
      </trkpt>
      <trkpt lat="1.4216069475753177" lon="104.03696710997657">
        <ele>14.044601838528743</ele>
      </trkpt>
      <trkpt lat="1.4216057254400742" lon="104.03705696020126">
        <ele>13.753136678760086</ele>
      </trkpt>
      <trkpt lat="1.4216045033013267" lon="104.03714681042536">
        <ele>13.702141015816741</ele>
      </trkpt>
      <trkpt lat="1.4216032811590744" lon="104.03723666064886">
        <ele>13.863024536362952</ele>
      </trkpt>
      <trkpt lat="1.421602059013318" lon="104.03732651087175">
        <ele>14.109280664087612</ele>
      </trkpt>
      <trkpt lat="1.4216008368640567" lon="104.03741636109406">
        <ele>14.422466558863533</ele>
      </trkpt>
      <trkpt lat="1.4215996147112915" lon="104.03750621131576">
        <ele>14.807320969277638</ele>
      </trkpt>
      <trkpt lat="1.4215573397969101" lon="104.03757906109483">
        <ele>15.231859034323586</ele>
      </trkpt>
      <trkpt lat="1.4214963557691163" lon="104.03764538681305">
        <ele>15.694226241680136</ele>
      </trkpt>
      <trkpt lat="1.4214269138751352" lon="104.03770270051669">
        <ele>16.167966896762294</ele>
      </trkpt>
      <trkpt lat="1.4213559914584324" lon="104.03775845506345">
        <ele>16.639552563095595</ele>
      </trkpt>
      <trkpt lat="1.4212850690408267" lon="104.03781420960694">
        <ele>17.11083775300128</ele>
      </trkpt>
      <trkpt lat="1.4212141466223187" lon="104.03786996414713">
        <ele>17.58212294290704</ele>
      </trkpt>
      <trkpt lat="1.4211432242029083" lon="104.03792571868405">
        <ele>18.053642784803245</ele>
      </trkpt>
      <trkpt lat="1.4210733538643514" lon="104.0379825972481">
        <ele>18.527352888745014</ele>
      </trkpt>
      <trkpt lat="1.4210122516652592" lon="104.0380488435758">
        <ele>18.99631981446376</ele>
      </trkpt>
      <trkpt lat="1.4209678875401204" lon="104.03812485903092">
        <ele>19.446199091189715</ele>
      </trkpt>
      <trkpt lat="1.4209467438033545" lon="104.03821101075398">
        <ele>19.77844800627896</ele>
      </trkpt>
      <trkpt lat="1.42095433459968" lon="104.0383005520568">
        <ele>19.958345036289277</ele>
      </trkpt>
      <trkpt lat="1.4209607580067658" lon="104.03837632282776">
        <ele>20.0</ele>
      </trkpt>
    </trkseg>
  </trk>
</gpx>