{
"type": "FeatureCollection",
"name": "point_to_point_05000m_030",
"crs": { "type": "name", "properties": { "name": "urn:ogc:def:crs:OGC:1.3:CRS84" } },
"features": [
{ "type": "Feature", "properties": { "route_id": "point_to_point_05000m_030", "budget_km": 5.0, "mode": "point_to_point", "rank": 30, "distance_m": 2559.3643082023136, "ascent_m": 35.227018122269115, "descent_m": 21.250069321305194, "gain_density_m_per_km": 13.763971783685779, "source_confidence": 0.85 }, "geometry": { "type": "LineString", "coordinates": [ [ 103.778888837971735, 1.451760309258975 ], [ 103.779013702387203, 1.451791351836994 ], [ 103.779096891983357, 1.451800832477572 ], [ 103.779184500667199, 1.451857953268447 ], [ 103.779286714046393, 1.451964640747941 ], [ 103.779432376505923, 1.452151836586145 ], [ 103.779538691955949, 1.452299497234365 ], [ 103.779638224749121, 1.452448221246907 ], [ 103.779734472108018, 1.452565562868 ], [ 103.779809262214201, 1.452625635171474 ], [ 103.779891031052017, 1.452677778181723 ], [ 103.780050800437067, 1.452763540031843 ], [ 103.780167275112561, 1.452852953569429 ], [ 103.780237918866646, 1.45292263100313 ], [ 103.780331628276485, 1.453054916238328 ], [ 103.780410379916518, 1.453210861972955 ], [ 103.780449742142139, 1.453332596524378 ], [ 103.780483968497492, 1.453431308579025 ], [ 103.780581246103608, 1.453532944113679 ], [ 103.780671990328671, 1.453580834991874 ], [ 103.78077653221473, 1.453606251858555 ], [ 103.780884141326979, 1.453657850108272 ], [ 103.781044875776175, 1.453710729265466 ], [ 103.78116600523478, 1.453763805546582 ], [ 103.781290877722626, 1.453841055537998 ], [ 103.781390742075061, 1.453920170645322 ], [ 103.781492486973292, 1.454009625376981 ], [ 103.781520219029105, 1.454036328247144 ], [ 103.781674603551508, 1.454069276856377 ], [ 103.781849777014727, 1.454112356609568 ], [ 103.781975740515762, 1.454146903460267 ], [ 103.782074409045265, 1.454178257278175 ], [ 103.782234266039168, 1.454252768701536 ], [ 103.78235854648797, 1.454326661625532 ], [ 103.782402325569876, 1.454363669164889 ], [ 103.782457946465215, 1.454439532035535 ], [ 103.7824791607257, 1.454517464212515 ], [ 103.782459025041206, 1.454628859605627 ], [ 103.782439291582861, 1.454675474562441 ], [ 103.782402264584505, 1.45471905317886 ], [ 103.782345917722012, 1.454758457718937 ], [ 103.782263261005724, 1.454782973126072 ], [ 103.782156180120666, 1.454774146812465 ], [ 103.782061369550775, 1.45473014827847 ], [ 103.781945362445654, 1.454659740943431 ], [ 103.781855038816673, 1.454606509859274 ], [ 103.781727445236243, 1.454532021760347 ], [ 103.781569041701601, 1.454439057706641 ], [ 103.781390877267313, 1.454335004786764 ], [ 103.781269419298738, 1.454263854809534 ], [ 103.781134630748525, 1.454185002054019 ], [ 103.781021039959654, 1.454118204947183 ], [ 103.780887869796501, 1.454039930103215 ], [ 103.780680411398848, 1.453918310092206 ], [ 103.78051441667219, 1.453820518297475 ], [ 103.780363520048368, 1.453732408055872 ], [ 103.78023823685227, 1.453658853232646 ], [ 103.780041855454982, 1.453543153388544 ], [ 103.779885939346144, 1.453452122807879 ], [ 103.779722440964562, 1.45335606920228 ], [ 103.779476829482789, 1.453212075130329 ], [ 103.779335360066213, 1.453128510377863 ], [ 103.779205289442885, 1.453044209739991 ], [ 103.779105690037326, 1.452975898972958 ], [ 103.778914628891727, 1.452843068714109 ], [ 103.778826011231459, 1.452778302400821 ], [ 103.778732019521641, 1.452730870787869 ], [ 103.778636652599388, 1.452660865327115 ], [ 103.778518287750131, 1.452554372766963 ], [ 103.778242095102627, 1.452378256645619 ], [ 103.778015635948705, 1.452224814102832 ], [ 103.77784566469731, 1.45210886512004 ], [ 103.777697716008888, 1.452008429212651 ], [ 103.77755176399576, 1.45190922961003 ], [ 103.777481673341583, 1.451862138580589 ], [ 103.777457043074378, 1.451809353904818 ], [ 103.777402990952339, 1.451713898831468 ], [ 103.777379143056336, 1.451637327613085 ], [ 103.777327649807958, 1.451373468414235 ], [ 103.777318110311541, 1.451371271478259 ], [ 103.777311800378413, 1.45136945988147 ], [ 103.777296064216756, 1.451363661616639 ], [ 103.777285501289867, 1.451358368115364 ], [ 103.777275184608754, 1.451351898043632 ], [ 103.777265423295177, 1.45134413112887 ], [ 103.777256618128618, 1.451334931726594 ], [ 103.777251699307456, 1.451329987450167 ], [ 103.777245393058138, 1.451324553878615 ], [ 103.777241854437449, 1.451321680628373 ], [ 103.777233296291172, 1.451316345576185 ], [ 103.777223696628155, 1.451312552437258 ], [ 103.777214575001011, 1.451309570524018 ], [ 103.777200335856094, 1.451305942767616 ], [ 103.777191092020942, 1.45130289211964 ], [ 103.777181449238654, 1.451298553648426 ], [ 103.777170605962525, 1.45129270395625 ], [ 103.777158045514426, 1.451284632200694 ], [ 103.777150058893341, 1.45127871023076 ], [ 103.777144662925139, 1.451273368022372 ], [ 103.777140120646635, 1.451267273405131 ], [ 103.777136534495, 1.451260564749146 ], [ 103.777133985340512, 1.451253392180765 ], [ 103.777132529791174, 1.451245915773677 ], [ 103.777132077005305, 1.451241496139322 ], [ 103.776916781155322, 1.451205199554942 ], [ 103.776869229689026, 1.451212854699987 ], [ 103.776808365070636, 1.451199454125023 ], [ 103.776739892235199, 1.451176481576729 ], [ 103.776489255061193, 1.451150395226834 ], [ 103.776427958477171, 1.451126702977543 ], [ 103.776357582974342, 1.451117130319247 ], [ 103.776041845552825, 1.451063523401293 ], [ 103.77565763448014, 1.450985030226374 ], [ 103.775507373840739, 1.450956311931009 ], [ 103.775296248702745, 1.450910364841115 ], [ 103.774963392731323, 1.450831872874497 ], [ 103.774775092327744, 1.450776354549005 ], [ 103.774689501328055, 1.450747638787459 ], [ 103.774451748029975, 1.45066532015119 ], [ 103.774419918705092, 1.450699399339482 ], [ 103.774082755388179, 1.45049877198134 ], [ 103.773784138614801, 1.450362852780248 ], [ 103.773725175179095, 1.450360937585952 ], [ 103.773673821248806, 1.450318822744848 ], [ 103.77357872109306, 1.450263307696294 ], [ 103.773077628115743, 1.450024433931825 ], [ 103.772894559571341, 1.449931708284297 ], [ 103.772668695232852, 1.449803687792545 ], [ 103.772430349887443, 1.449655925598087 ], [ 103.77222112903074, 1.449511155803823 ], [ 103.772006342429862, 1.449327058703643 ], [ 103.7718094852126, 1.449158600321715 ], [ 103.77160787513732, 1.448930800196931 ], [ 103.771346466310163, 1.448822505477194 ], [ 103.771450569958276, 1.448659598172051 ], [ 103.771491187504239, 1.448629212686251 ], [ 103.771438829756903, 1.44855995964116 ], [ 103.771414223410162, 1.448526220793354 ], [ 103.771391399808522, 1.448495353347301 ], [ 103.771396488740521, 1.448489448900306 ], [ 103.771386945057969, 1.44847664195135 ], [ 103.771366974482774, 1.448446851680052 ], [ 103.771347717289203, 1.448421008973342 ], [ 103.77132418029872, 1.448386552089735 ], [ 103.771307776492662, 1.448348505985015 ], [ 103.771287806144144, 1.448310459781947 ], [ 103.771269261815704, 1.448274566906666 ], [ 103.771254997362789, 1.448244417759498 ], [ 103.771235517739001, 1.448203156558563 ], [ 103.771159250435502, 1.447823448545722 ], [ 103.771163788709387, 1.447777783758329 ], [ 103.771180355946129, 1.447753813165856 ], [ 103.771215803766438, 1.4477259434799 ], [ 103.771247065439752, 1.447715311743957 ], [ 103.771283613605831, 1.447703531611942 ], [ 103.771310222276057, 1.447694865832442 ], [ 103.771374803258794, 1.447679319797803 ], [ 103.771412782993792, 1.447663822770448 ], [ 103.771448383296715, 1.447646102752465 ], [ 103.77148141634369, 1.447626768375201 ], [ 103.771521505624634, 1.447591548147851 ], [ 103.771555305401677, 1.447563863805473 ], [ 103.77161998705742, 1.447513774710274 ], [ 103.771629845623977, 1.4475126635189 ], [ 103.771628112388143, 1.447473397831981 ], [ 103.771640455139192, 1.447422172327663 ], [ 103.771628092995485, 1.447392980050944 ], [ 103.771609074887792, 1.447298703288665 ], [ 103.771594430334787, 1.447268310859366 ], [ 103.771578643908001, 1.447228832262073 ], [ 103.771560575827721, 1.447193418714543 ], [ 103.771536325577983, 1.447150826162679 ], [ 103.771514929086621, 1.447115411619207 ], [ 103.771491154093937, 1.447076648153533 ], [ 103.771469044213234, 1.447037645077072 ], [ 103.771445626832246, 1.447000077188872 ], [ 103.771447410577522, 1.446965980033763 ], [ 103.771448600802444, 1.446915133152347 ], [ 103.771417099068515, 1.446864883157411 ], [ 103.771385035109674, 1.446836815366136 ], [ 103.771373108407886, 1.446788689353079 ], [ 103.771377216354892, 1.44673899290178 ], [ 103.77138157010684, 1.446704449061909 ], [ 103.771386261533308, 1.446677230572852 ], [ 103.771399869208608, 1.446604067967165 ], [ 103.771412946857126, 1.446558605085944 ], [ 103.771423462361412, 1.446521899987102 ], [ 103.771422860367466, 1.446453097830138 ], [ 103.771420677900267, 1.446411448229267 ], [ 103.771417707286702, 1.446372565053653 ], [ 103.771465021436995, 1.446331649345138 ], [ 103.771497000599894, 1.446305209356314 ], [ 103.771522559138688, 1.446283675361239 ], [ 103.771544790086907, 1.446265011723356 ], [ 103.771579978226157, 1.446235581092184 ], [ 103.771604705539858, 1.446214765137688 ], [ 103.771628469557058, 1.446193856910519 ], [ 103.7717548, 1.446074 ], [ 103.7719806, 1.4458951 ], [ 103.7720371, 1.4458598 ], [ 103.7721217, 1.4458307 ], [ 103.7721717, 1.4458382 ], [ 103.772289, 1.4458271 ], [ 103.7723627, 1.4458227 ], [ 103.772449, 1.4458215 ], [ 103.7726104, 1.4458243 ], [ 103.7727275, 1.4457986 ], [ 103.7730126, 1.4458069 ], [ 103.773374008173661, 1.445817417585219 ] ] } }
]
}
