<?xml version="1.0" encoding="UTF-8"?>
<gpx xmlns="http://www.topografix.com/GPX/1/1" xmlns:xsi="http://www.w3.org/2001/XMLSchema-instance" xsi:schemaLocation="http://www.topografix.com/GPX/1/1 http://www.topografix.com/GPX/1/1/gpx.xsd" version="1.1" creator="gpx.py -- https://github.com/tkrajina/gpxpy">
  <trk>
    <name>point_to_point_05000m_032</name>
    <trkseg>
      <trkpt lat="1.214430694591608" lon="103.85070207400622">
        <ele>0.16437411542506608</ele>
      </trkpt>
      <trkpt lat="1.2145101516460273" lon="103.85074498426896">
        <ele>0.4910370697010287</ele>
      </trkpt>
      <trkpt lat="1.2145953400000689" lon="103.85076819575646">
        <ele>1.3955551409937224</ele>
      </trkpt>
      <trkpt lat="1.2146814972743054" lon="103.85074404208606">
        <ele>2.769893327669442</ele>
      </trkpt>
      <trkpt lat="1.2147628719541568" lon="103.8507048393723">
        <ele>4.451472185416076</ele>
      </trkpt>
      <trkpt lat="1.2148442806636683" lon="103.85066572256719">
        <ele>6.146129124654912</ele>
      </trkpt>
      <trkpt lat="1.214930721261134" lon="103.85063930900083">
        <ele>7.742628831125079</ele>
      </trkpt>
      <trkpt lat="1.2150171618583079" lon="103.85061289543282">
        <ele>8.674997905979646</ele>
      </trkpt>
      <trkpt lat="1.2151058494710696" lon="103.85059786038717">
        <ele>8.944966585453765</ele>
      </trkpt>
      <trkpt lat="1.2151959272300774" lon="103.85058986481651">
        <ele>8.609619493028779</ele>
      </trkpt>
      <trkpt lat="1.2152859671146712" lon="103.8505814833356">
        <ele>8.241244179620015</ele>
      </trkpt>
      <trkpt lat="1.2153759027515898" lon="103.85057203965297">
        <ele>7.881366143392568</ele>
      </trkpt>
      <trkpt lat="1.2154658383884236" lon="103.85056259596979">
        <ele>7.536880724338137</ele>
      </trkpt>
      <trkpt lat="1.2155557740251732" lon="103.850553152286">
        <ele>7.234783371942247</ele>
      </trkpt>
      <trkpt lat="1.2156448913225593" lon="103.85053802669925">
        <ele>6.979836662542575</ele>
      </trkpt>
      <trkpt lat="1.2157338835135938" lon="103.85052203247268">
        <ele>7.025727629398172</ele>
      </trkpt>
      <trkpt lat="1.2158228757044889" lon="103.85050603824509">
        <ele>7.396528748381549</ele>
      </trkpt>
      <trkpt lat="1.2159118470683568" lon="103.85048995589409">
        <ele>8.201014543035745</ele>
      </trkpt>
      <trkpt lat="1.2159899269995709" lon="103.85044861095987">
        <ele>9.308587467305017</ele>
      </trkpt>
      <trkpt lat="1.2160282995995422" lon="103.85036851931606">
        <ele>10.662244689593615</ele>
      </trkpt>
      <trkpt lat="1.2160738946131342" lon="103.85029092283717">
        <ele>12.148163802458763</ele>
      </trkpt>
      <trkpt lat="1.216119489624503" lon="103.85021332635564">
        <ele>13.611195920410495</ele>
      </trkpt>
      <trkpt lat="1.2161760235846888" lon="103.85014386910503">
        <ele>15.039522489027632</ele>
      </trkpt>
      <trkpt lat="1.2162381422834556" lon="103.85007856723212">
        <ele>16.4211566404545</ele>
      </trkpt>
      <trkpt lat="1.2163035398499757" lon="103.85001666725485">
        <ele>17.76826276842255</ele>
      </trkpt>
      <trkpt lat="1.216371894705468" lon="103.84995783552803">
        <ele>18.957214932319232</ele>
      </trkpt>
      <trkpt lat="1.216440249559676" lon="103.84989900379826">
        <ele>19.697523595661156</ele>
      </trkpt>
      <trkpt lat="1.2165086044125988" lon="103.84984017206553">
        <ele>20.0</ele>
      </trkpt>
      <trkpt lat="1.216576959264237" lon="103.84978134032984">
        <ele>20.0</ele>
      </trkpt>
      <trkpt lat="1.2166461003029592" lon="103.84972344899755">
        <ele>20.0</ele>
      </trkpt>
      <trkpt lat="1.2167168527390282" lon="103.84966748515136">
        <ele>20.0</ele>
      </trkpt>
      <trkpt lat="1.2167876051739313" lon="103.84961152130224">
        <ele>20.000000000000004</ele>
      </trkpt>
      <trkpt lat="1.216858357607668" lon="103.8495555574502">
        <ele>20.0</ele>
      </trkpt>
      <trkpt lat="1.2169291100402388" lon="103.84949959359528">
        <ele>20.0</ele>
      </trkpt>
      <trkpt lat="1.2170019853984184" lon="103.84944662767887">
        <ele>20.0</ele>
      </trkpt>
      <trkpt lat="1.2170789031405247" lon="103.84939937030943">
        <ele>20.0</ele>
      </trkpt>
      <trkpt lat="1.2171558208817892" lon="103.84935211293734">
        <ele>20.0</ele>
      </trkpt>
      <trkpt lat="1.2172327386222128" lon="103.84930485556256">
        <ele>20.0</ele>
      </trkpt>
      <trkpt lat="1.217309656361794" lon="103.84925759818515">
        <ele>20.0</ele>
      </trkpt>
      <trkpt lat="1.2173865741005332" lon="103.84921034080509">
        <ele>20.0</ele>
      </trkpt>
      <trkpt lat="1.2174610739487823" lon="103.84915941882065">
        <ele>20.0</ele>
      </trkpt>
      <trkpt lat="1.217535371967629" lon="103.84910819093825">
        <ele>20.0</ele>
      </trkpt>
      <trkpt lat="1.2176096699854917" lon="103.84905696305306">
        <ele>20.0</ele>
      </trkpt>
      <trkpt lat="1.2176839680023703" lon="103.8490057351651">
        <ele>20.0</ele>
      </trkpt>
      <trkpt lat="1.2177582660182646" lon="103.84895450727433">
        <ele>20.0</ele>
      </trkpt>
      <trkpt lat="1.2178153833220584" lon="103.84891512534548">
        <ele>20.0</ele>
      </trkpt>
      <trkpt lat="1.2178869533961525" lon="103.84886019733176">
        <ele>20.0</ele>
      </trkpt>
      <trkpt lat="1.2179585234691195" lon="103.84880526931515">
        <ele>20.0</ele>
      </trkpt>
      <trkpt lat="1.2180300935409594" lon="103.84875034129566">
        <ele>20.0</ele>
      </trkpt>
      <trkpt lat="1.2181016636116717" lon="103.84869541327326">
        <ele>20.0</ele>
      </trkpt>
      <trkpt lat="1.218173233681256" lon="103.84864048524798">
        <ele>20.0</ele>
      </trkpt>
      <trkpt lat="1.218244803749712" lon="103.84858555721983">
        <ele>20.0</ele>
      </trkpt>
      <trkpt lat="1.2183163738170402" lon="103.84853062918877">
        <ele>20.0</ele>
      </trkpt>
      <trkpt lat="1.2183879438832397" lon="103.84847570115483">
        <ele>20.0</ele>
      </trkpt>
      <trkpt lat="1.2184595139483105" lon="103.848420773118">
        <ele>20.0</ele>
      </trkpt>
      <trkpt lat="1.2185310840122527" lon="103.84836584507826">
        <ele>20.0</ele>
      </trkpt>
      <trkpt lat="1.2186026540750658" lon="103.84831091703566">
        <ele>20.0</ele>
      </trkpt>
      <trkpt lat="1.2186742241367494" lon="103.84825598899016">
        <ele>20.0</ele>
      </trkpt>
      <trkpt lat="1.2187436203808182" lon="103.84819840633021">
        <ele>20.0</ele>
      </trkpt>
      <trkpt lat="1.2188123090160927" lon="103.8481399595543">
        <ele>20.0</ele>
      </trkpt>
      <trkpt lat="1.218880997650092" lon="103.84808151277544">
        <ele>20.0</ele>
      </trkpt>
      <trkpt lat="1.2189496862828164" lon="103.8480230659936">
        <ele>20.0</ele>
      </trkpt>
      <trkpt lat="1.2189967610278136" lon="103.84798301034829">
        <ele>20.0</ele>
      </trkpt>
      <trkpt lat="1.2190652029599918" lon="103.84792427857946">
        <ele>20.0</ele>
      </trkpt>
      <trkpt lat="1.2191336448908816" lon="103.84786554680767">
        <ele>20.0</ele>
      </trkpt>
      <trkpt lat="1.2192020868204831" lon="103.84780681503291">
        <ele>20.0</ele>
      </trkpt>
      <trkpt lat="1.2192705287487966" lon="103.8477480832552">
        <ele>20.0</ele>
      </trkpt>
      <trkpt lat="1.2193389450134284" lon="103.84768932233949">
        <ele>20.0</ele>
      </trkpt>
      <trkpt lat="1.2194066134321881" lon="103.84762971237791">
        <ele>20.0</ele>
      </trkpt>
      <trkpt lat="1.2194742818496207" lon="103.84757010241334">
        <ele>20.0</ele>
      </trkpt>
      <trkpt lat="1.2195468316943519" lon="103.84751761036858">
        <ele>19.85538609369942</ele>
      </trkpt>
      <trkpt lat="1.2196274282937944" lon="103.84747685180938">
        <ele>19.34266008399676</ele>
      </trkpt>
      <trkpt lat="1.2197114655135897" lon="103.8474460012552">
        <ele>18.51230092526798</ele>
      </trkpt>
      <trkpt lat="1.2198002120966516" lon="103.84742871232385">
        <ele>18.656914831568557</ele>
      </trkpt>
      <trkpt lat="1.2198894568617271" lon="103.84742113120373">
        <ele>19.16964084127122</ele>
      </trkpt>
      <trkpt lat="1.219979513091872" lon="103.84742936267625">
        <ele>20.0</ele>
      </trkpt>
      <trkpt lat="1.220067281004381" lon="103.84744666337104">
        <ele>19.606953691478825</ele>
      </trkpt>
      <trkpt lat="1.220150595924847" lon="103.84748161247846">
        <ele>18.80652983150992</ele>
      </trkpt>
      <trkpt lat="1.2202300843263558" lon="103.84752230192211">
        <ele>17.5817602104906</ele>
      </trkpt>
      <trkpt lat="1.220294982693024" lon="103.84758487854054">
        <ele>16.533407171777355</ele>
      </trkpt>
      <trkpt lat="1.2203606573573418" lon="103.84764663504329">
        <ele>15.796014050821604</ele>
      </trkpt>
      <trkpt lat="1.2204275023395403" lon="103.84770715516906">
        <ele>15.386549057226025</ele>
      </trkpt>
      <trkpt lat="1.2204943473202998" lon="103.84776767529785">
        <ele>15.0972961561553</ele>
      </trkpt>
      <trkpt lat="1.2205611922996193" lon="103.84782819542959">
        <ele>14.808043255084572</ele>
      </trkpt>
      <trkpt lat="1.220628037277499" lon="103.84788871556435">
        <ele>14.494598208404268</ele>
      </trkpt>
      <trkpt lat="1.2206995596944958" lon="103.84794329844955">
        <ele>14.138009454350053</ele>
      </trkpt>
      <trkpt lat="1.2207747463080603" lon="103.84799323023262">
        <ele>13.616461805921254</ele>
      </trkpt>
      <trkpt lat="1.2208499329206166" lon="103.84804316201848">
        <ele>12.80167895385983</ele>
      </trkpt>
      <trkpt lat="1.2209251195321624" lon="103.84809309380715">
        <ele>11.712612459930064</ele>
      </trkpt>
      <trkpt lat="1.2210003061426997" lon="103.84814302559859">
        <ele>10.459977458206431</ele>
      </trkpt>
      <trkpt lat="1.2210805102622013" lon="103.84818439246195">
        <ele>9.194847457899124</ele>
      </trkpt>
      <trkpt lat="1.221161344932384" lon="103.84822468297135">
        <ele>7.91722245900808</ele>
      </trkpt>
      <trkpt lat="1.2212421796018804" lon="103.84826497348318">
        <ele>6.638202514459606</ele>
      </trkpt>
      <trkpt lat="1.2213230142706906" lon="103.84830526399745">
        <ele>5.359182569911027</ele>
      </trkpt>
      <trkpt lat="1.2214038489388137" lon="103.84834555451414">
        <ele>4.077310485957806</ele>
      </trkpt>
      <trkpt lat="1.2214864553467937" lon="103.84838205182868">
        <ele>2.824567395560925</ele>
      </trkpt>
      <trkpt lat="1.2215632569908865" lon="103.84841467232448">
        <ele>2.1967697806601643</ele>
      </trkpt>
      <trkpt lat="1.2215068859458524" lon="103.84848493334559">
        <ele>1.7245593235208023</ele>
      </trkpt>
      <trkpt lat="1.2214588836511198" lon="103.84856102621391">
        <ele>1.6894031226372819</ele>
      </trkpt>
      <trkpt lat="1.2214115874198743" lon="103.84863761110857">
        <ele>1.495484696069812</ele>
      </trkpt>
      <trkpt lat="1.22136429118645" lon="103.84871419600054">
        <ele>1.2967673886958437</ele>
      </trkpt>
      <trkpt lat="1.221316994950847" lon="103.84879078088981">
        <ele>1.098050081321875</ele>
      </trkpt>
      <trkpt lat="1.2212696987130656" lon="103.84886736577639">
        <ele>0.899332773948022</ele>
      </trkpt>
      <trkpt lat="1.221222402473106" lon="103.84894395066026">
        <ele>0.7006154665740535</ele>
      </trkpt>
      <trkpt lat="1.2211751062309684" lon="103.84902053554144">
        <ele>0.5060075670041423</ele>
      </trkpt>
      <trkpt lat="1.221127182532733" lon="103.84909672701765">
        <ele>0.42201499438121975</ele>
      </trkpt>
      <trkpt lat="1.2210779580089222" lon="103.84917210289835">
        <ele>0.43092141958287317</ele>
      </trkpt>
      <trkpt lat="1.2210287334830023" lon="103.84924747877628">
        <ele>0.5286174348048466</ele>
      </trkpt>
      <trkpt lat="1.2209795089549738" lon="103.84932285465143">
        <ele>0.6098638938640216</ele>
      </trkpt>
      <trkpt lat="1.2209301364120846" lon="103.8493981347198">
        <ele>0.6935258057642036</ele>
      </trkpt>
      <trkpt lat="1.2208806296526182" lon="103.84947332791256">
        <ele>0.7754708310578912</ele>
      </trkpt>
      <trkpt lat="1.220831606508509" lon="103.84954883230706">
        <ele>0.8526819671741915</ele>
      </trkpt>
      <trkpt lat="1.2207827881957896" lon="103.84962446850777">
        <ele>0.9240105342321514</ele>
      </trkpt>
      <trkpt lat="1.2207339698809487" lon="103.84970010470575">
        <ele>0.9935888716791519</ele>
      </trkpt>
      <trkpt lat="1.220685151563986" lon="103.84977574090095">
        <ele>1.1073583981929185</ele>
      </trkpt>
      <trkpt lat="1.220642664865006" lon="103.84985388070974">
        <ele>1.9054935651790164</ele>
      </trkpt>
      <trkpt lat="1.2206258220152248" lon="103.84994216047538">
        <ele>3.680995004239644</ele>
      </trkpt>
      <trkpt lat="1.2205907894454546" lon="103.85002377342522">
        <ele>6.515930657348126</ele>
      </trkpt>
      <trkpt lat="1.220545893180059" lon="103.8501017711755">
        <ele>9.399098978120477</ele>
      </trkpt>
      <trkpt lat="1.220500719255912" lon="103.85017957491405">
        <ele>10.83726971497638</ele>
      </trkpt>
      <trkpt lat="1.220442019518311" lon="103.85024792765165">
        <ele>10.704183736875919</ele>
      </trkpt>
      <trkpt lat="1.220383319778977" lon="103.85031628038628">
        <ele>9.675623494545425</ele>
      </trkpt>
      <trkpt lat="1.220364870959553" lon="103.85033776305744">
        <ele>9.161343373380207</ele>
      </trkpt>
      <trkpt lat="1.2202789480678171" lon="103.8503657945047">
        <ele>8.720630899853608</ele>
      </trkpt>
      <trkpt lat="1.2201930251757573" lon="103.85039382595019">
        <ele>8.501355018608635</ele>
      </trkpt>
      <trkpt lat="1.220106736121025" lon="103.85042043968102">
        <ele>8.378656414860675</ele>
      </trkpt>
      <trkpt lat="1.2200178445013548" lon="103.85043697676105">
        <ele>8.283119026291553</ele>
      </trkpt>
      <trkpt lat="1.2199289528815382" lon="103.85045351384002">
        <ele>8.451859851585931</ele>
      </trkpt>
      <trkpt lat="1.2198468923506114" lon="103.85043551465957">
        <ele>8.631231876889343</ele>
      </trkpt>
      <trkpt lat="1.2197580231384548" lon="103.8504405495087">
        <ele>8.61245934485509</ele>
      </trkpt>
      <trkpt lat="1.2196680904715784" lon="103.8504500210582">
        <ele>8.18113993040239</ele>
      </trkpt>
      <trkpt lat="1.2196087303591245" lon="103.85045627275996">
        <ele>7.826384313343607</ele>
      </trkpt>
    </trkseg>
  </trk>
</gpx>