<?xml version="1.0" encoding="UTF-8"?>
<gpx xmlns="http://www.topografix.com/GPX/1/1" xmlns:xsi="http://www.w3.org/2001/XMLSchema-instance" xsi:schemaLocation="http://www.topografix.com/GPX/1/1 http://www.topografix.com/GPX/1/1/gpx.xsd" version="1.1" creator="gpx.py -- https://github.com/tkrajina/gpxpy">
  <trk>
    <name>point_to_point_05000m_030</name>
    <trkseg>
      <trkpt lat="1.4517603092589748" lon="103.77888883797173">
        <ele>4.459536188336509</ele>
      </trkpt>
      <trkpt lat="1.4517819974833532" lon="103.77897607580863">
        <ele>4.6902910746332696</ele>
      </trkpt>
      <trkpt lat="1.4517971387158748" lon="103.77906448039973">
        <ele>5.1251963496519055</ele>
      </trkpt>
      <trkpt lat="1.451832155135413" lon="103.77914493292816">
        <ele>5.509605472287517</ele>
      </trkpt>
      <trkpt lat="1.45188889955539" lon="103.77921414917353">
        <ele>5.815787684511563</ele>
      </trkpt>
      <trkpt lat="1.4519540022023505" lon="103.77927652164364">
        <ele>6.0564020341476805</ele>
      </trkpt>
      <trkpt lat="1.452024207039502" lon="103.77933306428577">
        <ele>6.262585475240129</ele>
      </trkpt>
      <trkpt lat="1.4520954084932982" lon="103.77938846818256">
        <ele>6.450808808946777</ele>
      </trkpt>
      <trkpt lat="1.4521670311723258" lon="103.77944331658489">
        <ele>6.630087645829921</ele>
      </trkpt>
      <trkpt lat="1.4522402627603086" lon="103.77949604321951">
        <ele>6.802039217241348</ele>
      </trkpt>
      <trkpt lat="1.45231383405647" lon="103.77954828680096">
        <ele>6.963270526380323</ele>
      </trkpt>
      <trkpt lat="1.4523888429697158" lon="103.77959848613558">
        <ele>7.122097910760971</ele>
      </trkpt>
      <trkpt lat="1.4524627546241937" lon="103.77965014549032">
        <ele>7.292492886662465</ele>
      </trkpt>
      <trkpt lat="1.452532497971245" lon="103.77970735121852">
        <ele>7.496124394780664</ele>
      </trkpt>
      <trkpt lat="1.4525952307924823" lon="103.77977140871678">
        <ele>7.751996709364068</ele>
      </trkpt>
      <trkpt lat="1.4526479513467547" lon="103.7798442576557">
        <ele>8.059274914803597</ele>
      </trkpt>
      <trkpt lat="1.4526941125976862" lon="103.77992146112521">
        <ele>8.304903693079128</ele>
      </trkpt>
      <trkpt lat="1.452736672868993" lon="103.78000074845727">
        <ele>8.42878261011192</ele>
      </trkpt>
      <trkpt lat="1.4527837639089292" lon="103.78007714509867">
        <ele>8.385783276530974</ele>
      </trkpt>
      <trkpt lat="1.4528386117901568" lon="103.7801485927717">
        <ele>8.242930223988013</ele>
      </trkpt>
      <trkpt lat="1.45289970186158" lon="103.78021467173195">
        <ele>7.99973170314203</ele>
      </trkpt>
      <trkpt lat="1.4529695953621249" lon="103.78027118790197">
        <ele>7.692031167292086</ele>
      </trkpt>
      <trkpt lat="1.4530432335853356" lon="103.7803233524127">
        <ele>7.314843192173381</ele>
      </trkpt>
      <trkpt lat="1.453122747200614" lon="103.78036588249519">
        <ele>6.899952143679966</ele>
      </trkpt>
      <trkpt lat="1.4532033687087835" lon="103.78040659586378">
        <ele>6.409650890102465</ele>
      </trkpt>
      <trkpt lat="1.453288866506103" lon="103.78043560227073">
        <ele>5.876836154274916</ele>
      </trkpt>
      <trkpt lat="1.4533745638966762" lon="103.78046429345673">
        <ele>5.538816466817383</ele>
      </trkpt>
      <trkpt lat="1.4534531570079199" lon="103.78050488010838">
        <ele>5.298237508101534</ele>
      </trkpt>
      <trkpt lat="1.4535182905072221" lon="103.78056722081374">
        <ele>5.241516659190446</ele>
      </trkpt>
      <trkpt lat="1.4535654949308725" lon="103.78064292379125">
        <ele>5.215573865415832</ele>
      </trkpt>
      <trkpt lat="1.4535943150436352" lon="103.78072743500573">
        <ele>5.352448048094582</ele>
      </trkpt>
      <trkpt lat="1.453623285843807" lon="103.780812056907">
        <ele>5.532213498605665</ele>
      </trkpt>
      <trkpt lat="1.453660980989892" lon="103.780893658129">
        <ele>5.716124368383668</ele>
      </trkpt>
      <trkpt lat="1.4536890804137894" lon="103.78097907070847">
        <ele>5.897050096458553</ele>
      </trkpt>
      <trkpt lat="1.4537190168010479" lon="103.78106378939646">
        <ele>6.0847705311517695</ele>
      </trkpt>
      <trkpt lat="1.4537551182559394" lon="103.78114617930004">
        <ele>6.203377730316785</ele>
      </trkpt>
      <trkpt lat="1.4537997680116859" lon="103.78122413756874">
        <ele>6.243486663760595</ele>
      </trkpt>
      <trkpt lat="1.4538482264484505" lon="103.78129992932242">
        <ele>6.195152808760853</ele>
      </trkpt>
      <trkpt lat="1.453904164294129" lon="103.7813705377926">
        <ele>6.08273151523425</ele>
      </trkpt>
      <trkpt lat="1.453962644230825" lon="103.78143905109583">
        <ele>5.9147834506079695</ele>
      </trkpt>
      <trkpt lat="1.4540227786575914" lon="103.78150614720931">
        <ele>5.862174848183959</ele>
      </trkpt>
      <trkpt lat="1.4540510230279138" lon="103.78158907311868">
        <ele>5.9062851454069305</ele>
      </trkpt>
      <trkpt lat="1.4540698568576744" lon="103.78167696198699">
        <ele>5.941472745659344</ele>
      </trkpt>
      <trkpt lat="1.4540913242166662" lon="103.78176425383587">
        <ele>5.977145385047385</ele>
      </trkpt>
      <trkpt lat="1.4541128383903046" lon="103.78185153366636">
        <ele>6.041630178222403</ele>
      </trkpt>
      <trkpt lat="1.4541366164194118" lon="103.7819382322694">
        <ele>6.242037542010189</ele>
      </trkpt>
      <trkpt lat="1.4541623528429954" lon="103.7820243587675">
        <ele>6.411593815261278</ele>
      </trkpt>
      <trkpt lat="1.4541940648692975" lon="103.78210832268788">
        <ele>6.530400248269469</ele>
      </trkpt>
      <trkpt lat="1.4542320715237909" lon="103.78218986225883">
        <ele>6.5913051312318816</ele>
      </trkpt>
      <trkpt lat="1.454273718643846" lon="103.78226950172814">
        <ele>6.589451955852233</ele>
      </trkpt>
      <trkpt lat="1.4543197187196353" lon="103.78234686921935">
        <ele>6.450013842608736</ele>
      </trkpt>
      <trkpt lat="1.4543791562801867" lon="103.78241368036285">
        <ele>6.122243382866664</ele>
      </trkpt>
      <trkpt lat="1.4544543881250982" lon="103.78246199050655">
        <ele>5.56229290484091</ele>
      </trkpt>
      <trkpt lat="1.454542095959404" lon="103.78247470832378">
        <ele>4.837830017347639</ele>
      </trkpt>
      <trkpt lat="1.4546309283664554" lon="103.78245814927497">
        <ele>4.024470860611367</ele>
      </trkpt>
      <trkpt lat="1.454707407419616" lon="103.78241215951813">
        <ele>3.24075882007966</ele>
      </trkpt>
      <trkpt lat="1.454760170463979" lon="103.78234014299143">
        <ele>2.5648510638036908</ele>
      </trkpt>
      <trkpt lat="1.4547821755032981" lon="103.7822535842393">
        <ele>2.041043784831342</ele>
      </trkpt>
      <trkpt lat="1.454774793344921" lon="103.78216402385384">
        <ele>1.7154875897285222</ele>
      </trkpt>
      <trkpt lat="1.4547395942195513" lon="103.7820817242065">
        <ele>1.5743460746811186</ele>
      </trkpt>
      <trkpt lat="1.4546950946572037" lon="103.7820036132208">
        <ele>1.5698496485338194</ele>
      </trkpt>
      <trkpt lat="1.4546486355603683" lon="103.78192651859605">
        <ele>1.6042287528419543</ele>
      </trkpt>
      <trkpt lat="1.4546029615007388" lon="103.78184896069396">
        <ele>1.6418415792719065</ele>
      </trkpt>
      <trkpt lat="1.4545575836761884" lon="103.78177123124017">
        <ele>1.6755145549861956</ele>
      </trkpt>
      <trkpt lat="1.4545121275482573" lon="103.78169354703972">
        <ele>1.7087294945238662</ele>
      </trkpt>
      <trkpt lat="1.4544665704121296" lon="103.78161592121381">
        <ele>1.8123040429159258</ele>
      </trkpt>
      <trkpt lat="1.4544210788737575" lon="103.78153825747286">
        <ele>1.9010558283068058</ele>
      </trkpt>
      <trkpt lat="1.4543756873549425" lon="103.7814605359204">
        <ele>1.974636938112089</ele>
      </trkpt>
      <trkpt lat="1.454330285159966" lon="103.78138282053496">
        <ele>1.963797405891124</ele>
      </trkpt>
      <trkpt lat="1.4542847907491299" lon="103.78130515840444">
        <ele>1.9533039092519084</ele>
      </trkpt>
      <trkpt lat="1.4542393210386464" lon="103.78122748199951">
        <ele>1.943015972228029</ele>
      </trkpt>
      <trkpt lat="1.4541938723846695" lon="103.78114979342622">
        <ele>1.9331533931464449</ele>
      </trkpt>
      <trkpt lat="1.4541482819572922" lon="103.78107218695288">
        <ele>1.9239542410187054</ele>
      </trkpt>
      <trkpt lat="1.4541026624669586" lon="103.78099459730373">
        <ele>1.9154661410745657</ele>
      </trkpt>
      <trkpt lat="1.4540570532643253" lon="103.78091700168478">
        <ele>1.9068139069124552</ele>
      </trkpt>
      <trkpt lat="1.454011499863861" lon="103.78083937372712">
        <ele>1.8977202211698296</ele>
      </trkpt>
      <trkpt lat="1.4539659800054376" lon="103.7807617263317">
        <ele>1.8882306910252156</ele>
      </trkpt>
      <trkpt lat="1.4539204601444222" lon="103.78068407893946">
        <ele>1.87929810526676</ele>
      </trkpt>
      <trkpt lat="1.45387478107051" lon="103.78060652392703">
        <ele>1.8711060544975864</ele>
      </trkpt>
      <trkpt lat="1.4538290941011847" lon="103.78052897349733">
        <ele>1.862567182177231</ele>
      </trkpt>
      <trkpt lat="1.45378365261889" lon="103.78045128091588">
        <ele>1.8527246603129708</ele>
      </trkpt>
      <trkpt lat="1.4537382678627673" lon="103.78037355548787">
        <ele>1.8422588552053847</ele>
      </trkpt>
      <trkpt lat="1.4536927215312592" lon="103.78029592346384">
        <ele>1.8324981426494709</ele>
      </trkpt>
      <trkpt lat="1.4536471207939148" lon="103.78021832297092">
        <ele>1.8240844146297877</ele>
      </trkpt>
      <trkpt lat="1.4536014319270687" lon="103.78014077365332">
        <ele>1.7449962271236243</ele>
      </trkpt>
      <trkpt lat="1.4535557430576402" lon="103.78006322433889">
        <ele>1.6564997355501465</ele>
      </trkpt>
      <trkpt lat="1.453510277369836" lon="103.77998554579294">
        <ele>1.557875645449786</ele>
      </trkpt>
      <trkpt lat="1.4534648965701662" lon="103.77990781809424">
        <ele>1.5210183355552138</ele>
      </trkpt>
      <trkpt lat="1.453419363767036" lon="103.7798301782897">
        <ele>1.484651088636985</ele>
      </trkpt>
      <trkpt lat="1.453373771415191" lon="103.77975257291953">
        <ele>1.448934876292431</ele>
      </trkpt>
      <trkpt lat="1.4533282223676642" lon="103.77967494245942">
        <ele>1.4131749772532547</ele>
      </trkpt>
      <trkpt lat="1.4532827008049711" lon="103.77959729607561">
        <ele>1.3771409340756635</ele>
      </trkpt>
      <trkpt lat="1.4532371792396899" lon="103.77951964969496">
        <ele>1.3414449074068677</ele>
      </trkpt>
      <trkpt lat="1.45319154298047" lon="103.77944206995356">
        <ele>1.3067398201865972</ele>
      </trkpt>
      <trkpt lat="1.4531457657009095" lon="103.77936457214714">
        <ele>1.3021874550992614</ele>
      </trkpt>
      <trkpt lat="1.4530980023961177" lon="103.77928828815186">
        <ele>1.3324969973750187</ele>
      </trkpt>
      <trkpt lat="1.4530490375773042" lon="103.77921273849401">
        <ele>1.4047399847305566</ele>
      </trkpt>
      <trkpt lat="1.4529983021019104" lon="103.77913835455466">
        <ele>1.4917360353599853</ele>
      </trkpt>
      <trkpt lat="1.4529471085881847" lon="103.77906427835559">
        <ele>1.5892331889063984</ele>
      </trkpt>
      <trkpt lat="1.4528957074578137" lon="103.77899034370284">
        <ele>1.689613427077437</ele>
      </trkpt>
      <trkpt lat="1.4528443063251115" lon="103.7789164090535">
        <ele>1.7983327726676268</ele>
      </trkpt>
      <trkpt lat="1.4527912077115004" lon="103.7788436691516">
        <ele>1.8322456164987555</ele>
      </trkpt>
      <trkpt lat="1.4527476104920296" lon="103.77876519135063">
        <ele>1.718235004975832</ele>
      </trkpt>
      <trkpt lat="1.4526995854102154" lon="103.7786894001282">
        <ele>1.4619505713283025</ele>
      </trkpt>
      <trkpt lat="1.4526443834803717" lon="103.77861833327806">
        <ele>1.156265195486612</ele>
      </trkpt>
      <trkpt lat="1.4525841098859478" lon="103.77855134010058">
        <ele>0.9484661021243473</ele>
      </trkpt>
      <trkpt lat="1.4525298506213453" lon="103.77847983109285">
        <ele>0.8257197294089855</ele>
      </trkpt>
      <trkpt lat="1.4524814482480872" lon="103.77840392446639">
        <ele>0.7773971228421024</ele>
      </trkpt>
      <trkpt lat="1.4524330458723662" lon="103.77832801784321">
        <ele>0.7293280113453958</ele>
      </trkpt>
      <trkpt lat="1.4523846434941832" lon="103.7782521112233">
        <ele>0.684144753854158</ele>
      </trkpt>
      <trkpt lat="1.4523344144269885" lon="103.77817739027861">
        <ele>0.6422860336853613</ele>
      </trkpt>
      <trkpt lat="1.4522839076798526" lon="103.77810284957319">
        <ele>0.6037518508390733</ele>
      </trkpt>
      <trkpt lat="1.4522334009303486" lon="103.77802830887111">
        <ele>0.5659681548407024</ele>
      </trkpt>
      <trkpt lat="1.4521826991694016" lon="103.77795389906889">
        <ele>0.5240790915405013</ele>
      </trkpt>
      <trkpt lat="1.4521319574606688" lon="103.77787951608272">
        <ele>0.46801125945539296</ele>
      </trkpt>
      <trkpt lat="1.4520813079408221" lon="103.77780507115962">
        <ele>0.3973292022147694</ele>
      </trkpt>
      <trkpt lat="1.4520307354153614" lon="103.77773057450827">
        <ele>0.31648755404752665</ele>
      </trkpt>
      <trkpt lat="1.4519801395417982" lon="103.77765609351678">
        <ele>0.23558928045397312</ele>
      </trkpt>
      <trkpt lat="1.4519295252427205" lon="103.7775816248839">
        <ele>0.1543726442937062</ele>
      </trkpt>
      <trkpt lat="1.4518791516192824" lon="103.77750699567989">
        <ele>0.11606943830665924</ele>
      </trkpt>
      <trkpt lat="1.4518080686583335" lon="103.77745631529427">
        <ele>0.13383145004572938</ele>
      </trkpt>
      <trkpt lat="1.4517294958537246" lon="103.77741182287805">
        <ele>0.22792172534216762</ele>
      </trkpt>
      <trkpt lat="1.4516447325972524" lon="103.77738144931828">
        <ele>0.4226381203437899</ele>
      </trkpt>
      <trkpt lat="1.4515562014370362" lon="103.77736331093578">
        <ele>0.8943593671379734</ele>
      </trkpt>
      <trkpt lat="1.4514674605180102" lon="103.77734599276674">
        <ele>1.623207809873768</ele>
      </trkpt>
      <trkpt lat="1.451378719598833" lon="103.77732867459892">
        <ele>2.492157191041501</ele>
      </trkpt>
      <trkpt lat="1.4513332632652103" lon="103.7772549582572">
        <ele>3.2987688641747943</ele>
      </trkpt>
      <trkpt lat="1.4512950085024423" lon="103.77717487778229">
        <ele>4.070298856170667</ele>
      </trkpt>
      <trkpt lat="1.4512385152082472" lon="103.77711439538935">
        <ele>4.76868972319404</ele>
      </trkpt>
      <trkpt lat="1.4512235739385886" lon="103.77702577014232">
        <ele>5.0514451394301085</ele>
      </trkpt>
      <trkpt lat="1.4512086326654796" lon="103.77693714489655">
        <ele>4.74618837959923</ele>
      </trkpt>
      <trkpt lat="1.4512083257628705" lon="103.77684865952378">
        <ele>4.098617828851853</ele>
      </trkpt>
      <trkpt lat="1.4511839817057341" lon="103.776762247399">
        <ele>3.3947320052431906</ele>
      </trkpt>
      <trkpt lat="1.4511696181395812" lon="103.77667394842977">
        <ele>2.8761444491727755</ele>
      </trkpt>
      <trkpt lat="1.4511603151039816" lon="103.7765845650277">
        <ele>2.4508749985633185</ele>
      </trkpt>
      <trkpt lat="1.4511510120648563" lon="103.7764951816265">
        <ele>2.2907897149529286</ele>
      </trkpt>
      <trkpt lat="1.4511242442538759" lon="103.77640988262777">
        <ele>2.2199376915865643</ele>
      </trkpt>
      <trkpt lat="1.4511109216516647" lon="103.77632101475663">
        <ele>2.182032765490085</ele>
      </trkpt>
      <trkpt lat="1.4510958774934999" lon="103.776232406702">
        <ele>2.0745852456937914</ele>
      </trkpt>
      <trkpt lat="1.4510808333318872" lon="103.77614379864868">
        <ele>1.9770531969359357</ele>
      </trkpt>
      <trkpt lat="1.4510657891668273" lon="103.77605519059665">
        <ele>1.8940491292041954</ele>
      </trkpt>
      <trkpt lat="1.451048241808663" lon="103.77596704466437">
        <ele>1.8281490296959795</ele>
      </trkpt>
      <trkpt lat="1.451030250601219" lon="103.77587898067277">
        <ele>1.8861638803720975</ele>
      </trkpt>
      <trkpt lat="1.451012259390378" lon="103.7757909166827">
        <ele>1.9281401654117643</ele>
      </trkpt>
      <trkpt lat="1.4509942681761416" lon="103.77570285269415">
        <ele>1.9476991221631643</ele>
      </trkpt>
      <trkpt lat="1.45097682110621" lon="103.77561468249455">
        <ele>1.8340164273085497</ele>
      </trkpt>
      <trkpt lat="1.4509599483109172" lon="103.77552640020266">
        <ele>1.7248270927626337</ele>
      </trkpt>
      <trkpt lat="1.4509413169992944" lon="103.77543847268653">
        <ele>1.6273156198447172</ele>
      </trkpt>
      <trkpt lat="1.4509222025761526" lon="103.77535064263748">
        <ele>1.5495601577751803</ele>
      </trkpt>
      <trkpt lat="1.4509025106349744" lon="103.77526294185186">
        <ele>1.4858638669009128</ele>
      </trkpt>
      <trkpt lat="1.4508818791884515" lon="103.7751754513513">
        <ele>1.4328450213569195</ele>
      </trkpt>
      <trkpt lat="1.4508612477385843" lon="103.77508796085247">
        <ele>1.3780764201983142</ele>
      </trkpt>
      <trkpt lat="1.4508406162853738" lon="103.77500047035535">
        <ele>1.3119374699173194</ele>
      </trkpt>
      <trkpt lat="1.4508172223759326" lon="103.77491370291985">
        <ele>1.2316305504197176</ele>
      </trkpt>
      <trkpt lat="1.4507917967363009" lon="103.77482746728192">
        <ele>1.1543711109893238</ele>
      </trkpt>
      <trkpt lat="1.450765124399853" lon="103.7747416194306">
        <ele>1.0991410646751765</ele>
      </trkpt>
      <trkpt lat="1.4507362051481956" lon="103.7746564786007">
        <ele>1.0723251826922127</ele>
      </trkpt>
      <trkpt lat="1.4507067847626014" lon="103.77457150641823">
        <ele>1.065070408837811</ele>
      </trkpt>
      <trkpt lat="1.4506773643738795" lon="103.77448653423806">
        <ele>0.7816983815162035</ele>
      </trkpt>
      <trkpt lat="1.4506960188366955" lon="103.77441423761664">
        <ele>0.6217387910071298</ele>
      </trkpt>
      <trkpt lat="1.4506499913587587" lon="103.77433688635365">
        <ele>0.5851916373100959</ele>
      </trkpt>
      <trkpt lat="1.4506039638782713" lon="103.77425953509386">
        <ele>0.9517613250130421</ele>
      </trkpt>
      <trkpt lat="1.4505579363952328" lon="103.77418218383727">
        <ele>1.4177473208338325</ele>
      </trkpt>
      <trkpt lat="1.4505119089096445" lon="103.77410483258387">
        <ele>2.02818434813862</ele>
      </trkpt>
      <trkpt lat="1.4504721416547055" lon="103.77402424810262">
        <ele>2.4973949784881833</ele>
      </trkpt>
      <trkpt lat="1.4504348748176425" lon="103.77394237222856">
        <ele>2.725962903764421</ele>
      </trkpt>
      <trkpt lat="1.4503976079776968" lon="103.77386049635727">
        <ele>2.6419161968528004</ele>
      </trkpt>
      <trkpt lat="1.450362656169925" lon="103.77377808553476">
        <ele>2.433039994708671</ele>
      </trkpt>
      <trkpt lat="1.4503374644290798" lon="103.7736965525167">
        <ele>2.3832411594648906</ele>
      </trkpt>
      <trkpt lat="1.450288253836352" lon="103.77362145512264">
        <ele>2.4268221181685266</ele>
      </trkpt>
      <trkpt lat="1.4502458777688159" lon="103.77354215777697">
        <ele>2.6137213832173556</ele>
      </trkpt>
      <trkpt lat="1.450207164307655" lon="103.77346094731821">
        <ele>2.660032092478355</ele>
      </trkpt>
      <trkpt lat="1.450168450843665" lon="103.77337973686231">
        <ele>2.664661071175862</ele>
      </trkpt>
      <trkpt lat="1.4501297373768451" lon="103.77329852640925">
        <ele>2.679679021872875</ele>
      </trkpt>
      <trkpt lat="1.4500910239071962" lon="103.77321731595906">
        <ele>2.6340240211424217</ele>
      </trkpt>
      <trkpt lat="1.4500523104347183" lon="103.77313610551172">
        <ele>2.529245094166603</ele>
      </trkpt>
      <trkpt lat="1.450013053136002" lon="103.77305515897157">
        <ele>2.381343869346773</ele>
      </trkpt>
      <trkpt lat="1.4499723969294571" lon="103.7729748912891">
        <ele>2.261382270109907</ele>
      </trkpt>
      <trkpt lat="1.4499317407201542" lon="103.77289462360956">
        <ele>2.2160488463269736</ele>
      </trkpt>
      <trkpt lat="1.4498873649208202" lon="103.77281632533513">
        <ele>2.2252685690673015</ele>
      </trkpt>
      <trkpt lat="1.4498429861489854" lon="103.77273802863631">
        <ele>2.294284426836027</ele>
      </trkpt>
      <trkpt lat="1.4497982578710642" lon="103.77265993658725">
        <ele>2.4091426788389736</ele>
      </trkpt>
      <trkpt lat="1.4497508260901253" lon="103.77258342753657">
        <ele>2.4771716719703636</ele>
      </trkpt>
      <trkpt lat="1.4497033943067" lon="103.77250691848916">
        <ele>2.3676568810326977</ele>
      </trkpt>
      <trkpt lat="1.4496559625207888" lon="103.772430409445">
        <ele>2.0993775488922215</ele>
      </trkpt>
      <trkpt lat="1.449604728779878" lon="103.77235636039875">
        <ele>1.765008030403082</ele>
      </trkpt>
      <trkpt lat="1.44955349207476" lon="103.77228231327234">
        <ele>1.511305502509128</ele>
      </trkpt>
      <trkpt lat="1.449500969839643" lon="103.77220924503638">
        <ele>1.380183205671513</ele>
      </trkpt>
      <trkpt lat="1.4494423327956452" lon="103.77214083302819">
        <ele>1.3715949151949534</ele>
      </trkpt>
      <trkpt lat="1.449383695749688" lon="103.77207242102352">
        <ele>1.4642228056698503</ele>
      </trkpt>
      <trkpt lat="1.4493250605668246" lon="103.77200400744542">
        <ele>1.5559070756905384</ele>
      </trkpt>
      <trkpt lat="1.4492664781975173" lon="103.77193554921284">
        <ele>1.5392462379608596</ele>
      </trkpt>
      <trkpt lat="1.4492078958262489" lon="103.7718670909838">
        <ele>1.36094085556383</ele>
      </trkpt>
      <trkpt lat="1.4491478947054166" lon="103.77180001041361">
        <ele>1.3060428375396231</ele>
      </trkpt>
      <trkpt lat="1.4490803627474544" lon="103.77174024256111">
        <ele>1.4819536711836097</ele>
      </trkpt>
      <trkpt lat="1.4490128307880172" lon="103.77168047471213">
        <ele>1.9420049785708873</ele>
      </trkpt>
      <trkpt lat="1.4489452988271057" lon="103.77162070686667">
        <ele>2.198620875051511</ele>
      </trkpt>
      <trkpt lat="1.4489037666114497" lon="103.77154261970405">
        <ele>2.1961847380935358</ele>
      </trkpt>
      <trkpt lat="1.4488693423890484" lon="103.7714595242777">
        <ele>1.934696567696846</ele>
      </trkpt>
      <trkpt lat="1.4488349181636786" lon="103.77137642885397">
        <ele>2.054596496873341</ele>
      </trkpt>
      <trkpt lat="1.4487738689618301" lon="103.77137754680098">
        <ele>2.8579356268451694</ele>
      </trkpt>
      <trkpt lat="1.4486978054779536" lon="103.7714261541124">
        <ele>4.057178642591765</ele>
      </trkpt>
      <trkpt lat="1.4486595981720511" lon="103.77145056995828">
        <ele>4.780017389810108</ele>
      </trkpt>
      <trkpt lat="1.4486292126862508" lon="103.77149118750424">
        <ele>6.1298994096064</ele>
      </trkpt>
      <trkpt lat="1.4485572061019287" lon="103.77143682155133">
        <ele>6.331571045391537</ele>
      </trkpt>
      <trkpt lat="1.4484848826374024" lon="103.77139308598129">
        <ele>6.023752016191227</ele>
      </trkpt>
      <trkpt lat="1.4484112054274432" lon="103.77134102063108">
        <ele>5.270078813268712</ele>
      </trkpt>
      <trkpt lat="1.448331665655957" lon="103.77129893704965">
        <ele>4.465891193137451</ele>
      </trkpt>
      <trkpt lat="1.4482510938419944" lon="103.77125815601477">
        <ele>3.9641951914193245</ele>
      </trkpt>
      <trkpt lat="1.4481665370215329" lon="103.77122816241956">
        <ele>3.878610716804957</ele>
      </trkpt>
      <trkpt lat="1.4480778936907612" lon="103.77121035771654">
        <ele>4.200785903831317</ele>
      </trkpt>
      <trkpt lat="1.4479892503598406" lon="103.77119255301474">
        <ele>4.700217490811524</ele>
      </trkpt>
      <trkpt lat="1.4479006070287688" lon="103.77117474831421">
        <ele>5.202058279924952</ele>
      </trkpt>
      <trkpt lat="1.4478117895670612" lon="103.77116040913222">
        <ele>5.710978915966965</ele>
      </trkpt>
      <trkpt lat="1.4477371534224932" lon="103.77120154569313">
        <ele>6.169863131898295</ele>
      </trkpt>
      <trkpt lat="1.447703410210855" lon="103.7712839863734">
        <ele>6.557694151716376</ele>
      </trkpt>
      <trkpt lat="1.4476802839086875" lon="103.77137079817157">
        <ele>7.05542586832858</ele>
      </trkpt>
      <trkpt lat="1.4476435511934604" lon="103.77145274267012">
        <ele>7.894471227048585</ele>
      </trkpt>
      <trkpt lat="1.4475893408549438" lon="103.77152420050568">
        <ele>9.087994060648484</ele>
      </trkpt>
      <trkpt lat="1.4475333269253434" lon="103.77159473865542">
        <ele>10.159870069493477</ele>
      </trkpt>
      <trkpt lat="1.4475137747102742" lon="103.77161998705742">
        <ele>10.693086203367354</ele>
      </trkpt>
      <trkpt lat="1.4474334087187233" lon="103.77163774773834">
        <ele>11.083828484693015</ele>
      </trkpt>
      <trkpt lat="1.4473467811805445" lon="103.77161877346552">
        <ele>10.951101980242983</ele>
      </trkpt>
      <trkpt lat="1.447261260320342" lon="103.77159161101426">
        <ele>10.57799101185242</ele>
      </trkpt>
      <trkpt lat="1.447179821253811" lon="103.77155283405577">
        <ele>10.436093771445492</ele>
      </trkpt>
      <trkpt lat="1.4471021615915767" lon="103.77150680237999">
        <ele>10.577044938837107</ele>
      </trkpt>
      <trkpt lat="1.4470244728499984" lon="103.77146083350249">
        <ele>10.996777192757952</ele>
      </trkpt>
      <trkpt lat="1.4469384944579946" lon="103.77144805396051">
        <ele>11.424010543849242</ele>
      </trkpt>
      <trkpt lat="1.4468598606140188" lon="103.77141136143759">
        <ele>11.854483023773332</ele>
      </trkpt>
      <trkpt lat="1.4467829882527956" lon="103.77137357966524">
        <ele>12.30617976108646</ele>
      </trkpt>
      <trkpt lat="1.4466931494485282" lon="103.77138351772801">
        <ele>12.80997949495562</ele>
      </trkpt>
      <trkpt lat="1.4466042189540507" lon="103.77139984112621">
        <ele>13.370651538813751</ele>
      </trkpt>
      <trkpt lat="1.4465171474582568" lon="103.77142342077852">
        <ele>13.925373064535256</ele>
      </trkpt>
      <trkpt lat="1.4464267502386587" lon="103.77142147973588">
        <ele>14.461941194533402</ele>
      </trkpt>
      <trkpt lat="1.4463490283198377" lon="103.77144492472021">
        <ele>14.967445011012506</ele>
      </trkpt>
      <trkpt lat="1.4462910116756627" lon="103.77151385172169">
        <ele>15.450225909075513</ele>
      </trkpt>
      <trkpt lat="1.4462331271119035" lon="103.77158289331426">
        <ele>15.869362477106401</ele>
      </trkpt>
      <trkpt lat="1.4461938569105186" lon="103.77162846955706">
        <ele>16.078832923200594</ele>
      </trkpt>
      <trkpt lat="1.4461318215576942" lon="103.77169385547337">
        <ele>16.724978765435665</ele>
      </trkpt>
      <trkpt lat="1.4460702001871628" lon="103.77175959596345">
        <ele>17.203725422090137</ele>
      </trkpt>
      <trkpt lat="1.4460142594916061" lon="103.7718302019458">
        <ele>17.673402820505782</ele>
      </trkpt>
      <trkpt lat="1.445958318793663" lon="103.77190080792474">
        <ele>18.13462699672434</ele>
      </trkpt>
      <trkpt lat="1.4459023780933342" lon="103.77197141390026">
        <ele>18.870059626527407</ele>
      </trkpt>
      <trkpt lat="1.4458560025985172" lon="103.77204813986889">
        <ele>19.491850627619243</ele>
      </trkpt>
      <trkpt lat="1.44583249843565" lon="103.77213368957031">
        <ele>19.959900236638322</ele>
      </trkpt>
      <trkpt lat="1.4458333546326416" lon="103.77222290375506">
        <ele>20.0</ele>
      </trkpt>
      <trkpt lat="1.445825701138924" lon="103.77231243092744">
        <ele>20.0</ele>
      </trkpt>
      <trkpt lat="1.445822150771924" lon="103.77240219868195">
        <ele>20.0</ele>
      </trkpt>
      <trkpt lat="1.445822246801632" lon="103.7724920477147">
        <ele>20.0</ele>
      </trkpt>
      <trkpt lat="1.4458238054775066" lon="103.77258189426217">
        <ele>20.0</ele>
      </trkpt>
      <trkpt lat="1.445811144669944" lon="103.77267034121589">
        <ele>20.0</ele>
      </trkpt>
      <trkpt lat="1.4457995125267378" lon="103.77275884468315">
        <ele>20.0</ele>
      </trkpt>
      <trkpt lat="1.4458021274899882" lon="103.77284866700484">
        <ele>20.0</ele>
      </trkpt>
      <trkpt lat="1.445804742449672" lon="103.77293848932688">
        <ele>20.0</ele>
      </trkpt>
      <trkpt lat="1.4458073572367436" lon="103.77302831165413">
        <ele>20.0</ele>
      </trkpt>
      <trkpt lat="1.4458099712228778" lon="103.77311813400465">
        <ele>20.0</ele>
      </trkpt>
      <trkpt lat="1.4458125852054444" lon="103.77320795635552">
        <ele>20.0</ele>
      </trkpt>
      <trkpt lat="1.4458151991844446" lon="103.77329777870675">
        <ele>20.0</ele>
      </trkpt>
      <trkpt lat="1.4458174175852192" lon="103.77337400817366">
        <ele>20.0</ele>
      </trkpt>
    </trkseg>
  </trk>
</gpx>