<?xml version="1.0" encoding="UTF-8"?>
<gpx xmlns="http://www.topografix.com/GPX/1/1" xmlns:xsi="http://www.w3.org/2001/XMLSchema-instance" xsi:schemaLocation="http://www.topografix.com/GPX/1/1 http://www.topografix.com/GPX/1/1/gpx.xsd" version="1.1" creator="gpx.py -- https://github.com/tkrajina/gpxpy">
  <trk>
    <name>point_to_point_05000m_026</name>
    <trkseg>
      <trkpt lat="1.4259121879462298" lon="103.9305340205692">
        <ele>2.146678767355037</ele>
      </trkpt>
      <trkpt lat="1.4258407804281357" lon="103.9305890042435">
        <ele>2.702655287234602</ele>
      </trkpt>
      <trkpt lat="1.425758403371693" lon="103.9306260854351">
        <ele>3.8175026142521524</ele>
      </trkpt>
      <trkpt lat="1.4256742198722139" lon="103.9306587951096">
        <ele>4.963599677041351</ele>
      </trkpt>
      <trkpt lat="1.4255885594322169" lon="103.93068732332675">
        <ele>6.11583638863674</ele>
      </trkpt>
      <trkpt lat="1.4255010805497705" lon="103.93071011512245">
        <ele>7.271076915191064</ele>
      </trkpt>
      <trkpt lat="1.425413962533355" lon="103.93073410172177">
        <ele>8.42661079123208</ele>
      </trkpt>
      <trkpt lat="1.4253283085762163" lon="103.93076293572751">
        <ele>9.580522120622012</ele>
      </trkpt>
      <trkpt lat="1.4252429910772644" lon="103.93079271579637">
        <ele>10.732518675700945</ele>
      </trkpt>
      <trkpt lat="1.4251581214085591" lon="103.93082375508799">
        <ele>11.883580427924066</ele>
      </trkpt>
      <trkpt lat="1.425073251739528" lon="103.9308547943775">
        <ele>13.031719091973933</ele>
      </trkpt>
      <trkpt lat="1.4249898970895578" lon="103.93088953629416">
        <ele>14.17626350356734</ele>
      </trkpt>
      <trkpt lat="1.424907306468192" lon="103.93092614545606">
        <ele>15.313664741265486</ele>
      </trkpt>
      <trkpt lat="1.4248264071067407" lon="103.93096604588223">
        <ele>16.440810081984335</ele>
      </trkpt>
      <trkpt lat="1.4247481297742803" lon="103.93101104889011">
        <ele>17.491390570190735</ele>
      </trkpt>
      <trkpt lat="1.4246693376499977" lon="103.93105514133565">
        <ele>18.434381184842277</ele>
      </trkpt>
      <trkpt lat="1.4245899330650593" lon="103.93109815046274">
        <ele>19.277429763865385</ele>
      </trkpt>
      <trkpt lat="1.424510528479463" lon="103.93114115958703">
        <ele>20.02551591022761</ele>
      </trkpt>
      <trkpt lat="1.4244451374304659" lon="103.93120319688651">
        <ele>20.72780529652918</ele>
      </trkpt>
      <trkpt lat="1.424377104314654" lon="103.93126233877491">
        <ele>21.388758154478015</ele>
      </trkpt>
      <trkpt lat="1.424307877695841" lon="103.93132016002313">
        <ele>22.055565391907468</ele>
      </trkpt>
      <trkpt lat="1.424241412881458" lon="103.93138108697026">
        <ele>22.73248130941883</ele>
      </trkpt>
      <trkpt lat="1.4241716659657144" lon="103.9314377873818">
        <ele>23.44890345459051</ele>
      </trkpt>
      <trkpt lat="1.4240956391143524" lon="103.93148644998745">
        <ele>24.012621273740848</ele>
      </trkpt>
      <trkpt lat="1.4240189173859554" lon="103.93153402432898">
        <ele>24.10941418388713</ele>
      </trkpt>
      <trkpt lat="1.4239421956567393" lon="103.93158159866748">
        <ele>23.698884065678442</ele>
      </trkpt>
      <trkpt lat="1.4238658954003198" lon="103.93162982866768">
        <ele>22.982352279650723</ele>
      </trkpt>
      <trkpt lat="1.4237901929000345" lon="103.93167898856449">
        <ele>22.25519337806634</ele>
      </trkpt>
      <trkpt lat="1.423714490398869" lon="103.93172814845819">
        <ele>21.507576779581935</ele>
      </trkpt>
      <trkpt lat="1.423640235994983" lon="103.93177942001441">
        <ele>20.781599927324024</ele>
      </trkpt>
      <trkpt lat="1.423566477484506" lon="103.93183141501036">
        <ele>20.730737303579854</ele>
      </trkpt>
      <trkpt lat="1.4234913787594141" lon="103.93188148082758">
        <ele>21.23261769827285</ele>
      </trkpt>
      <trkpt lat="1.4234119280564361" lon="103.93191927105441">
        <ele>21.810295136762996</ele>
      </trkpt>
      <trkpt lat="1.4234094134324795" lon="103.93200906846195">
        <ele>25.086749753431473</ele>
      </trkpt>
      <trkpt lat="1.4233976299838846" lon="103.9320979913365">
        <ele>27.844848637925043</ele>
      </trkpt>
      <trkpt lat="1.4233712060766341" lon="103.93218358840043">
        <ele>30.451232953559053</ele>
      </trkpt>
      <trkpt lat="1.4233310939713997" lon="103.93226394365125">
        <ele>32.89886411264645</ele>
      </trkpt>
      <trkpt lat="1.4232865464786941" lon="103.93234214470279">
        <ele>34.957578917664236</ele>
      </trkpt>
      <trkpt lat="1.4232489885186166" lon="103.9324236393143">
        <ele>36.441449807856316</ele>
      </trkpt>
      <trkpt lat="1.423216234743978" lon="103.93250739772134">
        <ele>37.45587041464274</ele>
      </trkpt>
      <trkpt lat="1.4231939043214088" lon="103.93259425228484">
        <ele>38.35163918395188</ele>
      </trkpt>
      <trkpt lat="1.4231813000003477" lon="103.93268278892158">
        <ele>39.225156439349405</ele>
      </trkpt>
      <trkpt lat="1.4231933666660297" lon="103.93277062526383">
        <ele>39.79637454038265</ele>
      </trkpt>
      <trkpt lat="1.423236162738804" lon="103.93284809573862">
        <ele>40.0</ele>
      </trkpt>
      <trkpt lat="1.423303554413754" lon="103.93290739696528">
        <ele>40.0</ele>
      </trkpt>
      <trkpt lat="1.4233707305109398" lon="103.93296750923372">
        <ele>40.0</ele>
      </trkpt>
      <trkpt lat="1.4233757080272926" lon="103.9329720567955">
        <ele>40.0</ele>
      </trkpt>
    </trkseg>
  </trk>
</gpx>