{
"type": "FeatureCollection",
"name": "point_to_point_05000m_040",
"crs": { "type": "name", "properties": { "name": "urn:ogc:def:crs:OGC:1.3:CRS84" } },
"features": [
{ "type": "Feature", "properties": { "route_id": "point_to_point_05000m_040", "budget_km": 5.0, "mode": "point_to_point", "rank": 40, "distance_m": 1076.1792757833359, "ascent_m": 30.125665466946412, "descent_m": 31.361949056415483, "gain_density_m_per_km": 27.993166329112182, "source_confidence": 0.65 }, "geometry": { "type": "LineString", "coordinates": [ [ 103.855962332852613, 1.223815796711949 ], [ 103.856027400000016, 1.223835 ], [ 103.85605, 1.2238762 ], [ 103.8560585, 1.2239325 ], [ 103.8560441, 1.224 ], [ 103.8560083, 1.224073 ], [ 103.8558673, 1.2243014 ], [ 103.85581280000001, 1.2244265 ], [ 103.8558025, 1.2244664 ], [ 103.8557936, 1.2245292 ], [ 103.8557887, 1.2246844 ], [ 103.8557749, 1.224746 ], [ 103.855718, 1.2248817 ], [ 103.8557013, 1.224978 ], [ 103.8556691, 1.225076 ], [ 103.8555864, 1.2250853 ], [ 103.8554925, 1.2250688 ], [ 103.8553805, 1.2250492 ], [ 103.8552759, 1.2250304 ], [ 103.8551659, 1.2249821 ], [ 103.8550077, 1.2249205 ], [ 103.8547743, 1.2248695 ], [ 103.8546563, 1.2248883 ], [ 103.8543854, 1.2249607 ], [ 103.8541704, 1.2250316 ], [ 103.8541252, 1.2250465 ], [ 103.8539536, 1.2251216 ], [ 103.8538677, 1.2251672 ], [ 103.853751700000018, 1.2252178 ], [ 103.8536311, 1.2253041 ], [ 103.8535761, 1.2253661 ], [ 103.8535271, 1.2254192 ], [ 103.8534411, 1.2255426 ], [ 103.853275, 1.2257571 ], [ 103.8531623, 1.2258885 ], [ 103.8530684, 1.2260065 ], [ 103.8529719, 1.226154 ], [ 103.8528968, 1.2262693 ], [ 103.8528391, 1.2263387 ], [ 103.852772400000021, 1.2263911 ], [ 103.8527333, 1.2264061 ], [ 103.8526875, 1.2264061 ], [ 103.8526054, 1.2263906 ], [ 103.8525452, 1.2263848 ], [ 103.8523873, 1.2263838 ], [ 103.8523863, 1.2262983 ], [ 103.8523845, 1.2262184 ], [ 103.8523657, 1.2261379 ], [ 103.8523201, 1.2260601 ], [ 103.8522262, 1.2259448 ], [ 103.8521189, 1.2258456 ], [ 103.8519955, 1.2257303 ], [ 103.8519285, 1.2256525 ], [ 103.8518936, 1.2256043 ], [ 103.851848, 1.2254541 ], [ 103.8518131, 1.2253147 ], [ 103.8517997, 1.2251698 ], [ 103.8518024, 1.2250867 ], [ 103.8518587, 1.2250009 ], [ 103.851907, 1.2249473 ], [ 103.851952600000018, 1.2249392 ], [ 103.851993583136107, 1.224955508581629 ], [ 103.8520256, 1.2249711 ], [ 103.8520383, 1.2249704 ], [ 103.8520546, 1.2249613 ], [ 103.8523727, 1.2245981 ], [ 103.8524957, 1.2244244 ], [ 103.8525465, 1.2243206 ], [ 103.8525753, 1.2242461 ], [ 103.8525987, 1.2241681 ], [ 103.8526371, 1.2240386 ], [ 103.8526562, 1.223923 ], [ 103.8525966, 1.2238105 ], [ 103.8525642, 1.2236735 ], [ 103.8525722, 1.2234992 ], [ 103.8525722, 1.2233812 ], [ 103.85254, 1.2231077 ], [ 103.8525159, 1.2229307 ], [ 103.8524947, 1.2228487 ], [ 103.8524639, 1.2227679 ], [ 103.8524368, 1.2227191 ], [ 103.8524166, 1.2226989 ], [ 103.852390442860226, 1.222659141441239 ] ] } }
]
}
