<?xml version="1.0" encoding="UTF-8"?>
<gpx xmlns="http://www.topografix.com/GPX/1/1" xmlns:xsi="http://www.w3.org/2001/XMLSchema-instance" xsi:schemaLocation="http://www.topografix.com/GPX/1/1 http://www.topografix.com/GPX/1/1/gpx.xsd" version="1.1" creator="gpx.py -- https://github.com/tkrajina/gpxpy">
  <trk>
    <name>point_to_point_05000m_029</name>
    <trkseg>
      <trkpt lat="1.4486595981720511" lon="103.77145056995828">
        <ele>4.348714417279787</ele>
      </trkpt>
      <trkpt lat="1.4487356616565514" lon="103.77140196264851">
        <ele>3.4821080125514503</ele>
      </trkpt>
      <trkpt lat="1.4488117251398105" lon="103.77135335533545">
        <ele>2.3354718238671524</ele>
      </trkpt>
      <trkpt lat="1.4488520508215605" lon="103.77141778477146">
        <ele>1.8722748359778354</ele>
      </trkpt>
      <trkpt lat="1.448886475045453" lon="103.77150088019651">
        <ele>2.092517048883739</ele>
      </trkpt>
      <trkpt lat="1.4489208992663767" lon="103.77158397562417">
        <ele>2.225077125219934</ele>
      </trkpt>
      <trkpt lat="1.448978908936012" lon="103.77165045283772">
        <ele>2.0985851681174164</ele>
      </trkpt>
      <trkpt lat="1.4490464408961898" lon="103.77171022068494">
        <ele>1.7130411775761847</ele>
      </trkpt>
      <trkpt lat="1.4491139728548932" lon="103.77176998853568">
        <ele>1.3221866825327335</ele>
      </trkpt>
      <trkpt lat="1.4491784694248488" lon="103.77183270386094">
        <ele>1.315096179612676</ele>
      </trkpt>
      <trkpt lat="1.449237051797103" lon="103.7719011620882">
        <ele>1.4314130410654407</ele>
      </trkpt>
      <trkpt lat="1.4492956341673955" lon="103.77196962031901">
        <ele>1.6015030074651957</ele>
      </trkpt>
      <trkpt lat="1.4493542418847492" lon="103.77203805711956">
        <ele>1.5102927256591112</ele>
      </trkpt>
      <trkpt lat="1.4494128789316907" lon="103.77210646912243">
        <ele>1.418138823398819</ele>
      </trkpt>
      <trkpt lat="1.4494715159766733" lon="103.77217488112885">
        <ele>1.3651772877499129</ele>
      </trkpt>
      <trkpt lat="1.4495277554609651" lon="103.77224511880092">
        <ele>1.434749758463007</ele>
      </trkpt>
      <trkpt lat="1.4495789921672475" lon="103.77231916592562">
        <ele>1.6268562355364835</ele>
      </trkpt>
      <trkpt lat="1.4496302288712128" lon="103.7723932130537">
        <ele>1.93139801969115</ele>
      </trkpt>
      <trkpt lat="1.4496795689358963" lon="103.77246848737477">
        <ele>2.2794028506857726</ele>
      </trkpt>
      <trkpt lat="1.4497270007205707" lon="103.77254499642055">
        <ele>2.4686893651742903</ele>
      </trkpt>
      <trkpt lat="1.4497744325027588" lon="103.77262150546959">
        <ele>2.4872084603904265</ele>
      </trkpt>
      <trkpt lat="1.4498206943306409" lon="103.77269869957006">
        <ele>2.3493450635457136</ele>
      </trkpt>
      <trkpt lat="1.4498650731037876" lon="103.77277699626731">
        <ele>2.257280537987837</ele>
      </trkpt>
      <trkpt lat="1.4499094518743212" lon="103.77285529296769">
        <ele>2.2206583268868942</ele>
      </trkpt>
      <trkpt lat="1.4499519749858223" lon="103.77293457218168">
        <ele>2.238589262309962</ele>
      </trkpt>
      <trkpt lat="1.4499926311937528" lon="103.77301483986268">
        <ele>2.3171575953895522</ele>
      </trkpt>
      <trkpt lat="1.4500328643421494" lon="103.77309531284583">
        <ele>2.451024519466085</ele>
      </trkpt>
      <trkpt lat="1.4500715778160485" lon="103.77317652329174">
        <ele>2.5801487923745854</ele>
      </trkpt>
      <trkpt lat="1.4501102912871187" lon="103.77325773374051">
        <ele>2.6562803091495137</ele>
      </trkpt>
      <trkpt lat="1.4501490047553596" lon="103.77333894419212">
        <ele>2.671738874496974</ele>
      </trkpt>
      <trkpt lat="1.450187718220771" lon="103.77342015464659">
        <ele>2.6592067651672155</ele>
      </trkpt>
      <trkpt lat="1.4502264316833529" lon="103.77350136510391">
        <ele>2.656709896113496</ele>
      </trkpt>
      <trkpt lat="1.4502654613429624" lon="103.77358241040123">
        <ele>2.5669879979630643</ele>
      </trkpt>
      <trkpt lat="1.4503108368649806" lon="103.77366014102195">
        <ele>2.3133554208707436</ele>
      </trkpt>
      <trkpt lat="1.450361190821293" lon="103.77373297157894">
        <ele>2.310053335993025</ele>
      </trkpt>
      <trkpt lat="1.4503788885403734" lon="103.7738193694435">
        <ele>2.4124650913245382</ele>
      </trkpt>
      <trkpt lat="1.450416155381766" lon="103.7739012453134">
        <ele>2.6972763367106225</ele>
      </trkpt>
      <trkpt lat="1.4504534222202772" lon="103.77398312118606">
        <ele>2.6328498411758323</ele>
      </trkpt>
      <trkpt lat="1.4504906890559057" lon="103.77406499706152">
        <ele>2.2606821347604202</ele>
      </trkpt>
      <trkpt lat="1.4505348164158898" lon="103.77414332967436">
        <ele>1.7211842731210893</ele>
      </trkpt>
      <trkpt lat="1.450580843900209" lon="103.77422068092935">
        <ele>1.1619960132243088</ele>
      </trkpt>
      <trkpt lat="1.4506268713819779" lon="103.77429803218753">
        <ele>0.7693225672526666</ele>
      </trkpt>
      <trkpt lat="1.450672898861196" lon="103.7743753834489">
        <ele>0.6919931250892413</ele>
      </trkpt>
      <trkpt lat="1.450671443453539" lon="103.77444602898014">
        <ele>0.7899616467264948</ele>
      </trkpt>
      <trkpt lat="1.4506920066629028" lon="103.77452882420205">
        <ele>1.0113426051762822</ele>
      </trkpt>
      <trkpt lat="1.4507214270500681" lon="103.77461379638335">
        <ele>1.0675356650800538</ele>
      </trkpt>
      <trkpt lat="1.4507507580376193" lon="103.77469879865151">
        <ele>1.080078881653483</ele>
      </trkpt>
      <trkpt lat="1.4507790252298884" lon="103.77478415042172">
        <ele>1.1210362625580956</ele>
      </trkpt>
      <trkpt lat="1.4508044508711446" lon="103.77487038605861">
        <ele>1.1749911122594785</ele>
      </trkpt>
      <trkpt lat="1.4508298765091667" lon="103.77495662169754">
        <ele>1.2624147177100418</ele>
      </trkpt>
      <trkpt lat="1.4508508843925687" lon="103.77504401366531">
        <ele>1.335670353943941</ele>
      </trkpt>
      <trkpt lat="1.450871515844115" lon="103.77513150416327">
        <ele>1.4095348063142537</ele>
      </trkpt>
      <trkpt lat="1.4508921472923177" lon="103.77521899466298">
        <ele>1.4571902843895608</ele>
      </trkpt>
      <trkpt lat="1.4509126012449638" lon="103.77530652489143">
        <ele>1.5155232077951994</ele>
      </trkpt>
      <trkpt lat="1.4509317156698014" lon="103.77539435493969">
        <ele>1.5845335765307318</ele>
      </trkpt>
      <trkpt lat="1.4509508300912644" lon="103.77548218498953">
        <ele>1.6741632308084344</ele>
      </trkpt>
      <trkpt lat="1.4509683457645883" lon="103.77557033758248">
        <ele>1.7793968456393676</ele>
      </trkpt>
      <trkpt lat="1.450985231041896" lon="103.77565861743837">
        <ele>1.892505546644318</ele>
      </trkpt>
      <trkpt lat="1.451003222257839" lon="103.77574668142616">
        <ele>1.9547216076543823</ele>
      </trkpt>
      <trkpt lat="1.4510212134703857" lon="103.77583474541547">
        <ele>1.9220955636159343</ele>
      </trkpt>
      <trkpt lat="1.4510392046795357" lon="103.77592280940628">
        <ele>1.8708549667439918</ele>
      </trkpt>
      <trkpt lat="1.4510571958852891" lon="103.77601087339865">
        <ele>1.8596649263289564</ele>
      </trkpt>
      <trkpt lat="1.4510732765260803" lon="103.77609929010467">
        <ele>1.934077531972461</ele>
      </trkpt>
      <trkpt lat="1.4510883206894245" lon="103.77618789815735">
        <ele>2.0255941058391227</ele>
      </trkpt>
      <trkpt lat="1.451103364849321" lon="103.7762765062113">
        <ele>2.124561138119148</ele>
      </trkpt>
      <trkpt lat="1.451118159859818" lon="103.77636515186748">
        <ele>2.205124760898111</ele>
      </trkpt>
      <trkpt lat="1.4511362584477634" lon="103.7764526803877">
        <ele>2.2594271898413623</ele>
      </trkpt>
      <trkpt lat="1.451155642112348" lon="103.77653966701955">
        <ele>2.345241732532695</ele>
      </trkpt>
      <trkpt lat="1.451164945149718" lon="103.77662905042119">
        <ele>2.647316405546529</ele>
      </trkpt>
      <trkpt lat="1.4511742481835634" lon="103.7767184338237">
        <ele>3.103659231489807</ele>
      </trkpt>
      <trkpt lat="1.4511982160022479" lon="103.77680467467546">
        <ele>3.7432077052791883</ele>
      </trkpt>
      <trkpt lat="1.4512090926199974" lon="103.77689259860301">
        <ele>4.428139702712564</ele>
      </trkpt>
      <trkpt lat="1.4512160688162443" lon="103.77698125296175">
        <ele>4.92071374681953</ele>
      </trkpt>
      <trkpt lat="1.451231010087636" lon="103.77706987820814">
        <ele>4.943404732422281</ele>
      </trkpt>
      <trkpt lat="1.451266982259307" lon="103.77713996501292">
        <ele>4.435733125352379</ele>
      </trkpt>
      <trkpt lat="1.4513102817889754" lon="103.77721675074967">
        <ele>3.6883948654576053</ele>
      </trkpt>
      <trkpt lat="1.4513606494220652" lon="103.77729005352752">
        <ele>2.8935304348383633</ele>
      </trkpt>
      <trkpt lat="1.4514228852339282" lon="103.7773372937103">
        <ele>2.04714149404236</ele>
      </trkpt>
      <trkpt lat="1.4515116261530303" lon="103.77735461187874">
        <ele>1.2339235961887294</ele>
      </trkpt>
      <trkpt lat="1.4516003670719817" lon="103.77737193004839">
        <ele>0.6305951149263003</ele>
      </trkpt>
      <trkpt lat="1.4516876816283895" lon="103.77739482567615">
        <ele>0.29673693414640984</ele>
      </trkpt>
      <trkpt lat="1.4517686009008268" lon="103.77743396639205">
        <ele>0.16758017992016994</ele>
      </trkpt>
      <trkpt lat="1.451848755613476" lon="103.77747542861133">
        <ele>0.11405641493344214</ele>
      </trkpt>
      <trkpt lat="1.4519041419787142" lon="103.7775441915255">
        <ele>0.12419760691964814</ele>
      </trkpt>
      <trkpt lat="1.4519547155687804" lon="103.77761868731753">
        <ele>0.19490718760224376</ele>
      </trkpt>
      <trkpt lat="1.4520053298666822" lon="103.77769315595208">
        <ele>0.27583698071853563</ele>
      </trkpt>
      <trkpt lat="1.4520559049510313" lon="103.77776765088646">
        <ele>0.3567686133116206</ele>
      </trkpt>
      <trkpt lat="1.4521064774753152" lon="103.77784214753949">
        <ele>0.43481949224097405</ele>
      </trkpt>
      <trkpt lat="1.4521572111974792" lon="103.77791653589068">
        <ele>0.49819638094490165</ele>
      </trkpt>
      <trkpt lat="1.4522079529050387" lon="103.77799091887853">
        <ele>0.5471460138944292</ele>
      </trkpt>
      <trkpt lat="1.4522585377298591" lon="103.778065407173">
        <ele>0.5847410062964676</ele>
      </trkpt>
      <trkpt lat="1.452309044478185" lon="103.77813994787674">
        <ele>0.6227116716958865</ele>
      </trkpt>
      <trkpt lat="1.4523595512241414" lon="103.77821448858384">
        <ele>0.6629004497789653</ele>
      </trkpt>
      <trkpt lat="1.4524087329651827" lon="103.7782898893314">
        <ele>0.7064137651845811</ele>
      </trkpt>
      <trkpt lat="1.4524571353421403" lon="103.77836579595294">
        <ele>0.7532516179126771</ele>
      </trkpt>
      <trkpt lat="1.4525055377166356" lon="103.77844170257777">
        <ele>0.8013207294093837</ele>
      </trkpt>
      <trkpt lat="1.4525539400886687" lon="103.77851760920586">
        <ele>0.8866834402169386</ele>
      </trkpt>
      <trkpt lat="1.4526141075648291" lon="103.77858468206071">
        <ele>1.0497504247450709</ele>
      </trkpt>
      <trkpt lat="1.4526728158465345" lon="103.77865293253224">
        <ele>1.301870536690396</ele>
      </trkpt>
      <trkpt lat="1.452726108959749" lon="103.77872553258602">
        <ele>1.6106107334368616</ele>
      </trkpt>
      <trkpt lat="1.4527677850515577" lon="103.77880516977942">
        <ele>1.7980047547880817</ele>
      </trkpt>
      <trkpt lat="1.4528176553037588" lon="103.77887985653979">
        <ele>1.8429174154280903</ele>
      </trkpt>
      <trkpt lat="1.452869888251875" lon="103.77895320572784">
        <ele>1.7441327141515741</ele>
      </trkpt>
      <trkpt lat="1.4529212893834167" lon="103.77902714037889">
        <ele>1.6392062367452758</ele>
      </trkpt>
      <trkpt lat="1.452972690512627" lon="103.77910107503332">
        <ele>1.5398461687044611</ele>
      </trkpt>
      <trkpt lat="1.45302364912917" lon="103.77917531137658">
        <ele>1.4475753288319975</ele>
      </trkpt>
      <trkpt lat="1.4530734069704367" lon="103.77925033894499">
        <ele>1.3658055918760459</ele>
      </trkpt>
      <trkpt lat="1.453122371788036" lon="103.77932588860449">
        <ele>1.3148472574040062</ele>
      </trkpt>
      <trkpt lat="1.4531685486816497" lon="103.77940314217587">
        <ele>1.3016649481140334</ele>
      </trkpt>
      <trkpt lat="1.4532143133869293" lon="103.77948064728884">
        <ele>1.3237890050604795</ele>
      </trkpt>
      <trkpt lat="1.4532598349535102" lon="103.77955829366788">
        <ele>1.3589872747998228</ele>
      </trkpt>
      <trkpt lat="1.4533053565175031" lon="103.7796359400501">
        <ele>1.3951277603417358</ele>
      </trkpt>
      <trkpt lat="1.4533508780789088" lon="103.7797135864355">
        <ele>1.4310253642070878</ele>
      </trkpt>
      <trkpt lat="1.4533964623589093" lon="103.77979119648187">
        <ele>1.4666488239339655</ele>
      </trkpt>
      <trkpt lat="1.4534420547094675" lon="103.77986880185362">
        <ele>1.5026360754001864</ele>
      </trkpt>
      <trkpt lat="1.4534874822260853" lon="103.7799465025385">
        <ele>1.5394108007523215</ele>
      </trkpt>
      <trkpt lat="1.4535328630244642" lon="103.78002423023878">
        <ele>1.5760819517704299</ele>
      </trkpt>
      <trkpt lat="1.4535784820373756" lon="103.78010182000273">
        <ele>1.6696656182996976</ele>
      </trkpt>
      <trkpt lat="1.4536241709055193" lon="103.78017936931874">
        <ele>1.7532483011000615</ele>
      </trkpt>
      <trkpt lat="1.4536698312058738" lon="103.78025693522473">
        <ele>1.828151282404839</ele>
      </trkpt>
      <trkpt lat="1.4537154014928002" lon="103.78033455339992">
        <ele>1.837235393693352</ele>
      </trkpt>
      <trkpt lat="1.4537608554877812" lon="103.78041223880201">
        <ele>1.8475398747203322</ele>
      </trkpt>
      <trkpt lat="1.4538062402426117" lon="103.78048996423163">
        <ele>1.8577482590287915</ele>
      </trkpt>
      <trkpt lat="1.4538518321352543" lon="103.78056756971624">
        <ele>1.8669245568845902</ele>
      </trkpt>
      <trkpt lat="1.4538975191032937" lon="103.78064512014751">
        <ele>1.8751657634487398</ele>
      </trkpt>
      <trkpt lat="1.453943115010044" lon="103.78072272341585">
        <ele>1.883726372470537</ele>
      </trkpt>
      <trkpt lat="1.453988634869769" lon="103.78080037080967">
        <ele>1.8930275164816006</ele>
      </trkpt>
      <trkpt lat="1.4540341547269025" lon="103.78087801820668">
        <ele>1.902320038080764</ele>
      </trkpt>
      <trkpt lat="1.4540797525945444" lon="103.78095562039402">
        <ele>1.91120585929935</ele>
      </trkpt>
      <trkpt lat="1.4541253642453098" lon="103.7810332145928">
        <ele>1.9196266530813952</ele>
      </trkpt>
      <trkpt lat="1.454170989053745" lon="103.78111080115588">
        <ele>1.9284686379252287</ele>
      </trkpt>
      <trkpt lat="1.4542164918111267" lon="103.78118845839808">
        <ele>1.9380325309312498</ele>
      </trkpt>
      <trkpt lat="1.4542619404638113" lon="103.78126614697295">
        <ele>1.9481825959806132</ele>
      </trkpt>
      <trkpt lat="1.4543074329484043" lon="103.78134381021594">
        <ele>1.9585491075337045</ele>
      </trkpt>
      <trkpt lat="1.454352886825573" lon="103.78142149575487">
        <ele>1.9691684222598973</ele>
      </trkpt>
      <trkpt lat="1.4543982783456935" lon="103.78149921730572">
        <ele>1.9030026456921345</ele>
      </trkpt>
      <trkpt lat="1.4544436866918424" lon="103.78157692913248">
        <ele>1.8218949446258943</ele>
      </trkpt>
      <trkpt lat="1.4544892438292718" lon="103.7816545549568">
        <ele>1.7256121184304878</ele>
      </trkpt>
      <trkpt lat="1.4545347900255585" lon="103.7817321871057">
        <ele>1.6920448167648114</ele>
      </trkpt>
      <trkpt lat="1.4545801678514156" lon="103.78180991655792">
        <ele>1.6586513240198533</ele>
      </trkpt>
      <trkpt lat="1.4546256804869588" lon="103.78188756794184">
        <ele>1.6236532577978136</ele>
      </trkpt>
      <trkpt lat="1.4546716353389046" lon="103.78196496032281">
        <ele>1.5834497009330553</ele>
      </trkpt>
      <trkpt lat="1.4547183383825957" lon="103.78204191089758">
        <ele>1.563846039811725</ele>
      </trkpt>
      <trkpt lat="1.4547584414089594" lon="103.78212233721312">
        <ele>1.6358677482010737</ele>
      </trkpt>
      <trkpt lat="1.4547784673856619" lon="103.78220859733055">
        <ele>1.8817100609141988</ele>
      </trkpt>
      <trkpt lat="1.4547730119115188" lon="103.78229684646962">
        <ele>2.304958106501784</ele>
      </trkpt>
      <trkpt lat="1.4547362313830627" lon="103.78237770046351">
        <ele>2.8990940251525434</ele>
      </trkpt>
      <trkpt lat="1.454672720444452" lon="103.78244045748063">
        <ele>3.619932767225911</ele>
      </trkpt>
      <trkpt lat="1.4545867893391762" lon="103.7824666296074">
        <ele>4.429638133829288</ele>
      </trkpt>
      <trkpt lat="1.454498200622536" lon="103.78247391689905">
        <ele>5.210166201601816</ele>
      </trkpt>
      <trkpt lat="1.4544157093976413" lon="103.78244048025974">
        <ele>5.8623439787834135</ele>
      </trkpt>
      <trkpt lat="1.4543470995618741" lon="103.78238272410404">
        <ele>6.305785696640469</ele>
      </trkpt>
      <trkpt lat="1.4542968248556654" lon="103.78230836404664">
        <ele>6.5407731807904</ele>
      </trkpt>
      <trkpt lat="1.4542511625737944" lon="103.78223082024833">
        <ele>6.602148357529399</ele>
      </trkpt>
      <trkpt lat="1.4542131559207472" lon="103.78214928067595">
        <ele>6.576095120364745</ele>
      </trkpt>
      <trkpt lat="1.4541760305540483" lon="103.78206740168136">
        <ele>6.481950077974001</ele>
      </trkpt>
      <trkpt lat="1.4541488008299732" lon="103.78198171142064">
        <ele>6.337885861463512</ele>
      </trkpt>
      <trkpt lat="1.4541247822877665" lon="103.78189508307823">
        <ele>6.142499599853177</ele>
      </trkpt>
      <trkpt lat="1.4541021074440992" lon="103.78180810124087">
        <ele>6.00717299022206</ele>
      </trkpt>
      <trkpt lat="1.4540806400867856" lon="103.78172080939109">
        <ele>5.993246846630934</ele>
      </trkpt>
      <trkpt lat="1.4540604466810958" lon="103.78163322873783">
        <ele>5.939775003946813</ele>
      </trkpt>
      <trkpt lat="1.4540416859777174" lon="103.78154532329219">
        <ele>5.901767689572984</ele>
      </trkpt>
      <trkpt lat="1.453992531022" lon="103.7814730440275">
        <ele>5.872065655611991</ele>
      </trkpt>
      <trkpt lat="1.4539330321002277" lon="103.78140537056173">
        <ele>6.002482005309616</ele>
      </trkpt>
      <trkpt lat="1.453876324482703" lon="103.78133539652974">
        <ele>6.14374472581315</ele>
      </trkpt>
      <trkpt lat="1.4538235566364974" lon="103.7812625912276">
        <ele>6.227589646476439</ele>
      </trkpt>
      <trkpt lat="1.453776198004865" lon="103.78118603730168">
        <ele>6.231906243645582</ele>
      </trkpt>
      <trkpt lat="1.4537371508552785" lon="103.78110517451353">
        <ele>6.1538796299341305</ele>
      </trkpt>
      <trkpt lat="1.4537031949813235" lon="103.78102197414135">
        <ele>5.995064782865643</ele>
      </trkpt>
      <trkpt lat="1.453675095559024" lon="103.78093656156078">
        <ele>5.8082654360074555</ele>
      </trkpt>
      <trkpt lat="1.4536428248174555" lon="103.78085280580112">
        <ele>5.637606662452538</ele>
      </trkpt>
      <trkpt lat="1.4536049822985848" lon="103.78077131039849">
        <ele>5.440565483858777</ele>
      </trkpt>
      <trkpt lat="1.453583745820444" lon="103.7806839628304">
        <ele>5.272286137996569</ele>
      </trkpt>
      <trkpt lat="1.453544591939661" lon="103.78060331654657">
        <ele>5.2009708192918165</ele>
      </trkpt>
      <trkpt lat="1.4534858740935774" lon="103.78053619435032">
        <ele>5.2294531596059315</ele>
      </trkpt>
      <trkpt lat="1.4534174544496743" lon="103.78047916486562">
        <ele>5.388770024445763</ele>
      </trkpt>
      <trkpt lat="1.453332063727387" lon="103.78044956986504">
        <ele>5.679627418631445</ele>
      </trkpt>
      <trkpt lat="1.453246066269297" lon="103.78042176303977">
        <ele>6.142566912296647</ele>
      </trkpt>
      <trkpt lat="1.4531632440387385" lon="103.78038633315039">
        <ele>6.658646530724191</ele>
      </trkpt>
      <trkpt lat="1.453082622530226" lon="103.78034561978319">
        <ele>7.109633761612635</ele>
      </trkpt>
      <trkpt lat="1.4530065844395796" lon="103.78029739055877">
        <ele>7.51228466753791</ele>
      </trkpt>
      <trkpt lat="1.4529329462158038" lon="103.7802452260497">
        <ele>7.856813856086628</ele>
      </trkpt>
      <trkpt lat="1.4528681978605695" lon="103.78018273081837">
        <ele>8.132412262695942</ele>
      </trkpt>
      <trkpt lat="1.452811314445196" lon="103.7801130338444">
        <ele>8.328856336712997</ele>
      </trkpt>
      <trkpt lat="1.4527580512377536" lon="103.78004057512896">
        <ele>8.426040733202798</ele>
      </trkpt>
      <trkpt lat="1.4527154909678055" lon="103.77996128779539">
        <ele>8.384100181524799</ele>
      </trkpt>
      <trkpt lat="1.4526722651044335" lon="103.77988238563739">
        <ele>8.186360514947568</ele>
      </trkpt>
      <trkpt lat="1.4526235674856123" lon="103.77980668794216">
        <ele>7.893282728234659</ele>
      </trkpt>
      <trkpt lat="1.452567154514416" lon="103.77973645371006">
        <ele>7.6134747520063</ele>
      </trkpt>
      <trkpt lat="1.4524977872737648" lon="103.77967888039156">
        <ele>7.385456979958868</ele>
      </trkpt>
      <trkpt lat="1.4524265205553657" lon="103.7796237016701">
        <ele>7.205987624820932</ele>
      </trkpt>
      <trkpt lat="1.452351511642646" lon="103.77957350233385">
        <ele>7.041905675829432</ele>
      </trkpt>
      <trkpt lat="1.4522770475810087" lon="103.7795225282374">
        <ele>6.883582943211953</ele>
      </trkpt>
      <trkpt lat="1.4522038159936075" lon="103.77946980160108">
        <ele>6.71766456273545</ele>
      </trkpt>
      <trkpt lat="1.45213117356107" lon="103.77941629801099">
        <ele>6.541510340265802</ele>
      </trkpt>
      <trkpt lat="1.4520599721079166" lon="103.77936089411247">
        <ele>6.3591356043272755</ele>
      </trkpt>
      <trkpt lat="1.4519887706534829" lon="103.77930549021738">
        <ele>6.161325354806234</ele>
      </trkpt>
      <trkpt lat="1.4519216011436653" lon="103.77924547937116">
        <ele>5.946089183316303</ele>
      </trkpt>
      <trkpt lat="1.451856854485852" lon="103.77918281541564">
        <ele>5.680329882222661</ele>
      </trkpt>
      <trkpt lat="1.4518076827725988" lon="103.77910739858339">
        <ele>5.332936748996868</ele>
      </trkpt>
      <trkpt lat="1.4517920742973878" lon="103.77902004174567">
        <ele>4.913354827212959</ele>
      </trkpt>
      <trkpt lat="1.451771203430561" lon="103.77893265824518">
        <ele>4.534582463284981</ele>
      </trkpt>
      <trkpt lat="1.4517603092589748" lon="103.77888883797173">
        <ele>4.346715954568139</ele>
      </trkpt>
      <trkpt lat="1.4517407178248614" lon="103.77895274003458">
        <ele>4.65022931410745</ele>
      </trkpt>
      <trkpt lat="1.4517571863638887" lon="103.77904109729072">
        <ele>5.07563859939042</ele>
      </trkpt>
      <trkpt lat="1.4517844566494145" lon="103.77912496856734">
        <ele>5.47751591095611</ele>
      </trkpt>
      <trkpt lat="1.4518382677613684" lon="103.77919719036946">
        <ele>5.811269442664386</ele>
      </trkpt>
      <trkpt lat="1.45189924109976" lon="103.77926318890097">
        <ele>6.083039422425402</ele>
      </trkpt>
      <trkpt lat="1.4519641020914482" lon="103.77932580944523">
        <ele>6.3126665775000825</ele>
      </trkpt>
      <trkpt lat="1.4520353334494125" lon="103.77938103924852">
        <ele>6.513242958854743</ele>
      </trkpt>
      <trkpt lat="1.4521075776694135" lon="103.7794350939561">
        <ele>6.6933957411394625</ele>
      </trkpt>
      <trkpt lat="1.4521798218881963" lon="103.77948914866707">
        <ele>6.857894745623594</ele>
      </trkpt>
      <trkpt lat="1.4522559039051033" lon="103.77953756051403">
        <ele>7.022455556440437</ele>
      </trkpt>
      <trkpt lat="1.452328127953514" lon="103.77959164183375">
        <ele>7.187078173589888</ele>
      </trkpt>
      <trkpt lat="1.4524003520007045" lon="103.77964572315683">
        <ele>7.364614578065055</ele>
      </trkpt>
      <trkpt lat="1.452472576046676" lon="103.77969980448333">
        <ele>7.556695541545479</ele>
      </trkpt>
      <trkpt lat="1.4525392167932136" lon="103.77975988423705">
        <ele>7.7824549169867</ele>
      </trkpt>
      <trkpt lat="1.4525983829516964" lon="103.77982781462218">
        <ele>8.049195701595588</ele>
      </trkpt>
      <trkpt lat="1.4526541368018238" lon="103.77989856658347">
        <ele>8.36696209881444</ele>
      </trkpt>
      <trkpt lat="1.4526949449619138" lon="103.77997773820103">
        <ele>8.643535579207919</ele>
      </trkpt>
      <trkpt lat="1.4527274167596098" lon="103.78006160610909">
        <ele>8.786440185996538</ele>
      </trkpt>
      <trkpt lat="1.4527783418037479" lon="103.78013482112567">
        <ele>8.74479015720854</ele>
      </trkpt>
      <trkpt lat="1.4528355860615108" lon="103.78020438811954">
        <ele>8.55083920981639</ele>
      </trkpt>
      <trkpt lat="1.452901234113652" lon="103.78026573382303">
        <ele>8.283164006039497</ele>
      </trkpt>
      <trkpt lat="1.452970347731396" lon="103.78032368922352">
        <ele>7.945063031727055</ele>
      </trkpt>
      <trkpt lat="1.4530466913862667" lon="103.78037081500837">
        <ele>7.553746502352907</ele>
      </trkpt>
      <trkpt lat="1.4531273024387796" lon="103.78041154881083">
        <ele>7.108058512458523</ele>
      </trkpt>
      <trkpt lat="1.4532089802820694" lon="103.78044966431305">
        <ele>6.59652121741038</ele>
      </trkpt>
      <trkpt lat="1.45329540324672" lon="103.78047613666233">
        <ele>6.091568689376355</ele>
      </trkpt>
      <trkpt lat="1.453378943574709" lon="103.78050804970442">
        <ele>5.8185516094581935</ele>
      </trkpt>
      <trkpt lat="1.4534498216300253" lon="103.7805638615344">
        <ele>5.718780863601144</ele>
      </trkpt>
      <trkpt lat="1.4535007001198519" lon="103.78063723199756">
        <ele>5.748385180334431</ele>
      </trkpt>
      <trkpt lat="1.4535492347716545" lon="103.78070919772189">
        <ele>5.818167470545267</ele>
      </trkpt>
      <trkpt lat="1.4535682421685505" lon="103.78079705080947">
        <ele>5.999124588169997</ele>
      </trkpt>
      <trkpt lat="1.453593104235882" lon="103.78088342469701">
        <ele>6.274966359815618</ele>
      </trkpt>
      <trkpt lat="1.453620878327321" lon="103.78096889946976">
        <ele>6.505545969810306</ele>
      </trkpt>
      <trkpt lat="1.4536516409594853" lon="103.7810534011708">
        <ele>6.694105979196276</ele>
      </trkpt>
      <trkpt lat="1.4536869262972905" lon="103.78113584577986">
        <ele>6.814414495206756</ele>
      </trkpt>
      <trkpt lat="1.453731192025535" lon="103.78121420577855">
        <ele>6.841341654318512</ele>
      </trkpt>
      <trkpt lat="1.4537834041144841" lon="103.78128711220832">
        <ele>6.7665703576499645</ele>
      </trkpt>
      <trkpt lat="1.4538414869081537" lon="103.78135598958808">
        <ele>6.601390003029109</ele>
      </trkpt>
      <trkpt lat="1.453904647273674" lon="103.78141999708056">
        <ele>6.382344671260263</ele>
      </trkpt>
      <trkpt lat="1.4539678866831474" lon="103.78148396840595">
        <ele>6.2736645559763184</ele>
      </trkpt>
      <trkpt lat="1.4540005029356113" lon="103.78156635640342">
        <ele>6.329935259255653</ele>
      </trkpt>
      <trkpt lat="1.4540260411522397" lon="103.78165255932407">
        <ele>6.377995785830208</ele>
      </trkpt>
      <trkpt lat="1.4540515793656201" lon="103.78173876224679">
        <ele>6.356249601263273</ele>
      </trkpt>
      <trkpt lat="1.4540771175757525" lon="103.78182496517155">
        <ele>6.313301651753068</ele>
      </trkpt>
      <trkpt lat="1.454102655782636" lon="103.78191116809835">
        <ele>6.4189837198236015</ele>
      </trkpt>
      <trkpt lat="1.4541292439733324" lon="103.78199704305389">
        <ele>6.590560220798555</ele>
      </trkpt>
      <trkpt lat="1.454157939087547" lon="103.78208225989326">
        <ele>6.751131218069581</ele>
      </trkpt>
      <trkpt lat="1.4541866341985934" lon="103.78216747673488">
        <ele>6.887935013463665</ele>
      </trkpt>
      <trkpt lat="1.4542198581737134" lon="103.78225088394817">
        <ele>6.952619522561865</ele>
      </trkpt>
      <trkpt lat="1.4542677113570313" lon="103.7823267939302">
        <ele>6.881537851973839</ele>
      </trkpt>
      <trkpt lat="1.4543198187528" lon="103.78240023890403">
        <ele>6.623159445564387</ele>
      </trkpt>
      <trkpt lat="1.454387672050608" lon="103.78245942535423">
        <ele>6.150499897931721</ele>
      </trkpt>
      <trkpt lat="1.4544723401676731" lon="103.78248358007605">
        <ele>5.494058283898497</ele>
      </trkpt>
      <trkpt lat="1.4545618478395093" lon="103.78248729147595">
        <ele>4.711035662173445</ele>
      </trkpt>
      <trkpt lat="1.45464543144034" lon="103.78245915667033">
        <ele>3.904786433097184</ele>
      </trkpt>
      <trkpt lat="1.4547143858197973" lon="103.7824047024364">
        <ele>3.1787790900373705</ele>
      </trkpt>
      <trkpt lat="1.4547520943781052" lon="103.78232302631682">
        <ele>2.572454057138969</ele>
      </trkpt>
      <trkpt lat="1.4547629394700077" lon="103.78223428146032">
        <ele>2.1429478792765844</ele>
      </trkpt>
      <trkpt lat="1.4547434672726647" lon="103.78214711547298">
        <ele>1.8503306089933342</ele>
      </trkpt>
      <trkpt lat="1.4547151394733882" lon="103.78206241564766">
        <ele>1.7328479172364768</ele>
      </trkpt>
      <trkpt lat="1.4546685248594655" lon="103.78198541215288">
        <ele>1.7126895165951943</ele>
      </trkpt>
      <trkpt lat="1.4546219104746863" lon="103.78190840852282">
        <ele>1.7594403859002037</ele>
      </trkpt>
      <trkpt lat="1.454575302247287" lon="103.78183140121475">
        <ele>1.806166047616327</ele>
      </trkpt>
      <trkpt lat="1.4545286940173379" lon="103.78175439390989">
        <ele>1.8528674155064577</ele>
      </trkpt>
      <trkpt lat="1.4544820857848386" lon="103.78167738660825">
        <ele>1.899568783396588</ele>
      </trkpt>
      <trkpt lat="1.4544354775497896" lon="103.78160037930982">
        <ele>2.0205413084276915</ele>
      </trkpt>
      <trkpt lat="1.4543888693121916" lon="103.78152337201462">
        <ele>2.125050356962472</ele>
      </trkpt>
      <trkpt lat="1.4543428283505981" lon="103.78144603048042">
        <ele>2.2116721927557017</ele>
      </trkpt>
      <trkpt lat="1.4542971071162694" lon="103.78136849997355">
        <ele>2.2061356586662915</ele>
      </trkpt>
      <trkpt lat="1.4542513858793547" lon="103.78129096946985">
        <ele>2.1991753883314584</ele>
      </trkpt>
      <trkpt lat="1.4542056646398558" lon="103.78121343896933">
        <ele>2.1922151179965614</ele>
      </trkpt>
      <trkpt lat="1.4541599433977712" lon="103.78113590847201">
        <ele>2.1852548476617293</ele>
      </trkpt>
      <trkpt lat="1.4541142221531025" lon="103.78105837797786">
        <ele>2.1782945773268323</ele>
      </trkpt>
      <trkpt lat="1.4540685009058494" lon="103.78098084748689">
        <ele>2.171334306991999</ele>
      </trkpt>
      <trkpt lat="1.4540227796560112" lon="103.7809033169991">
        <ele>2.1643740366570903</ele>
      </trkpt>
      <trkpt lat="1.4539770584035903" lon="103.78082578651451">
        <ele>2.157012871322382</ele>
      </trkpt>
      <trkpt lat="1.4539314275677298" lon="103.78074820347224">
        <ele>2.1491701492488</ele>
      </trkpt>
      <trkpt lat="1.4538858149219884" lon="103.78067060985771">
        <ele>2.1408458704364173</ele>
      </trkpt>
      <trkpt lat="1.4538402022736596" lon="103.78059301624634">
        <ele>2.1324445982460016</ele>
      </trkpt>
      <trkpt lat="1.4537945887950432" lon="103.78051542311857">
        <ele>2.124062987190067</ele>
      </trkpt>
      <trkpt lat="1.4537489717053518" lon="103.78043783208838">
        <ele>2.1157010372685487</ele>
      </trkpt>
      <trkpt lat="1.4537033546130744" lon="103.78036024106137">
        <ele>2.107355080120317</ele>
      </trkpt>
      <trkpt lat="1.4536577375182107" lon="103.78028265003755">
        <ele>2.099009122972021</ele>
      </trkpt>
      <trkpt lat="1.4536121204207606" lon="103.7802050590169">
        <ele>2.0141489420839536</ele>
      </trkpt>
      <trkpt lat="1.4535665033207252" lon="103.78012746799942">
        <ele>1.9203939824750984</ele>
      </trkpt>
      <trkpt lat="1.4535208862181035" lon="103.78004987698513">
        <ele>1.8179076366994835</ele>
      </trkpt>
      <trkpt lat="1.4534752269648379" lon="103.77997231049413">
        <ele>1.7836355458260413</ele>
      </trkpt>
      <trkpt lat="1.4534294564223835" lon="103.7798948087486">
        <ele>1.7499582648357546</ele>
      </trkpt>
      <trkpt lat="1.4533836858773508" lon="103.77981730700624">
        <ele>1.7166945743973319</ele>
      </trkpt>
      <trkpt lat="1.4533379199255745" lon="103.77973980258764">
        <ele>1.68340330408866</ele>
      </trkpt>
      <trkpt lat="1.4532921564856167" lon="103.77966229670629">
        <ele>1.6500844539099246</ele>
      </trkpt>
      <trkpt lat="1.4532463930430812" lon="103.77958479082814">
        <ele>1.6167558506382977</ele>
      </trkpt>
      <trkpt lat="1.4532006295979683" lon="103.77950728495317">
        <ele>1.5834272473666706</ele>
      </trkpt>
      <trkpt lat="1.4531548661502771" lon="103.77942977908137">
        <ele>1.5631547323408357</ele>
      </trkpt>
      <trkpt lat="1.4531091027000091" lon="103.77935227321277">
        <ele>1.5637410952452917</ele>
      </trkpt>
      <trkpt lat="1.4530633392471641" lon="103.77927476734735">
        <ele>1.60919446209701</ele>
      </trkpt>
      <trkpt lat="1.4530119834732729" lon="103.77920091322399">
        <ele>1.651554624253064</ele>
      </trkpt>
      <trkpt lat="1.4529688571147374" lon="103.7791219299223">
        <ele>1.6829501705712715</ele>
      </trkpt>
      <trkpt lat="1.4529257468927628" lon="103.77904293646746">
        <ele>1.6793729750347202</ele>
      </trkpt>
      <trkpt lat="1.4528826366681056" lon="103.77896394301568">
        <ele>1.6757271580406015</ele>
      </trkpt>
      <trkpt lat="1.4528395264407663" lon="103.77888494956697">
        <ele>1.6720813410464832</ele>
      </trkpt>
      <trkpt lat="1.4527964162107452" lon="103.77880595612135">
        <ele>1.669493290856843</ele>
      </trkpt>
      <trkpt lat="1.4527908289036364" lon="103.77879571816587">
        <ele>1.6681992657619946</ele>
      </trkpt>
      <trkpt lat="1.452765193588415" lon="103.77885530532014">
        <ele>1.9736332636127407</ele>
      </trkpt>
      <trkpt lat="1.4528232287295604" lon="103.77892422174945">
        <ele>2.061029651489643</ele>
      </trkpt>
      <trkpt lat="1.4528746181677188" lon="103.77899815752947">
        <ele>1.9329118739600863</ele>
      </trkpt>
      <trkpt lat="1.452925374277303" lon="103.77907253033523">
        <ele>1.8363548660852482</ele>
      </trkpt>
      <trkpt lat="1.4529763405953913" lon="103.77914676085933">
        <ele>1.742562760102203</ele>
      </trkpt>
      <trkpt lat="1.4530270923478077" lon="103.77922112875734">
        <ele>1.651468662461425</ele>
      </trkpt>
      <trkpt lat="1.4530772120633852" lon="103.77929589755351">
        <ele>1.582431072696049</ele>
      </trkpt>
      <trkpt lat="1.4531229916641895" lon="103.77937339400297">
        <ele>1.5483124516332858</ele>
      </trkpt>
      <trkpt lat="1.453168775309013" lon="103.77945079350647">
        <ele>1.5541499080379675</ele>
      </trkpt>
      <trkpt lat="1.4532143884882165" lon="103.77952838678503">
        <ele>1.5818502954327736</ele>
      </trkpt>
      <trkpt lat="1.4532599101802157" lon="103.77960603302806">
        <ele>1.617840018140927</ele>
      </trkpt>
      <trkpt lat="1.4533053788690917" lon="103.77968370998296">
        <ele>1.6542471603810947</ele>
      </trkpt>
      <trkpt lat="1.453350884249115" lon="103.77976136573236">
        <ele>1.6907460715343454</ele>
      </trkpt>
      <trkpt lat="1.453396381731839" lon="103.77983902493129">
        <ele>1.7258743208573548</ele>
      </trkpt>
      <trkpt lat="1.4534422041233122" lon="103.77991649642078">
        <ele>1.7618434241834413</ele>
      </trkpt>
      <trkpt lat="1.4534874918805867" lon="103.77999427725554">
        <ele>1.7982549072333054</ele>
      </trkpt>
      <trkpt lat="1.4535328753710575" lon="103.78007200305402">
        <ele>1.8822915292723483</ele>
      </trkpt>
      <trkpt lat="1.453578494752447" lon="103.78014959272093">
        <ele>1.9830496596775717</ele>
      </trkpt>
      <trkpt lat="1.4536242748818002" lon="103.78022708888129">
        <ele>2.0740876153989305</ele>
      </trkpt>
      <trkpt lat="1.4536698743109393" lon="103.78030469011034">
        <ele>2.109811343555901</ele>
      </trkpt>
      <trkpt lat="1.4537153989033793" lon="103.78038233470059">
        <ele>2.119674414380301</ele>
      </trkpt>
      <trkpt lat="1.4537607835778872" lon="103.7804600601749">
        <ele>2.130196775771489</ele>
      </trkpt>
      <trkpt lat="1.453806234096007" lon="103.78053774751032">
        <ele>2.1399045953508877</ele>
      </trkpt>
      <trkpt lat="1.453851942489289" lon="103.78061528547391">
        <ele>2.148392422597436</ele>
      </trkpt>
      <trkpt lat="1.4538976025977906" lon="103.78069285147498">
        <ele>2.156689932009801</ele>
      </trkpt>
      <trkpt lat="1.453943096161116" lon="103.7807705140815">
        <ele>2.1658261153940646</ele>
      </trkpt>
      <trkpt lat="1.4539886153071557" lon="103.78084816187476">
        <ele>2.1753079389421712</ele>
      </trkpt>
      <trkpt lat="1.4540341974447917" lon="103.78092577319127">
        <ele>2.184256234898435</ele>
      </trkpt>
      <trkpt lat="1.4540798114332143" lon="103.78100336602307">
        <ele>2.1926339786479256</ele>
      </trkpt>
      <trkpt lat="1.4541254593432065" lon="103.78108093916765">
        <ele>2.2011477171677476</ele>
      </trkpt>
      <trkpt lat="1.454171010739573" lon="103.78115856822227">
        <ele>2.210393736873804</ele>
      </trkpt>
      <trkpt lat="1.4542164593932363" lon="103.78123625679498">
        <ele>2.220405480107237</ele>
      </trkpt>
      <trkpt lat="1.4542619344516245" lon="103.78131393010823">
        <ele>2.2306707403706105</ele>
      </trkpt>
      <trkpt lat="1.4543074286361366" lon="103.78139159236886">
        <ele>2.2428319928438287</ele>
      </trkpt>
      <trkpt lat="1.4543524450123142" lon="103.78146952178116">
        <ele>2.2517953248440183</ele>
      </trkpt>
      <trkpt lat="1.4543981262902643" lon="103.78154707554025">
        <ele>2.167691334934134</ele>
      </trkpt>
      <trkpt lat="1.4544438058334563" lon="103.78162463030982">
        <ele>2.0669227274943567</ele>
      </trkpt>
      <trkpt lat="1.454489312725132" lon="103.78170228512431">
        <ele>1.95469729414732</ele>
      </trkpt>
      <trkpt lat="1.4545348203991204" lon="103.78177993951316">
        <ele>1.9221999661443292</ele>
      </trkpt>
      <trkpt lat="1.4545800106402922" lon="103.78185777048482">
        <ele>1.889121421754021</ele>
      </trkpt>
      <trkpt lat="1.4546256579769479" lon="103.78193532436248">
        <ele>1.8513335802438668</ele>
      </trkpt>
      <trkpt lat="1.4546723640197141" lon="103.78201227313794">
        <ele>1.8085730304844503</ele>
      </trkpt>
      <trkpt lat="1.4547188233561335" lon="103.78208936590396">
        <ele>1.8230229329872605</ele>
      </trkpt>
      <trkpt lat="1.4547488713173915" lon="103.7821735553121">
        <ele>1.9795386086021045</ele>
      </trkpt>
      <trkpt lat="1.4547547451135354" lon="103.78226308273253">
        <ele>2.33476870392295</ele>
      </trkpt>
      <trkpt lat="1.454728426788158" lon="103.78234849101351">
        <ele>2.876012207331108</ele>
      </trkpt>
      <trkpt lat="1.454673225697012" lon="103.78241914087452">
        <ele>3.5691441776967268</ele>
      </trkpt>
      <trkpt lat="1.4545939740068625" lon="103.78246049634632">
        <ele>4.362916009182758</ele>
      </trkpt>
      <trkpt lat="1.4545055109367468" lon="103.78247791223936">
        <ele>5.17473517667</ele>
      </trkpt>
      <trkpt lat="1.4544182118442546" lon="103.7824605542199">
        <ele>5.886731797469868</ele>
      </trkpt>
      <trkpt lat="1.4543442905146562" lon="103.78240924264317">
        <ele>6.427579346516668</ele>
      </trkpt>
      <trkpt lat="1.4542866170692017" lon="103.78234062815058">
        <ele>6.735580856606287</ele>
      </trkpt>
      <trkpt lat="1.4542406465673943" lon="103.78226331762228">
        <ele>6.861847891337047</ele>
      </trkpt>
      <trkpt lat="1.4541989776279922" lon="103.78218358092398">
        <ele>6.854077993909223</ele>
      </trkpt>
      <trkpt lat="1.4541619036379312" lon="103.78210163439248">
        <ele>6.787738015488579</ele>
      </trkpt>
      <trkpt lat="1.4541306881047167" lon="103.7820174054399">
        <ele>6.654903039607909</ele>
      </trkpt>
      <trkpt lat="1.4541074785313353" lon="103.78193056736441">
        <ele>6.477801187669144</ele>
      </trkpt>
      <trkpt lat="1.454082816267303" lon="103.7818441221683">
        <ele>6.307592693030085</ele>
      </trkpt>
      <trkpt lat="1.454061446725137" lon="103.78175680743301">
        <ele>6.283279560581671</ele>
      </trkpt>
      <trkpt lat="1.4540396442826373" lon="103.7816696050063">
        <ele>6.28310654798743</ele>
      </trkpt>
      <trkpt lat="1.4540133595548639" lon="103.78158366663529">
        <ele>6.2096057890057805</ele>
      </trkpt>
      <trkpt lat="1.4540080759282357" lon="103.7815198018229">
        <ele>6.114461094778065</ele>
      </trkpt>
      <trkpt lat="1.4540349065881972" lon="103.7814339873759">
        <ele>5.14791091037225</ele>
      </trkpt>
      <trkpt lat="1.4540749361804286" lon="103.78135386635586">
        <ele>4.379219520264704</ele>
      </trkpt>
      <trkpt lat="1.4540918138976773" lon="103.78126933286498">
        <ele>3.803240838128246</ele>
      </trkpt>
      <trkpt lat="1.4540612137787148" lon="103.78118546259115">
        <ele>3.559670182726402</ele>
      </trkpt>
      <trkpt lat="1.4540063950266358" lon="103.78111573119575">
        <ele>3.6890899669747497</ele>
      </trkpt>
      <trkpt lat="1.4539311709240046" lon="103.78106677986995">
        <ele>3.8895852694925304</ele>
      </trkpt>
      <trkpt lat="1.4538842521720161" lon="103.78099174723839">
        <ele>3.9906642139570123</ele>
      </trkpt>
      <trkpt lat="1.4538513061041087" lon="103.78090806303229">
        <ele>3.9254490157017816</ele>
      </trkpt>
      <trkpt lat="1.4538088337902566" lon="103.78082936892827">
        <ele>3.916743275139808</ele>
      </trkpt>
      <trkpt lat="1.4537496853269478" lon="103.78076260625346">
        <ele>4.1620353298268284</ele>
      </trkpt>
      <trkpt lat="1.4536678608975082" lon="103.7807262662451">
        <ele>4.657863911371407</ele>
      </trkpt>
      <trkpt lat="1.4535811983105298" lon="103.78070098775072">
        <ele>5.064784386460018</ele>
      </trkpt>
      <trkpt lat="1.453550986022666" lon="103.78063740359693">
        <ele>5.029580727124245</ele>
      </trkpt>
      <trkpt lat="1.4535738020620155" lon="103.7805513174024">
        <ele>4.610985927565245</ele>
      </trkpt>
      <trkpt lat="1.4535656119454272" lon="103.78046241536562">
        <ele>4.147160987989463</ele>
      </trkpt>
      <trkpt lat="1.4535364284506913" lon="103.7803775834097">
        <ele>3.8242665229072945</ele>
      </trkpt>
      <trkpt lat="1.453488645471333" lon="103.78030223186595">
        <ele>3.6887181201638803</ele>
      </trkpt>
      <trkpt lat="1.4534244203341469" lon="103.78023926696406">
        <ele>3.651097995655045</ele>
      </trkpt>
      <trkpt lat="1.4533694266110757" lon="103.78016832638123">
        <ele>3.6045131426858714</ele>
      </trkpt>
      <trkpt lat="1.4533530824832095" lon="103.78008063259907">
        <ele>3.4073959103650533</ele>
      </trkpt>
      <trkpt lat="1.453335967982061" lon="103.77999244344136">
        <ele>3.0884361622245304</ele>
      </trkpt>
      <trkpt lat="1.4533138204914922" lon="103.77990542680337">
        <ele>2.8137982288973014</ele>
      </trkpt>
      <trkpt lat="1.4532837896335422" lon="103.77982086971116">
        <ele>2.660002068176391</ele>
      </trkpt>
      <trkpt lat="1.453233000135495" lon="103.77974691139843">
        <ele>2.6439472524695002</ele>
      </trkpt>
      <trkpt lat="1.453174125795715" lon="103.77967870077373">
        <ele>2.759228343977895</ele>
      </trkpt>
      <trkpt lat="1.4531107223136466" lon="103.77961464260946">
        <ele>2.9900206864560217</ele>
      </trkpt>
      <trkpt lat="1.4530391342883626" lon="103.77956015727676">
        <ele>3.371836704859137</ele>
      </trkpt>
      <trkpt lat="1.4529579775294554" lon="103.77952420507542">
        <ele>3.721360412013271</ele>
      </trkpt>
      <trkpt lat="1.452946758636388" lon="103.7795215151497">
        <ele>3.9304947080417474</ele>
      </trkpt>
      <trkpt lat="1.4530321863025821" lon="103.77954645136195">
        <ele>3.388519041180077</ele>
      </trkpt>
      <trkpt lat="1.453105168437393" lon="103.77959925557137">
        <ele>2.9573094895392384</ele>
      </trkpt>
      <trkpt lat="1.453169970761039" lon="103.77966192243734">
        <ele>2.7055767336449397</ele>
      </trkpt>
      <trkpt lat="1.4532297493980064" lon="103.77972923090111">
        <ele>2.5863359803608286</ele>
      </trkpt>
      <trkpt lat="1.453278988398267" lon="103.77980446928231">
        <ele>2.5886754642011542</ele>
      </trkpt>
      <trkpt lat="1.453313678730656" lon="103.77988733150237">
        <ele>2.7228790767977884</ele>
      </trkpt>
      <trkpt lat="1.4533389213959282" lon="103.77997361638764">
        <ele>2.962758303466925</ele>
      </trkpt>
      <trkpt lat="1.453358606453998" lon="103.78006113536455">
        <ele>3.2720341478938173</ele>
      </trkpt>
      <trkpt lat="1.4533724867099396" lon="103.78014987548536">
        <ele>3.4937886142357257</ele>
      </trkpt>
      <trkpt lat="1.4534208530090846" lon="103.78022387920672">
        <ele>3.5294433065183157</ele>
      </trkpt>
      <trkpt lat="1.4534892529803656" lon="103.78028250014734">
        <ele>3.5593035550131193</ele>
      </trkpt>
      <trkpt lat="1.4535392780401584" lon="103.78035705404201">
        <ele>3.646394521687135</ele>
      </trkpt>
      <trkpt lat="1.453572526123907" lon="103.78044032611223">
        <ele>3.957020475589969</ele>
      </trkpt>
      <trkpt lat="1.4535830836531767" lon="103.78052919599682">
        <ele>4.357055359575916</ele>
      </trkpt>
      <trkpt lat="1.4535742075666453" lon="103.78061850470266">
        <ele>4.878053609221226</ele>
      </trkpt>
      <trkpt lat="1.453552618848755" lon="103.78067162165655">
        <ele>5.170942398165417</ele>
      </trkpt>
    </trkseg>
  </trk>
</gpx>