<?xml version="1.0" encoding="UTF-8"?>
<gpx xmlns="http://www.topografix.com/GPX/1/1" xmlns:xsi="http://www.w3.org/2001/XMLSchema-instance" xsi:schemaLocation="http://www.topografix.com/GPX/1/1 http://www.topografix.com/GPX/1/1/gpx.xsd" version="1.1" creator="gpx.py -- https://github.com/tkrajina/gpxpy">
  <trk>
    <name>point_to_point_05000m_031</name>
    <trkseg>
      <trkpt lat="1.2530147690911257" lon="103.83677602809128">
        <ele>2.431915976281407</ele>
      </trkpt>
      <trkpt lat="1.252927711751757" lon="103.83680036049813">
        <ele>2.790928809474965</ele>
      </trkpt>
      <trkpt lat="1.2528406544121067" lon="103.83682469290339">
        <ele>3.5025461181893576</ele>
      </trkpt>
      <trkpt lat="1.2527585364123517" lon="103.83685743588123">
        <ele>4.189789603761319</ele>
      </trkpt>
      <trkpt lat="1.2526913742027057" lon="103.83691760903761">
        <ele>4.852659266190789</ele>
      </trkpt>
      <trkpt lat="1.2526242119916424" lon="103.83697778219093">
        <ele>5.511610944452106</ele>
      </trkpt>
      <trkpt lat="1.2525463828499168" lon="103.83702007608792">
        <ele>6.17439423855284</ele>
      </trkpt>
      <trkpt lat="1.2524576796518738" lon="103.83703676047006">
        <ele>6.788885038300546</ele>
      </trkpt>
      <trkpt lat="1.2523687987839172" lon="103.83703060679933">
        <ele>7.362139229550898</ele>
      </trkpt>
      <trkpt lat="1.252306546943906" lon="103.83696953439043">
        <ele>7.747812014713793</ele>
      </trkpt>
      <trkpt lat="1.25227055212635" lon="103.83688710516817">
        <ele>7.998021511796023</ele>
      </trkpt>
      <trkpt lat="1.252234559401188" lon="103.83680467504517">
        <ele>8.091647504076251</ele>
      </trkpt>
      <trkpt lat="1.2521985725644345" lon="103.83672224238539">
        <ele>8.169930692901254</ele>
      </trkpt>
      <trkpt lat="1.2521681518086707" lon="103.83663823020584">
        <ele>8.175340137443015</ele>
      </trkpt>
      <trkpt lat="1.2521588213656107" lon="103.83654893157542">
        <ele>8.119826126923538</ele>
      </trkpt>
      <trkpt lat="1.2521528924213683" lon="103.83645927203636">
        <ele>8.315457523148133</ele>
      </trkpt>
      <trkpt lat="1.252146963474039" lon="103.8363696124977">
        <ele>8.830086678806678</ele>
      </trkpt>
      <trkpt lat="1.2521360899414151" lon="103.83628065167537">
        <ele>9.686908206682075</ele>
      </trkpt>
      <trkpt lat="1.2521057942424925" lon="103.83619635107955">
        <ele>10.570134855894734</ele>
      </trkpt>
      <trkpt lat="1.2520703295126305" lon="103.8361136953591">
        <ele>11.446442432589047</ele>
      </trkpt>
      <trkpt lat="1.252034864780131" lon="103.83603103964087">
        <ele>12.280702884324135</ele>
      </trkpt>
      <trkpt lat="1.2519994000449945" lon="103.83594838392486">
        <ele>13.091954561879888</ele>
      </trkpt>
      <trkpt lat="1.2519639353072216" lon="103.83586572821106">
        <ele>13.903206239435553</ele>
      </trkpt>
      <trkpt lat="1.2519284705668126" lon="103.83578307249948">
        <ele>14.714457916991307</ele>
      </trkpt>
      <trkpt lat="1.2518930058237672" lon="103.83570041679012">
        <ele>15.510873827715875</ele>
      </trkpt>
      <trkpt lat="1.2518651589581355" lon="103.83561510362047">
        <ele>16.252380439302723</ele>
      </trkpt>
      <trkpt lat="1.2518547769694317" lon="103.83552655831559">
        <ele>16.89166204556561</ele>
      </trkpt>
      <trkpt lat="1.2518534212457642" lon="103.83543671558148">
        <ele>17.351110038671422</ele>
      </trkpt>
      <trkpt lat="1.2518394136871334" lon="103.8353491106665">
        <ele>17.92867043212002</ele>
      </trkpt>
      <trkpt lat="1.2517892515094173" lon="103.8352745229793">
        <ele>18.714865508964504</ele>
      </trkpt>
      <trkpt lat="1.251737670798738" lon="103.83520071787585">
        <ele>20.502535805954043</ele>
      </trkpt>
      <trkpt lat="1.2516860900859432" lon="103.83512691277528">
        <ele>23.00651664257646</ele>
      </trkpt>
      <trkpt lat="1.2516503921776772" lon="103.83504605705917">
        <ele>25.569796915421858</ele>
      </trkpt>
      <trkpt lat="1.2516738987395364" lon="103.83496188271053">
        <ele>26.71435422623516</ele>
      </trkpt>
      <trkpt lat="1.2517414591571658" lon="103.83490260948993">
        <ele>26.432724255185605</ele>
      </trkpt>
      <trkpt lat="1.2518108091217415" lon="103.83484493806102">
        <ele>25.338711528816347</ele>
      </trkpt>
      <trkpt lat="1.251880159085008" lon="103.83478726662909">
        <ele>24.309027108708772</ele>
      </trkpt>
      <trkpt lat="1.251944459025364" lon="103.8347249511999">
        <ele>23.63583500451119</ele>
      </trkpt>
      <trkpt lat="1.2519954902982016" lon="103.83465079570792">
        <ele>23.335459759508364</ele>
      </trkpt>
      <trkpt lat="1.2520447497960716" lon="103.8345754415157">
        <ele>23.299546613356835</ele>
      </trkpt>
      <trkpt lat="1.2520940092917465" lon="103.83450008732066">
        <ele>23.43289882684394</ele>
      </trkpt>
      <trkpt lat="1.2521432687852256" lon="103.83442473312282">
        <ele>23.71919185668465</ele>
      </trkpt>
      <trkpt lat="1.2521925282765087" lon="103.83434937892216">
        <ele>24.16769563781177</ele>
      </trkpt>
      <trkpt lat="1.252241787765596" lon="103.83427402471867">
        <ele>24.616199418938894</ele>
      </trkpt>
      <trkpt lat="1.2522910472524869" lon="103.8341986705124">
        <ele>25.0647032000663</ele>
      </trkpt>
      <trkpt lat="1.2523403067371812" lon="103.83412331630328">
        <ele>25.513206981193424</ele>
      </trkpt>
      <trkpt lat="1.2523895662196785" lon="103.83404796209136">
        <ele>26.08098319773082</ele>
      </trkpt>
      <trkpt lat="1.2524293888635984" lon="103.83396756412594">
        <ele>26.753356351176265</ele>
      </trkpt>
      <trkpt lat="1.2524655264085902" lon="103.83388519656725">
        <ele>27.46806847791429</ele>
      </trkpt>
      <trkpt lat="1.2524967209482192" lon="103.83380098192467">
        <ele>28.150491638195962</ele>
      </trkpt>
      <trkpt lat="1.2525241720263152" lon="103.83371536843941">
        <ele>28.815301330522914</ele>
      </trkpt>
      <trkpt lat="1.2525516231015905" lon="103.83362975495238">
        <ele>29.524755518510954</ele>
      </trkpt>
      <trkpt lat="1.2525790741740463" lon="103.83354414146355">
        <ele>30.15721881275699</ele>
      </trkpt>
      <trkpt lat="1.2526065252436824" lon="103.83345852797294">
        <ele>30.689020411212876</ele>
      </trkpt>
      <trkpt lat="1.2526339763104979" lon="103.83337291448055">
        <ele>31.12016031387799</ele>
      </trkpt>
      <trkpt lat="1.2526614273744932" lon="103.83328730098637">
        <ele>31.52762941449463</ele>
      </trkpt>
      <trkpt lat="1.2526888784356676" lon="103.83320168749042">
        <ele>31.927997941468153</ele>
      </trkpt>
      <trkpt lat="1.2527244564414515" lon="103.83311948853134">
        <ele>32.49750452606309</ele>
      </trkpt>
      <trkpt lat="1.2527671570542775" lon="103.83304028213577">
        <ele>33.23614916827963</ele>
      </trkpt>
      <trkpt lat="1.2528098576646796" lon="103.83296107573764">
        <ele>33.35206070590634</ele>
      </trkpt>
      <trkpt lat="1.252852558272657" lon="103.83288186933693">
        <ele>32.621667030550675</ele>
      </trkpt>
      <trkpt lat="1.25289525887821" lon="103.83280266293367">
        <ele>31.044968142212024</ele>
      </trkpt>
      <trkpt lat="1.2529379594813383" lon="103.83272345652784">
        <ele>29.42333685312715</ele>
      </trkpt>
      <trkpt lat="1.2530109104014018" lon="103.8326837915162">
        <ele>28.083314393728063</ele>
      </trkpt>
      <trkpt lat="1.253091610312412" lon="103.83272330977489">
        <ele>27.066661715296302</ele>
      </trkpt>
      <trkpt lat="1.253169265822479" lon="103.83276925968553">
        <ele>26.384609918641615</ele>
      </trkpt>
      <trkpt lat="1.2532457942561384" lon="103.8328171375106">
        <ele>25.72766726041299</ele>
      </trkpt>
      <trkpt lat="1.2533223226888728" lon="103.83286501533847">
        <ele>24.372714687763306</ele>
      </trkpt>
      <trkpt lat="1.2534012838560362" lon="103.83290751576975">
        <ele>22.484331448007836</ele>
      </trkpt>
      <trkpt lat="1.253490442732462" lon="103.83291764430508">
        <ele>20.42811392867105</ele>
      </trkpt>
      <trkpt lat="1.2535785786955898" lon="103.83290412026368">
        <ele>19.253692835921385</ele>
      </trkpt>
      <trkpt lat="1.2536424209605574" lon="103.83284279420045">
        <ele>18.575386305202002</ele>
      </trkpt>
      <trkpt lat="1.2537003306235734" lon="103.8327737785737">
        <ele>17.731488165505166</ele>
      </trkpt>
      <trkpt lat="1.2537443440800324" lon="103.83269634777498">
        <ele>16.326227628481597</ele>
      </trkpt>
      <trkpt lat="1.253809921016686" lon="103.83264018789335">
        <ele>14.544845033131272</ele>
      </trkpt>
      <trkpt lat="1.2538880642599888" lon="103.83259495897676">
        <ele>12.719839459745634</ele>
      </trkpt>
      <trkpt lat="1.2539581163351132" lon="103.8325407541978">
        <ele>10.932743723457401</ele>
      </trkpt>
      <trkpt lat="1.2539999577829526" lon="103.83246298482591">
        <ele>9.285140739921868</ele>
      </trkpt>
      <trkpt lat="1.2540195154500777" lon="103.83237525818855">
        <ele>8.090606981780322</ele>
      </trkpt>
      <trkpt lat="1.2540390731142401" lon="103.83228753154987">
        <ele>7.297578818462038</ele>
      </trkpt>
      <trkpt lat="1.2540850203697191" lon="103.83221374214145">
        <ele>6.700840501841644</ele>
      </trkpt>
      <trkpt lat="1.2541573250118798" lon="103.83215977140654">
        <ele>6.23440894413406</ele>
      </trkpt>
      <trkpt lat="1.2541645809272752" lon="103.83215435533518">
        <ele>5.9382616985204875</ele>
      </trkpt>
    </trkseg>
  </trk>
</gpx>