{
"type": "FeatureCollection",
"name": "point_to_point_05000m_018",
"crs": { "type": "name", "properties": { "name": "urn:ogc:def:crs:OGC:1.3:CRS84" } },
"features": [
{ "type": "Feature", "properties": { "route_id": "point_to_point_05000m_018", "budget_km": 5.0, "mode": "point_to_point", "rank": 18, "distance_m": 2835.5036801348588, "ascent_m": 53.310278096971771, "descent_m": 51.8128856569299, "gain_density_m_per_km": 18.800990621333384, "source_confidence": 0.65 }, "geometry": { "type": "LineString", "coordinates": [ [ 103.663819380035562, 1.351282523445758 ], [ 103.6634709, 1.3516015 ], [ 103.6631974, 1.3517188 ], [ 103.6628815, 1.3518099 ], [ 103.662774, 1.3518099 ], [ 103.6623636, 1.3518034 ], [ 103.6622203, 1.3517643 ], [ 103.6620542, 1.3516536 ], [ 103.6619337, 1.3515104 ], [ 103.6618621, 1.3513606 ], [ 103.6618523, 1.3512043 ], [ 103.6618132, 1.3508332 ], [ 103.661595, 1.3500941 ], [ 103.661537507301375, 1.349730841526815 ], [ 103.6617297, 1.3496647 ], [ 103.6625981, 1.3495601 ], [ 103.662826700000011, 1.3495681 ], [ 103.6630606, 1.3496253 ], [ 103.6633667, 1.3498792 ], [ 103.66372320264027, 1.350441280604174 ], [ 103.6640236, 1.3503877 ], [ 103.6643025, 1.3504199 ], [ 103.6644635, 1.3505164 ], [ 103.664662, 1.350747 ], [ 103.6649195, 1.3509347 ], [ 103.6651072, 1.3510366 ], [ 103.6653969, 1.3511224 ], [ 103.6656222, 1.3511117 ], [ 103.6660883, 1.3510081 ], [ 103.6661741, 1.350992 ], [ 103.6663088, 1.3510098 ], [ 103.6664182, 1.3510698 ], [ 103.6671135, 1.3517606 ], [ 103.6674676, 1.3520019 ], [ 103.6677841, 1.3521414 ], [ 103.66885690861838, 1.352270072039767 ], [ 103.6692479, 1.3522684 ], [ 103.6693847, 1.3522979 ], [ 103.6704308, 1.352861 ], [ 103.6705649, 1.3529119 ], [ 103.6707795, 1.3529173 ], [ 103.6717591, 1.3528332 ], [ 103.6722982, 1.3527018 ], [ 103.673113, 1.3526974 ], [ 103.6732102, 1.3527312 ], [ 103.673286, 1.3528435 ], [ 103.6734972, 1.3533158 ], [ 103.6737064, 1.3536001 ], [ 103.6739746, 1.3538843 ], [ 103.674039, 1.3539808 ], [ 103.674081900000019, 1.354131 ], [ 103.6741999, 1.3543938 ], [ 103.6743072, 1.3546029 ], [ 103.6745379, 1.3548228 ], [ 103.6749348, 1.3550642 ], [ 103.675144, 1.3551821 ], [ 103.6754123, 1.3552197 ], [ 103.6756697, 1.3551982 ], [ 103.6758951, 1.3551071 ], [ 103.6761418, 1.3549623 ], [ 103.6763886, 1.3547638 ], [ 103.6765656, 1.354485 ], [ 103.6767004, 1.3542369 ], [ 103.676796294070741, 1.354045227933873 ], [ 103.6769948, 1.3535518 ], [ 103.6771181, 1.353155 ], [ 103.6771181, 1.3530155 ], [ 103.677048400000018, 1.3528546 ], [ 103.6767104, 1.3523827 ], [ 103.676646100000013, 1.3522379 ], [ 103.6765817, 1.3517338 ], [ 103.6764637, 1.3514549 ], [ 103.6763349, 1.3512994 ], [ 103.676200193394834, 1.351177008225998 ] ] } }
]
}
