{
"type": "FeatureCollection",
"name": "point_to_point_10000m_003",
"crs": { "type": "name", "properties": { "name": "urn:ogc:def:crs:OGC:1.3:CRS84" } },
"features": [
{ "type": "Feature", "properties": { "route_id": "point_to_point_10000m_003", "budget_km": 10.0, "mode": "point_to_point", "rank": 3, "distance_m": 9325.5772296903215, "ascent_m": 84.630712230951758, "descent_m": 64.630712230951758, "gain_density_m_per_km": 9.0751178341549306, "source_confidence": 0.86666666666666659 }, "geometry": { "type": "LineString", "coordinates": [ [ 103.836591499081734, 1.345619464370859 ], [ 103.83658040465977, 1.34570689201146 ], [ 103.83649188657256, 1.34578476966573 ], [ 103.836390729313479, 1.34586264190653 ], [ 103.836256160829095, 1.345936171425432 ], [ 103.836102558071602, 1.3459783303641 ], [ 103.835879134430215, 1.34606967503752 ], [ 103.835669675304914, 1.346146966757489 ], [ 103.835376431688289, 1.346350737519085 ], [ 103.834999403499822, 1.346659907460137 ], [ 103.834775979817195, 1.346856651187463 ], [ 103.834706159813379, 1.346947997464618 ], [ 103.834657284418853, 1.347102583221784 ], [ 103.834552553504281, 1.34725716810218 ], [ 103.83441989614073, 1.347355540409093 ], [ 103.834259309654186, 1.347439858895862 ], [ 103.834077777701268, 1.347615523614532 ], [ 103.833889263003343, 1.347826321975601 ], [ 103.833672820945679, 1.347959826104784 ], [ 103.833337684172406, 1.348261969769684 ], [ 103.833107276570658, 1.348592220142105 ], [ 103.832925742624653, 1.348936524323862 ], [ 103.832786102350809, 1.349140295692704 ], [ 103.832583623784501, 1.349266773718749 ], [ 103.832402092517455, 1.349330012243573 ], [ 103.832122812879788, 1.349400276715103 ], [ 103.831941280652458, 1.349533780704758 ], [ 103.83176672930459, 1.34972349907427 ], [ 103.831480464792151, 1.350166175315321 ], [ 103.831277985039264, 1.350454265868022 ], [ 103.83104757783876, 1.350798569860973 ], [ 103.830796223284111, 1.351121793074116 ], [ 103.83057978071119, 1.351304483494709 ], [ 103.830356356292654, 1.351466094056605 ], [ 103.830105003579263, 1.351634731471895 ], [ 103.829965364018335, 1.351690943860455 ], [ 103.829846671029031, 1.351634729303781 ], [ 103.829790815588439, 1.351515275343268 ], [ 103.829797799488802, 1.351332582887492 ], [ 103.829790820793818, 1.351023410524094 ], [ 103.82972798457611, 1.35080558340628 ], [ 103.829588347259843, 1.350594783080236 ], [ 103.829441727076784, 1.350482354975562 ], [ 103.829260195767461, 1.350468299948663 ], [ 103.829127538138422, 1.350496405559086 ], [ 103.829057717820348, 1.350587751670106 ], [ 103.828973932799968, 1.350749363252488 ], [ 103.828911092267504, 1.350974215265778 ], [ 103.82886221620835, 1.351248253875195 ], [ 103.828792392562818, 1.351662825248581 ], [ 103.828736533803621, 1.351901731091695 ], [ 103.828666713363575, 1.352028209939089 ], [ 103.828520089984977, 1.352147660816405 ], [ 103.828205899604768, 1.35231629790612 ], [ 103.827975493033804, 1.35250601497221 ], [ 103.827724139038239, 1.352723837804398 ], [ 103.827486749649907, 1.352913554806588 ], [ 103.827235396520067, 1.353110298661122 ], [ 103.827032918418482, 1.353166508910198 ], [ 103.826781567664327, 1.35312434677154 ], [ 103.826432469372605, 1.353061102690185 ], [ 103.826285849127146, 1.352969755130385 ], [ 103.826146210714896, 1.352885433589568 ], [ 103.825859950021879, 1.352801110686314 ], [ 103.825434051738029, 1.352674625827091 ], [ 103.825224593014582, 1.352632464567593 ], [ 103.825036080039453, 1.352527062063393 ], [ 103.824812658844849, 1.352400579591423 ], [ 103.824680001284889, 1.352365445466262 ], [ 103.824330903028212, 1.352337334734121 ], [ 103.823751399664204, 1.352274087585706 ], [ 103.823493067389236, 1.352189764512848 ], [ 103.823192844088453, 1.352105441236704 ], [ 103.822934510683339, 1.352084358498387 ], [ 103.822634286393665, 1.352028140989893 ], [ 103.822145550057769, 1.351901655271888 ], [ 103.821559063882219, 1.351887595041032 ], [ 103.821342622143419, 1.351929751826161 ], [ 103.821196000387133, 1.352014069508026 ], [ 103.821042395987689, 1.352077307315468 ], [ 103.820916720020136, 1.352105412508747 ], [ 103.820735188643283, 1.352091356840528 ], [ 103.820616494402572, 1.352140540979968 ], [ 103.820588564509791, 1.352281073633748 ], [ 103.820616490207541, 1.352428634397869 ], [ 103.820623470017239, 1.352646459642841 ], [ 103.820539684664112, 1.35275185834806 ], [ 103.82040004381227, 1.35282915001031 ], [ 103.820281350652849, 1.352836174473363 ], [ 103.819897342234711, 1.352815089821519 ], [ 103.819792611861374, 1.352822115242615 ], [ 103.819687880898627, 1.352934539806894 ], [ 103.819527292827104, 1.353145337187737 ], [ 103.819227060789515, 1.353644224444299 ], [ 103.819094401403788, 1.353770702640179 ], [ 103.818905886631327, 1.353847993020494 ], [ 103.818371107506152, 1.354045333822542 ], [ 103.818332336579701, 1.354137177209868 ], [ 103.81828773354593, 1.354297199685765 ], [ 103.818300368955065, 1.354476455635616 ], [ 103.818300247907288, 1.354726125315403 ], [ 103.818338318914286, 1.3549181971706 ], [ 103.818306462324216, 1.355027011901447 ], [ 103.818306391328775, 1.355174252367962 ], [ 103.818306297592883, 1.355366305897157 ], [ 103.818363392281782, 1.355680021207205 ], [ 103.818331418270063, 1.356032103619417 ], [ 103.818331203488711, 1.356473825919113 ], [ 103.818330953811085, 1.357037201501284 ], [ 103.8183517, 1.3567043 ], [ 103.818351, 1.3566737 ], [ 103.8183398, 1.356444 ], [ 103.8183398, 1.356172 ], [ 103.8183242, 1.3559044 ], [ 103.8183175, 1.3556123 ], [ 103.8183376, 1.3553101 ], [ 103.8183376, 1.3550685 ], [ 103.8183225, 1.3547513 ], [ 103.8183225, 1.3544644 ], [ 103.818371, 1.3542074 ], [ 103.8185491, 1.3540416 ], [ 103.8187837, 1.3539554 ], [ 103.819, 1.3538551 ], [ 103.8192057, 1.3537488 ], [ 103.8193648, 1.3535433 ], [ 103.819531, 1.3532563 ], [ 103.81968040000001, 1.3530679 ], [ 103.819834300000011, 1.3529119 ], [ 103.8199623, 1.3528469 ], [ 103.8200818, 1.3528249 ], [ 103.8202335, 1.3528271 ], [ 103.820444, 1.3528397 ], [ 103.8205479, 1.3528133 ], [ 103.8206318, 1.3527704 ], [ 103.8206711, 1.3527322 ], [ 103.8206989, 1.3526849 ], [ 103.8207131, 1.3526319 ], [ 103.8207217, 1.3524842 ], [ 103.8207197, 1.3522879 ], [ 103.820736, 1.3522313 ], [ 103.8207691, 1.3521827 ], [ 103.8208158, 1.3521468 ], [ 103.8208714, 1.3521274 ], [ 103.821098, 1.3521265 ], [ 103.821167700000018, 1.35211 ], [ 103.8212306, 1.3520756 ], [ 103.821474, 1.3519332 ], [ 103.8217665, 1.3519123 ], [ 103.8222521, 1.3519664 ], [ 103.8225369, 1.3520331 ], [ 103.8231562, 1.3521691 ], [ 103.8234299, 1.3522072 ], [ 103.8237151, 1.3522748 ], [ 103.8239986, 1.3522986 ], [ 103.8243193, 1.3523654 ], [ 103.8245448, 1.3524542 ], [ 103.8248377, 1.3525067 ], [ 103.8251005, 1.3526465 ], [ 103.8253994, 1.352792 ], [ 103.8258321, 1.3528829 ], [ 103.826114, 1.352943 ], [ 103.8262872, 1.3530233 ], [ 103.826441, 1.3531235 ], [ 103.8266152, 1.3531813 ], [ 103.82693070000002, 1.3532201 ], [ 103.8271174, 1.3532431 ], [ 103.8272239, 1.3532302 ], [ 103.827321700000013, 1.3531859 ], [ 103.8274017, 1.3531144 ], [ 103.8277035, 1.3528324 ], [ 103.8281563, 1.3524614 ], [ 103.828510800000018, 1.3522737 ], [ 103.8286248, 1.3522024 ], [ 103.828712, 1.3521 ], [ 103.8287643, 1.3519761 ], [ 103.828840700000015, 1.35159 ], [ 103.8288768, 1.3513309 ], [ 103.8289169, 1.3511926 ], [ 103.8289727, 1.3510209 ], [ 103.8290748, 1.3507715 ], [ 103.8291022, 1.3507052 ], [ 103.8291489, 1.3506507 ], [ 103.8292102, 1.3506136 ], [ 103.8292801, 1.3505976 ], [ 103.829445100000015, 1.3506021 ], [ 103.8295341, 1.3506197 ], [ 103.8296151, 1.3506604 ], [ 103.8296824, 1.3507211 ], [ 103.8297391, 1.3508101 ], [ 103.8297945, 1.3508998 ], [ 103.8298203, 1.3510053 ], [ 103.8298181, 1.3511212 ], [ 103.829834500000018, 1.3516007 ], [ 103.8298542, 1.3516517 ], [ 103.8298862, 1.3516961 ], [ 103.8299146, 1.3517157 ], [ 103.82996230000002, 1.3517323 ], [ 103.8300127, 1.3517322 ], [ 103.8300603, 1.3517154 ], [ 103.8302878, 1.3515873 ], [ 103.830322, 1.3515634 ], [ 103.8304755, 1.3514559 ], [ 103.8306142, 1.3513561 ], [ 103.8307303, 1.3512306 ], [ 103.8309314, 1.3509828 ], [ 103.8311159, 1.3507238 ], [ 103.8312976, 1.3504597 ], [ 103.8314907, 1.3502278 ], [ 103.8316195, 1.3500414 ], [ 103.8317338, 1.3498706 ], [ 103.8318848, 1.3496519 ], [ 103.8319412, 1.3495672 ], [ 103.8320284, 1.3495174 ], [ 103.8321561, 1.3494583 ], [ 103.8326033, 1.349308 ], [ 103.8326906, 1.3492686 ], [ 103.8327676, 1.3492116 ], [ 103.8329042, 1.3490466 ], [ 103.8329673, 1.3489366 ], [ 103.8330625, 1.3487624 ], [ 103.8331577, 1.3486055 ], [ 103.8332738, 1.3484447 ], [ 103.8333311, 1.348374 ], [ 103.8333527, 1.3483326 ], [ 103.833376, 1.3482944 ], [ 103.8334204, 1.3482447 ], [ 103.8334424, 1.3481898 ], [ 103.8335005, 1.3481375 ], [ 103.8335811, 1.3480661 ], [ 103.8336716, 1.3479988 ], [ 103.833729700000021, 1.3479615 ], [ 103.833797, 1.3479191 ], [ 103.8339481, 1.3478502 ], [ 103.8340544, 1.3477556 ], [ 103.8340984, 1.3477116 ], [ 103.8341616, 1.347656 ], [ 103.8342006, 1.3476186 ], [ 103.8342604, 1.3475215 ], [ 103.8343009, 1.3474669 ], [ 103.8343527, 1.3474352 ], [ 103.8344152, 1.3473951 ], [ 103.8344821, 1.3473572 ], [ 103.8345066, 1.3473371 ], [ 103.8345847, 1.3472836 ], [ 103.8346281, 1.3472419 ], [ 103.834692, 1.3472012 ], [ 103.8347676, 1.3471323 ], [ 103.8348256, 1.3470004 ], [ 103.8348747, 1.3468956 ], [ 103.8349683, 1.346764 ], [ 103.8350643, 1.3466704 ], [ 103.835189200000016, 1.3465544 ], [ 103.8352851, 1.346463 ], [ 103.835465700000015, 1.3463113 ], [ 103.8355339, 1.3462504 ], [ 103.8356428, 1.3461855 ], [ 103.8357635, 1.3461184 ], [ 103.8359553, 1.3460433 ], [ 103.8361903, 1.3459628 ], [ 103.836393, 1.3458789 ], [ 103.8364432, 1.3458442 ], [ 103.8364789, 1.3457947 ], [ 103.836452042496731, 1.345735765824768 ], [ 103.836356410488079, 1.345809361317055 ], [ 103.8362325681275, 1.34587702963517 ], [ 103.83608237541327, 1.345918252551259 ], [ 103.835856465457752, 1.346010613731111 ], [ 103.835640516927242, 1.346090300212431 ], [ 103.83533863814219, 1.346300070531598 ], [ 103.834958817228213, 1.346611531223949 ], [ 103.83472990153939, 1.346813111491935 ], [ 103.834649570165453, 1.34691820863512 ], [ 103.834600134964774, 1.34707456694582 ], [ 103.834506619890917, 1.347212597426996 ], [ 103.834386496565855, 1.347301675572478 ], [ 103.834222218789407, 1.347387932111447 ], [ 103.834032545866989, 1.347571473844184 ], [ 103.833848615631879, 1.347777145358753 ], [ 103.833635096599181, 1.347908847085634 ], [ 103.833290348804923, 1.348219655461081 ], [ 103.833053550623248, 1.348559065231488 ], [ 103.832871892670497, 1.348903605448404 ], [ 103.83274177806058, 1.349093475830683 ], [ 103.832556418018029, 1.349209260653469 ], [ 103.832384143749366, 1.349269274216339 ], [ 103.832095630485782, 1.349341861993371 ], [ 103.83189926118537, 1.34948627803362 ], [ 103.831716936364316, 1.34968444496757 ], [ 103.831428411958612, 1.350130616569629 ], [ 103.831226217945982, 1.350418300154301 ], [ 103.83122540833952, 1.350419509288842 ], [ 103.830996661682263, 1.350761330798106 ], [ 103.830750754223629, 1.351077550613754 ], [ 103.830541163204472, 1.351254457627774 ], [ 103.830320546801559, 1.351414037891535 ], [ 103.83007556401418, 1.351578400381155 ], [ 103.829967398461434, 1.351621942666597 ], [ 103.829893940934198, 1.351587152568057 ], [ 103.829854258688769, 1.351502285144972 ], [ 103.829860726789732, 1.35133308128363 ], [ 103.829853517170534, 1.351013703167505 ], [ 103.829785690351898, 1.350778574648074 ], [ 103.829634841684296, 1.350550849127851 ], [ 103.829465070947776, 1.350420670123962 ], [ 103.829256047207494, 1.3504044861787 ], [ 103.82909184910396, 1.350439273178162 ], [ 103.82900450316852, 1.350553548512596 ], [ 103.828915149729696, 1.350725900314938 ], [ 103.828849719515844, 1.350960019344188 ], [ 103.828800252189183, 1.351237370638147 ], [ 103.828730709787024, 1.351650272553564 ], [ 103.828677307715324, 1.351878671494184 ], [ 103.828617655455986, 1.351986730265293 ], [ 103.828485188074424, 1.352094649617469 ], [ 103.828170851232613, 1.352263363573395 ], [ 103.827935051473446, 1.352457521957803 ], [ 103.827684045224245, 1.352675043633341 ], [ 103.827447884177047, 1.35286377939928 ], [ 103.827206637220058, 1.353052612800072 ], [ 103.827029571433997, 1.353101769070987 ], [ 103.82679231016607, 1.353061970074433 ], [ 103.826455396406274, 1.353000933582959 ], [ 103.826318584871629, 1.352915696843394 ], [ 103.826171638452749, 1.352826962888788 ], [ 103.825877685165935, 1.352740373627575 ], [ 103.825449150507524, 1.352613106487643 ], [ 103.825246555914646, 1.352572326216939 ], [ 103.82506677157663, 1.352471804599083 ], [ 103.824836465602573, 1.352341424295077 ], [ 103.824690596473332, 1.352302790233664 ], [ 103.824336803230707, 1.352274301461257 ], [ 103.823764632159182, 1.352211855610292 ], [ 103.823511231201977, 1.352129142327589 ], [ 103.823203940712176, 1.352042833944167 ], [ 103.822942827158272, 1.352021523295292 ], [ 103.822647887325118, 1.351966296090283 ], [ 103.82215424305177, 1.351838540624706 ], [ 103.821553777039185, 1.351824144808703 ], [ 103.821320453973613, 1.351869589778403 ], [ 103.821168372531375, 1.351957046480296 ], [ 103.821023531845256, 1.352016676821185 ], [ 103.820912213148702, 1.352041570689493 ], [ 103.820725085523804, 1.352027081801183 ], [ 103.820561418970527, 1.352094901939689 ], [ 103.820524478039388, 1.352280777567145 ], [ 103.820553782092176, 1.35243561937702 ], [ 103.820559854494604, 1.352625152481601 ], [ 103.820498396805604, 1.352702464458595 ], [ 103.820382176196873, 1.352766792180841 ], [ 103.820281217105602, 1.352772767676404 ], [ 103.819896962490986, 1.352751669457778 ], [ 103.819763687426587, 1.352760609257859 ], [ 103.819639862762585, 1.352893530227086 ], [ 103.819475278745145, 1.3531095719909 ], [ 103.819177650765994, 1.353604132777166 ], [ 103.819059725222118, 1.353716562661412 ], [ 103.818883188345254, 1.353788942412351 ], [ 103.81832387207578, 1.353995337552963 ], [ 103.818272866115265, 1.354116163932569 ], [ 103.818224217650439, 1.354290699621441 ], [ 103.818237468517637, 1.354478682691622 ], [ 103.818237344742911, 1.354732363227283 ], [ 103.81827360070065, 1.354915275669731 ], [ 103.818243567334363, 1.35501786476683 ], [ 103.818243491785893, 1.355174222130453 ], [ 103.818243395313672, 1.355372040982407 ], [ 103.818299969743023, 1.355682895786105 ], [ 103.818268519621355, 1.356029201121123 ], [ 103.818268303912276, 1.356473794777513 ], [ 103.818268075452536, 1.356945828655395 ], [ 103.818081955898919, 1.356893208850705 ], [ 103.817920200925428, 1.356845639158537 ], [ 103.817733115092864, 1.356845547515408 ], [ 103.817586817844742, 1.356845475116873 ], [ 103.817454164415437, 1.356845410034493 ], [ 103.817210947261515, 1.356940467056829 ], [ 103.817045823583456, 1.357026782998892 ], [ 103.816911945692723, 1.357116514927202 ], [ 103.816785959146756, 1.357183969695574 ] ] } }
]
}
