{
"type": "FeatureCollection",
"name": "point_to_point_05000m_014",
"crs": { "type": "name", "properties": { "name": "urn:ogc:def:crs:OGC:1.3:CRS84" } },
"features": [
{ "type": "Feature", "properties": { "route_id": "point_to_point_05000m_014", "budget_km": 5.0, "mode": "point_to_point", "rank": 14, "distance_m": 708.92985647627415, "ascent_m": 57.834239490680119, "descent_m": 17.834239490680119, "gain_density_m_per_km": 81.579635788150313, "source_confidence": 0.65 }, "geometry": { "type": "LineString", "coordinates": [ [ 103.653768131045794, 1.350800225040093 ], [ 103.6536516, 1.3510548 ], [ 103.6534346, 1.3513346 ], [ 103.6533435, 1.3514729 ], [ 103.6532743, 1.3516835 ], [ 103.6532617, 1.3519382 ], [ 103.6532806, 1.3521079 ], [ 103.6533466, 1.3522274 ], [ 103.65343780000002, 1.3523217 ], [ 103.6535793, 1.3523783 ], [ 103.6537585, 1.3524349 ], [ 103.653922, 1.3524914 ], [ 103.654028900000014, 1.3525638 ], [ 103.6541364, 1.352684 ], [ 103.6542302, 1.3529661 ], [ 103.6543025, 1.3531076 ], [ 103.6544207, 1.3531881 ], [ 103.6546218, 1.353223 ], [ 103.6548203, 1.3532149 ], [ 103.655405, 1.3530996 ], [ 103.6562365, 1.3529924 ], [ 103.6563787, 1.3529495 ], [ 103.6570761, 1.3525499 ], [ 103.657548068351872, 1.352477458162861 ] ] } }
]
}
