{
"type": "FeatureCollection",
"name": "point_to_point_05000m_010",
"crs": { "type": "name", "properties": { "name": "urn:ogc:def:crs:OGC:1.3:CRS84" } },
"features": [
{ "type": "Feature", "properties": { "route_id": "point_to_point_05000m_010", "budget_km": 5.0, "mode": "point_to_point", "rank": 10, "distance_m": 716.61787210283705, "ascent_m": 63.306723601329765, "descent_m": 27.658637280413629, "gain_density_m_per_km": 88.340977898811104, "source_confidence": 0.93 }, "geometry": { "type": "LineString", "coordinates": [ [ 103.78732755624948, 1.284451620331648 ], [ 103.7873372, 1.2844529 ], [ 103.7873467, 1.2844541 ], [ 103.7873635, 1.2844563 ], [ 103.7873802, 1.2844585 ], [ 103.7874114, 1.2844495 ], [ 103.7874709, 1.2844324 ], [ 103.7876103, 1.2843707 ], [ 103.7877664, 1.2842839 ], [ 103.7878308, 1.2842629 ], [ 103.787946, 1.2842662 ], [ 103.7879995, 1.2843021 ], [ 103.7881737, 1.2846124 ], [ 103.7882425, 1.2847003 ], [ 103.7883049, 1.2847518 ], [ 103.7884214, 1.2847911 ], [ 103.7886992, 1.2847898 ], [ 103.78879, 1.2849551 ], [ 103.7888078, 1.2850297 ], [ 103.789006815925973, 1.285632931286929 ], [ 103.789040184811796, 1.28564355272667 ], [ 103.789075995726662, 1.285665896584231 ], [ 103.78911344400052, 1.285675511537626 ], [ 103.789128991465901, 1.285673603599168 ], [ 103.789147587683388, 1.285671295984547 ], [ 103.789170408032433, 1.285663376860774 ], [ 103.789190905726755, 1.285651348263468 ], [ 103.78920581812325, 1.285637858115593 ], [ 103.789340626401923, 1.285458846903987 ], [ 103.789364686245818, 1.285426907873759 ], [ 103.789392038446948, 1.285388591322119 ], [ 103.789537703861782, 1.285150443881451 ], [ 103.789656874181432, 1.284955487526476 ], [ 103.789700790567466, 1.28488663086184 ], [ 103.789737237010883, 1.284840311739459 ], [ 103.78986367826775, 1.284752456691865 ], [ 103.789878220439306, 1.284740046343423 ], [ 103.789922365424943, 1.284701897380155 ], [ 103.789968056832279, 1.284661566210572 ], [ 103.790021147879216, 1.284611172300837 ], [ 103.790058722744206, 1.28457282788017 ], [ 103.790116501659554, 1.284510980269814 ], [ 103.790146826167572, 1.284475046760488 ], [ 103.790196002460561, 1.284413376257302 ], [ 103.790226307249711, 1.284374382376581 ], [ 103.790294405513677, 1.284280706727123 ], [ 103.790339299790375, 1.284408453517328 ], [ 103.790370244482872, 1.284468351921051 ], [ 103.790399830698277, 1.284521483845085 ], [ 103.790420429264898, 1.284548296796647 ], [ 103.790436635042823, 1.284564933762716 ], [ 103.790453008895938, 1.284578683999537 ], [ 103.790480561436553, 1.284594876209491 ], [ 103.790498961504809, 1.284608117322924 ], [ 103.790514659645652, 1.284622547630179 ], [ 103.790525632399209, 1.284635109440303 ], [ 103.790537127123514, 1.284652524079932 ], [ 103.79055400744619, 1.284684778529932 ], [ 103.790559563629131, 1.284707905036605 ], [ 103.790558200932978, 1.284738596437063 ], [ 103.790546210408394, 1.284763534090462 ], [ 103.790523591954809, 1.28478874468276 ], [ 103.790501774234727, 1.284805830476254 ], [ 103.790501191073389, 1.284806367660303 ], [ 103.790501774234727, 1.284805830476254 ], [ 103.790523591954809, 1.28478874468276 ], [ 103.790546210408394, 1.284763534090462 ], [ 103.790558200932978, 1.284738596437063 ], [ 103.790559563629131, 1.284707905036605 ], [ 103.79055400744619, 1.284684778529932 ], [ 103.790537127123514, 1.284652524079932 ], [ 103.790525632399209, 1.284635109440303 ], [ 103.790514659645652, 1.284622547630179 ], [ 103.790498961504809, 1.284608117322924 ], [ 103.790480561436553, 1.284594876209491 ], [ 103.790453008895938, 1.284578683999537 ], [ 103.790436635042823, 1.284564933762716 ], [ 103.790420429264898, 1.284548296796647 ], [ 103.790399830698277, 1.284521483845085 ], [ 103.790370244482872, 1.284468351921051 ], [ 103.790339299790375, 1.284408453517328 ], [ 103.790294405513677, 1.284280706727123 ], [ 103.790226307249711, 1.284374382376581 ], [ 103.790196002460561, 1.284413376257302 ], [ 103.790146826167572, 1.284475046760488 ], [ 103.790116501659554, 1.284510980269814 ], [ 103.790058722744206, 1.28457282788017 ], [ 103.790021147879216, 1.284611172300837 ], [ 103.789968056832279, 1.284661566210572 ], [ 103.789922365424943, 1.284701897380155 ], [ 103.789878220439306, 1.284740046343423 ], [ 103.78986367826775, 1.284752456691865 ] ] } }
]
}
