{
"type": "FeatureCollection",
"name": "point_to_point_05000m_025",
"crs": { "type": "name", "properties": { "name": "urn:ogc:def:crs:OGC:1.3:CRS84" } },
"features": [
{ "type": "Feature", "properties": { "route_id": "point_to_point_05000m_025", "budget_km": 5.0, "mode": "point_to_point", "rank": 25, "distance_m": 638.6498882749097, "ascent_m": 40.300890377963299, "descent_m": 0.0, "gain_density_m_per_km": 63.103260672012524, "source_confidence": 0.65 }, "geometry": { "type": "LineString", "coordinates": [ [ 103.65762716773925, 1.338296101283767 ], [ 103.6579317, 1.3385441 ], [ 103.6582106, 1.338756 ], [ 103.6584949, 1.3390804 ], [ 103.6585781, 1.3392413 ], [ 103.6587149, 1.3395658 ], [ 103.6588972, 1.3400216 ], [ 103.6590984, 1.340397 ], [ 103.659313, 1.3406786 ], [ 103.6594578, 1.3409441 ], [ 103.6595168, 1.3411747 ], [ 103.6596295, 1.3415581 ], [ 103.6597395, 1.3417994 ], [ 103.6598012, 1.3421132 ], [ 103.6598012, 1.3423411 ], [ 103.65971, 1.3425288 ], [ 103.659179256663805, 1.343160766749864 ] ] } }
]
}
