{
"type": "FeatureCollection",
"name": "point_to_point_05000m_011",
"crs": { "type": "name", "properties": { "name": "urn:ogc:def:crs:OGC:1.3:CRS84" } },
"features": [
{ "type": "Feature", "properties": { "route_id": "point_to_point_05000m_011", "budget_km": 5.0, "mode": "point_to_point", "rank": 11, "distance_m": 4873.5564883602901, "ascent_m": 62.237435408326441, "descent_m": 55.576291459380613, "gain_density_m_per_km": 12.770434806074496, "source_confidence": 0.79 }, "geometry": { "type": "LineString", "coordinates": [ [ 103.99086402983724, 1.41625098309113 ], [ 103.99064, 1.416612 ], [ 103.990284, 1.41706 ], [ 103.990189, 1.417156 ], [ 103.990116, 1.4173 ], [ 103.990036, 1.41738 ], [ 103.989903, 1.417459 ], [ 103.989786, 1.417579 ], [ 103.989442, 1.417859 ], [ 103.989321, 1.417934 ], [ 103.989212, 1.417969 ], [ 103.988811, 1.418041 ], [ 103.988256, 1.418195 ], [ 103.988044, 1.418221 ], [ 103.987957, 1.418205 ], [ 103.987772, 1.418125 ], [ 103.98754, 1.418081 ], [ 103.987423, 1.418034 ], [ 103.987377, 1.417996 ], [ 103.987353, 1.417954 ], [ 103.987347, 1.417823 ], [ 103.987328, 1.417754 ], [ 103.987211, 1.417628 ], [ 103.987096, 1.41757 ], [ 103.986897, 1.417521 ], [ 103.986784, 1.417521 ], [ 103.986402, 1.417601 ], [ 103.986281, 1.417654 ], [ 103.986173, 1.417733 ], [ 103.985966, 1.417849 ], [ 103.985842, 1.417897 ], [ 103.98547, 1.418082 ], [ 103.985241, 1.418148 ], [ 103.985109, 1.418169 ], [ 103.984804, 1.418177 ], [ 103.984463, 1.418255 ], [ 103.984322, 1.418211 ], [ 103.984161, 1.4181 ], [ 103.984008, 1.418015 ], [ 103.98393, 1.417935 ], [ 103.983814, 1.417707 ], [ 103.98378, 1.417588 ], [ 103.983764, 1.417447 ], [ 103.983787, 1.4172 ], [ 103.983782, 1.416877 ], [ 103.983743, 1.416723 ], [ 103.983673, 1.41663 ], [ 103.983587, 1.41657 ], [ 103.983202, 1.416379 ], [ 103.983093, 1.41629 ], [ 103.983003, 1.416181 ], [ 103.982893, 1.415949 ], [ 103.982815, 1.415742 ], [ 103.982695, 1.415556 ], [ 103.98264, 1.415502 ], [ 103.982356, 1.415403 ], [ 103.982259, 1.41534 ], [ 103.982095, 1.415181 ], [ 103.981978, 1.415119 ], [ 103.98191, 1.415117 ], [ 103.981846, 1.415136 ], [ 103.981622, 1.415289 ], [ 103.981354, 1.4154 ], [ 103.981197, 1.415425 ], [ 103.981054, 1.415424 ], [ 103.980838, 1.415378 ], [ 103.980499, 1.415232 ], [ 103.980226, 1.415078 ], [ 103.98014, 1.415006 ], [ 103.980056, 1.414904 ], [ 103.979962, 1.414726 ], [ 103.979914, 1.414669 ], [ 103.97968, 1.414432 ], [ 103.979505, 1.414312 ], [ 103.979446, 1.414225 ], [ 103.979386, 1.414081 ], [ 103.979322, 1.414076 ], [ 103.979252744514071, 1.414134910167271 ], [ 103.979207179475011, 1.414025666240337 ], [ 103.979356265218684, 1.413994476250874 ], [ 103.979648256623591, 1.413995803440199 ], [ 103.979763449076742, 1.413985573235239 ], [ 103.979971149891711, 1.413961458823248 ], [ 103.980184415016836, 1.413927558853221 ], [ 103.980424465339226, 1.413882745137433 ], [ 103.980498296560398, 1.413825040392098 ], [ 103.980667518612606, 1.413593930101647 ], [ 103.980756884186889, 1.413516421566175 ], [ 103.98091582878169, 1.413437016656554 ], [ 103.981111012408476, 1.413401149873991 ], [ 103.981454591272126, 1.413343491120047 ], [ 103.98179778471517, 1.413287311875963 ], [ 103.981904754306726, 1.413265044149724 ], [ 103.982100178854893, 1.413231361302626 ], [ 103.98240551941656, 1.413189260787715 ], [ 103.982558384275848, 1.413168849433934 ], [ 103.98266748175017, 1.413147409026305 ], [ 103.98277399217902, 1.413125646828748 ], [ 103.982837307063946, 1.413108165955559 ], [ 103.982924656837767, 1.413084032853676 ], [ 103.98303529044739, 1.413055818667123 ], [ 103.983123597500438, 1.413036250709624 ], [ 103.983206113405743, 1.413020200184168 ], [ 103.98346604139445, 1.412993760585022 ], [ 103.983694907818887, 1.412963947001459 ], [ 103.983851936657146, 1.412929226496725 ], [ 103.984144183700607, 1.412842798463644 ], [ 103.984310864627986, 1.412731089968286 ], [ 103.984360367181779, 1.412655176494411 ], [ 103.984486921388239, 1.41235562040564 ], [ 103.984550994790183, 1.412173633497857 ], [ 103.984598522177976, 1.412096762431852 ], [ 103.984662593769201, 1.411998156682994 ], [ 103.984749062066157, 1.411767231533858 ], [ 103.984790567819701, 1.411589818549149 ], [ 103.9849371715259, 1.411074683224642 ], [ 103.984967755345053, 1.410972218046143 ], [ 103.985065530670639, 1.410827932625174 ], [ 103.985090626541975, 1.410804114636997 ], [ 103.985233234294867, 1.410706902768041 ], [ 103.985310923352728, 1.410669957238919 ], [ 103.985471054611523, 1.410604499025077 ], [ 103.985663997115083, 1.410531545106874 ], [ 103.985709448569807, 1.410521581483305 ], [ 103.986153029886651, 1.410474733459506 ], [ 103.986236702080717, 1.410471436960589 ], [ 103.986256849153833, 1.410470742888222 ], [ 103.986316974025428, 1.410495467751866 ], [ 103.986564134987916, 1.410639741238462 ], [ 103.986604051837034, 1.410653698305262 ], [ 103.986642149902082, 1.410666839758518 ], [ 103.986713390240297, 1.410677719015683 ], [ 103.986992478164112, 1.410675607797027 ], [ 103.987110252664948, 1.410675323233786 ], [ 103.987218509265446, 1.410673313777741 ], [ 103.98734491411912, 1.4106649526873 ], [ 103.987410512710881, 1.410655389225073 ], [ 103.987480533399946, 1.410634806735729 ], [ 103.987674298747777, 1.41051822262518 ], [ 103.987871254032228, 1.410374233445979 ], [ 103.987950391911511, 1.410315636438388 ], [ 103.98801557930517, 1.410284404506348 ], [ 103.988101772512877, 1.410234367700486 ], [ 103.988179583120839, 1.410202143740389 ], [ 103.988215747337307, 1.410186617968691 ], [ 103.988358864386015, 1.410007683340707 ], [ 103.988645247917731, 1.409654850439046 ], [ 103.988671852060605, 1.409625062630899 ], [ 103.988415, 1.40957 ], [ 103.988211, 1.409488 ], [ 103.988043, 1.409382 ], [ 103.987495, 1.409082 ], [ 103.987287, 1.40895 ], [ 103.986933, 1.408771 ], [ 103.98683, 1.408697 ], [ 103.986397, 1.40825 ], [ 103.986089, 1.408072 ], [ 103.985959, 1.408041 ], [ 103.985656, 1.408027 ], [ 103.985374, 1.40798 ], [ 103.985166, 1.407925 ], [ 103.984892, 1.407884 ], [ 103.984757, 1.407908 ], [ 103.984492, 1.407923 ], [ 103.984338, 1.407954 ], [ 103.984273, 1.407991 ], [ 103.984152, 1.408126 ], [ 103.98401, 1.408353 ], [ 103.983825, 1.408833 ], [ 103.983718, 1.408997 ], [ 103.983663, 1.409111 ], [ 103.983619, 1.409223 ], [ 103.983501, 1.409711 ], [ 103.983463, 1.409786 ], [ 103.983312, 1.409941 ], [ 103.983071, 1.410075 ], [ 103.982814, 1.410072 ], [ 103.982733, 1.410115 ], [ 103.9826843, 1.4101514 ], [ 103.982582, 1.410228 ], [ 103.982355, 1.410353 ], [ 103.981931, 1.410502 ], [ 103.981193, 1.410602 ], [ 103.980692, 1.410711 ], [ 103.980563, 1.410716 ], [ 103.98035, 1.410677 ], [ 103.98017, 1.410593 ], [ 103.979844, 1.41054 ], [ 103.97975, 1.410531 ], [ 103.979624, 1.410552 ], [ 103.979514, 1.410551 ], [ 103.9794, 1.410508 ], [ 103.979197784220617, 1.410341119188829 ], [ 103.979211175462765, 1.410292413077234 ], [ 103.979253530920133, 1.410203624761789 ], [ 103.979278824801341, 1.410111877548631 ], [ 103.979289665342591, 1.41002596075839 ], [ 103.97929303041775, 1.409966377624131 ], [ 103.979296185470488, 1.409867459320181 ], [ 103.979296154184979, 1.409783535523029 ], [ 103.97929052725469, 1.409725711938088 ], [ 103.979283278435091, 1.40965428686546 ], [ 103.979278632436774, 1.409591307456255 ], [ 103.979282353427962, 1.409532954230382 ], [ 103.979291737075258, 1.409456791969947 ], [ 103.979300972783236, 1.409371451358711 ], [ 103.979306970854196, 1.409314261901847 ], [ 103.97931658061097, 1.409175030393008 ], [ 103.979318617228742, 1.409109775189859 ], [ 103.979328203711347, 1.408986411601059 ], [ 103.979335425940448, 1.408933877717528 ], [ 103.979352054117541, 1.408860324986011 ], [ 103.979420154908567, 1.408700726290335 ], [ 103.979519313666302, 1.408588940105227 ], [ 103.979563170985017, 1.408506040891488 ], [ 103.979603397109827, 1.40845162747015 ], [ 103.979640407196143, 1.408411434424207 ], [ 103.979672587762039, 1.408376996132119 ], [ 103.979785951029541, 1.408146059475956 ], [ 103.979809879792057, 1.408109690893356 ], [ 103.979840970602183, 1.408078943365758 ], [ 103.979920109783791, 1.408024269736233 ], [ 103.979961049258009, 1.40799688309405 ], [ 103.980047572439844, 1.407933585006787 ], [ 103.980212549006453, 1.407827419755006 ], [ 103.980291505518196, 1.40778326565327 ], [ 103.980341796927135, 1.407762325601666 ], [ 103.980369208509501, 1.407753523525596 ], [ 103.980492220773627, 1.407739553287515 ], [ 103.98054458932323, 1.407726928699236 ], [ 103.980605445427614, 1.407707177205836 ], [ 103.980633549827616, 1.407698583990148 ], [ 103.980714574572573, 1.407678462232674 ], [ 103.980781255000451, 1.407639953013308 ], [ 103.980827135112804, 1.407616611249839 ], [ 103.98087788244338, 1.407601242022091 ], [ 103.980928289868629, 1.4075963362715 ], [ 103.98096941981423, 1.407597408032558 ], [ 103.981050505502253, 1.407603415057406 ], [ 103.98112679839673, 1.407613245118863 ], [ 103.981201364006679, 1.407619725534919 ], [ 103.981315627917198, 1.407624030234551 ], [ 103.981381803449381, 1.407615923838138 ], [ 103.981483963817439, 1.407597340831173 ], [ 103.981507336526107, 1.40759262852071 ], [ 103.981554162514414, 1.407592668031331 ], [ 103.981628739911329, 1.407600831448562 ], [ 103.98172496261985, 1.407613388671675 ], [ 103.981805881608196, 1.407626301380662 ], [ 103.981950056519267, 1.407643481327774 ], [ 103.982000888089601, 1.407653053440997 ], [ 103.982112482880368, 1.407680484589957 ], [ 103.982188633927535, 1.407706460180449 ], [ 103.982272852941051, 1.407740300476686 ], [ 103.98231336562695, 1.407756557377462 ], [ 103.98239971491256, 1.407800323797144 ], [ 103.982434890264557, 1.407820348606528 ], [ 103.982481252326309, 1.407844561695025 ], [ 103.982503330481777, 1.407830492939349 ] ] } }
]
}
