<?xml version="1.0" encoding="UTF-8"?>
<gpx xmlns="http://www.topografix.com/GPX/1/1" xmlns:xsi="http://www.w3.org/2001/XMLSchema-instance" xsi:schemaLocation="http://www.topografix.com/GPX/1/1 http://www.topografix.com/GPX/1/1/gpx.xsd" version="1.1" creator="gpx.py -- https://github.com/tkrajina/gpxpy">
  <trk>
    <name>point_to_point_05000m_010</name>
    <trkseg>
      <trkpt lat="1.2844516203316478" lon="103.78732755624948">
        <ele>20.0</ele>
      </trkpt>
      <trkpt lat="1.2844483083707972" lon="103.78741554631233">
        <ele>20.0</ele>
      </trkpt>
      <trkpt lat="1.2844193181250045" lon="103.78750045613452">
        <ele>20.0</ele>
      </trkpt>
      <trkpt lat="1.2843829125054191" lon="103.78758270805291">
        <ele>20.0</ele>
      </trkpt>
      <trkpt lat="1.2843416374006866" lon="103.78766256580676">
        <ele>20.0</ele>
      </trkpt>
      <trkpt lat="1.284297904214799" lon="103.78774121500271">
        <ele>20.41087166647624</ele>
      </trkpt>
      <trkpt lat="1.2842649519498925" lon="103.78782450735393">
        <ele>21.514623849274088</ele>
      </trkpt>
      <trkpt lat="1.2842652834931074" lon="103.78791400555927">
        <ele>23.344466527019147</ele>
      </trkpt>
      <trkpt lat="1.2842984968153488" lon="103.78799413035142">
        <ele>25.368511855574557</ele>
      </trkpt>
      <trkpt lat="1.2843751817192925" lon="103.78804052750299">
        <ele>27.294378737057894</ele>
      </trkpt>
      <trkpt lat="1.2844539186029456" lon="103.78808472977376">
        <ele>29.088857192843403</ele>
      </trkpt>
      <trkpt lat="1.2845326554858774" lon="103.78812893204717">
        <ele>30.872963400591843</ele>
      </trkpt>
      <trkpt lat="1.2846113923680875" lon="103.78817313432323">
        <ele>32.118796715384974</ele>
      </trkpt>
      <trkpt lat="1.284682531295296" lon="103.78822859229889">
        <ele>32.87993080083715</ele>
      </trkpt>
      <trkpt lat="1.2847433011349394" lon="103.78829460234573">
        <ele>33.5190819670324</ele>
      </trkpt>
      <trkpt lat="1.2847762804358591" lon="103.78837746922872">
        <ele>35.075409815792476</ele>
      </trkpt>
      <trkpt lat="1.284790896340747" lon="103.78846492084497">
        <ele>37.55131750721265</ele>
      </trkpt>
      <trkpt lat="1.2847904758642812" lon="103.78855477381295">
        <ele>40.55861302617282</ele>
      </trkpt>
      <trkpt lat="1.2847900553846336" lon="103.78864462678102">
        <ele>43.32371165392194</ele>
      </trkpt>
      <trkpt lat="1.284820875745505" lon="103.78871627003949">
        <ele>45.3688079379781</ele>
      </trkpt>
      <trkpt lat="1.2849000216583992" lon="103.78875974522893">
        <ele>46.637074713072174</ele>
      </trkpt>
      <trkpt lat="1.2849818406252227" lon="103.78879638047079">
        <ele>47.25231245779299</ele>
      </trkpt>
      <trkpt lat="1.285068816215201" lon="103.7888207050801">
        <ele>47.683462493474906</ele>
      </trkpt>
      <trkpt lat="1.2851546446307525" lon="103.78884902128158">
        <ele>47.78444506038739</ele>
      </trkpt>
      <trkpt lat="1.2852404730459963" lon="103.78887733748485">
        <ele>47.31170010264109</ele>
      </trkpt>
      <trkpt lat="1.2853263014609326" lon="103.78890565368992">
        <ele>46.21811492767378</ele>
      </trkpt>
      <trkpt lat="1.2854121298755616" lon="103.7889339698968">
        <ele>44.73207216552109</ele>
      </trkpt>
      <trkpt lat="1.2854979582898827" lon="103.78896228610549">
        <ele>43.24602940336839</ele>
      </trkpt>
      <trkpt lat="1.285583786703896" lon="103.78899060231598">
        <ele>41.97170262492597</ele>
      </trkpt>
      <trkpt lat="1.285632931286929" lon="103.78900681592597">
        <ele>41.33453923570488</ele>
      </trkpt>
      <trkpt lat="1.285669061709884" lon="103.78908832324244">
        <ele>42.34757456824594</ele>
      </trkpt>
      <trkpt lat="1.2856606441781113" lon="103.78917506474285">
        <ele>44.47014806575377</ele>
      </trkpt>
      <trkpt lat="1.285596576157405" lon="103.78923690640019">
        <ele>47.2156674629013</ele>
      </trkpt>
      <trkpt lat="1.2855245030740803" lon="103.78929118260075">
        <ele>49.28551919194036</ele>
      </trkpt>
      <trkpt lat="1.2854588469039872" lon="103.78934062640192">
        <ele>50.28987262655189</ele>
      </trkpt>
      <trkpt lat="1.2853858881488138" lon="103.78939369187184">
        <ele>50.766026226676765</ele>
      </trkpt>
      <trkpt lat="1.2853088754790372" lon="103.7894407974939">
        <ele>51.21029962903973</ele>
      </trkpt>
      <trkpt lat="1.2852318628082424" lon="103.78948790311306">
        <ele>51.91975885625552</ele>
      </trkpt>
      <trkpt lat="1.2851548501364292" lon="103.78953500872936">
        <ele>52.72547380548812</ele>
      </trkpt>
      <trkpt lat="1.2850778246154357" lon="103.78958209360047">
        <ele>53.46309098363733</ele>
      </trkpt>
      <trkpt lat="1.2850007983137108" lon="103.78962917720993">
        <ele>54.06933100476931</ele>
      </trkpt>
      <trkpt lat="1.2849241512252387" lon="103.78967686029512">
        <ele>54.85383313860783</ele>
      </trkpt>
      <trkpt lat="1.2848506868305143" lon="103.78972907331645">
        <ele>55.638680276748715</ele>
      </trkpt>
      <trkpt lat="1.284796451655621" lon="103.78980036058178">
        <ele>56.254547824761424</ele>
      </trkpt>
      <trkpt lat="1.2847524566918653" lon="103.78986367826775">
        <ele>56.40741018272036</ele>
      </trkpt>
      <trkpt lat="1.2846935333707317" lon="103.78993184105815">
        <ele>57.0935707892883</ele>
      </trkpt>
      <trkpt lat="1.284632781518226" lon="103.78999838211328">
        <ele>57.75707272663785</ele>
      </trkpt>
      <trkpt lat="1.2845691239144303" lon="103.79006218304168">
        <ele>58.53711523814727</ele>
      </trkpt>
      <trkpt lat="1.2845028807758907" lon="103.79012333687206">
        <ele>59.08022154447436</ele>
      </trkpt>
      <trkpt lat="1.2844329973389583" lon="103.79018035653603">
        <ele>59.101119949209284</ele>
      </trkpt>
      <trkpt lat="1.2843616540049205" lon="103.79023556024185">
        <ele>58.95206405623015</ele>
      </trkpt>
      <trkpt lat="1.2842886677721352" lon="103.79028861816846">
        <ele>58.976972514198735</ele>
      </trkpt>
      <trkpt lat="1.2843566670131752" lon="103.79032110036859">
        <ele>58.185947675912104</ele>
      </trkpt>
      <trkpt lat="1.2844399553280006" lon="103.79035557424464">
        <ele>56.01030159245596</ele>
      </trkpt>
      <trkpt lat="1.2845193230025513" lon="103.79039862744514">
        <ele>52.381444883878565</ele>
      </trkpt>
      <trkpt lat="1.2845833755927323" lon="103.79046099207494">
        <ele>48.53283145503875</ele>
      </trkpt>
      <trkpt lat="1.2846407220114067" lon="103.79052933703845">
        <ele>44.788612094716065</ele>
      </trkpt>
      <trkpt lat="1.2847239079249357" lon="103.79055885310196">
        <ele>42.09547236003365</ele>
      </trkpt>
      <trkpt lat="1.2847973793297147" lon="103.79051256593432">
        <ele>40.728614988934574</ele>
      </trkpt>
      <trkpt lat="1.2848063676603025" lon="103.79050119107339">
        <ele>40.493622226687336</ele>
      </trkpt>
      <trkpt lat="1.2847384512456619" lon="103.79055820737946">
        <ele>41.77985866987091</ele>
      </trkpt>
      <trkpt lat="1.2846528680101585" lon="103.79053730711894">
        <ele>44.23789781857675</ele>
      </trkpt>
      <trkpt lat="1.284590716172476" lon="103.7904734827493">
        <ele>47.91357908767694</ele>
      </trkpt>
      <trkpt lat="1.2845310409264514" lon="103.79040717275366">
        <ele>51.76813786307847</ele>
      </trkpt>
      <trkpt lat="1.284452871447777" lon="103.790362246966">
        <ele>55.51754424479456</ele>
      </trkpt>
      <trkpt lat="1.2843703915953792" lon="103.79032592362245">
        <ele>57.966220766948396</ele>
      </trkpt>
      <trkpt lat="1.2842851314784736" lon="103.79029596051167">
        <ele>58.96358518183524</ele>
      </trkpt>
      <trkpt lat="1.2843499051875076" lon="103.79024410113907">
        <ele>58.9438075741895</ele>
      </trkpt>
      <trkpt lat="1.2844216438463023" lon="103.79018940985394">
        <ele>59.08376217020179</ele>
      </trkpt>
      <trkpt lat="1.2844917851801276" lon="103.79013270051314">
        <ele>59.104488742132105</ele>
      </trkpt>
      <trkpt lat="1.2845585181066335" lon="103.7900720911381">
        <ele>58.6790426200458</ele>
      </trkpt>
      <trkpt lat="1.2846227933853458" lon="103.79000890482185">
        <ele>57.874700965033334</ele>
      </trkpt>
      <trkpt lat="1.2846839345749026" lon="103.78994271558766">
        <ele>57.19233620148581</ele>
      </trkpt>
      <trkpt lat="1.2847430418316583" lon="103.78987471039252">
        <ele>56.75220969693695</ele>
      </trkpt>
      <trkpt lat="1.2847524566918653" lon="103.78986367826775">
        <ele>56.54794107453726</ele>
      </trkpt>
    </trkseg>
  </trk>
</gpx>