{
"type": "FeatureCollection",
"name": "point_to_point_05000m_036",
"crs": { "type": "name", "properties": { "name": "urn:ogc:def:crs:OGC:1.3:CRS84" } },
"features": [
{ "type": "Feature", "properties": { "route_id": "point_to_point_05000m_036", "budget_km": 5.0, "mode": "point_to_point", "rank": 36, "distance_m": 932.82800220847116, "ascent_m": 33.141989948885758, "descent_m": 30.735087777244175, "gain_density_m_per_km": 35.528511012128781, "source_confidence": 0.65 }, "geometry": { "type": "LineString", "coordinates": [ [ 103.928405822568507, 1.419902335549023 ], [ 103.928197800000021, 1.42004 ], [ 103.92816160000001, 1.4200802 ], [ 103.9281307, 1.4201298 ], [ 103.9281321, 1.4201768 ], [ 103.9281481, 1.4202223 ], [ 103.9281911, 1.4202666 ], [ 103.9282407, 1.4203135 ], [ 103.9282756, 1.4203738 ], [ 103.9282849, 1.4204275 ], [ 103.9282688, 1.4204878 ], [ 103.9282085, 1.4205709 ], [ 103.9281119, 1.4206473 ], [ 103.9279497, 1.4207519 ], [ 103.9277619, 1.4209182 ], [ 103.9276922, 1.4210147 ], [ 103.9276251, 1.4211568 ], [ 103.9275795, 1.4213499 ], [ 103.927533900000014, 1.4215295 ], [ 103.927491, 1.4216824 ], [ 103.9274293, 1.4218298 ], [ 103.927362300000013, 1.4219291 ], [ 103.9273435, 1.421984 ], [ 103.9273368, 1.4220484 ], [ 103.9273529, 1.422098 ], [ 103.9273877, 1.4221556 ], [ 103.9274307, 1.4221945 ], [ 103.9274763, 1.4222374 ], [ 103.9275111, 1.4223044 ], [ 103.9275219, 1.4223795 ], [ 103.9275017, 1.4224399 ], [ 103.9274628, 1.4224948 ], [ 103.9273864, 1.4225739 ], [ 103.9272188, 1.4226919 ], [ 103.927191900000011, 1.4227254 ], [ 103.9271799, 1.4227589 ], [ 103.9271812, 1.4227911 ], [ 103.9272027, 1.4228354 ], [ 103.927263, 1.4229011 ], [ 103.9275245, 1.4231209 ], [ 103.9275634, 1.4231947 ], [ 103.927597, 1.4232711 ], [ 103.927637200000021, 1.4233488 ], [ 103.9276882, 1.4234105 ], [ 103.9277793, 1.4234816 ], [ 103.9279684, 1.4236036 ], [ 103.928069, 1.4236331 ], [ 103.9282045, 1.4236626 ], [ 103.9283413, 1.4236679 ], [ 103.9284217, 1.4236679 ], [ 103.9284687, 1.4236907 ], [ 103.9285049, 1.4237229 ], [ 103.9285585, 1.4237913 ], [ 103.9286122, 1.4238677 ], [ 103.9286873, 1.4239401 ], [ 103.9287677, 1.4239709 ], [ 103.9288965, 1.4240085 ], [ 103.9291406, 1.4240956 ], [ 103.9292626, 1.4241278 ], [ 103.9293632, 1.4241331 ], [ 103.9295147, 1.4241171 ], [ 103.9295952, 1.4241023 ], [ 103.9296542, 1.424109 ], [ 103.9297146, 1.4241358 ], [ 103.9297736, 1.4241868 ], [ 103.929795, 1.4242484 ], [ 103.9298232, 1.4243436 ], [ 103.9298527, 1.4244241 ], [ 103.9299586, 1.4246185 ], [ 103.9301357, 1.4249536 ], [ 103.9302671, 1.4251722 ], [ 103.9303261, 1.425254 ], [ 103.9303824, 1.4253049 ], [ 103.930452200000019, 1.4253424 ], [ 103.9305514, 1.4253827 ], [ 103.930728365442178, 1.425430877936157 ] ] } }
]
}
