{
"type": "FeatureCollection",
"name": "point_to_point_05000m_012",
"crs": { "type": "name", "properties": { "name": "urn:ogc:def:crs:OGC:1.3:CRS84" } },
"features": [
{ "type": "Feature", "properties": { "route_id": "point_to_point_05000m_012", "budget_km": 5.0, "mode": "point_to_point", "rank": 12, "distance_m": 582.73929195643746, "ascent_m": 59.492970995646587, "descent_m": 3.3616459894539616, "gain_density_m_per_km": 102.09191625968816, "source_confidence": 0.72 }, "geometry": { "type": "LineString", "coordinates": [ [ 103.821229708919432, 1.267199980581743 ], [ 103.821259700000013, 1.2673794 ], [ 103.8213151, 1.2677027 ], [ 103.8213547, 1.2678446 ], [ 103.8213935, 1.2679952 ], [ 103.8213679, 1.2680684 ], [ 103.821319, 1.2681287 ], [ 103.8212525, 1.2681687 ], [ 103.8212176, 1.2681975 ], [ 103.8212036, 1.2681991 ], [ 103.8211907, 1.268205 ], [ 103.8211804, 1.2682145 ], [ 103.8211735, 1.2682268 ], [ 103.8211707, 1.2682406 ], [ 103.8211724, 1.2682546 ], [ 103.8211784, 1.2682674 ], [ 103.821188, 1.2682777 ], [ 103.8212208, 1.2683263 ], [ 103.8212398, 1.2683589 ], [ 103.8212474, 1.2683959 ], [ 103.8212429, 1.2684334 ], [ 103.8212266, 1.2684675 ], [ 103.8212049, 1.268521 ], [ 103.8212004, 1.2685538 ], [ 103.821197, 1.2685782 ], [ 103.8212004, 1.2686238 ], [ 103.8212192, 1.2687126 ], [ 103.821215, 1.2687683 ], [ 103.8212087, 1.2688063 ], [ 103.8211935, 1.2688416 ], [ 103.8211703, 1.2688722 ], [ 103.8211591, 1.2688879 ], [ 103.8211529, 1.2689062 ], [ 103.8211522, 1.2689254 ], [ 103.8211572, 1.2689441 ], [ 103.8211673, 1.2689605 ], [ 103.8211817, 1.2689734 ], [ 103.8212221, 1.269005 ], [ 103.821254, 1.2690452 ], [ 103.8212757, 1.2690917 ], [ 103.821296, 1.2691194 ], [ 103.8213231, 1.2691404 ], [ 103.821355, 1.2691532 ], [ 103.8213892, 1.2691568 ], [ 103.8215192, 1.2691806 ], [ 103.82154340000001, 1.2692 ], [ 103.8215605, 1.269226 ], [ 103.821569, 1.2692558 ], [ 103.821537800000016, 1.2695731 ], [ 103.8215363, 1.2696448 ], [ 103.8215544, 1.2697141 ], [ 103.821586, 1.2697633 ], [ 103.8215904, 1.2698149 ], [ 103.8215625, 1.2699086 ], [ 103.8215614, 1.2699662 ], [ 103.821548585663152, 1.270031639333115 ], [ 103.8214348, 1.2701993 ], [ 103.821283066954891, 1.270410928779697 ], [ 103.821230400000019, 1.2704274 ], [ 103.8211734, 1.2704345 ], [ 103.8211434, 1.270493 ], [ 103.821097339320616, 1.270521803049338 ], [ 103.821140199496995, 1.270506519484889 ], [ 103.8210677, 1.2704972 ], [ 103.8208451, 1.2705592 ], [ 103.820735700000014, 1.2706198 ], [ 103.8205807, 1.2706481 ], [ 103.820439, 1.2707212 ], [ 103.8203067, 1.270822 ], [ 103.8202028, 1.2708834 ], [ 103.8200874, 1.2709233 ], [ 103.8200687, 1.2709287 ], [ 103.8200529, 1.2709399 ], [ 103.820041700000019, 1.2709558 ], [ 103.8200364, 1.2709745 ], [ 103.820037694948539, 1.270993876303235 ] ] } }
]
}
