{
"type": "FeatureCollection",
"name": "point_to_point_05000m_016",
"crs": { "type": "name", "properties": { "name": "urn:ogc:def:crs:OGC:1.3:CRS84" } },
"features": [
{ "type": "Feature", "properties": { "route_id": "point_to_point_05000m_016", "budget_km": 5.0, "mode": "point_to_point", "rank": 16, "distance_m": 3243.6912967680396, "ascent_m": 54.377763042149887, "descent_m": 52.105392502372183, "gain_density_m_per_km": 16.764160971893656, "source_confidence": 0.86 }, "geometry": { "type": "LineString", "coordinates": [ [ 103.990333486097654, 1.409268451562399 ], [ 103.990346332305378, 1.409283078723741 ], [ 103.990360818416178, 1.40931099263876 ], [ 103.990370442601829, 1.409343402459897 ], [ 103.990374948710709, 1.409379477097222 ], [ 103.990374164125569, 1.40941788353503 ], [ 103.990368029456931, 1.409457384612113 ], [ 103.990356844664433, 1.409495495125294 ], [ 103.990341232324099, 1.409530110585203 ], [ 103.990322002836336, 1.409559432163666 ], [ 103.990296573005068, 1.409586853196638 ], [ 103.990267747157489, 1.409610176801946 ], [ 103.990254219522384, 1.409617900054176 ], [ 103.990239173145397, 1.409623558754111 ], [ 103.990222455271649, 1.409627213504266 ], [ 103.990203760387843, 1.409628932152322 ], [ 103.990165986603429, 1.409627555562683 ], [ 103.990091672337726, 1.409618073855292 ], [ 103.990061862611086, 1.409615579839127 ], [ 103.990032177085652, 1.40961603041223 ], [ 103.990006825676161, 1.409620295284457 ], [ 103.989971636103377, 1.409630716804816 ], [ 103.989936592248895, 1.409643359424428 ], [ 103.98990235994593, 1.409657983442671 ], [ 103.989869497197773, 1.409674348261967 ], [ 103.989838597048177, 1.409692148168339 ], [ 103.989809924567567, 1.40971121493292 ], [ 103.989783794245909, 1.409731341435918 ], [ 103.98976042981846, 1.409752352216367 ], [ 103.989735854617408, 1.409781088126638 ], [ 103.989713328697803, 1.409817539902789 ], [ 103.989694366746463, 1.409856872730791 ], [ 103.989648250638197, 1.409965026521542 ], [ 103.98963252478012, 1.409995397821473 ], [ 103.989616434680357, 1.410021038435667 ], [ 103.989585401147352, 1.410059992247069 ], [ 103.989504549877523, 1.410147816546716 ], [ 103.989485772920986, 1.41017205467833 ], [ 103.989471105095319, 1.410195010149155 ], [ 103.989449239294927, 1.410239979147097 ], [ 103.989431909858311, 1.410289767176409 ], [ 103.989419074560246, 1.410344493615649 ], [ 103.989410676805903, 1.410404391793685 ], [ 103.989406687811552, 1.41046902038452 ], [ 103.989406939636638, 1.410539789297622 ], [ 103.989411399098273, 1.41061766258357 ], [ 103.98942035138765, 1.410707742625526 ], [ 103.989424618259562, 1.410740747881898 ], [ 103.989429380222376, 1.410759846751913 ], [ 103.989436567557064, 1.410780410522343 ], [ 103.989445695784582, 1.410800291369442 ], [ 103.989456291288022, 1.410818529798565 ], [ 103.989471024002995, 1.410838830794781 ], [ 103.989487782000424, 1.410857289471541 ], [ 103.989506393604387, 1.4108732067697 ], [ 103.989527238065008, 1.410887307056397 ], [ 103.989620171967459, 1.410951661406438 ], [ 103.989671412145071, 1.410983149586485 ], [ 103.989720844000573, 1.411009018190887 ], [ 103.989770376297088, 1.41103187436221 ], [ 103.989819625327797, 1.411051540871782 ], [ 103.989868299944078, 1.411067902885545 ], [ 103.989944338647945, 1.41109099420036 ], [ 103.989992090984842, 1.411102347924977 ], [ 103.990035810088116, 1.411107794638694 ], [ 103.990074764467195, 1.411106676921285 ], [ 103.990096077706369, 1.411103073407986 ], [ 103.990119641729819, 1.411097005359301 ], [ 103.990187874013642, 1.411073349893325 ], [ 103.990212570044136, 1.411064201514869 ], [ 103.990230200275334, 1.411051405425222 ], [ 103.990244724815696, 1.411035784323861 ], [ 103.990254886720834, 1.411019913010658 ], [ 103.990263545809668, 1.410998279213967 ], [ 103.990267779845539, 1.410970192200653 ], [ 103.990268137791062, 1.410947995550782 ], [ 103.990264538411978, 1.410899467807427 ], [ 103.990262769116868, 1.410859443642183 ], [ 103.990263530551402, 1.410837624987616 ], [ 103.990266969630767, 1.410813851828126 ], [ 103.990274854824889, 1.410789016647588 ], [ 103.990288004807212, 1.410764087960534 ], [ 103.990298647552507, 1.410749706096487 ], [ 103.990327259582898, 1.410713469139574 ], [ 103.990414957848614, 1.410609485233369 ], [ 103.990440050250854, 1.410575073514073 ], [ 103.990460001098739, 1.410542668015611 ], [ 103.99048057870057, 1.410503465300526 ], [ 103.990498552239345, 1.410464696855332 ], [ 103.990513866909907, 1.410426485676863 ], [ 103.990526485876487, 1.410388920394977 ], [ 103.990532604685896, 1.41036753999129 ], [ 103.990535285096541, 1.410339857332585 ], [ 103.990531404884862, 1.410311083556581 ], [ 103.990526704684669, 1.410288524601992 ], [ 103.990523122888689, 1.410247641417825 ], [ 103.990515994273011, 1.410138054203243 ], [ 103.99051509514311, 1.410049511939752 ], [ 103.990518528082291, 1.409961032687127 ], [ 103.990527016932646, 1.409866434187431 ], [ 103.99054045611031, 1.409772417759595 ], [ 103.990558808790567, 1.409679247479373 ], [ 103.990570868105394, 1.40961739925024 ], [ 103.990575927804272, 1.409600778568141 ], [ 103.990582024669564, 1.409587181997268 ], [ 103.99058928178583, 1.40957629390741 ], [ 103.990598641653136, 1.4095664384544 ], [ 103.99061020310819, 1.409557507108245 ], [ 103.990624197074396, 1.409549318981081 ], [ 103.99065348372001, 1.409536854902014 ], [ 103.990733150185193, 1.409509876027435 ], [ 103.990753808845412, 1.40950038516711 ], [ 103.990770635000018, 1.409490097825687 ], [ 103.990787695400755, 1.409475588008817 ], [ 103.990805257764777, 1.40945596038135 ], [ 103.990862594406778, 1.409374630048746 ], [ 103.990886160532511, 1.409346652955638 ], [ 103.99089985142237, 1.409334716273231 ], [ 103.990913437419351, 1.409326369909242 ], [ 103.990927201565199, 1.409321442015915 ], [ 103.990941302006803, 1.409319879225207 ], [ 103.990964394922798, 1.409323755550698 ], [ 103.991010231794732, 1.409340253391159 ], [ 103.991028927128497, 1.409345277649045 ], [ 103.991056356554139, 1.409348458224874 ], [ 103.991087131173089, 1.409348265307582 ], [ 103.991118719722039, 1.40934532126964 ], [ 103.991204763552958, 1.409333821884614 ], [ 103.991230626427964, 1.409332216689294 ], [ 103.991253673280752, 1.409332592235363 ], [ 103.991283329447441, 1.409336594720284 ], [ 103.991316546109019, 1.409345249896708 ], [ 103.991430929507914, 1.409388465997953 ], [ 103.991474204288892, 1.409401441519468 ], [ 103.991496754472308, 1.409405462574226 ], [ 103.991517530673619, 1.409406793277445 ], [ 103.991536935459024, 1.409405457115065 ], [ 103.991555173704057, 1.409401437794612 ], [ 103.991580385450831, 1.409391610194025 ], [ 103.991607933161717, 1.409376620343633 ], [ 103.99163613120075, 1.409358005771547 ], [ 103.99168894456794, 1.409319834527945 ], [ 103.991729852160717, 1.409288123040817 ], [ 103.991772691216397, 1.409249207285055 ], [ 103.99181172114497, 1.409209737416453 ], [ 103.991902730159893, 1.409113074037983 ], [ 103.991950325795784, 1.409066687031674 ], [ 103.992087795153395, 1.408944753535781 ], [ 103.992223361003397, 1.408831696462064 ], [ 103.992320956384589, 1.408758521573434 ], [ 103.992362061406922, 1.40872327582273 ], [ 103.992388556541954, 1.408690264845338 ], [ 103.992429534490029, 1.408649534156067 ], [ 103.992457059502698, 1.408618070468108 ], [ 103.992480907388682, 1.40858468526658 ], [ 103.992504916507954, 1.408543773061497 ], [ 103.992526988021638, 1.408498983091692 ], [ 103.992545965553177, 1.408451756082961 ], [ 103.992561358560039, 1.408403312051356 ], [ 103.992572773547977, 1.408354890902193 ], [ 103.992581084882943, 1.408293931912687 ], [ 103.992583298126149, 1.408228283328967 ], [ 103.992579373803437, 1.408158872123167 ], [ 103.992569400988216, 1.408087366834161 ], [ 103.99255910691673, 1.408035516033442 ], [ 103.99254772949773, 1.407988690838256 ], [ 103.99253502245169, 1.407945885616667 ], [ 103.992520900395434, 1.407906835396861 ], [ 103.992505225823336, 1.407871206479288 ], [ 103.992488019409407, 1.407839096533418 ], [ 103.992469253293962, 1.407810452203855 ], [ 103.992448911300826, 1.407785249073968 ], [ 103.992418490523761, 1.407755655061238 ], [ 103.992380785875227, 1.407726458562205 ], [ 103.992335340846253, 1.407697217375534 ], [ 103.992277607518943, 1.407664995354118 ], [ 103.992232678811902, 1.407643642866371 ], [ 103.992184005923107, 1.40762532295505 ], [ 103.992131376781799, 1.407609954242041 ], [ 103.992074398699927, 1.407597420091458 ], [ 103.992013708773683, 1.407587754825102 ], [ 103.99194715397266, 1.407580518166478 ], [ 103.991873395397647, 1.407575516673531 ], [ 103.991784086988062, 1.407572179360384 ], [ 103.991705251419845, 1.407567034415805 ], [ 103.991673681531879, 1.40756650119149 ], [ 103.991641354377023, 1.407569483267828 ], [ 103.991613501545288, 1.407576730906773 ], [ 103.991572837516756, 1.407595457563998 ], [ 103.991536299961609, 1.407616992882713 ], [ 103.991498242473796, 1.40764546565429 ], [ 103.991465831648952, 1.407673635079249 ], [ 103.991374144334941, 1.407758445934519 ], [ 103.991353702894827, 1.407777507631249 ], [ 103.991287953699981, 1.407844207799448 ], [ 103.99126465023754, 1.407862683665014 ], [ 103.991242036530991, 1.407875895200664 ], [ 103.991215663887616, 1.407886565739135 ], [ 103.991185463149662, 1.407895185448416 ], [ 103.991151153966257, 1.40790185111403 ], [ 103.991111314800506, 1.407906840471278 ], [ 103.991080972499958, 1.407908251530978 ], [ 103.991046904488769, 1.4079067996384 ], [ 103.990935244942904, 1.407892919875402 ], [ 103.990896221818971, 1.407886471725529 ], [ 103.990817538104523, 1.407868019075759 ], [ 103.99078419491407, 1.407861577772737 ], [ 103.99074908440204, 1.407857935585236 ], [ 103.990717544251325, 1.407858732660683 ], [ 103.990678201150871, 1.407864459935028 ], [ 103.990641514584169, 1.407875075097259 ], [ 103.990606113325796, 1.407890730172692 ], [ 103.990477845171455, 1.40792857460933 ], [ 103.990351801458885, 1.407973264897709 ], [ 103.990341425093234, 1.408033745619025 ], [ 103.990288691177113, 1.408117822169239 ], [ 103.99020571076575, 1.408198317690436 ], [ 103.990174814592535, 1.408221515727119 ], [ 103.990110547766733, 1.408257695405363 ], [ 103.990081156785777, 1.408268490938001 ], [ 103.990023879372174, 1.408281475100708 ], [ 103.989919386003095, 1.408308090264133 ], [ 103.989855957598124, 1.408331568134714 ], [ 103.98982078910916, 1.408361438828438 ], [ 103.9897822659577, 1.408400936666913 ], [ 103.989752382418487, 1.408450186546166 ], [ 103.989728113557234, 1.408491077040952 ], [ 103.98971914284877, 1.408528990251877 ], [ 103.989719652559828, 1.408572656364795 ], [ 103.989719061188552, 1.408625002605101 ], [ 103.989714347686061, 1.408658812444488 ], [ 103.989670259476313, 1.408696275846198 ], [ 103.989633320784208, 1.40871281819078 ], [ 103.989572386914531, 1.408737598165959 ], [ 103.989509902606201, 1.408770114144455 ], [ 103.9894648, 1.4088036 ], [ 103.9890104, 1.4092089 ], [ 103.988671852060605, 1.409625062630899 ], [ 103.988415, 1.40957 ], [ 103.988211, 1.409488 ], [ 103.988043, 1.409382 ], [ 103.987495, 1.409082 ], [ 103.987287, 1.40895 ], [ 103.986933, 1.408771 ], [ 103.98683, 1.408697 ], [ 103.986397, 1.40825 ], [ 103.986089, 1.408072 ], [ 103.985959, 1.408041 ], [ 103.985656, 1.408027 ], [ 103.985374, 1.40798 ], [ 103.985166, 1.407925 ], [ 103.984892, 1.407884 ], [ 103.984757, 1.407908 ], [ 103.984492, 1.407923 ], [ 103.984338, 1.407954 ], [ 103.984273, 1.407991 ], [ 103.984152, 1.408126 ], [ 103.98401, 1.408353 ], [ 103.983825, 1.408833 ], [ 103.983718, 1.408997 ], [ 103.983663, 1.409111 ], [ 103.983619, 1.409223 ], [ 103.983501, 1.409711 ], [ 103.983463, 1.409786 ], [ 103.983312, 1.409941 ], [ 103.983071, 1.410075 ], [ 103.982814, 1.410072 ], [ 103.982733, 1.410115 ], [ 103.9826843, 1.4101514 ], [ 103.982582, 1.410228 ], [ 103.982355, 1.410353 ], [ 103.981931, 1.410502 ], [ 103.981193, 1.410602 ], [ 103.980692, 1.410711 ], [ 103.980563, 1.410716 ], [ 103.98035, 1.410677 ], [ 103.98017, 1.410593 ], [ 103.979844, 1.41054 ], [ 103.97975, 1.410531 ], [ 103.979624, 1.410552 ], [ 103.979514, 1.410551 ], [ 103.9794, 1.410508 ], [ 103.979197784220617, 1.410341119188829 ], [ 103.979211175462765, 1.410292413077234 ], [ 103.979253530920133, 1.410203624761789 ], [ 103.979278824801341, 1.410111877548631 ], [ 103.979289665342591, 1.41002596075839 ], [ 103.97929303041775, 1.409966377624131 ], [ 103.979296185470488, 1.409867459320181 ], [ 103.979296154184979, 1.409783535523029 ], [ 103.97929052725469, 1.409725711938088 ], [ 103.979283278435091, 1.40965428686546 ], [ 103.979278632436774, 1.409591307456255 ], [ 103.979282353427962, 1.409532954230382 ], [ 103.979291737075258, 1.409456791969947 ], [ 103.979300972783236, 1.409371451358711 ], [ 103.979306970854196, 1.409314261901847 ], [ 103.97931658061097, 1.409175030393008 ], [ 103.979318617228742, 1.409109775189859 ], [ 103.979328203711347, 1.408986411601059 ], [ 103.979335425940448, 1.408933877717528 ], [ 103.979352054117541, 1.408860324986011 ], [ 103.979420154908567, 1.408700726290335 ], [ 103.979519313666302, 1.408588940105227 ], [ 103.979563170985017, 1.408506040891488 ], [ 103.979603397109827, 1.40845162747015 ], [ 103.979640407196143, 1.408411434424207 ], [ 103.979672587762039, 1.408376996132119 ], [ 103.979785951029541, 1.408146059475956 ], [ 103.979809879792057, 1.408109690893356 ], [ 103.979840970602183, 1.408078943365758 ], [ 103.979920109783791, 1.408024269736233 ], [ 103.979961049258009, 1.40799688309405 ], [ 103.980047572439844, 1.407933585006787 ], [ 103.980212549006453, 1.407827419755006 ], [ 103.980291505518196, 1.40778326565327 ], [ 103.980341796927135, 1.407762325601666 ], [ 103.980369208509501, 1.407753523525596 ], [ 103.980492220773627, 1.407739553287515 ], [ 103.98054458932323, 1.407726928699236 ], [ 103.980605445427614, 1.407707177205836 ], [ 103.980633549827616, 1.407698583990148 ], [ 103.980714574572573, 1.407678462232674 ], [ 103.980781255000451, 1.407639953013308 ], [ 103.980827135112804, 1.407616611249839 ], [ 103.98087788244338, 1.407601242022091 ], [ 103.980928289868629, 1.4075963362715 ], [ 103.98096941981423, 1.407597408032558 ], [ 103.981050505502253, 1.407603415057406 ], [ 103.98112679839673, 1.407613245118863 ], [ 103.981201364006679, 1.407619725534919 ], [ 103.981315627917198, 1.407624030234551 ], [ 103.981381803449381, 1.407615923838138 ], [ 103.981483963817439, 1.407597340831173 ], [ 103.981507336526107, 1.40759262852071 ], [ 103.981554162514414, 1.407592668031331 ], [ 103.981628739911329, 1.407600831448562 ], [ 103.98172496261985, 1.407613388671675 ], [ 103.981805881608196, 1.407626301380662 ], [ 103.981950056519267, 1.407643481327774 ], [ 103.982000888089601, 1.407653053440997 ], [ 103.982112482880368, 1.407680484589957 ], [ 103.982188633927535, 1.407706460180449 ], [ 103.982272852941051, 1.407740300476686 ], [ 103.98231336562695, 1.407756557377462 ], [ 103.98239971491256, 1.407800323797144 ], [ 103.982434890264557, 1.407820348606528 ], [ 103.982481252326309, 1.407844561695025 ], [ 103.982503330481777, 1.407830492939349 ] ] } }
]
}
