{
"type": "FeatureCollection",
"name": "point_to_point_05000m_024",
"crs": { "type": "name", "properties": { "name": "urn:ogc:def:crs:OGC:1.3:CRS84" } },
"features": [
{ "type": "Feature", "properties": { "route_id": "point_to_point_05000m_024", "budget_km": 5.0, "mode": "point_to_point", "rank": 24, "distance_m": 1861.92401665136, "ascent_m": 40.931344807554652, "descent_m": 24.484549947899808, "gain_density_m_per_km": 21.983359386044661, "source_confidence": 0.65 }, "geometry": { "type": "LineString", "coordinates": [ [ 103.944945956346487, 1.423775969486606 ], [ 103.94496, 1.423594 ], [ 103.944938, 1.423494 ], [ 103.944901, 1.423435 ], [ 103.944875, 1.423354 ], [ 103.944798, 1.42298 ], [ 103.9447937, 1.4228151 ], [ 103.944798536912941, 1.422717601634455 ], [ 103.9448365, 1.4225784 ], [ 103.94494, 1.422265 ], [ 103.945108, 1.421891 ], [ 103.945425, 1.421322 ], [ 103.945531, 1.421134 ], [ 103.945769, 1.420778 ], [ 103.945871, 1.42058 ], [ 103.946142, 1.419768 ], [ 103.946164, 1.419572 ], [ 103.946154, 1.419313 ], [ 103.946138, 1.41918 ], [ 103.946092, 1.419017 ], [ 103.946014, 1.418877 ], [ 103.945863, 1.418689 ], [ 103.945769, 1.418537 ], [ 103.945382, 1.418102 ], [ 103.945161, 1.417754 ], [ 103.94501646614296, 1.417548618601917 ], [ 103.944945, 1.417447 ], [ 103.944589, 1.417071 ], [ 103.944373, 1.416882 ], [ 103.9443, 1.416855 ], [ 103.944246164388659, 1.416850759532569 ], [ 103.943927, 1.416826 ], [ 103.943613, 1.416732 ], [ 103.943398, 1.416623 ], [ 103.942964, 1.416337 ], [ 103.942827, 1.41627 ], [ 103.942671, 1.416228 ], [ 103.942573, 1.41622 ], [ 103.942477, 1.416235 ], [ 103.942331, 1.416301 ], [ 103.942188, 1.416393 ], [ 103.94202, 1.416476 ], [ 103.941845, 1.416512 ], [ 103.941711, 1.416507 ], [ 103.941583, 1.416471 ], [ 103.941525, 1.416432 ], [ 103.941444, 1.416349 ], [ 103.941189, 1.415963 ], [ 103.941084, 1.415879 ], [ 103.940982, 1.415828 ], [ 103.940872, 1.415794 ], [ 103.940547, 1.415649 ], [ 103.94049, 1.415608 ], [ 103.94033, 1.415441 ], [ 103.940281, 1.415357 ], [ 103.940219, 1.415161 ], [ 103.940202, 1.414964 ], [ 103.940243, 1.414728 ], [ 103.940338, 1.414509 ], [ 103.940453, 1.414362 ], [ 103.94050792575139, 1.414267263797302 ], [ 103.941104, 1.414169 ], [ 103.941266, 1.414126 ], [ 103.941453, 1.414116 ], [ 103.9416684, 1.4141584 ], [ 103.941911, 1.414272 ], [ 103.942049, 1.414403 ], [ 103.942479, 1.41461 ], [ 103.942623, 1.414655 ], [ 103.942771, 1.414679 ], [ 103.943011, 1.414698 ], [ 103.943326001013261, 1.414714971331483 ] ] } }
]
}
