{
"type": "FeatureCollection",
"name": "point_to_point_05000m_021",
"crs": { "type": "name", "properties": { "name": "urn:ogc:def:crs:OGC:1.3:CRS84" } },
"features": [
{ "type": "Feature", "properties": { "route_id": "point_to_point_05000m_021", "budget_km": 5.0, "mode": "point_to_point", "rank": 21, "distance_m": 2710.6391060796077, "ascent_m": 45.356654436115186, "descent_m": 30.141662535957501, "gain_density_m_per_km": 16.73282671027145, "source_confidence": 0.65 }, "geometry": { "type": "LineString", "coordinates": [ [ 104.042356556909141, 1.42845815837673 ], [ 104.0426195, 1.4286245 ], [ 104.0427321, 1.4287478 ], [ 104.0432981, 1.4296434 ], [ 104.0434134, 1.4297587 ], [ 104.0434992, 1.4297909 ], [ 104.0436012, 1.4297962 ], [ 104.043687, 1.4297667 ], [ 104.04416710000001, 1.4293323 ], [ 104.0441939, 1.4292492 ], [ 104.0441939, 1.4291339 ], [ 104.0440679, 1.4285735 ], [ 104.04407590000001, 1.4284475 ], [ 104.0441456, 1.4283805 ], [ 104.044660600000014, 1.4282571 ], [ 104.0448189, 1.428241 ], [ 104.0468815, 1.4285574 ], [ 104.0470961, 1.4285494 ], [ 104.047326732747138, 1.4285011072175 ], [ 104.046514, 1.4280158 ], [ 104.0463155, 1.4279085 ], [ 104.0460688, 1.4278817 ], [ 104.0448189, 1.4276726 ], [ 104.0437996, 1.4274259 ], [ 104.0435475, 1.4274152 ], [ 104.043209500000017, 1.4275278 ], [ 104.042356556909141, 1.42845815837673 ], [ 104.0416431, 1.4278924 ], [ 104.0413374, 1.4276109 ], [ 104.0409458, 1.4272141 ], [ 104.0405686, 1.4267867 ], [ 104.0397321, 1.4261187 ], [ 104.0393954, 1.4257702 ], [ 104.0389381, 1.4254283 ], [ 104.0386283, 1.4251601 ], [ 104.03856930000002, 1.4250663 ], [ 104.0385425, 1.4249939 ], [ 104.0385184, 1.4247231 ], [ 104.038462, 1.4245836 ], [ 104.0383789, 1.4245112 ], [ 104.0382341, 1.4244415 ], [ 104.0379953, 1.4243906 ], [ 104.0376681, 1.4243745 ], [ 104.0375018, 1.4243289 ], [ 104.037298, 1.4242082 ], [ 104.0369868, 1.4239133 ], [ 104.03661937712188, 1.42365047541828 ], [ 104.0366457, 1.4234574 ], [ 104.0369815, 1.422216 ], [ 104.0369922, 1.4220712 ], [ 104.0369466, 1.4219183 ], [ 104.036716686372216, 1.421512202371321 ], [ 104.0368447, 1.4215697 ], [ 104.0369412, 1.4216073 ], [ 104.0375367, 1.4215992 ], [ 104.0375959, 1.4215407 ], [ 104.0376546, 1.4214881 ], [ 104.0379755, 1.4210799 ], [ 104.0380811, 1.4209825 ], [ 104.0381928, 1.4209452 ], [ 104.038376322827759, 1.420960758006766 ] ] } }
]
}
