{
"type": "FeatureCollection",
"name": "point_to_point_10000m_009",
"crs": { "type": "name", "properties": { "name": "urn:ogc:def:crs:OGC:1.3:CRS84" } },
"features": [
{ "type": "Feature", "properties": { "route_id": "point_to_point_10000m_009", "budget_km": 10.0, "mode": "point_to_point", "rank": 9, "distance_m": 6613.502821486878, "ascent_m": 30.376107941835453, "descent_m": 30.996150318534866, "gain_density_m_per_km": 4.5930437714708887, "source_confidence": 0.9 }, "geometry": { "type": "LineString", "coordinates": [ [ 103.921372823562876, 1.397859764602229 ], [ 103.921191261320971, 1.397916419839235 ], [ 103.921152903936644, 1.397948534308961 ], [ 103.921140625159282, 1.397957061105433 ], [ 103.920910758194168, 1.398141752426914 ], [ 103.920910264888349, 1.398142145843344 ], [ 103.920741015910664, 1.398273239608562 ], [ 103.920740818228765, 1.398273393357689 ], [ 103.920541445903027, 1.398422623429532 ], [ 103.920338700171627, 1.398568861074354 ], [ 103.920288166233647, 1.398604466826526 ], [ 103.920287982928002, 1.398604595252909 ], [ 103.920262385734134, 1.398622504403581 ], [ 103.920016354496283, 1.398794226776633 ], [ 103.920016044494062, 1.398794443835284 ], [ 103.919636475011885, 1.399059372071569 ], [ 103.919430829349878, 1.399202906609831 ], [ 103.919389744603123, 1.399231582765496 ], [ 103.919389229690054, 1.399230855676627 ], [ 103.918673235510838, 1.399730619452249 ], [ 103.918534043648307, 1.399832224307781 ], [ 103.918531913174377, 1.39983390921404 ], [ 103.918404208752435, 1.399935438580296 ], [ 103.918278815708589, 1.400043623967985 ], [ 103.918157832167765, 1.400156780472705 ], [ 103.918041524999424, 1.400274656672541 ], [ 103.917937817565885, 1.400388215884691 ], [ 103.9178384432131, 1.400505500006971 ], [ 103.917743470230334, 1.400626421314236 ], [ 103.91765302621036, 1.400750811590828 ], [ 103.917568769846895, 1.400876225379539 ], [ 103.917484446062218, 1.401001109211298 ], [ 103.917396629274705, 1.401120128372024 ], [ 103.917303941134335, 1.401235346667589 ], [ 103.917206544276638, 1.401346558801153 ], [ 103.917104610323662, 1.40145357394535 ], [ 103.916998573274455, 1.401555953467928 ], [ 103.916930598610932, 1.401615666482462 ], [ 103.916859902902246, 1.401671507110144 ], [ 103.916786407974897, 1.401723559459281 ], [ 103.916710504702721, 1.401771562154712 ], [ 103.916619233984193, 1.401822310139822 ], [ 103.916525385926008, 1.401867282046706 ], [ 103.916429013544857, 1.401906474255672 ], [ 103.91633046728299, 1.401939742055791 ], [ 103.916230104772268, 1.401966966058067 ], [ 103.916125443249811, 1.401988636515376 ], [ 103.916020718755007, 1.402008327319509 ], [ 103.915914845971542, 1.402030889512622 ], [ 103.91591374072479, 1.402031133729875 ], [ 103.915885702509115, 1.402037550276648 ], [ 103.915681265356184, 1.402090062129695 ], [ 103.91552619876046, 1.402136776158516 ], [ 103.915373235025712, 1.402188851167665 ], [ 103.915222196233515, 1.402246334190801 ], [ 103.915073269285557, 1.402309153777043 ], [ 103.914926641981793, 1.402377229431969 ], [ 103.914782495832128, 1.402450477043895 ], [ 103.914641409511859, 1.40252858639654 ], [ 103.914446866927079, 1.402643748458936 ], [ 103.914255458737372, 1.402763600424173 ], [ 103.914067069027212, 1.40288820469812 ], [ 103.913881817304713, 1.403017481693436 ], [ 103.913699814990949, 1.403151355440541 ], [ 103.913521177101188, 1.40328974273482 ], [ 103.913346013259101, 1.403432555850053 ], [ 103.913174765554231, 1.403579421269872 ], [ 103.912414855503854, 1.404255927172578 ], [ 103.912307962577827, 1.404355597959647 ], [ 103.912204612054367, 1.404461210287901 ], [ 103.912107180602845, 1.404570333149028 ], [ 103.912105262204491, 1.404572587791466 ], [ 103.912039053728321, 1.404652848649289 ], [ 103.911974750345749, 1.404736183371317 ], [ 103.911913835552383, 1.404820663805216 ], [ 103.911882843123252, 1.404865154999658 ], [ 103.911766001511083, 1.405032880333198 ], [ 103.911673194027728, 1.405166107013324 ], [ 103.911622043661609, 1.405237029802731 ], [ 103.911569403350384, 1.405305198855526 ], [ 103.911499818968437, 1.405388728181945 ], [ 103.91142718018888, 1.405468970249158 ], [ 103.911351323476651, 1.405546138492062 ], [ 103.911272375527403, 1.405620099060387 ], [ 103.911190464834661, 1.405690732573523 ], [ 103.91106288196589, 1.405791917002345 ], [ 103.910931285837535, 1.405887766720501 ], [ 103.910795902887415, 1.405978116221304 ], [ 103.910656959554032, 1.406062815372224 ], [ 103.910514680479167, 1.406141725797557 ], [ 103.910370311079831, 1.406214234297076 ], [ 103.910223124417413, 1.406280780414929 ], [ 103.910073372092356, 1.40634125019248 ], [ 103.909921300314224, 1.406395545045434 ], [ 103.909767162481501, 1.406443573624288 ], [ 103.909611211993251, 1.406485256336265 ], [ 103.909453137942634, 1.406520653783479 ], [ 103.909361021129016, 1.406538167989669 ], [ 103.909265388102213, 1.406553991148209 ], [ 103.909150813987381, 1.406574580011891 ], [ 103.909034915566707, 1.40660163782329 ], [ 103.908920546723223, 1.406634634532407 ], [ 103.908808006681724, 1.406673485119619 ], [ 103.908697592869331, 1.406718086478178 ], [ 103.908589592828335, 1.406768320127468 ], [ 103.908485883668092, 1.40682321472095 ], [ 103.908484265348235, 1.406824124562803 ], [ 103.90847122444147, 1.406831512728568 ], [ 103.908465461930447, 1.406834804797397 ], [ 103.90832296033436, 1.406927925360913 ], [ 103.90818422936205, 1.407026643802815 ], [ 103.908049486465458, 1.407130807279443 ], [ 103.907918941009086, 1.407240252095007 ], [ 103.90787784678534, 1.40731908585525 ], [ 103.907795703385574, 1.40748074251859 ], [ 103.907787730369392, 1.40751279702505 ], [ 103.907747830245114, 1.407673207925716 ], [ 103.907741906636062, 1.407810392782898 ], [ 103.907768585904918, 1.408273484681512 ], [ 103.907718439780353, 1.408650135487921 ], [ 103.907678226051459, 1.40895295466498 ], [ 103.907587174207094, 1.409290767094151 ], [ 103.907400509664285, 1.40978108716094 ], [ 103.907165360847188, 1.41009541606236 ], [ 103.906888420031805, 1.410363705139953 ], [ 103.906575079550436, 1.410583495244545 ], [ 103.906057540322337, 1.410899430979227 ], [ 103.90541026535962, 1.411256142966084 ], [ 103.905081721935574, 1.411403893586016 ], [ 103.904773294018327, 1.411516188882221 ], [ 103.904458413584479, 1.411607371976866 ], [ 103.904037639476584, 1.411674162168605 ], [ 103.903922349534, 1.411686577174802 ], [ 103.903808602341371, 1.411695012025496 ], [ 103.903694200864123, 1.411699678408752 ], [ 103.903585089244743, 1.411700534543052 ], [ 103.903549174510033, 1.411698245786801 ], [ 103.903515914090207, 1.411692395566768 ], [ 103.903483491941927, 1.411682912493478 ], [ 103.903452798573312, 1.411670121206378 ], [ 103.903417803466752, 1.411650334799317 ], [ 103.903386062018271, 1.411626519354612 ], [ 103.903357622755252, 1.411598798768718 ], [ 103.903332955651663, 1.411567631539683 ], [ 103.903312468680724, 1.411533534046711 ], [ 103.903296503321698, 1.411497072411011 ], [ 103.903285321080759, 1.411458847121985 ], [ 103.903279110679676, 1.41141949575013 ], [ 103.903277908013521, 1.411377407623363 ], [ 103.903278812442835, 1.411362472940621 ], [ 103.903279026238522, 1.41136020931284 ], [ 103.903286098661809, 1.411318676214707 ], [ 103.90329822567179, 1.411278625214986 ], [ 103.903300471962041, 1.411272829987018 ], [ 103.903310706975944, 1.411247002870352 ], [ 103.903335705424595, 1.41118034239968 ], [ 103.9033789746899, 1.411049695863708 ], [ 103.903415287061534, 1.410917633304988 ], [ 103.90341729605376, 1.410909468652307 ], [ 103.903447669892572, 1.410784772312132 ], [ 103.903491446886548, 1.410505470138379 ], [ 103.90349184217051, 1.41050234916866 ], [ 103.903493028011198, 1.410492612757474 ], [ 103.903508002082717, 1.410404292184002 ], [ 103.903537667866431, 1.410070990904832 ], [ 103.903542931104354, 1.40974859969975 ], [ 103.903525279549299, 1.409426655039983 ], [ 103.903482699141833, 1.40909376110356 ], [ 103.903422089659259, 1.408794544391408 ], [ 103.903366022478963, 1.408583663938235 ], [ 103.903299688194338, 1.408376415716032 ], [ 103.90312224674841, 1.407990011041173 ], [ 103.903097470068388, 1.407928866878916 ], [ 103.903069687584491, 1.407866323756689 ], [ 103.903038666546308, 1.40780179474961 ], [ 103.903003801270188, 1.40773398754052 ], [ 103.902928528253753, 1.407598218640656 ], [ 103.902792979010712, 1.40736708914484 ], [ 103.902779296415829, 1.40734150240308 ], [ 103.902747735319139, 1.407276126018797 ], [ 103.902730439344069, 1.407244595909075 ], [ 103.902704866348103, 1.407207451759309 ], [ 103.902675293043785, 1.407176603002042 ], [ 103.902644541914484, 1.407153125745105 ], [ 103.902611378184503, 1.407132908789651 ], [ 103.902575078464523, 1.407114958261887 ], [ 103.902535623876901, 1.407099025462296 ], [ 103.902499088014238, 1.407087315047362 ], [ 103.902461002171421, 1.407078203818284 ], [ 103.902422542602835, 1.407071974805674 ], [ 103.902383220481525, 1.407068722982219 ], [ 103.902338286854757, 1.40707057826491 ], [ 103.902292083743902, 1.407079750788301 ], [ 103.902246355279885, 1.407095570367247 ], [ 103.902200843552208, 1.407117468164918 ], [ 103.902161684847954, 1.40714062374254 ], [ 103.902120261854563, 1.407168655713882 ], [ 103.90200057584012, 1.407259391323633 ], [ 103.90196124564865, 1.407287567024089 ], [ 103.901908217704246, 1.407324663769242 ], [ 103.901855051448692, 1.407364242994728 ], [ 103.901802995887849, 1.407405429239931 ], [ 103.901752053717402, 1.407448218887398 ], [ 103.901702228531505, 1.407492608319634 ], [ 103.901653524822891, 1.407538592110407 ], [ 103.901605944388578, 1.407586165737925 ], [ 103.90139323733402, 1.407784323431524 ], [ 103.901325627349109, 1.407859421940613 ], [ 103.901257136690475, 1.407932551674693 ], [ 103.901187272949954, 1.40800426069228 ], [ 103.901115944474469, 1.408074638527923 ], [ 103.901010680034105, 1.408175147122819 ], [ 103.900936261165398, 1.408240266170694 ], [ 103.900898774885107, 1.408270032575639 ], [ 103.900858665638992, 1.408299889492813 ], [ 103.900767987680197, 1.408361612220754 ], [ 103.900663671073687, 1.408425770792379 ], [ 103.900525781072758, 1.408504533993441 ], [ 103.900455355624317, 1.408542984139672 ], [ 103.90038422204718, 1.408579971044444 ], [ 103.900312467502843, 1.408615450391336 ], [ 103.90024020970435, 1.408649364297661 ], [ 103.900167568161962, 1.408681658498109 ], [ 103.900094654298897, 1.40871228324942 ], [ 103.900021577741384, 1.408741195138973 ], [ 103.899949056450808, 1.408768124645826 ], [ 103.899884386826599, 1.408789307599942 ], [ 103.899810461754953, 1.408809571984842 ], [ 103.89973840385278, 1.408826738869334 ], [ 103.89956480470714, 1.408865263390811 ], [ 103.899478951848849, 1.408886586211679 ], [ 103.899401045214347, 1.40890941818519 ], [ 103.899330945534359, 1.408934158140376 ], [ 103.899229722047068, 1.408975526604722 ], [ 103.899131428024958, 1.40901986310219 ], [ 103.899031136971715, 1.409082983279877 ], [ 103.898928206645095, 1.409141642303625 ], [ 103.898822832933831, 1.409195729835195 ], [ 103.898715217118422, 1.409245141866772 ], [ 103.898697641966365, 1.409254664405268 ], [ 103.898660957734151, 1.409272144976514 ], [ 103.89862449891956, 1.409285080210415 ], [ 103.898586804444065, 1.409294188212709 ], [ 103.89854878906219, 1.409299293511069 ], [ 103.89850734816855, 1.409300559882652 ], [ 103.898443923388896, 1.409301417195349 ], [ 103.898377530712253, 1.409306901312861 ], [ 103.898313737758286, 1.40931662591547 ], [ 103.898200273087568, 1.40933536479455 ], [ 103.898088181306747, 1.409348834808546 ], [ 103.897975610442074, 1.40935734891909 ], [ 103.897861960239979, 1.409360917995192 ], [ 103.897688169505003, 1.409362543452919 ], [ 103.896727619502627, 1.409371522253797 ], [ 103.89663944561363, 1.409361899526646 ], [ 103.896638863516984, 1.409302227835292 ], [ 103.896610885188664, 1.4093024411257 ], [ 103.896541543221801, 1.40930316198919 ], [ 103.896155800674407, 1.409307242125957 ], [ 103.896039258752253, 1.409308194867629 ], [ 103.896021017529193, 1.40930995796606 ], [ 103.895998354442597, 1.409314416187102 ], [ 103.895976482174206, 1.409321259192925 ], [ 103.89594824001064, 1.409334552290935 ], [ 103.895935263764869, 1.409342664781985 ], [ 103.895924196112944, 1.409350774508253 ], [ 103.895908385881697, 1.409364546582211 ], [ 103.895903763684743, 1.409369158056352 ], [ 103.89590362261076, 1.409369300949599 ], [ 103.89590152447397, 1.409371498609468 ], [ 103.895886805222972, 1.409388965882823 ], [ 103.895885280384363, 1.409391205127917 ], [ 103.895876855580084, 1.409403445914755 ], [ 103.895865691204875, 1.409423716618583 ], [ 103.895857464288326, 1.409443431059495 ], [ 103.895850659926808, 1.409466722219372 ], [ 103.895846783143597, 1.40948960633661 ], [ 103.895845623516152, 1.409506314482508 ], [ 103.895845935814293, 1.409524660390835 ], [ 103.895848022068137, 1.409548601547845 ], [ 103.895853697270255, 1.409572556173357 ], [ 103.895862237137621, 1.409595633488899 ], [ 103.895879429653249, 1.4096252500226 ], [ 103.895890429629162, 1.409640185287474 ], [ 103.895904867620331, 1.409656221973998 ], [ 103.895922114571277, 1.409671630051867 ], [ 103.895939175429746, 1.40968383307061 ], [ 103.895956512093264, 1.409693764320782 ], [ 103.895975307120352, 1.409702204236039 ], [ 103.896000731898141, 1.409710314783316 ], [ 103.896000965531513, 1.409710364516978 ], [ 103.896014297013522, 1.409713225561828 ], [ 103.896024734119791, 1.409714822384921 ], [ 103.896034948362015, 1.409715858508668 ], [ 103.896048931259315, 1.409716521028146 ], [ 103.896074159877244, 1.409714593145786 ], [ 103.896092914151311, 1.409711184995797 ], [ 103.896117743654955, 1.409703937658057 ], [ 103.896175681097432, 1.409680982437096 ], [ 103.896226927949087, 1.409668213241905 ], [ 103.89626234199973, 1.409665314698714 ], [ 103.896305084935179, 1.409663409850974 ], [ 103.896473446477899, 1.409662881637012 ], [ 103.896631405071432, 1.409661184353465 ], [ 103.896642232137751, 1.409661824346603 ], [ 103.896642135738787, 1.409652553719758 ], [ 103.896641788818727, 1.409616839512718 ], [ 103.896291063159467, 1.409620371576749 ], [ 103.896265925251228, 1.409620486210271 ], [ 103.896219974418472, 1.409624251420018 ], [ 103.896174693164184, 1.409632975235372 ], [ 103.896130609853287, 1.409646556353376 ], [ 103.896088235776105, 1.409664837400969 ], [ 103.896048065148392, 1.409687605839478 ], [ 103.896023903545441, 1.40970428205157 ], [ 103.896004313097265, 1.409722968539535 ], [ 103.896001133956347, 1.409724931094293 ], [ 103.895997708607226, 1.409727044684404 ], [ 103.895985152162027, 1.409741268852545 ], [ 103.895981003519211, 1.409745896592561 ], [ 103.895977401227825, 1.409750966551523 ], [ 103.895969005262145, 1.409766373514303 ], [ 103.895950358919265, 1.409807222306693 ], [ 103.895937642397797, 1.409850315568541 ], [ 103.895931111771588, 1.40989478600851 ], [ 103.895930898210494, 1.409939739207616 ], [ 103.895937006183644, 1.409984269897945 ], [ 103.895949313459866, 1.41002748366729 ], [ 103.895967571108216, 1.410068509620287 ], [ 103.896078572128928, 1.410225491442657 ], [ 103.896472645975635, 1.410835050606628 ], [ 103.896536811899338, 1.410992021020776 ], [ 103.896738302922984, 1.411369097967795 ], [ 103.896977824152998, 1.411918646799274 ], [ 103.897208513622985, 1.412447148593179 ], [ 103.897906259558283, 1.414050840381886 ], [ 103.897959985867715, 1.414174323364783 ], [ 103.898023121505716, 1.41414355605775 ], [ 103.899299719567338, 1.413521449960089 ], [ 103.899366125079283, 1.413489089940456 ], [ 103.899387652656785, 1.413526052463128 ], [ 103.899468245805778, 1.413711039485815 ], [ 103.899622138116584, 1.414073948843257 ], [ 103.900368086684637, 1.415843121489064 ], [ 103.900379116744048, 1.415870983697351 ], [ 103.900380486257873, 1.415873314201747 ], [ 103.900381458601743, 1.415875839155802 ], [ 103.900382005018898, 1.415878489828774 ], [ 103.900382112927076, 1.41588119477628 ], [ 103.900381777831257, 1.415883881649427 ], [ 103.900381009613753, 1.415886476290124 ], [ 103.900379829838698, 1.415888909966133 ], [ 103.900378269056091, 1.415891114849295 ], [ 103.900376369497849, 1.415893032154783 ], [ 103.900374183280547, 1.415894610332372 ], [ 103.900371769709736, 1.415895806875265 ], [ 103.90036919438127, 1.415896588320102 ], [ 103.900254044588692, 1.415947521791887 ], [ 103.900124158296322, 1.416010199747405 ], [ 103.900056976328528, 1.416041932185422 ], [ 103.900039394837393, 1.416051275671977 ], [ 103.900013712751715, 1.416066560155507 ], [ 103.899983441660453, 1.416084643776014 ], [ 103.899954315420672, 1.416104540611468 ], [ 103.899917296119199, 1.416128977578601 ], [ 103.899881557356863, 1.41615527387913 ], [ 103.899833193626435, 1.416188042167568 ], [ 103.899763247949537, 1.41623223861243 ], [ 103.899713327802587, 1.416262901585569 ], [ 103.899664691793134, 1.416295586677068 ], [ 103.899611361599185, 1.416329585942575 ], [ 103.899557193930193, 1.416363937028331 ], [ 103.899426156203049, 1.416447704732064 ], [ 103.899372582497591, 1.416482156180982 ], [ 103.899292981715575, 1.4165346639881 ], [ 103.899233563755089, 1.41657484745609 ], [ 103.899223730761364, 1.416583662566794 ], [ 103.899215374187122, 1.416593905624911 ], [ 103.899208694410362, 1.416605327924813 ], [ 103.899203854966203, 1.416617652726654 ], [ 103.899200971764145, 1.41663058430032 ], [ 103.899200113087957, 1.41664380973416 ], [ 103.899201302291971, 1.416657008882881 ], [ 103.899204508815217, 1.41666986341146 ], [ 103.899209655370456, 1.416682062221123 ], [ 103.899241930426911, 1.416731151947538 ], [ 103.899276216484111, 1.416778841661386 ], [ 103.899355317071539, 1.416895999662912 ], [ 103.899438293197676, 1.417010410094187 ], [ 103.899477532105095, 1.417051994305549 ], [ 103.899529689665556, 1.417113137714537 ], [ 103.899578088523199, 1.417177335265249 ], [ 103.899622553446676, 1.417244353637247 ], [ 103.899634491654027, 1.417260860636961 ], [ 103.899644496136432, 1.41727862204422 ], [ 103.899684352050699, 1.417340142018643 ], [ 103.899708843801434, 1.417366177932187 ], [ 103.899773844832666, 1.417425293381843 ], [ 103.899968180111429, 1.417533342899858 ], [ 103.900026652501552, 1.417578078249929 ], [ 103.90022127129194, 1.417763824301098 ], [ 103.900236290735705, 1.417779338216798 ], [ 103.900312777104432, 1.417854469589818 ], [ 103.900440687868141, 1.417960713175323 ], [ 103.900605234891813, 1.418095171816571 ], [ 103.900667319856538, 1.418147678236962 ], [ 103.900734268065932, 1.418203061292612 ], [ 103.900835022857947, 1.418285943232959 ], [ 103.900897434890936, 1.418337484681326 ], [ 103.900911163858567, 1.418349146042492 ], [ 103.900974484372227, 1.418400849342904 ], [ 103.901039146431117, 1.418450843355332 ], [ 103.90110661032486, 1.418502011146744 ], [ 103.901176986425313, 1.418549038675036 ], [ 103.901250023122685, 1.418591760448888 ], [ 103.901325460720258, 1.41863002273401 ], [ 103.901328053182866, 1.418631240834683 ], [ 103.901361121678221, 1.418646597753695 ], [ 103.90139006467345, 1.418659150363812 ], [ 103.901432722125207, 1.41867862727697 ], [ 103.901473480071999, 1.418701861874966 ], [ 103.901512013219573, 1.418728666964355 ], [ 103.901548013346016, 1.418758829124613 ], [ 103.901619260573923, 1.418818787198556 ], [ 103.901633463141721, 1.418831736354271 ], [ 103.901645420103378, 1.418843522565443 ], [ 103.901712206002969, 1.418908849973458 ], [ 103.90178106129018, 1.418971962532051 ], [ 103.901825937990097, 1.419012679246849 ], [ 103.901874418799295, 1.419048968995055 ], [ 103.901926075081462, 1.419080510740323 ], [ 103.901980449446725, 1.419107025047855 ], [ 103.902037060244425, 1.419128276797432 ], [ 103.902068160770369, 1.419141188366213 ], [ 103.9020860994397, 1.41914622965487 ], [ 103.902105365389644, 1.419153486593652 ], [ 103.902183189550598, 1.419187730691549 ], [ 103.902258259710266, 1.419227720288983 ], [ 103.902330157120318, 1.419273234734137 ], [ 103.902349624530302, 1.419286377260724 ], [ 103.902366863525373, 1.419302363172113 ], [ 103.902402780885495, 1.41932862118423 ], [ 103.902522950847157, 1.419416880709182 ], [ 103.902640065737756, 1.419509206336591 ], [ 103.902737693125928, 1.419577393282658 ], [ 103.902787741693345, 1.419603485362959 ], [ 103.902847704349341, 1.419628225119188 ], [ 103.902909729991336, 1.419647123529203 ], [ 103.903006943836957, 1.419678442299785 ], [ 103.90304552415283, 1.419688887429306 ], [ 103.90309715405931, 1.419708891281337 ], [ 103.903147952833621, 1.419730944444477 ], [ 103.90320964811113, 1.419760210476172 ], [ 103.903258790008849, 1.419786216658792 ], [ 103.903319061117628, 1.419818526817346 ], [ 103.903353873931408, 1.419838166717143 ], [ 103.903503602223068, 1.419929504643012 ], [ 103.90361999678926, 1.420001367212374 ], [ 103.903739824689652, 1.420067268107894 ], [ 103.90381331059335, 1.420104043593187 ], [ 103.903888912535194, 1.420136181436463 ], [ 103.903966342064052, 1.420163558653014 ], [ 103.904045304439165, 1.420186069441253 ], [ 103.904125497731727, 1.420203629704583 ], [ 103.904248810708893, 1.420221255557068 ], [ 103.904372822607115, 1.420232901731747 ], [ 103.904497247673319, 1.420238539297783 ], [ 103.904593607040297, 1.420241701581507 ], [ 103.904689867631618, 1.420247115728593 ], [ 103.904769652592634, 1.420252363076918 ], [ 103.90488374044638, 1.420262945096936 ], [ 103.905064649652402, 1.420289476183241 ], [ 103.905119068495452, 1.420299376355584 ], [ 103.905173876351228, 1.420306795846219 ], [ 103.905248611445984, 1.420318529428426 ], [ 103.905323927782646, 1.420325555779585 ], [ 103.905399533318629, 1.420327848682291 ], [ 103.905475133316017, 1.420325398197817 ], [ 103.905569654713972, 1.420317038911236 ], [ 103.905663660177694, 1.420304066480486 ], [ 103.905756928654753, 1.420286512565354 ], [ 103.905814963529167, 1.420271038889546 ], [ 103.90587186696122, 1.420251772348935 ], [ 103.90592739453713, 1.420228796152711 ], [ 103.90594465171786, 1.420221863663554 ], [ 103.905983754160232, 1.420204383800168 ], [ 103.905988695436093, 1.420202345209306 ], [ 103.90599325029477, 1.420199537921958 ], [ 103.9059972992262, 1.420196033386592 ], [ 103.906044023293049, 1.420172015639776 ], [ 103.906092887947125, 1.420152790949043 ], [ 103.906143408855314, 1.420138550150203 ], [ 103.906189247538819, 1.420134585777418 ], [ 103.906235245365536, 1.420133594944758 ], [ 103.906261343075442, 1.420133528097858 ], [ 103.906306847661071, 1.42013522414238 ], [ 103.906362447781845, 1.420133445301806 ], [ 103.906520457054256, 1.420093320010188 ], [ 103.906816960797059, 1.420008818608279 ], [ 103.906834835379215, 1.420004279942169 ], [ 103.906913256336907, 1.41998305655045 ], [ 103.906928145028971, 1.41998232534811 ], [ 103.906942952027279, 1.419984053111697 ], [ 103.906957279255593, 1.419988193731457 ], [ 103.906970741215957, 1.419994636887436 ], [ 103.906998860654426, 1.420019988902428 ], [ 103.907024536910214, 1.420047843368252 ], [ 103.907057107488214, 1.420086721799266 ], [ 103.907087197126501, 1.42012757453415 ], [ 103.907118880962628, 1.420171592488366 ], [ 103.907112113884466, 1.420177692635139 ], [ 103.907216618883197, 1.420291822617786 ], [ 103.907312923991967, 1.420397228467969 ], [ 103.907385116468063, 1.420477275844476 ], [ 103.907459890615627, 1.420557972467803 ], [ 103.907561549727561, 1.420669280911484 ], [ 103.90770350838865, 1.420824994987719 ], [ 103.907775339613067, 1.420903612563851 ], [ 103.90781042522876, 1.420938193367482 ], [ 103.90785000636825, 1.420969091457947 ], [ 103.907871343827324, 1.420983541583601 ], [ 103.907898780943768, 1.420999078555409 ], [ 103.907921426638865, 1.42101009386694 ], [ 103.907945303347603, 1.421019441492634 ], [ 103.907963958251841, 1.421025552572214 ], [ 103.907966391656487, 1.421026349237007 ], [ 103.907991491291966, 1.421034038220483 ], [ 103.908023093151883, 1.421042786905693 ], [ 103.908155709380807, 1.421063392118155 ], [ 103.908321720906642, 1.42108808576216 ], [ 103.908420177652559, 1.421092494026404 ] ] } }
]
}
