<?xml version="1.0" encoding="UTF-8"?>
<gpx xmlns="http://www.topografix.com/GPX/1/1" xmlns:xsi="http://www.w3.org/2001/XMLSchema-instance" xsi:schemaLocation="http://www.topografix.com/GPX/1/1 http://www.topografix.com/GPX/1/1/gpx.xsd" version="1.1" creator="gpx.py -- https://github.com/tkrajina/gpxpy">
  <trk>
    <name>point_to_point_05000m_035</name>
    <trkseg>
      <trkpt lat="1.4029608830858655" lon="104.07317228219773">
        <ele>0.0</ele>
      </trkpt>
      <trkpt lat="1.4029079903340078" lon="104.07309939612522">
        <ele>0.03639813161880438</ele>
      </trkpt>
      <trkpt lat="1.4028550975792748" lon="104.07302651005578">
        <ele>0.17325151975105088</ele>
      </trkpt>
      <trkpt lat="1.4028022048216662" lon="104.07295362398943">
        <ele>0.41495954246443995</ele>
      </trkpt>
      <trkpt lat="1.402756116545926" lon="104.0728765283343">
        <ele>0.7274523315728819</ele>
      </trkpt>
      <trkpt lat="1.40271362937445" lon="104.07279720485806">
        <ele>1.0466727621817393</ele>
      </trkpt>
      <trkpt lat="1.4026711421997573" lon="104.07271788138435">
        <ele>1.3682214562233206</ele>
      </trkpt>
      <trkpt lat="1.4026286550218496" lon="104.07263855791317">
        <ele>1.6797315549592307</ele>
      </trkpt>
      <trkpt lat="1.4025722028186474" lon="104.07256866576064">
        <ele>1.9796617836160741</ele>
      </trkpt>
      <trkpt lat="1.4025136064944406" lon="104.07250022164759">
        <ele>2.268012142193833</ele>
      </trkpt>
      <trkpt lat="1.402455010167602" lon="104.07243177753784">
        <ele>2.5548212259981966</ele>
      </trkpt>
      <trkpt lat="1.402396413838133" lon="104.07236333343143">
        <ele>2.8416303098025604</ele>
      </trkpt>
      <trkpt lat="1.4023378175060326" lon="104.0722948893283">
        <ele>3.1284393936069335</ele>
      </trkpt>
      <trkpt lat="1.4022792211713015" lon="104.07222644522848">
        <ele>3.41524847741139</ele>
      </trkpt>
      <trkpt lat="1.4022206248339397" lon="104.07215800113198">
        <ele>3.702057561215837</ele>
      </trkpt>
      <trkpt lat="1.402162028493948" lon="104.0720895570388">
        <ele>3.988866645020284</ele>
      </trkpt>
      <trkpt lat="1.402103432151326" lon="104.0720211129489">
        <ele>4.275675728824647</ele>
      </trkpt>
      <trkpt lat="1.4020448358060744" lon="104.07195266886232">
        <ele>4.5624848126290205</ele>
      </trkpt>
      <trkpt lat="1.4019862394581932" lon="104.07188422477907">
        <ele>4.849293896433394</ele>
      </trkpt>
      <trkpt lat="1.4019276431076833" lon="104.07181578069911">
        <ele>5.136102980237758</ele>
      </trkpt>
      <trkpt lat="1.401869046754544" lon="104.07174733662245">
        <ele>5.42291206404212</ele>
      </trkpt>
      <trkpt lat="1.4018104503987758" lon="104.07167889254912">
        <ele>5.709721147846484</ele>
      </trkpt>
      <trkpt lat="1.4017518540403795" lon="104.07161044847908">
        <ele>5.996530231650858</ele>
      </trkpt>
      <trkpt lat="1.401693257679355" lon="104.07154200441236">
        <ele>6.283339315455232</ele>
      </trkpt>
      <trkpt lat="1.4016346613157025" lon="104.07147356034893">
        <ele>6.570148399259605</ele>
      </trkpt>
      <trkpt lat="1.4015760649494224" lon="104.07140511628884">
        <ele>6.856957483063968</ele>
      </trkpt>
      <trkpt lat="1.4015174685805147" lon="104.07133667223204">
        <ele>7.143766566868415</ele>
      </trkpt>
      <trkpt lat="1.40145887220898" lon="104.07126822817854">
        <ele>7.4305756506728615</ele>
      </trkpt>
      <trkpt lat="1.401400275834818" lon="104.07119978412837">
        <ele>7.717384734477318</ele>
      </trkpt>
      <trkpt lat="1.4013416794580296" lon="104.07113134008148">
        <ele>8.00419381828169</ele>
      </trkpt>
      <trkpt lat="1.4012830830786147" lon="104.07106289603792">
        <ele>8.291002902086055</ele>
      </trkpt>
      <trkpt lat="1.4012244866965742" lon="104.07099445199765">
        <ele>8.577811985890419</ele>
      </trkpt>
      <trkpt lat="1.4011658903119066" lon="104.0709260079607">
        <ele>8.864621069694783</ele>
      </trkpt>
      <trkpt lat="1.401107293924614" lon="104.07085756392705">
        <ele>9.151430153499156</ele>
      </trkpt>
      <trkpt lat="1.4010486975346963" lon="104.07078911989672">
        <ele>9.438239237303529</ele>
      </trkpt>
      <trkpt lat="1.400990101142153" lon="104.07072067586968">
        <ele>9.729271268558495</ele>
      </trkpt>
      <trkpt lat="1.400936907632124" lon="104.07064831699718">
        <ele>10.02964254249383</ele>
      </trkpt>
      <trkpt lat="1.4008910611407912" lon="104.07057112572231">
        <ele>10.347537341958082</ele>
      </trkpt>
      <trkpt lat="1.4008638300725584" lon="104.07048543862636">
        <ele>10.679304839212955</ele>
      </trkpt>
      <trkpt lat="1.4008390874230456" lon="104.07039902518966">
        <ele>11.020059641525181</ele>
      </trkpt>
      <trkpt lat="1.4008153490753819" lon="104.07031231860884">
        <ele>11.36161746604631</ele>
      </trkpt>
      <trkpt lat="1.4007916107241856" lon="104.07022561202928">
        <ele>11.703406193064046</ele>
      </trkpt>
      <trkpt lat="1.4007678723694577" lon="104.07013890545095">
        <ele>12.045194920081874</ele>
      </trkpt>
      <trkpt lat="1.4007441340111975" lon="104.07005219887385">
        <ele>12.386983647099692</ele>
      </trkpt>
      <trkpt lat="1.4007203956494056" lon="104.06996549229801">
        <ele>12.728772374117426</ele>
      </trkpt>
      <trkpt lat="1.400696657284082" lon="104.0698787857234">
        <ele>13.07056110113516</ele>
      </trkpt>
      <trkpt lat="1.4006729189152274" lon="104.06979207915003">
        <ele>13.412349828152905</ele>
      </trkpt>
      <trkpt lat="1.400649180542841" lon="104.0697053725779">
        <ele>13.754138555170721</ele>
      </trkpt>
      <trkpt lat="1.4006254421669244" lon="104.06961866600702">
        <ele>14.09592728218854</ele>
      </trkpt>
      <trkpt lat="1.4006017037874763" lon="104.06953195943737">
        <ele>14.437716009206275</ele>
      </trkpt>
      <trkpt lat="1.4005779654044974" lon="104.06944525286896">
        <ele>14.77950473622401</ele>
      </trkpt>
      <trkpt lat="1.400554227017988" lon="104.0693585463018">
        <ele>15.121293463241747</ele>
      </trkpt>
      <trkpt lat="1.4005304886279482" lon="104.06927183973588">
        <ele>15.463082190259565</ele>
      </trkpt>
      <trkpt lat="1.4005067502343787" lon="104.0691851331712">
        <ele>15.804870917277393</ele>
      </trkpt>
      <trkpt lat="1.4004830118372782" lon="104.06909842660777">
        <ele>16.14665964429521</ele>
      </trkpt>
      <trkpt lat="1.4004592734366481" lon="104.06901172004555">
        <ele>16.488448371312945</ele>
      </trkpt>
      <trkpt lat="1.4004355350324882" lon="104.0689250134846">
        <ele>16.83023709833068</ele>
      </trkpt>
      <trkpt lat="1.4004117966247986" lon="104.06883830692489">
        <ele>17.07041199894394</ele>
      </trkpt>
      <trkpt lat="1.4003880582135795" lon="104.06875160036641">
        <ele>17.201633121714703</ele>
      </trkpt>
      <trkpt lat="1.4003643197988316" lon="104.06866489380918">
        <ele>17.22429685719101</ele>
      </trkpt>
      <trkpt lat="1.4003405813805543" lon="104.0685781872532">
        <ele>17.23723531574768</ele>
      </trkpt>
      <trkpt lat="1.4003168429587483" lon="104.06849148069846">
        <ele>17.247788448822806</ele>
      </trkpt>
      <trkpt lat="1.4002931045334135" lon="104.06840477414495">
        <ele>17.255559865868268</ele>
      </trkpt>
      <trkpt lat="1.4002693661045493" lon="104.0683180675927">
        <ele>17.26333128291373</ele>
      </trkpt>
      <trkpt lat="1.4002456276721573" lon="104.06823136104167">
        <ele>17.271102699959172</ele>
      </trkpt>
      <trkpt lat="1.4002218892362372" lon="104.0681446544919">
        <ele>17.236604075434766</ele>
      </trkpt>
      <trkpt lat="1.4001981507967887" lon="104.06805794794337">
        <ele>17.14761860375783</ele>
      </trkpt>
      <trkpt lat="1.4001744123538122" lon="104.0679712413961">
        <ele>17.004146284928368</ele>
      </trkpt>
      <trkpt lat="1.400150673907308" lon="104.06788453485005">
        <ele>16.848457160516237</ele>
      </trkpt>
      <trkpt lat="1.4001269354572763" lon="104.06779782830525">
        <ele>16.69276803610413</ele>
      </trkpt>
      <trkpt lat="1.400103197003717" lon="104.06771112176169">
        <ele>16.53707891169202</ele>
      </trkpt>
      <trkpt lat="1.40007945854663" lon="104.06762441521938">
        <ele>16.381389787279947</ele>
      </trkpt>
      <trkpt lat="1.4000557200860164" lon="104.06753770867833">
        <ele>16.225700662867848</ele>
      </trkpt>
      <trkpt lat="1.4000319816218758" lon="104.0674510021385">
        <ele>16.07001153845577</ele>
      </trkpt>
      <trkpt lat="1.4000082431542082" lon="104.06736429559993">
        <ele>15.914322414043662</ele>
      </trkpt>
      <trkpt lat="1.399984504683014" lon="104.0672775890626">
        <ele>15.758633289631556</ele>
      </trkpt>
      <trkpt lat="1.3999607662082931" lon="104.0671908825265">
        <ele>15.602944165219482</ele>
      </trkpt>
      <trkpt lat="1.3999370277300467" lon="104.06710417599167">
        <ele>15.447255040807406</ele>
      </trkpt>
      <trkpt lat="1.399913289248273" lon="104.06701746945808">
        <ele>15.29156591639533</ele>
      </trkpt>
      <trkpt lat="1.3998895507629743" lon="104.06693076292572">
        <ele>15.135876791983199</ele>
      </trkpt>
      <trkpt lat="1.3998658122741494" lon="104.06684405639463">
        <ele>14.980187667571093</ele>
      </trkpt>
      <trkpt lat="1.3998420737817987" lon="104.06675734986476">
        <ele>14.824498543159015</ele>
      </trkpt>
      <trkpt lat="1.3998183352859226" lon="104.06667064333615">
        <ele>14.668809418746939</ele>
      </trkpt>
      <trkpt lat="1.3997945967865209" lon="104.06658393680878">
        <ele>14.513120294334838</ele>
      </trkpt>
      <trkpt lat="1.3997708582835944" lon="104.06649723028266">
        <ele>14.357431169922732</ele>
      </trkpt>
      <trkpt lat="1.3997471197771425" lon="104.0664105237578">
        <ele>14.201742045510622</ele>
      </trkpt>
      <trkpt lat="1.3997233812671661" lon="104.06632381723416">
        <ele>14.046052921098514</ele>
      </trkpt>
      <trkpt lat="1.3996996427536652" lon="104.06623711071178">
        <ele>13.890363796686438</ele>
      </trkpt>
      <trkpt lat="1.3996759042366396" lon="104.06615040419065">
        <ele>13.734674672274366</ele>
      </trkpt>
      <trkpt lat="1.3996521657160896" lon="104.06606369767077">
        <ele>13.57898554786229</ele>
      </trkpt>
      <trkpt lat="1.3996284271920156" lon="104.06597699115213">
        <ele>13.423296423450159</ele>
      </trkpt>
      <trkpt lat="1.399604688664417" lon="104.06589028463473">
        <ele>13.267607299038048</ele>
      </trkpt>
      <trkpt lat="1.3995809501332954" lon="104.06580357811859">
        <ele>13.111918174625972</ele>
      </trkpt>
      <trkpt lat="1.3995572115986497" lon="104.0657168716037">
        <ele>12.956229050213897</ele>
      </trkpt>
      <trkpt lat="1.3995334730604803" lon="104.06563016509006">
        <ele>12.800539925801798</ele>
      </trkpt>
      <trkpt lat="1.3995097345187877" lon="104.06554345857764">
        <ele>12.644850801389692</ele>
      </trkpt>
      <trkpt lat="1.3994859959735717" lon="104.0654567520665">
        <ele>12.489161676977583</ele>
      </trkpt>
      <trkpt lat="1.399462257424833" lon="104.06537004555659">
        <ele>12.333472552565508</ele>
      </trkpt>
      <trkpt lat="1.399438518872571" lon="104.06528333904794">
        <ele>12.177783428153433</ele>
      </trkpt>
      <trkpt lat="1.399414780316787" lon="104.06519663254052">
        <ele>12.022094303741357</ele>
      </trkpt>
      <trkpt lat="1.3993910417574797" lon="104.06510992603437">
        <ele>11.866405179329249</ele>
      </trkpt>
      <trkpt lat="1.3993673031946503" lon="104.06502321952946">
        <ele>11.710716054917114</ele>
      </trkpt>
      <trkpt lat="1.3993435646282992" lon="104.0649365130258">
        <ele>11.555026930505008</ele>
      </trkpt>
      <trkpt lat="1.3993198260584256" lon="104.06484980652338">
        <ele>11.399337806092936</ele>
      </trkpt>
      <trkpt lat="1.3992960874850302" lon="104.06476310002223">
        <ele>11.24364868168086</ele>
      </trkpt>
      <trkpt lat="1.3992723489081127" lon="104.06467639352232">
        <ele>11.087959557268759</ele>
      </trkpt>
      <trkpt lat="1.399248610327674" lon="104.06458968702364">
        <ele>10.93227043285665</ele>
      </trkpt>
      <trkpt lat="1.399224871743714" lon="104.06450298052624">
        <ele>10.776581308444541</ele>
      </trkpt>
      <trkpt lat="1.3992011331562326" lon="104.06441627403008">
        <ele>10.620892184032465</ele>
      </trkpt>
      <trkpt lat="1.3991773945652302" lon="104.06432956753515">
        <ele>10.465203059620366</ele>
      </trkpt>
      <trkpt lat="1.3991536559707067" lon="104.0642428610415">
        <ele>10.309513935208292</ele>
      </trkpt>
      <trkpt lat="1.399129917372663" lon="104.0641561545491">
        <ele>10.153824810796182</ele>
      </trkpt>
      <trkpt lat="1.3991061787710979" lon="104.06406944805794">
        <ele>9.998135686384076</ele>
      </trkpt>
      <trkpt lat="1.399082440166013" lon="104.06398274156801">
        <ele>9.842446561972</ele>
      </trkpt>
      <trkpt lat="1.399058701557408" lon="104.06389603507935">
        <ele>9.686757437559924</ele>
      </trkpt>
      <trkpt lat="1.3990349629452825" lon="104.06380932859194">
        <ele>9.531068313147848</ele>
      </trkpt>
      <trkpt lat="1.3990112243296375" lon="104.06372262210579">
        <ele>9.375379188735716</ele>
      </trkpt>
      <trkpt lat="1.3989874857104723" lon="104.06363591562088">
        <ele>9.219690064323608</ele>
      </trkpt>
      <trkpt lat="1.3989637470877878" lon="104.06354920913722">
        <ele>9.064000939911502</ele>
      </trkpt>
      <trkpt lat="1.3989400084615837" lon="104.06346250265483">
        <ele>8.908311815499426</ele>
      </trkpt>
      <trkpt lat="1.3989162698318602" lon="104.06337579617367">
        <ele>8.752622691087327</ele>
      </trkpt>
      <trkpt lat="1.3988925311986182" lon="104.06328908969377">
        <ele>8.596933566675249</ele>
      </trkpt>
      <trkpt lat="1.3988687925618568" lon="104.06320238321513">
        <ele>8.441244442263141</ele>
      </trkpt>
      <trkpt lat="1.3988450539215767" lon="104.06311567673774">
        <ele>8.285555317851035</ele>
      </trkpt>
      <trkpt lat="1.3988213152777782" lon="104.0630289702616">
        <ele>8.129866193438959</ele>
      </trkpt>
      <trkpt lat="1.3987975766304608" lon="104.0629422637867">
        <ele>7.974177069026884</ele>
      </trkpt>
      <trkpt lat="1.398773837979626" lon="104.06285555731307">
        <ele>7.818487944614809</ele>
      </trkpt>
      <trkpt lat="1.3987500993252722" lon="104.06276885084068">
        <ele>7.662798820202677</ele>
      </trkpt>
      <trkpt lat="1.3987263606674012" lon="104.06268214436956">
        <ele>7.507109695790568</ele>
      </trkpt>
      <trkpt lat="1.3987026220060117" lon="104.06259543789969">
        <ele>7.351420571378494</ele>
      </trkpt>
      <trkpt lat="1.398678883341105" lon="104.06250873143107">
        <ele>7.195731446966417</ele>
      </trkpt>
      <trkpt lat="1.3986551446726807" lon="104.0624220249637">
        <ele>7.040042322554318</ele>
      </trkpt>
      <trkpt lat="1.3986314060007392" lon="104.06233531849756">
        <ele>6.884353458116826</ele>
      </trkpt>
      <trkpt lat="1.3986076683854525" lon="104.06224861174617">
        <ele>6.728665254953203</ele>
      </trkpt>
      <trkpt lat="1.3985839324031395" lon="104.06216190455372">
        <ele>6.572538335997176</ele>
      </trkpt>
      <trkpt lat="1.3985578807419898" lon="104.06207608288595">
        <ele>6.413156385440662</ele>
      </trkpt>
      <trkpt lat="1.3985169874494323" lon="104.06199593671752">
        <ele>6.250097997182565</ele>
      </trkpt>
      <trkpt lat="1.3984700493765478" lon="104.06191956928085">
        <ele>6.083240094540581</ele>
      </trkpt>
      <trkpt lat="1.398415035603002" lon="104.06184825015168">
        <ele>5.91539873334814</ele>
      </trkpt>
      <trkpt lat="1.3983600218267003" lon="104.06177693102569">
        <ele>5.746994918407123</ele>
      </trkpt>
      <trkpt lat="1.398305008047643" lon="104.06170561190288">
        <ele>5.578591103466074</ele>
      </trkpt>
      <trkpt lat="1.3982499942658306" lon="104.06163429278324">
        <ele>5.410187288525059</ele>
      </trkpt>
      <trkpt lat="1.398194980481263" lon="104.06156297366677">
        <ele>5.241783473584011</ele>
      </trkpt>
      <trkpt lat="1.39813996669394" lon="104.06149165455348">
        <ele>5.073379658643019</ele>
      </trkpt>
      <trkpt lat="1.3980849529038628" lon="104.06142033544336">
        <ele>4.904975843701972</ele>
      </trkpt>
      <trkpt lat="1.398029939111031" lon="104.06134901633641">
        <ele>4.736572028760979</ele>
      </trkpt>
      <trkpt lat="1.397974925315445" lon="104.06127769723263">
        <ele>4.568168213819932</ele>
      </trkpt>
      <trkpt lat="1.3979199115171055" lon="104.06120637813203">
        <ele>4.399764398878941</ele>
      </trkpt>
      <trkpt lat="1.3978648977160122" lon="104.0611350590346">
        <ele>4.245021227686368</ele>
      </trkpt>
      <trkpt lat="1.3978232718034687" lon="104.06108109580707">
        <ele>4.167649642090113</ele>
      </trkpt>
      <trkpt lat="1.3978842893303305" lon="104.06101477330509">
        <ele>4.074860598110205</ele>
      </trkpt>
      <trkpt lat="1.3979453068558405" lon="104.06094845079963">
        <ele>4.045782495978171</ele>
      </trkpt>
      <trkpt lat="1.3980063243799987" lon="104.06088212829069">
        <ele>4.016704393846139</ele>
      </trkpt>
      <trkpt lat="1.3980673419028042" lon="104.06081580577829">
        <ele>3.987626291714106</ele>
      </trkpt>
      <trkpt lat="1.3981283594242566" lon="104.06074948326241">
        <ele>3.9585481895820407</ele>
      </trkpt>
      <trkpt lat="1.3981893769443565" lon="104.06068316074305">
        <ele>3.929470087449975</ele>
      </trkpt>
      <trkpt lat="1.3982503944631028" lon="104.06061683822023">
        <ele>3.9003919853179103</ele>
      </trkpt>
      <trkpt lat="1.3983114119804962" lon="104.06055051569392">
        <ele>3.8713138831858775</ele>
      </trkpt>
      <trkpt lat="1.3983724294965356" lon="104.06048419316413">
        <ele>3.8858616174380836</ele>
      </trkpt>
      <trkpt lat="1.3984334470112214" lon="104.06041787063087">
        <ele>3.9594641274968647</ele>
      </trkpt>
      <trkpt lat="1.3984944645245525" lon="104.06035154809415">
        <ele>4.092121413362189</ele>
      </trkpt>
      <trkpt lat="1.3985554820365296" lon="104.06028522555393">
        <ele>4.240207638649849</ele>
      </trkpt>
      <trkpt lat="1.3986164995471517" lon="104.06021890301025">
        <ele>4.49653884349348</ele>
      </trkpt>
      <trkpt lat="1.3986775170564192" lon="104.06015258046308">
        <ele>5.168359036118502</ele>
      </trkpt>
      <trkpt lat="1.3987385345643315" lon="104.06008625791245">
        <ele>6.263583290843601</ele>
      </trkpt>
      <trkpt lat="1.3988068091111179" lon="104.06002757446646">
        <ele>7.676019303142641</ele>
      </trkpt>
      <trkpt lat="1.3988769656791469" lon="104.05997087212388">
        <ele>9.098423064790689</ele>
      </trkpt>
      <trkpt lat="1.3989471222463083" lon="104.05991416977804">
        <ele>10.523469275058527</ele>
      </trkpt>
      <trkpt lat="1.399018536986619" lon="104.05985904832134">
        <ele>11.94924038635383</ele>
      </trkpt>
      <trkpt lat="1.3990902399957965" lon="104.05980428907154">
        <ele>13.375736398676105</ele>
      </trkpt>
      <trkpt lat="1.3991619430041886" lon="104.05974952981853">
        <ele>14.802367538435883</ele>
      </trkpt>
      <trkpt lat="1.3992336460117958" lon="104.05969477056236">
        <ele>16.228998678195662</ele>
      </trkpt>
      <trkpt lat="1.3993053490186176" lon="104.059640011303">
        <ele>17.65562981795544</ele>
      </trkpt>
      <trkpt lat="1.3993770520246533" lon="104.05958525204048">
        <ele>18.912630258556888</ele>
      </trkpt>
      <trkpt lat="1.3994487550299037" lon="104.05953049277475">
        <ele>19.694086985905074</ele>
      </trkpt>
      <trkpt lat="1.3995204580343683" lon="104.05947573350585">
        <ele>20.0</ele>
      </trkpt>
      <trkpt lat="1.3995921610380462" lon="104.05942097423377">
        <ele>20.0</ele>
      </trkpt>
      <trkpt lat="1.3996717400129097" lon="104.05937893873332">
        <ele>20.0</ele>
      </trkpt>
      <trkpt lat="1.3997567185130015" lon="104.05935170165209">
        <ele>20.0</ele>
      </trkpt>
      <trkpt lat="1.3998467756460105" lon="104.05934604282571">
        <ele>20.0</ele>
      </trkpt>
      <trkpt lat="1.399937208274166" lon="104.05934678317608">
        <ele>20.0</ele>
      </trkpt>
      <trkpt lat="1.400027640902242" lon="104.05934752352707">
        <ele>20.0</ele>
      </trkpt>
      <trkpt lat="1.400118073530239" lon="104.05934826387866">
        <ele>20.0</ele>
      </trkpt>
      <trkpt lat="1.4002085061581557" lon="104.05934900423087">
        <ele>20.0</ele>
      </trkpt>
      <trkpt lat="1.4002989387859934" lon="104.0593497445837">
        <ele>20.0</ele>
      </trkpt>
      <trkpt lat="1.4003893714137519" lon="104.05935048493716">
        <ele>20.0</ele>
      </trkpt>
      <trkpt lat="1.4004795875773526" lon="104.05934854842452">
        <ele>20.0</ele>
      </trkpt>
      <trkpt lat="1.4005687411039676" lon="104.05933347099011">
        <ele>20.0</ele>
      </trkpt>
      <trkpt lat="1.4006576215944413" lon="104.05931755935494">
        <ele>20.0</ele>
      </trkpt>
      <trkpt lat="1.4007386465268248" lon="104.05927764684009">
        <ele>20.0</ele>
      </trkpt>
      <trkpt lat="1.4008196714589163" lon="104.05923773432283">
        <ele>20.0</ele>
      </trkpt>
      <trkpt lat="1.4009006963907145" lon="104.05919782180318">
        <ele>20.0</ele>
      </trkpt>
      <trkpt lat="1.4009189792652135" lon="104.05918881574048">
        <ele>20.0</ele>
      </trkpt>
    </trkseg>
  </trk>
</gpx>