<?xml version="1.0" encoding="UTF-8"?>
<gpx xmlns="http://www.topografix.com/GPX/1/1" xmlns:xsi="http://www.w3.org/2001/XMLSchema-instance" xsi:schemaLocation="http://www.topografix.com/GPX/1/1 http://www.topografix.com/GPX/1/1/gpx.xsd" version="1.1" creator="gpx.py -- https://github.com/tkrajina/gpxpy">
  <trk>
    <name>point_to_point_05000m_037</name>
    <trkseg>
      <trkpt lat="1.2966455527329503" lon="103.84676564694227">
        <ele>25.173575805581258</ele>
      </trkpt>
      <trkpt lat="1.2966831597405493" lon="103.84668534647078">
        <ele>25.22265041385028</ele>
      </trkpt>
      <trkpt lat="1.2966690706627482" lon="103.84659659558969">
        <ele>25.341066869734366</ele>
      </trkpt>
      <trkpt lat="1.2966507630188122" lon="103.84650870536714">
        <ele>25.79221738960798</ele>
      </trkpt>
      <trkpt lat="1.2966212465581237" lon="103.84642381043842">
        <ele>26.180603171214887</ele>
      </trkpt>
      <trkpt lat="1.296576449560265" lon="103.84634697312552">
        <ele>26.53253382393177</ele>
      </trkpt>
      <trkpt lat="1.2965027750739941" lon="103.84629500540257">
        <ele>26.95697423839602</ele>
      </trkpt>
      <trkpt lat="1.2964180275565802" lon="103.84626515360169">
        <ele>27.695756547147937</ele>
      </trkpt>
      <trkpt lat="1.2963295029660027" lon="103.846253016494">
        <ele>28.666142612332333</ele>
      </trkpt>
      <trkpt lat="1.2962447247296323" lon="103.84623722325338">
        <ele>29.940472253876308</ele>
      </trkpt>
      <trkpt lat="1.2961673581390947" lon="103.84627657145333">
        <ele>31.418202484229454</ele>
      </trkpt>
      <trkpt lat="1.29608382573684" lon="103.8463107956251">
        <ele>33.13396283158587</ele>
      </trkpt>
      <trkpt lat="1.2959999316692261" lon="103.84634434992795">
        <ele>34.85307037380276</ele>
      </trkpt>
      <trkpt lat="1.2959160477939349" lon="103.84637792960753">
        <ele>36.46840413241717</ele>
      </trkpt>
      <trkpt lat="1.2958321639181627" lon="103.84641150928492">
        <ele>37.88912652244928</ele>
      </trkpt>
      <trkpt lat="1.2957482168519658" lon="103.84644493259142">
        <ele>38.62126273438785</ele>
      </trkpt>
      <trkpt lat="1.2956642517458081" lon="103.84647831125415">
        <ele>38.78988951582421</ele>
      </trkpt>
      <trkpt lat="1.2955828053384655" lon="103.8465171031936">
        <ele>38.48968921429937</ele>
      </trkpt>
      <trkpt lat="1.295501514276482" lon="103.84655543026025">
        <ele>38.31443786634339</ele>
      </trkpt>
      <trkpt lat="1.2954138173329686" lon="103.84657718126752">
        <ele>38.26609371611372</ele>
      </trkpt>
      <trkpt lat="1.295326679363518" lon="103.84659425809195">
        <ele>38.56715350040753</ele>
      </trkpt>
      <trkpt lat="1.2952406249991946" lon="103.84656988992765">
        <ele>38.92289544274021</ele>
      </trkpt>
      <trkpt lat="1.2951519381111938" lon="103.84658189424974">
        <ele>39.046792981637545</ele>
      </trkpt>
      <trkpt lat="1.2950832931639933" lon="103.84663648313797">
        <ele>38.91663734746219</ele>
      </trkpt>
      <trkpt lat="1.294999771227658" lon="103.84665794922955">
        <ele>38.76472628841511</ele>
      </trkpt>
      <trkpt lat="1.2949108051786602" lon="103.84667401076865">
        <ele>38.91748205959592</ele>
      </trkpt>
      <trkpt lat="1.2948226405120338" lon="103.84669402430727">
        <ele>39.338527097331045</ele>
      </trkpt>
      <trkpt lat="1.2947357067128433" lon="103.84671853361">
        <ele>39.7209042687079</ele>
      </trkpt>
      <trkpt lat="1.2946580340311713" lon="103.84675950630658">
        <ele>39.82046469779058</ele>
      </trkpt>
      <trkpt lat="1.294613437054307" lon="103.84683670365744">
        <ele>39.19258174921543</ele>
      </trkpt>
      <trkpt lat="1.294589266922837" lon="103.84692328818127">
        <ele>38.152666644184144</ele>
      </trkpt>
      <trkpt lat="1.2945589916321558" lon="103.84700757127165">
        <ele>37.25277404652627</ele>
      </trkpt>
      <trkpt lat="1.2944931300197193" lon="103.84706266235885">
        <ele>36.95114031069832</ele>
      </trkpt>
      <trkpt lat="1.2944119486489098" lon="103.84710225981307">
        <ele>37.21501759915599</ele>
      </trkpt>
      <trkpt lat="1.2943300717520811" lon="103.84714040299123">
        <ele>37.39308488377758</ele>
      </trkpt>
      <trkpt lat="1.2942478995702844" lon="103.84717792875357">
        <ele>37.376608838310425</ele>
      </trkpt>
      <trkpt lat="1.294165662265867" lon="103.8472153106403">
        <ele>37.165068469220095</ele>
      </trkpt>
      <trkpt lat="1.2940828808507079" lon="103.84725149042966">
        <ele>37.03606845159846</ele>
      </trkpt>
      <trkpt lat="1.2940001503469165" lon="103.84728778431626">
        <ele>36.91473999219608</ele>
      </trkpt>
      <trkpt lat="1.293917580147492" lon="103.84732443746952">
        <ele>36.74919235572098</ele>
      </trkpt>
      <trkpt lat="1.2938367927398342" lon="103.84736478869034">
        <ele>36.410152930218494</ele>
      </trkpt>
      <trkpt lat="1.2937631625279336" lon="103.84741695708182">
        <ele>36.051539017692875</ele>
      </trkpt>
      <trkpt lat="1.2937414528077806" lon="103.84743235039524">
        <ele>35.8069972597479</ele>
      </trkpt>
      <trkpt lat="1.2936983842558687" lon="103.84751136113339">
        <ele>33.837423653711106</ele>
      </trkpt>
      <trkpt lat="1.2936553157014958" lon="103.84759037186885">
        <ele>31.723485408068843</ele>
      </trkpt>
      <trkpt lat="1.29361129095114" lon="103.84766884763454">
        <ele>29.384117969849314</ele>
      </trkpt>
      <trkpt lat="1.2935656246342833" lon="103.84774640498217">
        <ele>27.018201696493463</ele>
      </trkpt>
      <trkpt lat="1.2935199583150558" lon="103.84782396232703">
        <ele>25.294737228021262</ele>
      </trkpt>
      <trkpt lat="1.293510927906874" lon="103.84783929911039">
        <ele>24.43300499378498</ele>
      </trkpt>
      <trkpt lat="1.293588073404563" lon="103.84779240834776">
        <ele>25.347470960358006</ele>
      </trkpt>
      <trkpt lat="1.2936652189013649" lon="103.84774551758231">
        <ele>26.216719852737402</ele>
      </trkpt>
      <trkpt lat="1.293751490027429" lon="103.84772191943956">
        <ele>26.732663404901867</ele>
      </trkpt>
      <trkpt lat="1.2938402403736238" lon="103.8477046493573">
        <ele>26.875584407590917</ele>
      </trkpt>
      <trkpt lat="1.2939289907196514" lon="103.84768737927386">
        <ele>26.762498656816348</ele>
      </trkpt>
      <trkpt lat="1.2940177410655116" lon="103.84767010918925">
        <ele>26.523285208316977</ele>
      </trkpt>
      <trkpt lat="1.2941050561193048" lon="103.84764731512819">
        <ele>26.22584934944255</ele>
      </trkpt>
      <trkpt lat="1.2941911298756033" lon="103.84761974371317">
        <ele>26.223316437674054</ele>
      </trkpt>
      <trkpt lat="1.2942772036315624" lon="103.8475921722963">
        <ele>26.40977408048546</ele>
      </trkpt>
      <trkpt lat="1.294332363980597" lon="103.84757450315838">
        <ele>26.599160277730036</ele>
      </trkpt>
      <trkpt lat="1.294248434245344" lon="103.84754103681186">
        <ele>27.921786324433885</ele>
      </trkpt>
      <trkpt lat="1.2941623922832928" lon="103.8475144972449">
        <ele>29.196911769019746</ele>
      </trkpt>
      <trkpt lat="1.2940738811711623" lon="103.84749605494208">
        <ele>30.56241053354536</ele>
      </trkpt>
      <trkpt lat="1.2939853700588213" lon="103.84747761264057">
        <ele>31.970815519668765</ele>
      </trkpt>
      <trkpt lat="1.293896797413122" lon="103.8474594875835">
        <ele>33.35534394288154</ele>
      </trkpt>
      <trkpt lat="1.2938077271855828" lon="103.84744392788258">
        <ele>34.601730797423585</ele>
      </trkpt>
      <trkpt lat="1.2937414528077806" lon="103.84743235039524">
        <ele>35.21429980584519</ele>
      </trkpt>
      <trkpt lat="1.2936593846898214" lon="103.84747010028735">
        <ele>35.41017497019748</ele>
      </trkpt>
      <trkpt lat="1.2935773165712705" lon="103.84750785017707">
        <ele>34.89180589556281</ele>
      </trkpt>
      <trkpt lat="1.2934952484521285" lon="103.84754560006438">
        <ele>34.14062967627107</ele>
      </trkpt>
      <trkpt lat="1.2934131803323952" lon="103.84758334994929">
        <ele>33.3649333179259</ele>
      </trkpt>
      <trkpt lat="1.2933284626819799" lon="103.84761271045583">
        <ele>32.80141399555063</ele>
      </trkpt>
      <trkpt lat="1.293239400112128" lon="103.84762831336651">
        <ele>32.466938617477545</ele>
      </trkpt>
      <trkpt lat="1.2931503375421287" lon="103.84764391627614">
        <ele>32.29093694528425</ele>
      </trkpt>
      <trkpt lat="1.2930612749719823" lon="103.84765951918473">
        <ele>32.11834721295236</ele>
      </trkpt>
      <trkpt lat="1.2929721610768252" lon="103.84767482099727">
        <ele>32.04264552578541</ele>
      </trkpt>
      <trkpt lat="1.2928828943252981" lon="103.84768922608468">
        <ele>32.16203921074732</ele>
      </trkpt>
      <trkpt lat="1.292793627573637" lon="103.8477036311711">
        <ele>32.47311632797709</ele>
      </trkpt>
      <trkpt lat="1.2927043608218423" lon="103.84771803625657">
        <ele>32.9314992967124</ele>
      </trkpt>
      <trkpt lat="1.2926149487941496" lon="103.84772681859633">
        <ele>33.34096486300537</ele>
      </trkpt>
      <trkpt lat="1.2925250557338175" lon="103.8477169830813">
        <ele>33.63640128047984</ele>
      </trkpt>
      <trkpt lat="1.2924351626733754" lon="103.84770714756701">
        <ele>33.728202279516275</ele>
      </trkpt>
      <trkpt lat="1.2923492940356915" lon="103.84767911131121">
        <ele>33.54149739860207</ele>
      </trkpt>
      <trkpt lat="1.2922635293108151" lon="103.84765060510236">
        <ele>33.23696228343764</ele>
      </trkpt>
      <trkpt lat="1.2921848575890071" lon="103.8476090443173">
        <ele>33.155824892105905</ele>
      </trkpt>
      <trkpt lat="1.2921379101905186" lon="103.84753357547592">
        <ele>33.581047781188836</ele>
      </trkpt>
      <trkpt lat="1.2921070648630548" lon="103.84744911891114">
        <ele>34.379720553235224</ele>
      </trkpt>
      <trkpt lat="1.2920705017303653" lon="103.84736751743557">
        <ele>35.171103159567075</ele>
      </trkpt>
      <trkpt lat="1.2920215755536708" lon="103.84729194803305">
        <ele>35.845119432099445</ele>
      </trkpt>
      <trkpt lat="1.291972649374663" lon="103.84721637863342">
        <ele>36.56864496435417</ele>
      </trkpt>
      <trkpt lat="1.2919237231933434" lon="103.84714080923666">
        <ele>37.26905534567813</ele>
      </trkpt>
      <trkpt lat="1.2918983701146818" lon="103.84705990151619">
        <ele>37.49346336409331</ele>
      </trkpt>
      <trkpt lat="1.291909504474032" lon="103.84697073091016">
        <ele>36.73748754228554</ele>
      </trkpt>
      <trkpt lat="1.2919206388302404" lon="103.84688156030333">
        <ele>35.65678424049283</ele>
      </trkpt>
      <trkpt lat="1.291923682652498" lon="103.8468571835434">
        <ele>34.929006398637064</ele>
      </trkpt>
    </trkseg>
  </trk>
</gpx>