{
"type": "FeatureCollection",
"name": "point_to_point_05000m_027",
"crs": { "type": "name", "properties": { "name": "urn:ogc:def:crs:OGC:1.3:CRS84" } },
"features": [
{ "type": "Feature", "properties": { "route_id": "point_to_point_05000m_027", "budget_km": 5.0, "mode": "point_to_point", "rank": 27, "distance_m": 4313.862320486297, "ascent_m": 37.067754438503918, "descent_m": 34.637547058930217, "gain_density_m_per_km": 8.5927068795105424, "source_confidence": 0.9 }, "geometry": { "type": "LineString", "coordinates": [ [ 103.836591499081734, 1.345619464370859 ], [ 103.83658040465977, 1.34570689201146 ], [ 103.83649188657256, 1.34578476966573 ], [ 103.836390729313479, 1.34586264190653 ], [ 103.836256160829095, 1.345936171425432 ], [ 103.836102558071602, 1.3459783303641 ], [ 103.835879134430215, 1.34606967503752 ], [ 103.835669675304914, 1.346146966757489 ], [ 103.835376431688289, 1.346350737519085 ], [ 103.834999403499822, 1.346659907460137 ], [ 103.834775979817195, 1.346856651187463 ], [ 103.834706159813379, 1.346947997464618 ], [ 103.834657284418853, 1.347102583221784 ], [ 103.834552553504281, 1.34725716810218 ], [ 103.83441989614073, 1.347355540409093 ], [ 103.834259309654186, 1.347439858895862 ], [ 103.834077777701268, 1.347615523614532 ], [ 103.833889263003343, 1.347826321975601 ], [ 103.833672820945679, 1.347959826104784 ], [ 103.833337684172406, 1.348261969769684 ], [ 103.833107276570658, 1.348592220142105 ], [ 103.832925742624653, 1.348936524323862 ], [ 103.832786102350809, 1.349140295692704 ], [ 103.832583623784501, 1.349266773718749 ], [ 103.832402092517455, 1.349330012243573 ], [ 103.832122812879788, 1.349400276715103 ], [ 103.831941280652458, 1.349533780704758 ], [ 103.83176672930459, 1.34972349907427 ], [ 103.831480464792151, 1.350166175315321 ], [ 103.831277985039264, 1.350454265868022 ], [ 103.83104757783876, 1.350798569860973 ], [ 103.830796223284111, 1.351121793074116 ], [ 103.83057978071119, 1.351304483494709 ], [ 103.830356356292654, 1.351466094056605 ], [ 103.830105003579263, 1.351634731471895 ], [ 103.829965364018335, 1.351690943860455 ], [ 103.829846671029031, 1.351634729303781 ], [ 103.829790815588439, 1.351515275343268 ], [ 103.829797799488802, 1.351332582887492 ], [ 103.829790820793818, 1.351023410524094 ], [ 103.82972798457611, 1.35080558340628 ], [ 103.829588347259843, 1.350594783080236 ], [ 103.829441727076784, 1.350482354975562 ], [ 103.829260195767461, 1.350468299948663 ], [ 103.829127538138422, 1.350496405559086 ], [ 103.829057717820348, 1.350587751670106 ], [ 103.828973932799968, 1.350749363252488 ], [ 103.828911092267504, 1.350974215265778 ], [ 103.82886221620835, 1.351248253875195 ], [ 103.828792392562818, 1.351662825248581 ], [ 103.828736533803621, 1.351901731091695 ], [ 103.828666713363575, 1.352028209939089 ], [ 103.828520089984977, 1.352147660816405 ], [ 103.828205899604768, 1.35231629790612 ], [ 103.827975493033804, 1.35250601497221 ], [ 103.827724139038239, 1.352723837804398 ], [ 103.827486749649907, 1.352913554806588 ], [ 103.827235396520067, 1.353110298661122 ], [ 103.827032918418482, 1.353166508910198 ], [ 103.826781567664327, 1.35312434677154 ], [ 103.826432469372605, 1.353061102690185 ], [ 103.826285849127146, 1.352969755130385 ], [ 103.826146210714896, 1.352885433589568 ], [ 103.825859950021879, 1.352801110686314 ], [ 103.825434051738029, 1.352674625827091 ], [ 103.825224593014582, 1.352632464567593 ], [ 103.825036080039453, 1.352527062063393 ], [ 103.824812658844849, 1.352400579591423 ], [ 103.824680001284889, 1.352365445466262 ], [ 103.824330903028212, 1.352337334734121 ], [ 103.823751399664204, 1.352274087585706 ], [ 103.823493067389236, 1.352189764512848 ], [ 103.823192844088453, 1.352105441236704 ], [ 103.822934510683339, 1.352084358498387 ], [ 103.822634286393665, 1.352028140989893 ], [ 103.822145550057769, 1.351901655271888 ], [ 103.821559063882219, 1.351887595041032 ], [ 103.821342622143419, 1.351929751826161 ], [ 103.821196000387133, 1.352014069508026 ], [ 103.821042395987689, 1.352077307315468 ], [ 103.820916720020136, 1.352105412508747 ], [ 103.820735188643283, 1.352091356840528 ], [ 103.820616494402572, 1.352140540979968 ], [ 103.820588564509791, 1.352281073633748 ], [ 103.820616490207541, 1.352428634397869 ], [ 103.820623470017239, 1.352646459642841 ], [ 103.820539684664112, 1.35275185834806 ], [ 103.82040004381227, 1.35282915001031 ], [ 103.820281350652849, 1.352836174473363 ], [ 103.819897342234711, 1.352815089821519 ], [ 103.819792611861374, 1.352822115242615 ], [ 103.819687880898627, 1.352934539806894 ], [ 103.819527292827104, 1.353145337187737 ], [ 103.819227060789515, 1.353644224444299 ], [ 103.819094401403788, 1.353770702640179 ], [ 103.818905886631327, 1.353847993020494 ], [ 103.818371107506152, 1.354045333822542 ], [ 103.818332336579701, 1.354137177209868 ], [ 103.81828773354593, 1.354297199685765 ], [ 103.818300368955065, 1.354476455635616 ], [ 103.818300247907288, 1.354726125315403 ], [ 103.818338318914286, 1.3549181971706 ], [ 103.818306462324216, 1.355027011901447 ], [ 103.818306391328775, 1.355174252367962 ], [ 103.818306297592883, 1.355366305897157 ], [ 103.818363392281782, 1.355680021207205 ], [ 103.818331418270063, 1.356032103619417 ], [ 103.818331203488711, 1.356473825919113 ], [ 103.818330953811085, 1.357037201501284 ], [ 103.818808800000014, 1.3570654 ], [ 103.8188429, 1.3570659 ], [ 103.818986, 1.3571012 ], [ 103.8191071, 1.3572002 ], [ 103.8191732, 1.35733 ], [ 103.8192349, 1.3575 ], [ 103.8193636, 1.3579075 ], [ 103.8195138, 1.3582615 ], [ 103.8196855, 1.3585833 ], [ 103.819825, 1.3587763 ], [ 103.8200288, 1.3589587 ], [ 103.8202756, 1.3592268 ], [ 103.8205974, 1.3595915 ], [ 103.8207055, 1.3597496 ], [ 103.820766, 1.3599347 ], [ 103.8209729, 1.3603852 ], [ 103.821044700000016, 1.3605179 ], [ 103.821092, 1.3605813 ], [ 103.821188, 1.3606045 ], [ 103.8213068, 1.3605952 ], [ 103.8213842, 1.3605648 ], [ 103.821411399341869, 1.360512871826396 ], [ 103.821615859946391, 1.360554990890068 ], [ 103.821743291967408, 1.360563605579777 ], [ 103.821776576650777, 1.360570305271473 ], [ 103.821807007381352, 1.36059901898572 ], [ 103.821888792020943, 1.360646875625219 ], [ 103.821931586226299, 1.360656446716913 ], [ 103.821947753193299, 1.36066697540338 ], [ 103.821955361144333, 1.360712917147886 ], [ 103.821968674119802, 1.360754073023324 ], [ 103.82198769397516, 1.36077800168943 ], [ 103.82201432116598, 1.360787572703089 ], [ 103.822044752938609, 1.360786616029127 ], [ 103.822096106055227, 1.360783744913622 ], [ 103.822143655511212, 1.360786616492827 ], [ 103.822206420380212, 1.36079427403783 ], [ 103.822233999132678, 1.360808630949558 ], [ 103.822403274794922, 1.360804802648755 ], [ 103.822440363181983, 1.360797146469066 ], [ 103.822525951820097, 1.360767475566853 ], [ 103.822558285049226, 1.360746419397489 ], [ 103.822618196959993, 1.360755990553834 ], [ 103.822641021442934, 1.360759818829995 ], [ 103.822681913517187, 1.360739720418939 ], [ 103.822835973006605, 1.360697607564237 ], [ 103.822857845960613, 1.360688993589577 ], [ 103.822913954713641, 1.360587538624779 ], [ 103.82293012086383, 1.360579882346463 ], [ 103.822962454920187, 1.360574138868611 ], [ 103.823001445519296, 1.360577968115574 ], [ 103.823100347930463, 1.360614339360501 ], [ 103.823126024460279, 1.360619124461699 ], [ 103.823185936542217, 1.360587539791346 ], [ 103.823260113419892, 1.360544469752311 ], [ 103.823274378292325, 1.360514799426821 ], [ 103.823280084350543, 1.360476514090624 ], [ 103.823293398506948, 1.360454500109549 ], [ 103.823387546034766, 1.360409516515061 ], [ 103.823409418984269, 1.360400902535296 ], [ 103.823532095753762, 1.360418131180639 ], [ 103.823552066398278, 1.360419088079673 ], [ 103.823773645947114, 1.360380804517448 ], [ 103.82378886136064, 1.36038558956982 ], [ 103.82395908739845, 1.360453545987034 ], [ 103.824031362718699, 1.360455460807828 ], [ 103.824079862989521, 1.360422918348849 ], [ 103.824080412909112, 1.360423713287452 ], [ 103.824079862989521, 1.360422918348849 ], [ 103.824031362718699, 1.360455460807828 ], [ 103.82395908739845, 1.360453545987034 ], [ 103.82378886136064, 1.36038558956982 ], [ 103.823773645947114, 1.360380804517448 ], [ 103.823552066398278, 1.360419088079673 ], [ 103.823532095753762, 1.360418131180639 ], [ 103.823409418984269, 1.360400902535296 ], [ 103.823387546034766, 1.360409516515061 ], [ 103.823293398506948, 1.360454500109549 ], [ 103.823280084350543, 1.360476514090624 ], [ 103.823274378292325, 1.360514799426821 ], [ 103.823260113419892, 1.360544469752311 ], [ 103.823185936542217, 1.360587539791346 ], [ 103.823126024460279, 1.360619124461699 ], [ 103.823100347930463, 1.360614339360501 ], [ 103.823001445519296, 1.360577968115574 ], [ 103.822962454920187, 1.360574138868611 ], [ 103.82293012086383, 1.360579882346463 ], [ 103.822913954713641, 1.360587538624779 ], [ 103.822857845960613, 1.360688993589577 ], [ 103.822835973006605, 1.360697607564237 ], [ 103.822681913517187, 1.360739720418939 ], [ 103.822641021442934, 1.360759818829995 ], [ 103.822618196959993, 1.360755990553834 ], [ 103.822558285049226, 1.360746419397489 ], [ 103.822525951820097, 1.360767475566853 ], [ 103.822440363181983, 1.360797146469066 ], [ 103.822403274794922, 1.360804802648755 ], [ 103.822233999132678, 1.360808630949558 ], [ 103.822206420380212, 1.36079427403783 ], [ 103.822143655511212, 1.360786616492827 ], [ 103.822096106055227, 1.360783744913622 ], [ 103.822044752938609, 1.360786616029127 ], [ 103.82201432116598, 1.360787572703089 ], [ 103.82198769397516, 1.36077800168943 ], [ 103.821968674119802, 1.360754073023324 ], [ 103.821955361144333, 1.360712917147886 ], [ 103.821947753193299, 1.36066697540338 ], [ 103.821931586226299, 1.360656446716913 ], [ 103.821888792020943, 1.360646875625219 ], [ 103.821807007381352, 1.36059901898572 ], [ 103.821776576650777, 1.360570305271473 ], [ 103.821743291967408, 1.360563605579777 ], [ 103.821615859946391, 1.360554990890068 ], [ 103.821411399341869, 1.360512871826396 ] ] } }
]
}
