{
"type": "FeatureCollection",
"name": "point_to_point_05000m_033",
"crs": { "type": "name", "properties": { "name": "urn:ogc:def:crs:OGC:1.3:CRS84" } },
"features": [
{ "type": "Feature", "properties": { "route_id": "point_to_point_05000m_033", "budget_km": 5.0, "mode": "point_to_point", "rank": 33, "distance_m": 2709.7624552787188, "ascent_m": 33.607446906114731, "descent_m": 33.269104428033515, "gain_density_m_per_km": 12.402359048353544, "source_confidence": 0.65 }, "geometry": { "type": "LineString", "coordinates": [ [ 104.042356556909141, 1.42845815837673 ], [ 104.0416431, 1.4278924 ], [ 104.0413374, 1.4276109 ], [ 104.0409458, 1.4272141 ], [ 104.0405686, 1.4267867 ], [ 104.0397321, 1.4261187 ], [ 104.0393954, 1.4257702 ], [ 104.0389381, 1.4254283 ], [ 104.0386283, 1.4251601 ], [ 104.03856930000002, 1.4250663 ], [ 104.0385425, 1.4249939 ], [ 104.0385184, 1.4247231 ], [ 104.038462, 1.4245836 ], [ 104.0383789, 1.4245112 ], [ 104.0382341, 1.4244415 ], [ 104.0379953, 1.4243906 ], [ 104.0376681, 1.4243745 ], [ 104.0375018, 1.4243289 ], [ 104.037298, 1.4242082 ], [ 104.0369868, 1.4239133 ], [ 104.03661937712188, 1.42365047541828 ], [ 104.0366457, 1.4234574 ], [ 104.0369815, 1.422216 ], [ 104.0369922, 1.4220712 ], [ 104.0369466, 1.4219183 ], [ 104.036716686372216, 1.421512202371321 ], [ 104.0359569, 1.4201701 ], [ 104.0358442, 1.4200253 ], [ 104.0357208, 1.4199609 ], [ 104.0347311, 1.4195775 ], [ 104.034524600000012, 1.4194515 ], [ 104.0332693, 1.4184325 ], [ 104.0330976, 1.4182958 ], [ 104.0329313, 1.4181054 ], [ 104.031783358740029, 1.416130616251214 ], [ 104.0314534, 1.4156895 ], [ 104.031407800000011, 1.4156305 ], [ 104.0313703, 1.4155286 ], [ 104.0313515, 1.4154026 ], [ 104.0315741, 1.4143407 ], [ 104.0316117, 1.4141074 ], [ 104.0315929, 1.4138956 ], [ 104.0314749, 1.4131743 ], [ 104.031449, 1.4130648 ], [ 104.0314266, 1.4129705 ], [ 104.0313783, 1.4128177 ], [ 104.0311648, 1.4123591 ], [ 104.0309207, 1.4119542 ], [ 104.0307825, 1.411839 ], [ 104.0304119, 1.4113886 ], [ 104.030049, 1.4110077 ], [ 104.030001, 1.4109254 ], [ 104.0299755, 1.4108576 ], [ 104.0299782, 1.4107785 ], [ 104.0300104, 1.4106779 ], [ 104.0301043, 1.4104969 ], [ 104.0301861, 1.4103495 ], [ 104.0302585, 1.4101497 ], [ 104.030237544496515, 1.409932908212956 ] ] } }
]
}
