<?xml version="1.0" encoding="UTF-8"?>
<gpx xmlns="http://www.topografix.com/GPX/1/1" xmlns:xsi="http://www.w3.org/2001/XMLSchema-instance" xsi:schemaLocation="http://www.topografix.com/GPX/1/1 http://www.topografix.com/GPX/1/1/gpx.xsd" version="1.1" creator="gpx.py -- https://github.com/tkrajina/gpxpy">
  <trk>
    <name>point_to_point_05000m_004</name>
    <trkseg>
      <trkpt lat="1.353621872244915" lon="103.80788525466195">
        <ele>20.0</ele>
      </trkpt>
      <trkpt lat="1.353687981074338" lon="103.8078249603477">
        <ele>20.0</ele>
      </trkpt>
      <trkpt lat="1.353759757741603" lon="103.8078355956017">
        <ele>20.0</ele>
      </trkpt>
      <trkpt lat="1.3538341929226991" lon="103.80787372242095">
        <ele>20.0</ele>
      </trkpt>
      <trkpt lat="1.3539179469671774" lon="103.80783982366219">
        <ele>19.999999999999996</ele>
      </trkpt>
      <trkpt lat="1.354001336412026" lon="103.80780505813773">
        <ele>20.0</ele>
      </trkpt>
      <trkpt lat="1.3540844591642498" lon="103.80776965860247">
        <ele>20.0</ele>
      </trkpt>
      <trkpt lat="1.3541675819158496" lon="103.80773425906476">
        <ele>20.0</ele>
      </trkpt>
      <trkpt lat="1.3542517953738928" lon="103.80770160890063">
        <ele>20.0</ele>
      </trkpt>
      <trkpt lat="1.3543368721710494" lon="103.80767113497879">
        <ele>20.0</ele>
      </trkpt>
      <trkpt lat="1.3544219489677194" lon="103.80764066105479">
        <ele>20.0</ele>
      </trkpt>
      <trkpt lat="1.3545070257639031" lon="103.80761018712862">
        <ele>20.0</ele>
      </trkpt>
      <trkpt lat="1.354592076591859" lon="103.80757964478977">
        <ele>20.0</ele>
      </trkpt>
      <trkpt lat="1.3546762180807477" lon="103.80754670684955">
        <ele>20.0</ele>
      </trkpt>
      <trkpt lat="1.3547603595690827" lon="103.80751376890701">
        <ele>20.0</ele>
      </trkpt>
      <trkpt lat="1.3548445010568648" lon="103.80748083096216">
        <ele>20.0</ele>
      </trkpt>
      <trkpt lat="1.3549286425440938" lon="103.80744789301498">
        <ele>20.0</ele>
      </trkpt>
      <trkpt lat="1.3550127840307695" lon="103.8074149550655">
        <ele>20.0</ele>
      </trkpt>
      <trkpt lat="1.3550968950071154" lon="103.80738194030864">
        <ele>20.0</ele>
      </trkpt>
      <trkpt lat="1.355180996059188" lon="103.8073489005676">
        <ele>20.0</ele>
      </trkpt>
      <trkpt lat="1.3552650971107039" lon="103.80731586082422">
        <ele>20.0</ele>
      </trkpt>
      <trkpt lat="1.3553491981616639" lon="103.80728282107852">
        <ele>20.0</ele>
      </trkpt>
      <trkpt lat="1.355433299212067" lon="103.80724978133048">
        <ele>20.0</ele>
      </trkpt>
      <trkpt lat="1.3555174002619135" lon="103.80721674158013">
        <ele>20.0</ele>
      </trkpt>
      <trkpt lat="1.355601501311203" lon="103.80718370182744">
        <ele>20.0</ele>
      </trkpt>
      <trkpt lat="1.3556861093326102" lon="103.80715196981785">
        <ele>20.0</ele>
      </trkpt>
      <trkpt lat="1.3557707864106168" lon="103.80712041594012">
        <ele>20.0</ele>
      </trkpt>
      <trkpt lat="1.3558554634881066" lon="103.80708886206016">
        <ele>20.036332487136097</ele>
      </trkpt>
      <trkpt lat="1.35594014056508" lon="103.80705730817795">
        <ele>20.169981804446664</ele>
      </trkpt>
      <trkpt lat="1.3560248176415375" lon="103.8070257542935">
        <ele>20.400947951931652</ele>
      </trkpt>
      <trkpt lat="1.3561094947174783" lon="103.80699420040682">
        <ele>20.807209202553647</ele>
      </trkpt>
      <trkpt lat="1.3561995810864758" lon="103.806989128178">
        <ele>21.43995160718139</ele>
      </trkpt>
      <trkpt lat="1.3562831204575734" lon="103.8070180513128">
        <ele>22.33168221003237</ele>
      </trkpt>
      <trkpt lat="1.35636465863103" lon="103.80705689650524">
        <ele>23.35479079286755</ele>
      </trkpt>
      <trkpt lat="1.3564484448784166" lon="103.80709071664016">
        <ele>24.397106961779816</ele>
      </trkpt>
      <trkpt lat="1.3565322311253145" lon="103.80712453677737">
        <ele>25.426123672551608</ele>
      </trkpt>
      <trkpt lat="1.3566160173717243" lon="103.80715835691683">
        <ele>26.455140383323407</ele>
      </trkpt>
      <trkpt lat="1.3566998036176452" lon="103.80719217705858">
        <ele>27.4841570940952</ele>
      </trkpt>
      <trkpt lat="1.3567835898630778" lon="103.80722599720264">
        <ele>28.52227469817156</ele>
      </trkpt>
      <trkpt lat="1.3568658961086921" lon="103.80726321658922">
        <ele>29.57028540725428</ele>
      </trkpt>
      <trkpt lat="1.356948073523202" lon="103.80730073187429">
        <ele>30.62818922134335</ele>
      </trkpt>
      <trkpt lat="1.3570302509371195" lon="103.80733824716184">
        <ele>31.686885247134466</ele>
      </trkpt>
      <trkpt lat="1.357112428350444" lon="103.80737576245188">
        <ele>32.745581272925584</ele>
      </trkpt>
      <trkpt lat="1.3571946057631772" lon="103.80741327774443">
        <ele>33.81771551348749</ele>
      </trkpt>
      <trkpt lat="1.3572767831753167" lon="103.80745079303944">
        <ele>35.027073074969096</ele>
      </trkpt>
      <trkpt lat="1.3573556070134547" lon="103.80749475090475">
        <ele>36.36123466623043</ele>
      </trkpt>
      <trkpt lat="1.3574339125147667" lon="103.80753970455095">
        <ele>37.49932497905311</ele>
      </trkpt>
      <trkpt lat="1.3575142444488368" lon="103.80758028661361">
        <ele>38.167207008719025</ele>
      </trkpt>
      <trkpt lat="1.3575977807816397" lon="103.80761427529374">
        <ele>38.48593862167615</ele>
      </trkpt>
      <trkpt lat="1.3576739138041756" lon="103.80766260289721">
        <ele>38.67847466458511</ele>
      </trkpt>
      <trkpt lat="1.3577569345512859" lon="103.80769423135195">
        <ele>38.880205393152984</ele>
      </trkpt>
      <trkpt lat="1.3578417336703315" lon="103.80772305021459">
        <ele>39.11478335458019</ele>
      </trkpt>
      <trkpt lat="1.3579217140251654" lon="103.80776499200866">
        <ele>39.48306100924186</ele>
      </trkpt>
      <trkpt lat="1.358001694379267" lon="103.80780693380545">
        <ele>39.822230265217904</ele>
      </trkpt>
      <trkpt lat="1.3580816747326359" lon="103.80784887560498">
        <ele>40.0</ele>
      </trkpt>
      <trkpt lat="1.358161655085271" lon="103.8078908174072">
        <ele>40.0</ele>
      </trkpt>
      <trkpt lat="1.3582416354371738" lon="103.80793275921216">
        <ele>40.0</ele>
      </trkpt>
      <trkpt lat="1.3583225163935841" lon="103.80797287353599">
        <ele>40.0</ele>
      </trkpt>
      <trkpt lat="1.3584049059175691" lon="103.80800992671645">
        <ele>40.0</ele>
      </trkpt>
      <trkpt lat="1.3584872954409741" lon="103.80804697989937">
        <ele>40.0</ele>
      </trkpt>
      <trkpt lat="1.3585696849637972" lon="103.80808403308478">
        <ele>40.0</ele>
      </trkpt>
      <trkpt lat="1.3586520744860398" lon="103.80812108627264">
        <ele>40.0</ele>
      </trkpt>
      <trkpt lat="1.3587349773734811" lon="103.80815689388466">
        <ele>40.0</ele>
      </trkpt>
      <trkpt lat="1.35881985902219" lon="103.80818790043338">
        <ele>40.0</ele>
      </trkpt>
      <trkpt lat="1.358904740670479" lon="103.80821890698424">
        <ele>40.0</ele>
      </trkpt>
      <trkpt lat="1.3589896223183482" lon="103.8082499135372">
        <ele>40.0</ele>
      </trkpt>
      <trkpt lat="1.3590699901847525" lon="103.80829029118156">
        <ele>40.0</ele>
      </trkpt>
      <trkpt lat="1.3591475385276532" lon="103.80833652245757">
        <ele>40.0</ele>
      </trkpt>
      <trkpt lat="1.3592258146261744" lon="103.80838152362533">
        <ele>40.0</ele>
      </trkpt>
      <trkpt lat="1.3593041883769128" lon="103.80842635973511">
        <ele>40.0</ele>
      </trkpt>
      <trkpt lat="1.3593893193653863" lon="103.8084566608635">
        <ele>40.0</ele>
      </trkpt>
      <trkpt lat="1.3594744871947366" lon="103.80848688277031">
        <ele>40.0</ele>
      </trkpt>
      <trkpt lat="1.3595595897896713" lon="103.80851727468338">
        <ele>40.084688640887826</ele>
      </trkpt>
      <trkpt lat="1.3596433893109081" lon="103.80855106237743">
        <ele>40.88968228698331</ele>
      </trkpt>
      <trkpt lat="1.359727188831654" lon="103.80858485007376">
        <ele>42.414980938286874</ele>
      </trkpt>
      <trkpt lat="1.359810988351908" lon="103.80861863777237">
        <ele>44.57589595391079</ele>
      </trkpt>
      <trkpt lat="1.3598947878716712" lon="103.80865242547327">
        <ele>46.7368109695347</ele>
      </trkpt>
      <trkpt lat="1.359978587390943" lon="103.80868621317646">
        <ele>48.897725985158694</ele>
      </trkpt>
      <trkpt lat="1.3600623869097228" lon="103.80872000088193">
        <ele>51.05864100078216</ele>
      </trkpt>
      <trkpt lat="1.360146186428011" lon="103.8087537885897">
        <ele>53.17886971997718</ele>
      </trkpt>
      <trkpt lat="1.360220139220982" lon="103.80880375504721">
        <ele>55.27909259494527</ele>
      </trkpt>
      <trkpt lat="1.3603004410350255" lon="103.8088407438132">
        <ele>57.32272393426886</ele>
      </trkpt>
      <trkpt lat="1.3603868366534744" lon="103.80886223622522">
        <ele>59.703325763834336</ele>
      </trkpt>
      <trkpt lat="1.360471138683642" lon="103.80889475819824">
        <ele>62.277004390742775</ele>
      </trkpt>
      <trkpt lat="1.3605531143304723" lon="103.80893270682259">
        <ele>65.08034550641241</ele>
      </trkpt>
      <trkpt lat="1.360635089976693" lon="103.80897065544946">
        <ele>67.7604733813851</ele>
      </trkpt>
      <trkpt lat="1.360717065622303" lon="103.80900860407885">
        <ele>70.44060125635798</ele>
      </trkpt>
      <trkpt lat="1.3607990412673032" lon="103.80904655271078">
        <ele>73.11935439833489</ele>
      </trkpt>
      <trkpt lat="1.360881312012224" lon="103.80908383805675">
        <ele>75.79136884483819</ele>
      </trkpt>
      <trkpt lat="1.3609647341861255" lon="103.809118535372">
        <ele>78.08445913439458</ele>
      </trkpt>
      <trkpt lat="1.3610481563595096" lon="103.8091532326896">
        <ele>79.48554819862257</ele>
      </trkpt>
      <trkpt lat="1.3611314419672764" lon="103.80918825218441">
        <ele>80.0</ele>
      </trkpt>
      <trkpt lat="1.361214711354941" lon="103.8092233099457">
        <ele>80.0</ele>
      </trkpt>
      <trkpt lat="1.3612979807420784" lon="103.80925836770933">
        <ele>80.0</ele>
      </trkpt>
      <trkpt lat="1.3613695049783991" lon="103.80931165976446">
        <ele>80.0</ele>
      </trkpt>
      <trkpt lat="1.3613797067136004" lon="103.80940029135272">
        <ele>80.0</ele>
      </trkpt>
      <trkpt lat="1.3613797060725263" lon="103.80944634410531">
        <ele>80.0</ele>
      </trkpt>
      <trkpt lat="1.3613784542149179" lon="103.80953617250236">
        <ele>80.0</ele>
      </trkpt>
      <trkpt lat="1.3613726108231803" lon="103.80962577993095">
        <ele>80.0</ele>
      </trkpt>
      <trkpt lat="1.3613600924755467" lon="103.80971476761127">
        <ele>80.0</ele>
      </trkpt>
      <trkpt lat="1.3613451225091755" lon="103.80980338449108">
        <ele>80.0</ele>
      </trkpt>
      <trkpt lat="1.3613297596167373" lon="103.80989193519181">
        <ele>80.0</ele>
      </trkpt>
      <trkpt lat="1.3613044575464641" lon="103.80997800406773">
        <ele>80.0</ele>
      </trkpt>
      <trkpt lat="1.3612813863474147" lon="103.81006478861265">
        <ele>80.0</ele>
      </trkpt>
      <trkpt lat="1.361261237870246" lon="103.81015238687343">
        <ele>79.63598197813924</ele>
      </trkpt>
      <trkpt lat="1.3612526473087088" lon="103.8102417291503">
        <ele>78.45372079882002</ele>
      </trkpt>
      <trkpt lat="1.361243598938508" lon="103.81033111711099">
        <ele>76.28519524159839</ele>
      </trkpt>
      <trkpt lat="1.3612505237607395" lon="103.81042007672913">
        <ele>73.5217052089888</ele>
      </trkpt>
      <trkpt lat="1.3612593091629026" lon="103.81050619098637">
        <ele>70.7025448405288</ele>
      </trkpt>
      <trkpt lat="1.3612309104677633" lon="103.81059148859734">
        <ele>67.98871659817735</ele>
      </trkpt>
      <trkpt lat="1.3612037649007092" lon="103.81067719368377">
        <ele>65.34162906013695</ele>
      </trkpt>
      <trkpt lat="1.3611787286044437" lon="103.81076353847081">
        <ele>62.67628663015728</ele>
      </trkpt>
      <trkpt lat="1.3611536923050325" lon="103.81084988325614">
        <ele>60.38230631862612</ele>
      </trkpt>
      <trkpt lat="1.3611289982161263" lon="103.81093632205933">
        <ele>58.46659773207409</ele>
      </trkpt>
      <trkpt lat="1.3611058326723875" lon="103.81102318081346">
        <ele>56.92908746281199</ele>
      </trkpt>
      <trkpt lat="1.361082667125469" lon="103.811110039566">
        <ele>55.3871772589367</ele>
      </trkpt>
      <trkpt lat="1.361059501575371" lon="103.81119689831691">
        <ele>53.851519444691974</ele>
      </trkpt>
      <trkpt lat="1.3610363360220932" lon="103.81128375706622">
        <ele>53.07318056956992</ele>
      </trkpt>
      <trkpt lat="1.3610131704656356" lon="103.81137061581393">
        <ele>53.05216063357023</ele>
      </trkpt>
      <trkpt lat="1.360990004905999" lon="103.81145747456002">
        <ele>53.78220724706239</ele>
      </trkpt>
      <trkpt lat="1.3609668393431835" lon="103.81154433330448">
        <ele>54.5122538605541</ele>
      </trkpt>
      <trkpt lat="1.3609436737771887" lon="103.81163119204734">
        <ele>55.24230047404584</ele>
      </trkpt>
      <trkpt lat="1.3609205082080151" lon="103.8117180507886">
        <ele>55.97234708753755</ele>
      </trkpt>
      <trkpt lat="1.3608973426356632" lon="103.81180490952823">
        <ele>56.70239370102926</ele>
      </trkpt>
      <trkpt lat="1.3608741770601327" lon="103.81189176826628">
        <ele>57.43244031452097</ele>
      </trkpt>
      <trkpt lat="1.3608510114814238" lon="103.8119786270027">
        <ele>58.16248692801272</ele>
      </trkpt>
      <trkpt lat="1.3608278458995369" lon="103.8120654857375">
        <ele>58.892533541504456</ele>
      </trkpt>
      <trkpt lat="1.3608046803144715" lon="103.8121523444707">
        <ele>59.50503789883354</ele>
      </trkpt>
      <trkpt lat="1.3607815147262285" lon="103.81223920320228">
        <ele>60.10033800078177</ele>
      </trkpt>
      <trkpt lat="1.3607583491348085" lon="103.81232606193227">
        <ele>61.28660682432905</ele>
      </trkpt>
      <trkpt lat="1.3607351835402102" lon="103.81241292066062">
        <ele>62.80733186941614</ele>
      </trkpt>
      <trkpt lat="1.360712017942435" lon="103.81249977938737">
        <ele>64.48931190875612</ele>
      </trkpt>
      <trkpt lat="1.3606846855169021" lon="103.81257991642477">
        <ele>66.30550317731718</ele>
      </trkpt>
      <trkpt lat="1.3606048611747448" lon="103.81254190146761">
        <ele>67.77945173371984</ele>
      </trkpt>
      <trkpt lat="1.3605300940594713" lon="103.81249888012712">
        <ele>69.5706016513437</ele>
      </trkpt>
      <trkpt lat="1.3604449848401896" lon="103.81252213148856">
        <ele>70.98627381251241</ele>
      </trkpt>
      <trkpt lat="1.360388461328472" lon="103.8125534180993">
        <ele>71.98740031653398</ele>
      </trkpt>
      <trkpt lat="1.3604674655995455" lon="103.81250968805091">
        <ele>70.63151928277264</ele>
      </trkpt>
      <trkpt lat="1.3605554128417656" lon="103.8125034535977">
        <ele>69.24258370781776</ele>
      </trkpt>
      <trkpt lat="1.3606233033611226" lon="103.81255958635825">
        <ele>67.52924666656874</ele>
      </trkpt>
      <trkpt lat="1.3606952210087966" lon="103.81256186132264">
        <ele>66.08441859411569</ele>
      </trkpt>
      <trkpt lat="1.3607186097412012" lon="103.81247506363337">
        <ele>64.00598940965826</ele>
      </trkpt>
      <trkpt lat="1.3607417753380722" lon="103.81238820490616">
        <ele>62.25592254436933</ele>
      </trkpt>
      <trkpt lat="1.3607649409317661" lon="103.81230134617734">
        <ele>60.82496087886344</ele>
      </trkpt>
      <trkpt lat="1.3607881065222824" lon="103.81221448744691">
        <ele>59.80494817382269</ele>
      </trkpt>
      <trkpt lat="1.3608112721096208" lon="103.81212762871486">
        <ele>59.36654747648146</ele>
      </trkpt>
      <trkpt lat="1.360834437693782" lon="103.81204076998121">
        <ele>58.684797907976325</ele>
      </trkpt>
      <trkpt lat="1.3608576032747648" lon="103.81195391124595">
        <ele>57.95475129448457</ele>
      </trkpt>
      <trkpt lat="1.3608807688525688" lon="103.81186705250906">
        <ele>57.224704680992865</ele>
      </trkpt>
      <trkpt lat="1.3609039344271954" lon="103.81178019377057">
        <ele>56.494658067501156</ele>
      </trkpt>
      <trkpt lat="1.3609270999986427" lon="103.81169333503047">
        <ele>55.76461145400945</ele>
      </trkpt>
      <trkpt lat="1.3609502655669115" lon="103.81160647628876">
        <ele>55.0345648405177</ele>
      </trkpt>
      <trkpt lat="1.3609734311320019" lon="103.81151961754543">
        <ele>54.30451822702555</ele>
      </trkpt>
      <trkpt lat="1.360996596693913" lon="103.81143275880049">
        <ele>53.57447161353338</ele>
      </trkpt>
      <trkpt lat="1.361019762252645" lon="103.81134590005395">
        <ele>53.053668616684924</ele>
      </trkpt>
      <trkpt lat="1.3610429278081975" lon="103.8112590413058">
        <ele>53.29018455895928</ele>
      </trkpt>
      <trkpt lat="1.3610660933605705" lon="103.81117218255604">
        <ele>54.284019440355856</ele>
      </trkpt>
      <trkpt lat="1.3610892589097636" lon="103.81108532380466">
        <ele>55.825929644231145</ele>
      </trkpt>
      <trkpt lat="1.361112424455778" lon="103.81099846505168">
        <ele>57.367292604219536</ele>
      </trkpt>
      <trkpt lat="1.3611357801125126" lon="103.81091165852888">
        <ele>59.01236713574654</ele>
      </trkpt>
      <trkpt lat="1.3611608164141744" lon="103.8108253137448">
        <ele>61.03571339225303</ele>
      </trkpt>
      <trkpt lat="1.3611858527126908" lon="103.81073896895899">
        <ele>63.43702222793894</ele>
      </trkpt>
      <trkpt lat="1.3612110487281066" lon="103.81065267261147">
        <ele>66.09828059597125</ele>
      </trkpt>
      <trkpt lat="1.3612388099586774" lon="103.81056715424374">
        <ele>68.73755286540721</ele>
      </trkpt>
      <trkpt lat="1.3612671955968512" lon="103.81048219382006">
        <ele>71.48233243342801</ele>
      </trkpt>
      <trkpt lat="1.3612465365013393" lon="103.81039483539404">
        <ele>74.32308976593002</ele>
      </trkpt>
      <trkpt lat="1.3612466051287362" lon="103.81030572334053">
        <ele>77.05535763277662</ele>
      </trkpt>
      <trkpt lat="1.3612546205415867" lon="103.81021623559462">
        <ele>78.93989978896282</ele>
      </trkpt>
      <trkpt lat="1.3612669711437548" lon="103.81012746068411">
        <ele>79.85083300882451</ele>
      </trkpt>
      <trkpt lat="1.3612871196200043" lon="103.81003986242294">
        <ele>80.0</ele>
      </trkpt>
      <trkpt lat="1.3613125946276254" lon="103.80995374712332">
        <ele>80.0</ele>
      </trkpt>
      <trkpt lat="1.3613341311464169" lon="103.80986673798455">
        <ele>80.0</ele>
      </trkpt>
      <trkpt lat="1.3613494567482989" lon="103.809778181003">
        <ele>80.0</ele>
      </trkpt>
      <trkpt lat="1.3613638705055138" lon="103.80968947855342">
        <ele>80.0</ele>
      </trkpt>
      <trkpt lat="1.3613755174750726" lon="103.80960039412808">
        <ele>80.0</ele>
      </trkpt>
      <trkpt lat="1.3613796222264767" lon="103.80951063001784">
        <ele>80.0</ele>
      </trkpt>
      <trkpt lat="1.3613797060725263" lon="103.80944634410531">
        <ele>80.0</ele>
      </trkpt>
      <trkpt lat="1.3613088911716076" lon="103.809390455255">
        <ele>80.0</ele>
      </trkpt>
      <trkpt lat="1.3612380762694016" lon="103.80933456640794">
        <ele>80.0</ele>
      </trkpt>
      <trkpt lat="1.3611619452776182" lon="103.80928734595093">
        <ele>80.0</ele>
      </trkpt>
      <trkpt lat="1.3610794892421894" lon="103.80925043907969">
        <ele>80.0</ele>
      </trkpt>
      <trkpt lat="1.3609970332061805" lon="103.8092135322109">
        <ele>79.40558029643466</ele>
      </trkpt>
      <trkpt lat="1.360914577169592" lon="103.80917662534458">
        <ele>77.92218792926829</ele>
      </trkpt>
      <trkpt lat="1.360831683164931" lon="103.80914076267482">
        <ele>75.55819108043488</ele>
      </trkpt>
      <trkpt lat="1.360747251454327" lon="103.80910856617656">
        <ele>72.90614799199726</ele>
      </trkpt>
      <trkpt lat="1.360663181639231" lon="103.80907552566823">
        <ele>70.24924387810567</ele>
      </trkpt>
      <trkpt lat="1.3605813218834242" lon="103.80903733086981">
        <ele>67.38069151630447</ele>
      </trkpt>
      <trkpt lat="1.3604994621269995" lon="103.80899913607394">
        <ele>63.91337940299184</ele>
      </trkpt>
      <trkpt lat="1.3604176023699572" lon="103.80896094128057">
        <ele>61.083530948413674</ele>
      </trkpt>
      <trkpt lat="1.3603792932444034" lon="103.80894306669717">
        <ele>59.474120238572446</ele>
      </trkpt>
      <trkpt lat="1.360333613681889" lon="103.80899529916888">
        <ele>57.90580786787158</ele>
      </trkpt>
      <trkpt lat="1.3602568372641304" lon="103.80894781298528">
        <ele>56.53016716804715</ele>
      </trkpt>
      <trkpt lat="1.3601800608454373" lon="103.80890032680468">
        <ele>54.79603232517991</ele>
      </trkpt>
      <trkpt lat="1.3601032844258087" lon="103.80885284062704">
        <ele>52.87465625417116</ele>
      </trkpt>
      <trkpt lat="1.3600265080052465" lon="103.80880535445237">
        <ele>50.78666941472351</ele>
      </trkpt>
      <trkpt lat="1.3599497315837492" lon="103.80875786828068">
        <ele>48.69868257527543</ele>
      </trkpt>
      <trkpt lat="1.3598729551613185" lon="103.80871038211195">
        <ele>46.59143698814085</ele>
      </trkpt>
      <trkpt lat="1.3597908540747594" lon="103.80867290195403">
        <ele>44.46267523959238</ele>
      </trkpt>
      <trkpt lat="1.35970812885733" lon="103.80863659465254">
        <ele>42.312397329629505</ele>
      </trkpt>
      <trkpt lat="1.3596254036393387" lon="103.80860028735347">
        <ele>40.82408644518958</ele>
      </trkpt>
      <trkpt lat="1.3595426784207874" lon="103.80856398005686">
        <ele>40.05328733531294</ele>
      </trkpt>
      <trkpt lat="1.3594600370564949" lon="103.80852748622482">
        <ele>40.0</ele>
      </trkpt>
      <trkpt lat="1.3593776154639639" lon="103.80849050350427">
        <ele>40.0</ele>
      </trkpt>
      <trkpt lat="1.3592951938708528" lon="103.8084535207862">
        <ele>40.0</ele>
      </trkpt>
      <trkpt lat="1.3592127722771616" lon="103.80841653807062">
        <ele>40.0</ele>
      </trkpt>
      <trkpt lat="1.359130350682891" lon="103.80837955535749">
        <ele>40.0</ele>
      </trkpt>
      <trkpt lat="1.3590475886374924" lon="103.80834334232975">
        <ele>40.0</ele>
      </trkpt>
      <trkpt lat="1.3589644319148573" lon="103.80830802158057">
        <ele>40.0</ele>
      </trkpt>
      <trkpt lat="1.3588812751916899" lon="103.80827270083377">
        <ele>40.0</ele>
      </trkpt>
      <trkpt lat="1.3587958994474574" lon="103.8082430998089">
        <ele>40.0</ele>
      </trkpt>
      <trkpt lat="1.3587103974909844" lon="103.80821382410817">
        <ele>40.0</ele>
      </trkpt>
      <trkpt lat="1.3586256344668508" lon="103.80818292270203">
        <ele>39.99999999999999</ele>
      </trkpt>
      <trkpt lat="1.358546996589754" lon="103.80813854551411">
        <ele>40.0</ele>
      </trkpt>
      <trkpt lat="1.3584683587118398" lon="103.808094168329">
        <ele>40.00000000000001</ele>
      </trkpt>
      <trkpt lat="1.3583890477547393" lon="103.80805101763063">
        <ele>40.00000000000001</ele>
      </trkpt>
      <trkpt lat="1.358308909571822" lon="103.80800937430512">
        <ele>40.0</ele>
      </trkpt>
      <trkpt lat="1.358228771388181" lon="103.8079677309823">
        <ele>40.0</ele>
      </trkpt>
      <trkpt lat="1.3581486332038168" lon="103.80792608766218">
        <ele>40.0</ele>
      </trkpt>
      <trkpt lat="1.3580667212800965" lon="103.80788840233124">
        <ele>40.0</ele>
      </trkpt>
      <trkpt lat="1.3579819537415543" lon="103.80785708912678">
        <ele>40.0</ele>
      </trkpt>
      <trkpt lat="1.3579422913775858" lon="103.80784243781488">
        <ele>40.0</ele>
      </trkpt>
    </trkseg>
  </trk>
</gpx>