<?xml version="1.0" encoding="UTF-8"?>
<gpx xmlns="http://www.topografix.com/GPX/1/1" xmlns:xsi="http://www.w3.org/2001/XMLSchema-instance" xsi:schemaLocation="http://www.topografix.com/GPX/1/1 http://www.topografix.com/GPX/1/1/gpx.xsd" version="1.1" creator="gpx.py -- https://github.com/tkrajina/gpxpy">
  <trk>
    <name>point_to_point_05000m_009</name>
    <trkseg>
      <trkpt lat="1.3683297337876783" lon="103.75439622962256">
        <ele>61.54723564018602</ele>
      </trkpt>
      <trkpt lat="1.368252191544835" lon="103.75434998823128">
        <ele>60.94978377451036</ele>
      </trkpt>
      <trkpt lat="1.3681746493012186" lon="103.75430374684288">
        <ele>59.530896156976716</ele>
      </trkpt>
      <trkpt lat="1.3680971070568286" lon="103.75425750545735">
        <ele>57.758610759339824</ele>
      </trkpt>
      <trkpt lat="1.3680195648116655" lon="103.7542112640747">
        <ele>55.491169420342466</ele>
      </trkpt>
      <trkpt lat="1.367942022565729" lon="103.75416502269492">
        <ele>52.9740699653509</ele>
      </trkpt>
      <trkpt lat="1.3678620151019636" lon="103.75412316871932">
        <ele>50.34080946745066</ele>
      </trkpt>
      <trkpt lat="1.3677785335994272" lon="103.75408980041144">
        <ele>48.53375258754854</ele>
      </trkpt>
      <trkpt lat="1.3676915525288018" lon="103.7540651997047">
        <ele>47.71305675432324</ele>
      </trkpt>
      <trkpt lat="1.3676030371563763" lon="103.75406589013679">
        <ele>47.909566231794656</ele>
      </trkpt>
      <trkpt lat="1.3675137118272407" lon="103.75407993173792">
        <ele>48.368726347003</ele>
      </trkpt>
      <trkpt lat="1.3674243864978946" lon="103.75409397333782">
        <ele>48.61773570373854</ele>
      </trkpt>
      <trkpt lat="1.3673361684004888" lon="103.75411371323992">
        <ele>48.33967816279713</ele>
      </trkpt>
      <trkpt lat="1.367248002025746" lon="103.75413371932959">
        <ele>47.4815370749198</ele>
      </trkpt>
      <trkpt lat="1.367158243985317" lon="103.75414344778346">
        <ele>46.32168372076912</ele>
      </trkpt>
      <trkpt lat="1.367068102901738" lon="103.75415070286746">
        <ele>45.09605496967512</ele>
      </trkpt>
      <trkpt lat="1.3669779618180373" lon="103.75415795795072">
        <ele>44.24683655611989</ele>
      </trkpt>
      <trkpt lat="1.3668878207342152" lon="103.75416521303325">
        <ele>44.01068904594902</ele>
      </trkpt>
      <trkpt lat="1.3667976796502714" lon="103.75417246811503">
        <ele>44.38447450426751</ele>
      </trkpt>
      <trkpt lat="1.3667075385662057" lon="103.75417972319609">
        <ele>44.96896694080749</ele>
      </trkpt>
      <trkpt lat="1.3666173974820186" lon="103.75418697827642">
        <ele>45.540264537407836</ele>
      </trkpt>
      <trkpt lat="1.3665272563977096" lon="103.754194233356">
        <ele>46.11359869995238</ele>
      </trkpt>
      <trkpt lat="1.3664371410127625" lon="103.7542017908282">
        <ele>46.720369225470186</ele>
      </trkpt>
      <trkpt lat="1.3663470518872851" lon="103.7542096572836">
        <ele>47.36057611396103</ele>
      </trkpt>
      <trkpt lat="1.3662569627616803" lon="103.7542175237382">
        <ele>48.02212589443627</ele>
      </trkpt>
      <trkpt lat="1.366166873635947" lon="103.75422539019203">
        <ele>48.68367567491149</ele>
      </trkpt>
      <trkpt lat="1.3660767845100854" lon="103.7542332566451">
        <ele>49.203271800287446</ele>
      </trkpt>
      <trkpt lat="1.365986695384096" lon="103.75424112309736">
        <ele>49.50838137992551</ele>
      </trkpt>
      <trkpt lat="1.3658966062579785" lon="103.75424898954886">
        <ele>49.59900441382541</ele>
      </trkpt>
      <trkpt lat="1.365806517131733" lon="103.75425685599957">
        <ele>49.67926666736048</ele>
      </trkpt>
      <trkpt lat="1.3657164280053595" lon="103.75426472244949">
        <ele>50.070890211708765</ele>
      </trkpt>
      <trkpt lat="1.3656263388788576" lon="103.75427258889866">
        <ele>50.75188279013085</ele>
      </trkpt>
      <trkpt lat="1.3655360652183255" lon="103.75427746080119">
        <ele>51.647152574597214</ele>
      </trkpt>
      <trkpt lat="1.3654456831501822" lon="103.75428057350736">
        <ele>52.507510384568114</ele>
      </trkpt>
      <trkpt lat="1.3653553010819535" lon="103.75428368621311">
        <ele>53.35494847678326</ele>
      </trkpt>
      <trkpt lat="1.3652649190136386" lon="103.75428679891844">
        <ele>54.24457687165213</ele>
      </trkpt>
      <trkpt lat="1.3651745247318283" lon="103.75428928931014">
        <ele>55.25050422537053</ele>
      </trkpt>
      <trkpt lat="1.3650840892407947" lon="103.75428967996055">
        <ele>56.337430632808356</ele>
      </trkpt>
      <trkpt lat="1.3649936537496914" lon="103.75429007061075">
        <ele>57.42027455398503</ele>
      </trkpt>
      <trkpt lat="1.3649032182585177" lon="103.75429046126072">
        <ele>58.42492733270453</ele>
      </trkpt>
      <trkpt lat="1.3648127827672745" lon="103.75429085191047">
        <ele>59.458103442813986</ele>
      </trkpt>
      <trkpt lat="1.3647224756913714" lon="103.75429477889499">
        <ele>60.65650825924138</ele>
      </trkpt>
      <trkpt lat="1.3646322470164718" lon="103.75430086490776">
        <ele>62.0201417819872</ele>
      </trkpt>
      <trkpt lat="1.364542018341462" lon="103.7543069509199">
        <ele>63.42181142591144</ele>
      </trkpt>
      <trkpt lat="1.3644524118349013" lon="103.7543187406595">
        <ele>64.24330604575475</ele>
      </trkpt>
      <trkpt lat="1.3643629659957883" lon="103.75433200331803">
        <ele>64.57414240982901</ele>
      </trkpt>
      <trkpt lat="1.3642765030437067" lon="103.75435778288094">
        <ele>64.4859636952433</ele>
      </trkpt>
      <trkpt lat="1.3641905687517064" lon="103.75438578082749">
        <ele>64.49719458388454</ele>
      </trkpt>
      <trkpt lat="1.3641043779974173" lon="103.75441296128889">
        <ele>64.50587263104582</ele>
      </trkpt>
      <trkpt lat="1.364017652804247" lon="103.75443843820271">
        <ele>64.47796602189142</ele>
      </trkpt>
      <trkpt lat="1.3639279028386155" lon="103.75444921273773">
        <ele>64.45949550466555</ele>
      </trkpt>
      <trkpt lat="1.3638380722048167" lon="103.75445959517234">
        <ele>64.59200571300961</ele>
      </trkpt>
      <trkpt lat="1.3637476722389936" lon="103.75446186782133">
        <ele>65.11276850609185</ele>
      </trkpt>
      <trkpt lat="1.3636572608150996" lon="103.7544639772579">
        <ele>66.09700740532186</ele>
      </trkpt>
      <trkpt lat="1.363566849391126" lon="103.75446608669411">
        <ele>67.40721502792861</ele>
      </trkpt>
      <trkpt lat="1.3634764379670732" lon="103.75446819612996">
        <ele>68.77864572241776</ele>
      </trkpt>
      <trkpt lat="1.3633919343021745" lon="103.7544901482393">
        <ele>70.24453943202008</ele>
      </trkpt>
      <trkpt lat="1.3633748889469004" lon="103.75456935401621">
        <ele>71.66185303407958</ele>
      </trkpt>
      <trkpt lat="1.3634095134163133" lon="103.75465168487602">
        <ele>73.05280212137352</ele>
      </trkpt>
      <trkpt lat="1.3634486191382378" lon="103.75473270654949">
        <ele>74.1964563598411</ele>
      </trkpt>
      <trkpt lat="1.3634876151173692" lon="103.75481378022775">
        <ele>75.36769322083593</ele>
      </trkpt>
      <trkpt lat="1.3635263697895827" lon="103.75489496825445">
        <ele>76.75819239479796</ele>
      </trkpt>
      <trkpt lat="1.3635651244591802" lon="103.75497615628386">
        <ele>78.43479997336989</ele>
      </trkpt>
      <trkpt lat="1.363603879126161" lon="103.755057344316">
        <ele>80.24420493239946</ele>
      </trkpt>
      <trkpt lat="1.3636426337905254" lon="103.75513853235086">
        <ele>82.01815243514515</ele>
      </trkpt>
      <trkpt lat="1.3636813884522723" lon="103.75521972038842">
        <ele>83.79852370835818</ele>
      </trkpt>
      <trkpt lat="1.3637046043526144" lon="103.75530289481449">
        <ele>85.09510690177406</ele>
      </trkpt>
      <trkpt lat="1.363622586975319" lon="103.75530131779692">
        <ele>85.6298797214987</ele>
      </trkpt>
      <trkpt lat="1.3635379037454434" lon="103.75526978034675">
        <ele>85.23918846379009</ele>
      </trkpt>
      <trkpt lat="1.3634532205152203" lon="103.75523824289866">
        <ele>84.63406614299412</ele>
      </trkpt>
      <trkpt lat="1.3633682300443395" lon="103.75520753923011">
        <ele>84.52188062296499</ele>
      </trkpt>
      <trkpt lat="1.3632830717073097" lon="103.75517729111168">
        <ele>84.95264162376543</ele>
      </trkpt>
      <trkpt lat="1.3631979133699603" lon="103.75514704299522">
        <ele>85.60190615129723</ele>
      </trkpt>
      <trkpt lat="1.363112755032292" lon="103.75511679488073">
        <ele>86.04032863560035</ele>
      </trkpt>
      <trkpt lat="1.363027596694304" lon="103.75508654676823">
        <ele>86.34524418890788</ele>
      </trkpt>
      <trkpt lat="1.3629424383559967" lon="103.7550562986577">
        <ele>86.65015974221545</ele>
      </trkpt>
      <trkpt lat="1.3628572800173708" lon="103.75502605054915">
        <ele>86.95507529552326</ele>
      </trkpt>
      <trkpt lat="1.3627721216784252" lon="103.75499580244258">
        <ele>86.99689176101282</ele>
      </trkpt>
      <trkpt lat="1.3626869633391612" lon="103.75496555433797">
        <ele>86.41040542725739</ele>
      </trkpt>
      <trkpt lat="1.3626018049995778" lon="103.75493530623535">
        <ele>85.45445014899182</ele>
      </trkpt>
      <trkpt lat="1.3625135523562937" lon="103.75494010713604">
        <ele>84.81318532131105</ele>
      </trkpt>
      <trkpt lat="1.362441772729526" lon="103.75499226661205">
        <ele>85.14983713528144</ele>
      </trkpt>
      <trkpt lat="1.362398657045272" lon="103.7550703100725">
        <ele>86.25105143827757</ele>
      </trkpt>
      <trkpt lat="1.3623607904347612" lon="103.75515191071345">
        <ele>87.66136160215963</ele>
      </trkpt>
      <trkpt lat="1.3623181887939149" lon="103.75523116334597">
        <ele>89.43328468322193</ele>
      </trkpt>
      <trkpt lat="1.3622753244477266" lon="103.75531028570684">
        <ele>91.53295833588693</ele>
      </trkpt>
      <trkpt lat="1.3622324600987459" lon="103.75538940806501">
        <ele>93.97743766509718</ele>
      </trkpt>
      <trkpt lat="1.362187212690284" lon="103.75546718835285">
        <ele>96.40849589490936</ele>
      </trkpt>
      <trkpt lat="1.3621409094955566" lon="103.75554437405151">
        <ele>98.66244470157875</ele>
      </trkpt>
      <trkpt lat="1.362091572928321" lon="103.75561942497933">
        <ele>100.5748724920192</ele>
      </trkpt>
      <trkpt lat="1.362033655854894" lon="103.75568843727837">
        <ele>102.08214766206963</ele>
      </trkpt>
      <trkpt lat="1.361967711931923" lon="103.7557485405321">
        <ele>103.13556012278616</ele>
      </trkpt>
      <trkpt lat="1.3618881147867972" lon="103.75579072190602">
        <ele>103.86466919951751</ele>
      </trkpt>
      <trkpt lat="1.3618058360326994" lon="103.75582787593014">
        <ele>104.26021748974102</ele>
      </trkpt>
      <trkpt lat="1.3617195649019476" lon="103.75585483182134">
        <ele>104.49595834009943</ele>
      </trkpt>
      <trkpt lat="1.361632354773721" lon="103.75587828058067">
        <ele>104.59134502826845</ele>
      </trkpt>
      <trkpt lat="1.3615440068371105" lon="103.75589747965438">
        <ele>104.6269538009414</ele>
      </trkpt>
      <trkpt lat="1.3614556589001998" lon="103.75591667872654">
        <ele>104.77806344191676</ele>
      </trkpt>
      <trkpt lat="1.3613785129291927" lon="103.75596063258031">
        <ele>104.60197864428198</ele>
      </trkpt>
      <trkpt lat="1.3613418919192253" lon="103.75604104509894">
        <ele>104.1864820051617</ele>
      </trkpt>
      <trkpt lat="1.3613163322045652" lon="103.75612723828397">
        <ele>103.38332245027108</ele>
      </trkpt>
      <trkpt lat="1.3612907724866952" lon="103.75621343146734">
        <ele>102.66794549250453</ele>
      </trkpt>
      <trkpt lat="1.3612652127656149" lon="103.75629962464905">
        <ele>101.95256853473798</ele>
      </trkpt>
      <trkpt lat="1.3612396530413249" lon="103.75638581782911">
        <ele>101.23719157697144</ele>
      </trkpt>
      <trkpt lat="1.361214093313826" lon="103.7564720110075">
        <ele>100.58633539872562</ele>
      </trkpt>
      <trkpt lat="1.361188533583117" lon="103.75655820418426">
        <ele>100.17393820640181</ele>
      </trkpt>
      <trkpt lat="1.3611629738491993" lon="103.75664439735935">
        <ele>99.85281488264275</ele>
      </trkpt>
      <trkpt lat="1.3611374141120722" lon="103.75673059053278">
        <ele>99.05739549005274</ele>
      </trkpt>
      <trkpt lat="1.3611118543717367" lon="103.75681678370456">
        <ele>97.61917140261595</ele>
      </trkpt>
      <trkpt lat="1.3610862946281923" lon="103.75690297687468">
        <ele>95.78000844486012</ele>
      </trkpt>
      <trkpt lat="1.3610607348814394" lon="103.75698917004316">
        <ele>94.04095577466019</ele>
      </trkpt>
      <trkpt lat="1.361035175131478" lon="103.75707536320996">
        <ele>92.3965838116308</ele>
      </trkpt>
      <trkpt lat="1.361009615378309" lon="103.75716155637512">
        <ele>90.75221184860153</ele>
      </trkpt>
      <trkpt lat="1.3609840556219315" lon="103.7572477495386">
        <ele>89.10783988557294</ele>
      </trkpt>
      <trkpt lat="1.3609584958623462" lon="103.75733394270047">
        <ele>87.9234006715793</ele>
      </trkpt>
      <trkpt lat="1.3609543833858408" lon="103.75734781087954">
        <ele>87.33118106458248</ele>
      </trkpt>
    </trkseg>
  </trk>
</gpx>