{
"type": "FeatureCollection",
"name": "point_to_point_05000m_013",
"crs": { "type": "name", "properties": { "name": "urn:ogc:def:crs:OGC:1.3:CRS84" } },
"features": [
{ "type": "Feature", "properties": { "route_id": "point_to_point_05000m_013", "budget_km": 5.0, "mode": "point_to_point", "rank": 13, "distance_m": 4616.3018926874129, "ascent_m": 59.399003338867651, "descent_m": 62.187398246941541, "gain_density_m_per_km": 12.867226780154992, "source_confidence": 0.65 }, "geometry": { "type": "LineString", "coordinates": [ [ 104.047530321355424, 1.394775241491641 ], [ 104.0475732, 1.3946787 ], [ 104.0477342, 1.3945392 ], [ 104.0479166, 1.3945392 ], [ 104.0480775, 1.3946143 ], [ 104.048461, 1.3948619 ], [ 104.0485925, 1.394979 ], [ 104.0488285, 1.3951613 ], [ 104.0491289, 1.39529 ], [ 104.0494722, 1.3954616 ], [ 104.0497941, 1.395644 ], [ 104.0502769, 1.3957727 ], [ 104.0506953, 1.3959872 ], [ 104.0509206, 1.3961159 ], [ 104.0510387, 1.3962553 ], [ 104.0512103, 1.396502 ], [ 104.05137120000002, 1.3968238 ], [ 104.0515429, 1.3968023 ], [ 104.0519184, 1.3968238 ], [ 104.052251, 1.3969096 ], [ 104.0536994, 1.3976389 ], [ 104.053914, 1.3977998 ], [ 104.0549332, 1.3974566 ], [ 104.055641300000019, 1.3972528 ], [ 104.0558973, 1.3972812 ], [ 104.055931, 1.397285 ], [ 104.0568859, 1.3974351 ], [ 104.0574545, 1.397596 ], [ 104.0578729, 1.3976604 ], [ 104.058463, 1.397832 ], [ 104.0586776, 1.3979285 ], [ 104.0592891, 1.3980251 ], [ 104.0595681, 1.398143 ], [ 104.0599114, 1.3983468 ], [ 104.060008, 1.3984863 ], [ 104.0600726, 1.3987511 ], [ 104.0601474, 1.3992049 ], [ 104.0602118, 1.399355 ], [ 104.0603513, 1.3994516 ], [ 104.0606946, 1.3996017 ], [ 104.0617782, 1.3999449 ], [ 104.0632105, 1.4003471 ], [ 104.0656406, 1.4009746 ], [ 104.0667659, 1.4012733 ], [ 104.0682263, 1.401661 ], [ 104.0699107, 1.4021437 ], [ 104.071355, 1.4034093 ], [ 104.071782761393834, 1.404198999136398 ], [ 104.0718169, 1.4042332 ], [ 104.071855643273153, 1.404272063630925 ], [ 104.0719159, 1.4043043 ], [ 104.0720058, 1.4043257 ], [ 104.0724014, 1.404445 ], [ 104.072518, 1.4044987 ], [ 104.0727058, 1.4046274 ], [ 104.0728775, 1.4047453 ], [ 104.0735722, 1.4053004 ], [ 104.0736929, 1.4053942 ], [ 104.0738699, 1.4054988 ], [ 104.0743272, 1.4057455 ], [ 104.074402300000017, 1.4057643 ], [ 104.0745632, 1.405775 ], [ 104.0748996, 1.4059406 ], [ 104.0760237, 1.4063904 ], [ 104.0763158, 1.4065197 ], [ 104.0779522, 1.407176 ], [ 104.078097, 1.4072645 ], [ 104.0782499, 1.40742 ], [ 104.0783599, 1.4074871 ], [ 104.0784672, 1.4075058 ], [ 104.0791267, 1.4076138 ], [ 104.0805218, 1.4078517 ], [ 104.0810636, 1.4081145 ], [ 104.081254, 1.4081842 ], [ 104.0817878, 1.4083666 ], [ 104.0819916, 1.4084846 ], [ 104.0822571, 1.4086776 ], [ 104.082431460682116, 1.408857301681083 ], [ 104.0813506, 1.4096268 ], [ 104.0811923, 1.4098038 ], [ 104.080953342635098, 1.410091362857361 ] ] } }
]
}
