<?xml version="1.0" encoding="UTF-8"?>
<gpx xmlns="http://www.topografix.com/GPX/1/1" xmlns:xsi="http://www.w3.org/2001/XMLSchema-instance" xsi:schemaLocation="http://www.topografix.com/GPX/1/1 http://www.topografix.com/GPX/1/1/gpx.xsd" version="1.1" creator="gpx.py -- https://github.com/tkrajina/gpxpy">
  <trk>
    <name>point_to_point_05000m_040</name>
    <trkseg>
      <trkpt lat="1.2238157967119485" lon="103.85596233285261">
        <ele>5.142592809992525</ele>
      </trkpt>
      <trkpt lat="1.223854424675745" lon="103.85603805528321">
        <ele>4.465621306755787</ele>
      </trkpt>
      <trkpt lat="1.2239409244331767" lon="103.85605670278763">
        <ele>3.4321389177149535</ele>
      </trkpt>
      <trkpt lat="1.224026914272562" lon="103.85603090094604">
        <ele>3.1475083180303023</ele>
      </trkpt>
      <trkpt lat="1.2241061620241853" lon="103.85598782782395">
        <ele>3.1364130985795717</ele>
      </trkpt>
      <trkpt lat="1.2241829776275646" lon="103.85594040663449">
        <ele>3.149846224486527</ele>
      </trkpt>
      <trkpt lat="1.2242597932301065" lon="103.85589298544235">
        <ele>3.1855920871685655</ele>
      </trkpt>
      <trkpt lat="1.224339362843804" lon="103.85585076143154">
        <ele>3.396472996428719</ele>
      </trkpt>
      <trkpt lat="1.2244221869114564" lon="103.85581467900349">
        <ele>3.6136678458962765</ele>
      </trkpt>
      <trkpt lat="1.2245104562625249" lon="103.85579625635773">
        <ele>3.626119556064152</ele>
      </trkpt>
      <trkpt lat="1.224600666987009" lon="103.85579134363255">
        <ele>3.464998724912584</ele>
      </trkpt>
      <trkpt lat="1.2246908981030717" lon="103.85578724425616">
        <ele>3.3423606957209735</ele>
      </trkpt>
      <trkpt lat="1.2247772796452359" lon="103.8557617842171">
        <ele>3.382592760410187</ele>
      </trkpt>
      <trkpt lat="1.2248605998295834" lon="103.85572684745578">
        <ele>3.452851059181645</ele>
      </trkpt>
      <trkpt lat="1.224948228379948" lon="103.85570646288751">
        <ele>3.1248586216615455</ele>
      </trkpt>
      <trkpt lat="1.225035169620664" lon="103.85568251569636">
        <ele>2.608224820718905</ele>
      </trkpt>
      <trkpt lat="1.2250812666202366" lon="103.855622266724">
        <ele>2.336883449776708</ele>
      </trkpt>
      <trkpt lat="1.2250759937574496" lon="103.85553343901721">
        <ele>2.6721452695865344</ele>
      </trkpt>
      <trkpt lat="1.2250604735233592" lon="103.85544492012998">
        <ele>3.3523530006505617</ele>
      </trkpt>
      <trkpt lat="1.2250448712662954" lon="103.85535641566031">
        <ele>4.089462033632335</ele>
      </trkpt>
      <trkpt lat="1.2250271551155814" lon="103.85526850999364">
        <ele>4.912098082643393</ele>
      </trkpt>
      <trkpt lat="1.2249909932669087" lon="103.8551861538159">
        <ele>5.809427925262425</ele>
      </trkpt>
      <trkpt lat="1.2249574947286674" lon="103.85510270918574">
        <ele>6.769214996508938</ele>
      </trkpt>
      <trkpt lat="1.2249248647900315" lon="103.85501890957336">
        <ele>7.666850025670178</ele>
      </trkpt>
      <trkpt lat="1.224903879995174" lon="103.85493163902544">
        <ele>8.505354367541761</ele>
      </trkpt>
      <trkpt lat="1.2248846934761741" lon="103.85484383248608">
        <ele>9.346888099713388</ele>
      </trkpt>
      <trkpt lat="1.2248724426415403" lon="103.8547558302309">
        <ele>10.124760669347733</ele>
      </trkpt>
      <trkpt lat="1.2248865819868722" lon="103.85466708327532">
        <ele>10.803928637049873</ele>
      </trkpt>
      <trkpt lat="1.2249086892517003" lon="103.85458000928968">
        <ele>11.319770196442718</ele>
      </trkpt>
      <trkpt lat="1.2249318985691866" lon="103.8544931666937">
        <ele>11.787237847121927</ele>
      </trkpt>
      <trkpt lat="1.224955107883862" lon="103.8544063240962">
        <ele>12.110038522559615</ele>
      </trkpt>
      <trkpt lat="1.2249820731330114" lon="103.85432058726204">
        <ele>12.262743924790653</ele>
      </trkpt>
      <trkpt lat="1.2250102306030195" lon="103.8542352014221">
        <ele>12.245368251155602</ele>
      </trkpt>
      <trkpt lat="1.2250383858141403" lon="103.85414981484604">
        <ele>12.164564784956964</ele>
      </trkpt>
      <trkpt lat="1.2250721663390294" lon="103.85406655361538">
        <ele>12.095044425231663</ele>
      </trkpt>
      <trkpt lat="1.225108228117029" lon="103.85398415413194">
        <ele>12.009882396757687</ele>
      </trkpt>
      <trkpt lat="1.2251481454499764" lon="103.85390359442745">
        <ele>11.949184269697723</ele>
      </trkpt>
      <trkpt lat="1.2251869200627739" lon="103.85382249195284">
        <ele>11.87247619576113</ele>
      </trkpt>
      <trkpt lat="1.2252252054417931" lon="103.8537413512604">
        <ele>11.704862499128167</ele>
      </trkpt>
      <trkpt lat="1.2252776083116084" lon="103.85366812083153">
        <ele>11.36363291549966</ele>
      </trkpt>
      <trkpt lat="1.225337456164936" lon="103.85360150985413">
        <ele>10.790996910932572</ele>
      </trkpt>
      <trkpt lat="1.225404227863858" lon="103.85354091609577">
        <ele>10.040325728658212</ele>
      </trkpt>
      <trkpt lat="1.22547650924884" lon="103.85348716000605">
        <ele>9.173595121387924</ele>
      </trkpt>
      <trkpt lat="1.2255502564711316" lon="103.85343517114346">
        <ele>8.60831320739304</ele>
      </trkpt>
      <trkpt lat="1.2256215867353186" lon="103.85337993591664">
        <ele>8.401329375990509</ele>
      </trkpt>
      <trkpt lat="1.2256929169983692" lon="103.85332470068691">
        <ele>8.567366986842975</ele>
      </trkpt>
      <trkpt lat="1.2257639593573941" lon="103.85326911682245">
        <ele>8.761364370444078</ele>
      </trkpt>
      <trkpt lat="1.225832416322936" lon="103.85321040221191">
        <ele>8.972312597287399</ele>
      </trkpt>
      <trkpt lat="1.2259012582253153" lon="103.85315214748054">
        <ele>8.915475537804143</ele>
      </trkpt>
      <trkpt lat="1.2259718449130197" lon="103.85309597722711">
        <ele>8.284422441759533</ele>
      </trkpt>
      <trkpt lat="1.2260449486879899" lon="103.85304324543587">
        <ele>7.071693541042452</ele>
      </trkpt>
      <trkpt lat="1.2261204801278573" lon="103.85299382995137">
        <ele>5.559844316164189</ele>
      </trkpt>
      <trkpt lat="1.226196067745173" lon="103.85294449941406">
        <ele>4.0383731639451055</ele>
      </trkpt>
      <trkpt lat="1.2262715010076226" lon="103.85289497005569">
        <ele>2.544703106203642</ele>
      </trkpt>
      <trkpt lat="1.226340430698702" lon="103.85283689699237">
        <ele>1.1987969184758331</ele>
      </trkpt>
      <trkpt lat="1.2263939800392694" lon="103.8527648926978">
        <ele>0.35968545075727226</ele>
      </trkpt>
      <trkpt lat="1.2264041994741501" lon="103.85267743334296">
        <ele>0.0</ele>
      </trkpt>
      <trkpt lat="1.2263890115507459" lon="103.85258891299078">
        <ele>0.0</ele>
      </trkpt>
      <trkpt lat="1.2263845090683743" lon="103.85249926174353">
        <ele>0.0</ele>
      </trkpt>
      <trkpt lat="1.2263839400357417" lon="103.85240941155446">
        <ele>0.0</ele>
      </trkpt>
      <trkpt lat="1.2263156240454314" lon="103.8523865026204">
        <ele>0.46125236643752093</ele>
      </trkpt>
      <trkpt lat="1.2262252075066056" lon="103.8523846533606">
        <ele>1.4160221218738978</ele>
      </trkpt>
      <trkpt lat="1.2261370962110636" lon="103.85236522888461">
        <ele>2.770082048929902</ele>
      </trkpt>
      <trkpt lat="1.2260592951624505" lon="103.8523194445425">
        <ele>4.040024025981332</ele>
      </trkpt>
      <trkpt lat="1.2259893530733177" lon="103.85226248389796">
        <ele>5.185177277326676</ele>
      </trkpt>
      <trkpt lat="1.2259225924376105" lon="103.8522021791174">
        <ele>6.261893297874909</ele>
      </trkpt>
      <trkpt lat="1.225861414670514" lon="103.85213600598853">
        <ele>7.294070703624791</ele>
      </trkpt>
      <trkpt lat="1.2257999766959262" lon="103.85207007158755">
        <ele>8.265984393966727</ele>
      </trkpt>
      <trkpt lat="1.2257384480056206" lon="103.85200422041483">
        <ele>8.509697070105425</ele>
      </trkpt>
      <trkpt lat="1.2256710118406278" lon="103.85194444207305">
        <ele>8.066722576160574</ele>
      </trkpt>
      <trkpt lat="1.2255982782623855" lon="103.85189177182922">
        <ele>7.123704589459835</ele>
      </trkpt>
      <trkpt lat="1.2255117895069565" lon="103.85186551425711">
        <ele>6.395373890044746</ele>
      </trkpt>
      <trkpt lat="1.2254248990416632" lon="103.8518406892863">
        <ele>5.856337471834963</ele>
      </trkpt>
      <trkpt lat="1.2253372038875803" lon="103.85181873404333">
        <ele>5.407472650222169</ele>
      </trkpt>
      <trkpt lat="1.2252477601867264" lon="103.8518069095685">
        <ele>5.071269150544858</ele>
      </trkpt>
      <trkpt lat="1.2251576671302744" lon="103.85180009420877">
        <ele>4.955404196398178</ele>
      </trkpt>
      <trkpt lat="1.2250704856495698" lon="103.85181303948669">
        <ele>5.236259171351496</ele>
      </trkpt>
      <trkpt lat="1.2249956821653254" lon="103.85186340189219">
        <ele>6.001411717125588</ele>
      </trkpt>
      <trkpt lat="1.2249429344665799" lon="103.85193157633688">
        <ele>7.1059873949127415</ele>
      </trkpt>
      <trkpt lat="1.2249555085816288" lon="103.8519935831361">
        <ele>7.717767796723941</ele>
      </trkpt>
      <trkpt lat="1.224943990292984" lon="103.852069760294">
        <ele>9.17456488017632</ele>
      </trkpt>
      <trkpt lat="1.22487614968765" lon="103.85212917686735">
        <ele>9.427340055940986</ele>
      </trkpt>
      <trkpt lat="1.2248083090810025" lon="103.85218859343772">
        <ele>9.068540209467967</ele>
      </trkpt>
      <trkpt lat="1.2247404684730412" lon="103.85224801000511">
        <ele>8.849278783857704</ele>
      </trkpt>
      <trkpt lat="1.2246726278637667" lon="103.85230742656951">
        <ele>9.1054271119509</ele>
      </trkpt>
      <trkpt lat="1.2246047872531791" lon="103.85236684313094">
        <ele>9.76957387430343</ele>
      </trkpt>
      <trkpt lat="1.2245317139050391" lon="103.8524197091542">
        <ele>10.719140861401192</ele>
      </trkpt>
      <trkpt lat="1.2244580683447397" lon="103.85247185885933">
        <ele>11.689269548038412</ele>
      </trkpt>
      <trkpt lat="1.2243803610613688" lon="103.8525172527759">
        <ele>12.675446171060292</ele>
      </trkpt>
      <trkpt lat="1.224298402507876" lon="103.85255508104412">
        <ele>13.355695207879327</ele>
      </trkpt>
      <trkpt lat="1.224213250487439" lon="103.85258515485394">
        <ele>13.60344143160678</ele>
      </trkpt>
      <trkpt lat="1.2241266347365605" lon="103.85261099549166">
        <ele>13.48965606840513</ele>
      </trkpt>
      <trkpt lat="1.2240399754775884" lon="103.85263669213639">
        <ele>13.20534451856836</ele>
      </trkpt>
      <trkpt lat="1.223950804644018" lon="103.85265160598024">
        <ele>12.636482628337712</ele>
      </trkpt>
      <trkpt lat="1.2238680710321759" lon="103.85262709985277">
        <ele>11.71673975639431</ele>
      </trkpt>
      <trkpt lat="1.2237859924465588" lon="103.8525908040528">
        <ele>10.591106482670364</ele>
      </trkpt>
      <trkpt lat="1.2236980140394356" lon="103.8525699974806">
        <ele>9.574587919829726</ele>
      </trkpt>
      <trkpt lat="1.2236083319356508" lon="103.85256719107592">
        <ele>8.777661998115308</ele>
      </trkpt>
      <trkpt lat="1.2235179917541412" lon="103.85257133749842">
        <ele>8.745179716702479</ele>
      </trkpt>
      <trkpt lat="1.223427575266824" lon="103.8525722">
        <ele>9.33795519539065</ele>
      </trkpt>
      <trkpt lat="1.2233374448732488" lon="103.85256704857326">
        <ele>10.478006378972855</ele>
      </trkpt>
      <trkpt lat="1.2232476366921814" lon="103.85255647517823">
        <ele>11.218024634422514</ele>
      </trkpt>
      <trkpt lat="1.2231578285110003" lon="103.85254590178396">
        <ele>11.346171237605452</ele>
      </trkpt>
      <trkpt lat="1.2230681127260898" lon="103.85253460986806">
        <ele>10.888245512761678</ele>
      </trkpt>
      <trkpt lat="1.2229785136681606" lon="103.85252241022228">
        <ele>10.12352589198989</ele>
      </trkpt>
      <trkpt lat="1.2228898833408566" lon="103.85250534740014">
        <ele>9.198719459160827</ele>
      </trkpt>
      <trkpt lat="1.222803995674824" lon="103.85247765924213">
        <ele>7.881270904939065</ele>
      </trkpt>
      <trkpt lat="1.2227227053111984" lon="103.85243880212975">
        <ele>6.183919417006906</ele>
      </trkpt>
      <trkpt lat="1.222659141441239" lon="103.85239044286023">
        <ele>5.214471369133417</ele>
      </trkpt>
    </trkseg>
  </trk>
</gpx>