<?xml version="1.0" encoding="UTF-8"?>
<gpx xmlns="http://www.topografix.com/GPX/1/1" xmlns:xsi="http://www.w3.org/2001/XMLSchema-instance" xsi:schemaLocation="http://www.topografix.com/GPX/1/1 http://www.topografix.com/GPX/1/1/gpx.xsd" version="1.1" creator="gpx.py -- https://github.com/tkrajina/gpxpy">
  <trk>
    <name>point_to_point_05000m_006</name>
    <trkseg>
      <trkpt lat="1.3967663193448934" lon="103.80335873814643">
        <ele>22.474853892398112</ele>
      </trkpt>
      <trkpt lat="1.3966784762114508" lon="103.80337479091699">
        <ele>22.365639429228313</ele>
      </trkpt>
      <trkpt lat="1.3965885231016333" lon="103.80337104770831">
        <ele>22.062853482209732</ele>
      </trkpt>
      <trkpt lat="1.3965064474954332" lon="103.80340395477458">
        <ele>21.685101788308277</ele>
      </trkpt>
      <trkpt lat="1.3964186112978747" lon="103.80341122052829">
        <ele>21.43093092621255</ele>
      </trkpt>
      <trkpt lat="1.3963425345262461" lon="103.80336478199696">
        <ele>21.477568401393665</ele>
      </trkpt>
      <trkpt lat="1.3962897447735325" lon="103.803291821483">
        <ele>21.766269980771952</ele>
      </trkpt>
      <trkpt lat="1.3962369550185878" lon="103.80321886097234">
        <ele>22.154045309838143</ele>
      </trkpt>
      <trkpt lat="1.3961863745765422" lon="103.80314441182433">
        <ele>22.55333714536772</ele>
      </trkpt>
      <trkpt lat="1.3961376864622486" lon="103.80306868762399">
        <ele>23.052487014928403</ele>
      </trkpt>
      <trkpt lat="1.3961512993648857" lon="103.80298510530325">
        <ele>23.628891816762586</ele>
      </trkpt>
      <trkpt lat="1.3961471031730468" lon="103.80290028058604">
        <ele>24.24633086812943</ele>
      </trkpt>
      <trkpt lat="1.396115886928994" lon="103.80281594534512">
        <ele>24.656842898164044</ele>
      </trkpt>
      <trkpt lat="1.3960364260334688" lon="103.80277363785076">
        <ele>24.874824406854923</ele>
      </trkpt>
      <trkpt lat="1.3959563596338784" lon="103.80273185783612">
        <ele>24.965192510675866</ele>
      </trkpt>
      <trkpt lat="1.3958829438369003" lon="103.80267955315871">
        <ele>25.082041284258256</ele>
      </trkpt>
      <trkpt lat="1.3958088531184363" lon="103.80262913395444">
        <ele>25.13455092289377</ele>
      </trkpt>
      <trkpt lat="1.3957206749742332" lon="103.80260919822389">
        <ele>25.080411031930215</ele>
      </trkpt>
      <trkpt lat="1.3956318601851496" lon="103.80259225807308">
        <ele>24.939481666825216</ele>
      </trkpt>
      <trkpt lat="1.3955443932945242" lon="103.80257025241079">
        <ele>24.824061672080116</ele>
      </trkpt>
      <trkpt lat="1.3954587577531574" lon="103.80254136438964">
        <ele>24.76458597084505</ele>
      </trkpt>
      <trkpt lat="1.3953775189667663" lon="103.80250565629542">
        <ele>24.842479955708786</ele>
      </trkpt>
      <trkpt lat="1.395315301975753" lon="103.80244044233655">
        <ele>25.038267923751643</ele>
      </trkpt>
      <trkpt lat="1.395253084982964" lon="103.80237522838108">
        <ele>25.31719486428517</ele>
      </trkpt>
      <trkpt lat="1.3951874432183602" lon="103.80231350613587">
        <ele>25.577703047464308</ele>
      </trkpt>
      <trkpt lat="1.3951202281259356" lon="103.80225338797082">
        <ele>25.818253654956738</ele>
      </trkpt>
      <trkpt lat="1.3950526208603005" lon="103.80219370653221">
        <ele>25.99788852306449</ele>
      </trkpt>
      <trkpt lat="1.3949763872241292" lon="103.80215140651853">
        <ele>26.043458229333723</ele>
      </trkpt>
      <trkpt lat="1.39488751807883" lon="103.80213475018388">
        <ele>25.956501592096817</ele>
      </trkpt>
      <trkpt lat="1.3947986489333728" lon="103.80211809385041">
        <ele>25.878829923370642</ele>
      </trkpt>
      <trkpt lat="1.3947252796123137" lon="103.80207337419566">
        <ele>25.954845047716717</ele>
      </trkpt>
      <trkpt lat="1.3946634087097831" lon="103.8020078359942">
        <ele>26.12437507137822</ele>
      </trkpt>
      <trkpt lat="1.3945873720954858" lon="103.80195988069367">
        <ele>26.26589683452154</ele>
      </trkpt>
      <trkpt lat="1.3945078585129957" lon="103.80192353983145">
        <ele>26.19851226805764</ele>
      </trkpt>
      <trkpt lat="1.394423356284754" lon="103.80193053286703">
        <ele>26.216469231662895</ele>
      </trkpt>
      <trkpt lat="1.3943704878042218" lon="103.80185897106001">
        <ele>26.23067084493854</ele>
      </trkpt>
      <trkpt lat="1.3942877412511376" lon="103.80182271133272">
        <ele>26.35656072533028</ele>
      </trkpt>
      <trkpt lat="1.3942049946974913" lon="103.80178645160791">
        <ele>26.369301930777137</ele>
      </trkpt>
      <trkpt lat="1.3941236977600502" lon="103.80174717828369">
        <ele>26.441489291668518</ele>
      </trkpt>
      <trkpt lat="1.3940545456864535" lon="103.80169337451935">
        <ele>26.49874642895138</ele>
      </trkpt>
      <trkpt lat="1.3939716138676004" lon="103.80166291811497">
        <ele>26.53830849602066</ele>
      </trkpt>
      <trkpt lat="1.3938881851169833" lon="103.8016296954782">
        <ele>26.669644513040186</ele>
      </trkpt>
      <trkpt lat="1.3938091265917498" lon="103.80158606178354">
        <ele>26.977867019017953</ele>
      </trkpt>
      <trkpt lat="1.3937297677094673" lon="103.80154297244982">
        <ele>27.463670806917573</ele>
      </trkpt>
      <trkpt lat="1.3936522371028526" lon="103.80149680777842">
        <ele>28.046230296648677</ele>
      </trkpt>
      <trkpt lat="1.393572910071589" lon="103.8014539669964">
        <ele>28.739402633073993</ele>
      </trkpt>
      <trkpt lat="1.3935020647244243" lon="103.80140359597715">
        <ele>29.54429631955976</ele>
      </trkpt>
      <trkpt lat="1.3934465755394625" lon="103.80133601556544">
        <ele>30.377504574529215</ele>
      </trkpt>
      <trkpt lat="1.3933686929588467" lon="103.80129040486642">
        <ele>31.219537720282077</ele>
      </trkpt>
      <trkpt lat="1.3932938792703609" lon="103.80123991990324">
        <ele>32.05983853664042</ele>
      </trkpt>
      <trkpt lat="1.3932176846513793" lon="103.8011916212738">
        <ele>32.899506992685566</ele>
      </trkpt>
      <trkpt lat="1.3931393964546317" lon="103.80114663726356">
        <ele>33.6682317114142</ele>
      </trkpt>
      <trkpt lat="1.3930502661271322" lon="103.80113850013147">
        <ele>34.36102852193693</ele>
      </trkpt>
      <trkpt lat="1.3929599253230671" lon="103.8011344700351">
        <ele>35.03857574488682</ele>
      </trkpt>
      <trkpt lat="1.3928760688455872" lon="103.80110082174035">
        <ele>35.76608113015012</ele>
      </trkpt>
      <trkpt lat="1.3927922123676197" lon="103.80106717344792">
        <ele>36.55009748794749</ele>
      </trkpt>
      <trkpt lat="1.3927081804893369" lon="103.80103397822595">
        <ele>37.357559505789716</ele>
      </trkpt>
      <trkpt lat="1.392623246006005" lon="103.80100311448717">
        <ele>38.17551531038731</ele>
      </trkpt>
      <trkpt lat="1.3925348794717887" lon="103.8010153023994">
        <ele>38.99939422433443</ele>
      </trkpt>
      <trkpt lat="1.392446038639414" lon="103.80103206028552">
        <ele>39.60323849644224</ele>
      </trkpt>
      <trkpt lat="1.3923565901748751" lon="103.80104530595179">
        <ele>39.93501316010775</ele>
      </trkpt>
      <trkpt lat="1.3922669483885366" lon="103.80105676777632">
        <ele>40.0</ele>
      </trkpt>
      <trkpt lat="1.3921767124159634" lon="103.80106274685446">
        <ele>40.0</ele>
      </trkpt>
      <trkpt lat="1.3921017338672586" lon="103.8010199411205">
        <ele>40.0</ele>
      </trkpt>
      <trkpt lat="1.392033764424407" lon="103.8009614108795">
        <ele>40.0</ele>
      </trkpt>
      <trkpt lat="1.391991387453544" lon="103.80088290448872">
        <ele>40.0</ele>
      </trkpt>
      <trkpt lat="1.391942751099016" lon="103.8008087266175">
        <ele>40.0</ele>
      </trkpt>
      <trkpt lat="1.3918839039511162" lon="103.80074049457099">
        <ele>40.0</ele>
      </trkpt>
      <trkpt lat="1.3918184618410905" lon="103.80067908608302">
        <ele>40.0</ele>
      </trkpt>
      <trkpt lat="1.391735247238331" lon="103.80065148318906">
        <ele>40.0</ele>
      </trkpt>
      <trkpt lat="1.3916543401974402" lon="103.80061169813284">
        <ele>40.0</ele>
      </trkpt>
      <trkpt lat="1.3916141193317455" lon="103.80053768735387">
        <ele>40.0180844818276</ele>
      </trkpt>
      <trkpt lat="1.3916135292487304" lon="103.80044918100475">
        <ele>40.47940942961808</ele>
      </trkpt>
      <trkpt lat="1.391593915616654" lon="103.80036240770373">
        <ele>41.35432595855523</ele>
      </trkpt>
      <trkpt lat="1.3915933216177117" lon="103.80027255180359">
        <ele>42.63810472440162</ele>
      </trkpt>
      <trkpt lat="1.3915856173694277" lon="103.80018335320361">
        <ele>43.921358843354376</ele>
      </trkpt>
      <trkpt lat="1.391569517683441" lon="103.80009493071266">
        <ele>45.232176191747534</ele>
      </trkpt>
      <trkpt lat="1.3915544523404488" lon="103.80000632937985">
        <ele>46.528714315991294</ele>
      </trkpt>
      <trkpt lat="1.3914994735587485" lon="103.79994396909389">
        <ele>47.78114217267574</ele>
      </trkpt>
      <trkpt lat="1.3914235218243691" lon="103.79989519974256">
        <ele>49.00102013808746</ele>
      </trkpt>
      <trkpt lat="1.3913500287254323" lon="103.79984301682833">
        <ele>50.23960712367785</ele>
      </trkpt>
      <trkpt lat="1.3912833359794512" lon="103.79978245729659">
        <ele>51.48621264583724</ele>
      </trkpt>
      <trkpt lat="1.3912091631374264" lon="103.79973104730988">
        <ele>52.752188356236225</ele>
      </trkpt>
      <trkpt lat="1.3911413576840073" lon="103.79967178765305">
        <ele>53.775268722601616</ele>
      </trkpt>
      <trkpt lat="1.391072177545769" lon="103.79961430970806">
        <ele>54.28899162540807</ele>
      </trkpt>
      <trkpt lat="1.3909967982748872" lon="103.79956466231675">
        <ele>54.540967399979785</ele>
      </trkpt>
      <trkpt lat="1.3909430477811602" lon="103.79949541741674">
        <ele>55.014016327593964</ele>
      </trkpt>
      <trkpt lat="1.3909073451760883" lon="103.79941345110524">
        <ele>56.048020352785095</ele>
      </trkpt>
      <trkpt lat="1.3908832412853513" lon="103.79932692171377">
        <ele>57.206786347630526</ele>
      </trkpt>
      <trkpt lat="1.3908263416273712" lon="103.7992583792888">
        <ele>58.01837019724589</ele>
      </trkpt>
      <trkpt lat="1.390744182744929" lon="103.79922082349141">
        <ele>58.71801174747909</ele>
      </trkpt>
      <trkpt lat="1.3907050019675555" lon="103.79914858142749">
        <ele>59.30234909158761</ele>
      </trkpt>
      <trkpt lat="1.3907338322408056" lon="103.7990635931047">
        <ele>59.824314257151194</ele>
      </trkpt>
      <trkpt lat="1.3907456682803039" lon="103.7989751466988">
        <ele>60.0</ele>
      </trkpt>
      <trkpt lat="1.3907106185650309" lon="103.79890068135738">
        <ele>60.0</ele>
      </trkpt>
      <trkpt lat="1.3906372053522238" lon="103.79885217993854">
        <ele>60.0</ele>
      </trkpt>
      <trkpt lat="1.390569442031897" lon="103.79880615759666">
        <ele>60.0</ele>
      </trkpt>
      <trkpt lat="1.3905309387831015" lon="103.79872503580106">
        <ele>60.0</ele>
      </trkpt>
      <trkpt lat="1.390469152341271" lon="103.79865941910073">
        <ele>60.0</ele>
      </trkpt>
      <trkpt lat="1.3904188546613947" lon="103.79858637616752">
        <ele>60.0</ele>
      </trkpt>
      <trkpt lat="1.3903670704462836" lon="103.79852095373039">
        <ele>60.0</ele>
      </trkpt>
      <trkpt lat="1.3902819648701705" lon="103.79849055888202">
        <ele>60.0</ele>
      </trkpt>
      <trkpt lat="1.3901933232072883" lon="103.79847346505868">
        <ele>60.0</ele>
      </trkpt>
      <trkpt lat="1.3901035276445015" lon="103.79847664226531">
        <ele>59.97584482601787</ele>
      </trkpt>
      <trkpt lat="1.3900156911686696" lon="103.79846193716212">
        <ele>59.59070484989538</ele>
      </trkpt>
      <trkpt lat="1.3899287944338579" lon="103.79843704353206">
        <ele>58.91405263678005</ele>
      </trkpt>
      <trkpt lat="1.3898434558140673" lon="103.79840743944796">
        <ele>57.850554328207146</ele>
      </trkpt>
      <trkpt lat="1.3897587248240175" lon="103.79837605360268">
        <ele>56.65295414240708</ele>
      </trkpt>
      <trkpt lat="1.3896995401515084" lon="103.79832107337765">
        <ele>55.15160084332413</ele>
      </trkpt>
      <trkpt lat="1.3896827095208757" lon="103.79823290520773">
        <ele>53.58153197621078</ele>
      </trkpt>
      <trkpt lat="1.3896241544728298" lon="103.79818012229184">
        <ele>52.144220808020236</ele>
      </trkpt>
      <trkpt lat="1.3895366035695538" lon="103.7981578492104">
        <ele>50.953045914707396</ele>
      </trkpt>
      <trkpt lat="1.3894484506093732" lon="103.79813792729527">
        <ele>49.84701615720223</ele>
      </trkpt>
      <trkpt lat="1.3893632556673643" lon="103.79810955161545">
        <ele>48.59814284429268</ele>
      </trkpt>
      <trkpt lat="1.3892882147084487" lon="103.79805940084618">
        <ele>47.07845609756521</ele>
      </trkpt>
      <trkpt lat="1.3892011125701638" lon="103.79804300598153">
        <ele>45.33071019819585</ele>
      </trkpt>
      <trkpt lat="1.3891117297336213" lon="103.79803210231177">
        <ele>43.34327596883609</ele>
      </trkpt>
      <trkpt lat="1.3890279309472104" lon="103.7979983124784">
        <ele>41.56547645440802</ele>
      </trkpt>
      <trkpt lat="1.3889397823305851" lon="103.79798021163313">
        <ele>40.410307794284265</ele>
      </trkpt>
      <trkpt lat="1.3888500900270035" lon="103.79796890842502">
        <ele>40.0</ele>
      </trkpt>
      <trkpt lat="1.3887601459423815" lon="103.79795954516023">
        <ele>40.0</ele>
      </trkpt>
      <trkpt lat="1.3886702018576718" lon="103.79795018189607">
        <ele>40.0</ele>
      </trkpt>
      <trkpt lat="1.3885802557477136" lon="103.7979411610079">
        <ele>40.0</ele>
      </trkpt>
      <trkpt lat="1.3884902071120315" lon="103.79794947318982">
        <ele>40.0</ele>
      </trkpt>
      <trkpt lat="1.3884072965780243" lon="103.79797951897933">
        <ele>40.0</ele>
      </trkpt>
      <trkpt lat="1.3883350591060541" lon="103.79803339318698">
        <ele>40.0</ele>
      </trkpt>
      <trkpt lat="1.388264042996454" lon="103.79808903001076">
        <ele>40.0</ele>
      </trkpt>
      <trkpt lat="1.3881978602560454" lon="103.79814999362472">
        <ele>40.0</ele>
      </trkpt>
      <trkpt lat="1.38813483163004" lon="103.79821443334481">
        <ele>40.0</ele>
      </trkpt>
      <trkpt lat="1.3880718030021453" lon="103.7982788730615">
        <ele>40.0</ele>
      </trkpt>
      <trkpt lat="1.3880087743723633" lon="103.79834331277478">
        <ele>40.041805784579786</ele>
      </trkpt>
      <trkpt lat="1.3879415878960464" lon="103.7984028300229">
        <ele>40.06737625745248</ele>
      </trkpt>
      <trkpt lat="1.3878667833930904" lon="103.79845332830696">
        <ele>40.076711418618316</ele>
      </trkpt>
      <trkpt lat="1.3877919788889217" lon="103.79850382658785">
        <ele>40.03490563403853</ele>
      </trkpt>
      <trkpt lat="1.3877171743835393" lon="103.7985543248655">
        <ele>40.00933516116584</ele>
      </trkpt>
      <trkpt lat="1.3876423698769444" lon="103.79860482313997">
        <ele>40.04113230214003</ele>
      </trkpt>
      <trkpt lat="1.3875763526933456" lon="103.79866520616395">
        <ele>40.23818236694723</ele>
      </trkpt>
      <trkpt lat="1.3875214250567411" lon="103.79873606245155">
        <ele>40.666794370467265</ele>
      </trkpt>
      <trkpt lat="1.3874772048288901" lon="103.79881444561691">
        <ele>41.447356245318936</ele>
      </trkpt>
      <trkpt lat="1.3874329845983362" lon="103.79889282877943">
        <ele>42.75299878469659</ele>
      </trkpt>
      <trkpt lat="1.3873887643650786" lon="103.79897121193906">
        <ele>44.50807781255437</ele>
      </trkpt>
      <trkpt lat="1.3873445441291188" lon="103.79904959509582">
        <ele>46.55107309413365</ele>
      </trkpt>
      <trkpt lat="1.3873003238904569" lon="103.79912797824973">
        <ele>48.59695247214071</ele>
      </trkpt>
      <trkpt lat="1.3872564759302002" lon="103.79920654346273">
        <ele>50.710084932571526</ele>
      </trkpt>
      <trkpt lat="1.3872209367591242" lon="103.79928917204091">
        <ele>52.890470475425595</ele>
      </trkpt>
      <trkpt lat="1.3871853975850732" lon="103.7993718006167">
        <ele>55.00496593691486</ele>
      </trkpt>
      <trkpt lat="1.3871347878776998" lon="103.79944573939864">
        <ele>56.954961106371265</ele>
      </trkpt>
      <trkpt lat="1.3870802165749188" lon="103.79951739389035">
        <ele>58.57655277161289</ele>
      </trkpt>
      <trkpt lat="1.3870322989181743" lon="103.79959341147776">
        <ele>59.580151994598396</ele>
      </trkpt>
      <trkpt lat="1.3869874478861672" lon="103.79967143998886">
        <ele>60.0</ele>
      </trkpt>
      <trkpt lat="1.386942596851482" lon="103.79974946849704">
        <ele>60.0</ele>
      </trkpt>
      <trkpt lat="1.3868830435663042" lon="103.79981270064498">
        <ele>60.0</ele>
      </trkpt>
      <trkpt lat="1.3867976383011456" lon="103.79983289931606">
        <ele>60.0</ele>
      </trkpt>
      <trkpt lat="1.3867147556241533" lon="103.79979824003051">
        <ele>60.0</ele>
      </trkpt>
      <trkpt lat="1.3866368865007668" lon="103.7997529136544">
        <ele>60.0</ele>
      </trkpt>
      <trkpt lat="1.386560739412634" lon="103.79970443691252">
        <ele>60.0</ele>
      </trkpt>
      <trkpt lat="1.3864845923235296" lon="103.79965596017371">
        <ele>60.0</ele>
      </trkpt>
      <trkpt lat="1.386408445233453" lon="103.79960748343795">
        <ele>60.0</ele>
      </trkpt>
      <trkpt lat="1.3863325430118412" lon="103.7995586572584">
        <ele>60.0</ele>
      </trkpt>
      <trkpt lat="1.3862603616066635" lon="103.79950452119925">
        <ele>60.0</ele>
      </trkpt>
      <trkpt lat="1.3861881802002771" lon="103.79945038514336">
        <ele>60.0</ele>
      </trkpt>
      <trkpt lat="1.3861159987926823" lon="103.7993962490907">
        <ele>60.0</ele>
      </trkpt>
      <trkpt lat="1.3860478639112899" lon="103.79933761749203">
        <ele>60.0</ele>
      </trkpt>
      <trkpt lat="1.3859856913379867" lon="103.79927236198085">
        <ele>60.0</ele>
      </trkpt>
      <trkpt lat="1.3859186278166402" lon="103.79921260817818">
        <ele>60.0</ele>
      </trkpt>
      <trkpt lat="1.3858426821674026" lon="103.7991646096173">
        <ele>60.0</ele>
      </trkpt>
      <trkpt lat="1.38576041212721" lon="103.79912729489891">
        <ele>60.0</ele>
      </trkpt>
      <trkpt lat="1.385678142086433" lon="103.79908998018301">
        <ele>60.0</ele>
      </trkpt>
      <trkpt lat="1.3855958720450714" lon="103.79905266546966">
        <ele>60.0</ele>
      </trkpt>
      <trkpt lat="1.3855136020031253" lon="103.79901535075881">
        <ele>60.0</ele>
      </trkpt>
      <trkpt lat="1.3854313319605955" lon="103.79897803605049">
        <ele>60.0</ele>
      </trkpt>
      <trkpt lat="1.3853490619174815" lon="103.79894072134468">
        <ele>60.0</ele>
      </trkpt>
      <trkpt lat="1.3852667918737833" lon="103.79890340664137">
        <ele>59.732204140456965</ele>
      </trkpt>
      <trkpt lat="1.3851845218295018" lon="103.7988660919406">
        <ele>58.92346595980857</ele>
      </trkpt>
      <trkpt lat="1.3851022517846363" lon="103.79882877724235">
        <ele>57.340562339056184</ele>
      </trkpt>
      <trkpt lat="1.3850199817391868" lon="103.79879146254662">
        <ele>55.25582087337805</ele>
      </trkpt>
      <trkpt lat="1.3849392890538195" lon="103.79875197375345">
        <ele>52.997145078151085</ele>
      </trkpt>
      <trkpt lat="1.3848776556482076" lon="103.79868621526951">
        <ele>50.79775807237399</ele>
      </trkpt>
      <trkpt lat="1.384816022240814" lon="103.79862045678898">
        <ele>48.65312812041208</ele>
      </trkpt>
      <trkpt lat="1.3847543888316391" lon="103.79855469831185">
        <ele>46.50849816845028</ele>
      </trkpt>
      <trkpt lat="1.384692755420682" lon="103.79848893983811">
        <ele>44.31747240774367</ele>
      </trkpt>
      <trkpt lat="1.3846183899727968" lon="103.7984379791579">
        <ele>42.147973018260075</ele>
      </trkpt>
      <trkpt lat="1.3845316648329025" lon="103.79841725213282">
        <ele>40.693350279430575</ele>
      </trkpt>
      <trkpt lat="1.3844423813980076" lon="103.7984029494468">
        <ele>40.0</ele>
      </trkpt>
      <trkpt lat="1.3843525272887904" lon="103.79839742368601">
        <ele>40.0</ele>
      </trkpt>
      <trkpt lat="1.3842621338429744" lon="103.79840019287829">
        <ele>40.0</ele>
      </trkpt>
      <trkpt lat="1.384171740397081" lon="103.79840296207028">
        <ele>40.0</ele>
      </trkpt>
      <trkpt lat="1.3840813469511095" lon="103.79840573126198">
        <ele>40.05371044557551</ele>
      </trkpt>
      <trkpt lat="1.3839909535050603" lon="103.79840850045339">
        <ele>40.32683111554592</ele>
      </trkpt>
      <trkpt lat="1.3839509610662923" lon="103.79840972561642">
        <ele>40.49024667331888</ele>
      </trkpt>
      <trkpt lat="1.3838653149611413" lon="103.79843858257554">
        <ele>42.12040453194563</ele>
      </trkpt>
      <trkpt lat="1.3837796688555217" lon="103.79846743953252">
        <ele>43.421447053980025</ele>
      </trkpt>
      <trkpt lat="1.3836940227494343" lon="103.79849629648736">
        <ele>44.72287951499737</ele>
      </trkpt>
      <trkpt lat="1.3836083369558603" lon="103.79852502985958">
        <ele>45.9288195149281</ele>
      </trkpt>
      <trkpt lat="1.3835216979525662" lon="103.79855079505334">
        <ele>47.01023221026063</ele>
      </trkpt>
      <trkpt lat="1.3834322077412278" lon="103.7985389766035">
        <ele>48.01516325318263</ele>
      </trkpt>
      <trkpt lat="1.383346285644626" lon="103.79851115276762">
        <ele>49.066268167330655</ele>
      </trkpt>
      <trkpt lat="1.3832653033396303" lon="103.7984720938754">
        <ele>50.206352890571566</ele>
      </trkpt>
      <trkpt lat="1.383186990308891" lon="103.79842715274256">
        <ele>51.386981831735085</ele>
      </trkpt>
      <trkpt lat="1.383108677277318" lon="103.79838221161262">
        <ele>52.571840262054735</ele>
      </trkpt>
      <trkpt lat="1.383030364244913" lon="103.79833727048559">
        <ele>53.52724034977215</ele>
      </trkpt>
      <trkpt lat="1.3829530812712374" lon="103.79829073545876">
        <ele>54.321333627690336</ele>
      </trkpt>
      <trkpt lat="1.382889551370514" lon="103.79823013213652">
        <ele>55.069033097108786</ele>
      </trkpt>
      <trkpt lat="1.3828530004079083" lon="103.79814837879903">
        <ele>55.8946113394673</ele>
      </trkpt>
      <trkpt lat="1.3828404586875374" lon="103.79805938956383">
        <ele>56.687604650926936</ele>
      </trkpt>
      <trkpt lat="1.3828279169638322" lon="103.79797040032965">
        <ele>56.95061270420606</ele>
      </trkpt>
      <trkpt lat="1.3828153752367933" lon="103.79788141109647">
        <ele>57.90617026642935</ele>
      </trkpt>
      <trkpt lat="1.3828143090099008" lon="103.79779205346388">
        <ele>58.791956387966934</ele>
      </trkpt>
      <trkpt lat="1.382821043081665" lon="103.79770244541646">
        <ele>59.86552983621082</ele>
      </trkpt>
      <trkpt lat="1.382820474004975" lon="103.79761309526005">
        <ele>60.0</ele>
      </trkpt>
      <trkpt lat="1.3828073546619328" lon="103.79752418828387">
        <ele>60.0</ele>
      </trkpt>
      <trkpt lat="1.3827714109544194" lon="103.79744357087166">
        <ele>60.0</ele>
      </trkpt>
      <trkpt lat="1.3827237328498123" lon="103.7973672152683">
        <ele>60.0</ele>
      </trkpt>
      <trkpt lat="1.3826760547427954" lon="103.79729085966801">
        <ele>60.0</ele>
      </trkpt>
      <trkpt lat="1.3826275387556386" lon="103.7972150282286">
        <ele>60.0</ele>
      </trkpt>
      <trkpt lat="1.3825688398020568" lon="103.79714962608674">
        <ele>60.0</ele>
      </trkpt>
      <trkpt lat="1.3824908790687829" lon="103.79710408427793">
        <ele>60.0</ele>
      </trkpt>
      <trkpt lat="1.382412918334657" lon="103.79705854247207">
        <ele>60.0</ele>
      </trkpt>
      <trkpt lat="1.3823349575996804" lon="103.79701300066914">
        <ele>60.0</ele>
      </trkpt>
      <trkpt lat="1.3822569968638525" lon="103.79696745886913">
        <ele>60.0</ele>
      </trkpt>
      <trkpt lat="1.382187524871522" lon="103.79691468193394">
        <ele>60.0</ele>
      </trkpt>
      <trkpt lat="1.3821540874392841" lon="103.79683119197446">
        <ele>60.0</ele>
      </trkpt>
      <trkpt lat="1.3821206500041459" lon="103.79674770201738">
        <ele>60.0</ele>
      </trkpt>
      <trkpt lat="1.3820897305179503" lon="103.79666335803844">
        <ele>60.0</ele>
      </trkpt>
      <trkpt lat="1.3820648083157314" lon="103.79657697993667">
        <ele>60.0</ele>
      </trkpt>
      <trkpt lat="1.3820398861103946" lon="103.79649060183678">
        <ele>60.0</ele>
      </trkpt>
      <trkpt lat="1.3820149639019406" lon="103.79640422373875">
        <ele>60.0</ele>
      </trkpt>
      <trkpt lat="1.3819933507369155" lon="103.79631706370529">
        <ele>60.0</ele>
      </trkpt>
      <trkpt lat="1.381976467737558" lon="103.79622878592065">
        <ele>60.0</ele>
      </trkpt>
      <trkpt lat="1.3819595847349304" lon="103.79614050813736">
        <ele>60.0</ele>
      </trkpt>
      <trkpt lat="1.3819380049461987" lon="103.79605343929676">
        <ele>60.0</ele>
      </trkpt>
      <trkpt lat="1.3819096269093525" lon="103.79596812031107">
        <ele>60.0</ele>
      </trkpt>
      <trkpt lat="1.38188497716186" lon="103.79588192382133">
        <ele>60.0</ele>
      </trkpt>
      <trkpt lat="1.3818718198996056" lon="103.7957930224139">
        <ele>60.0</ele>
      </trkpt>
      <trkpt lat="1.3818586626340283" lon="103.79570412100755">
        <ele>60.0</ele>
      </trkpt>
      <trkpt lat="1.381845193932428" lon="103.79561526629467">
        <ele>60.0</ele>
      </trkpt>
      <trkpt lat="1.3818313643305065" lon="103.79552646569135">
        <ele>60.0</ele>
      </trkpt>
      <trkpt lat="1.3818234121195923" lon="103.79543724111879">
        <ele>60.0</ele>
      </trkpt>
      <trkpt lat="1.3818241877286885" lon="103.79534738695833">
        <ele>60.0</ele>
      </trkpt>
      <trkpt lat="1.3818249633343633" lon="103.79525753279789">
        <ele>59.89173239092808</ele>
      </trkpt>
      <trkpt lat="1.3818152105560015" lon="103.79516833098636">
        <ele>59.38058145299126</ele>
      </trkpt>
      <trkpt lat="1.381803205806531" lon="103.79507926870987">
        <ele>58.46654718618952</ele>
      </trkpt>
      <trkpt lat="1.3817912010537245" lon="103.79499020643435">
        <ele>57.255306026489734</ele>
      </trkpt>
      <trkpt lat="1.3817779564366757" lon="103.794901379654">
        <ele>56.02337832360076</ele>
      </trkpt>
      <trkpt lat="1.3817560532895117" lon="103.79481419744053">
        <ele>54.77076407752241</ele>
      </trkpt>
      <trkpt lat="1.3817341501391696" lon="103.79472701522877">
        <ele>53.50005446135975</ele>
      </trkpt>
      <trkpt lat="1.3817122469856495" lon="103.79463983301868">
        <ele>52.265442961005675</ele>
      </trkpt>
      <trkpt lat="1.3816903438289507" lon="103.79455265081026">
        <ele>51.25060138702042</ele>
      </trkpt>
      <trkpt lat="1.3816684406690738" lon="103.79446546860353">
        <ele>50.45552973940397</ele>
      </trkpt>
      <trkpt lat="1.3816465375060196" lon="103.79437828639848">
        <ele>49.926826437607524</ele>
      </trkpt>
      <trkpt lat="1.3816395309922453" lon="103.79428891599561">
        <ele>49.49516315247367</ele>
      </trkpt>
      <trkpt lat="1.3816351082575484" lon="103.79419916605619">
        <ele>49.16053988400244</ele>
      </trkpt>
      <trkpt lat="1.3816306855194485" lon="103.79410941611721">
        <ele>48.97073242392227</ele>
      </trkpt>
      <trkpt lat="1.381648729644594" lon="103.7940226899174">
        <ele>48.87449850348154</ele>
      </trkpt>
      <trkpt lat="1.381660292143489" lon="103.79393590740877">
        <ele>48.75340961311201</ele>
      </trkpt>
      <trkpt lat="1.381647145034259" lon="103.79384700452891">
        <ele>48.84586742738471</ele>
      </trkpt>
      <trkpt lat="1.3816347708594217" lon="103.79375799220166">
        <ele>49.18878260472047</ele>
      </trkpt>
      <trkpt lat="1.3816223993379841" lon="103.79366897949923">
        <ele>49.88226124617708</ele>
      </trkpt>
      <trkpt lat="1.3816060673965127" lon="103.79358072183513">
        <ele>50.532757047502336</ele>
      </trkpt>
      <trkpt lat="1.3815844024957473" lon="103.79349348087884">
        <ele>51.34256854380848</ele>
      </trkpt>
      <trkpt lat="1.3815627375918005" lon="103.79340623992421">
        <ele>52.48053407374385</ele>
      </trkpt>
      <trkpt lat="1.3815191599992391" lon="103.7933281501473">
        <ele>53.98819789290635</ele>
      </trkpt>
      <trkpt lat="1.381483872771195" lon="103.7932467315713">
        <ele>55.69484505048363</ele>
      </trkpt>
      <trkpt lat="1.3814638497076686" lon="103.79315910420716">
        <ele>57.450365544707815</ele>
      </trkpt>
      <trkpt lat="1.3814448133910984" lon="103.79307132152528">
        <ele>58.89594901300388</ele>
      </trkpt>
      <trkpt lat="1.3814365975692922" lon="103.79298183564518">
        <ele>59.7459624742246</ele>
      </trkpt>
      <trkpt lat="1.3814283817441126" lon="103.7928923497658">
        <ele>60.0</ele>
      </trkpt>
      <trkpt lat="1.3814201659155598" lon="103.79280286388712">
        <ele>60.0</ele>
      </trkpt>
      <trkpt lat="1.3813948396537532" lon="103.79271673076796">
        <ele>60.0</ele>
      </trkpt>
      <trkpt lat="1.3813682476154852" lon="103.79263084567684">
        <ele>60.0</ele>
      </trkpt>
      <trkpt lat="1.3813052125157437" lon="103.79256664952696">
        <ele>60.0</ele>
      </trkpt>
      <trkpt lat="1.381312462454461" lon="103.79248594170014">
        <ele>60.0</ele>
      </trkpt>
      <trkpt lat="1.3813581598652966" lon="103.79241081446656">
        <ele>60.0</ele>
      </trkpt>
      <trkpt lat="1.3814193076220354" lon="103.7923446099952">
        <ele>60.0</ele>
      </trkpt>
      <trkpt lat="1.381480455376784" lon="103.79227840552046">
        <ele>60.0</ele>
      </trkpt>
      <trkpt lat="1.3815416031295433" lon="103.79221220104235">
        <ele>60.0</ele>
      </trkpt>
      <trkpt lat="1.3816027508803135" lon="103.79214599656085">
        <ele>60.0</ele>
      </trkpt>
      <trkpt lat="1.381663897306715" lon="103.79207979087023">
        <ele>60.0</ele>
      </trkpt>
      <trkpt lat="1.3817250429028827" lon="103.79201358442104">
        <ele>60.0</ele>
      </trkpt>
      <trkpt lat="1.3817861884970595" lon="103.79194737796848">
        <ele>60.0</ele>
      </trkpt>
      <trkpt lat="1.381847334089245" lon="103.79188117151254">
        <ele>60.0</ele>
      </trkpt>
      <trkpt lat="1.3819084796794399" lon="103.79181496505323">
        <ele>60.0</ele>
      </trkpt>
      <trkpt lat="1.381969625267643" lon="103.79174875859053">
        <ele>60.0</ele>
      </trkpt>
      <trkpt lat="1.3820307708538544" lon="103.79168255212446">
        <ele>60.0</ele>
      </trkpt>
      <trkpt lat="1.3820919164380738" lon="103.79161634565502">
        <ele>59.651553597915836</ele>
      </trkpt>
      <trkpt lat="1.382153062020301" lon="103.79155013918218">
        <ele>58.97463117542813</ele>
      </trkpt>
      <trkpt lat="1.3822142076005353" lon="103.79148393270597">
        <ele>58.30762532968598</ele>
      </trkpt>
      <trkpt lat="1.3822753531787775" lon="103.7914177262264">
        <ele>57.99898246277372</ele>
      </trkpt>
      <trkpt lat="1.3823364987550268" lon="103.79135151974343">
        <ele>58.02473561573862</ele>
      </trkpt>
      <trkpt lat="1.3823730014493592" lon="103.79131199578569">
        <ele>58.03761219222115</ele>
      </trkpt>
    </trkseg>
  </trk>
</gpx>