{
"type": "FeatureCollection",
"name": "point_to_point_05000m_022",
"crs": { "type": "name", "properties": { "name": "urn:ogc:def:crs:OGC:1.3:CRS84" } },
"features": [
{ "type": "Feature", "properties": { "route_id": "point_to_point_05000m_022", "budget_km": 5.0, "mode": "point_to_point", "rank": 22, "distance_m": 1227.8953552890268, "ascent_m": 43.402695492688096, "descent_m": 20.332689436346495, "gain_density_m_per_km": 35.34722670440577, "source_confidence": 0.65 }, "geometry": { "type": "LineString", "coordinates": [ [ 103.787090963278473, 1.284873502128025 ], [ 103.7870807, 1.2848672 ], [ 103.7870766, 1.2848648 ], [ 103.7869426, 1.2850578 ], [ 103.7866946, 1.285409 ], [ 103.7865565, 1.2855075 ], [ 103.7864117, 1.285564 ], [ 103.7862612, 1.2855989 ], [ 103.7860235, 1.2856692 ], [ 103.7859136, 1.2857386 ], [ 103.785864300000014, 1.2858243 ], [ 103.7858134, 1.28591 ], [ 103.7856876, 1.2861683 ], [ 103.7856424, 1.2863623 ], [ 103.7856727, 1.2866298 ], [ 103.7857205, 1.2869121 ], [ 103.7856953, 1.2870353 ], [ 103.7855449, 1.2871673 ], [ 103.7854088, 1.2871909 ], [ 103.7851992, 1.2871498 ], [ 103.7849863, 1.2869954 ], [ 103.784776500000021, 1.2868551 ], [ 103.7844192, 1.2869625 ], [ 103.7841578, 1.287295 ], [ 103.7841128, 1.287661 ], [ 103.7841823, 1.287807 ], [ 103.784348100000017, 1.2882185 ], [ 103.7844367, 1.2887035 ], [ 103.7844788, 1.2890331 ], [ 103.7843757, 1.2892147 ], [ 103.7841738, 1.2892393 ], [ 103.7840263, 1.2891784 ], [ 103.7836248, 1.2890695 ], [ 103.7833256, 1.2891217 ], [ 103.783135300000012, 1.2893308 ], [ 103.7830554, 1.2896706 ], [ 103.782884, 1.2897621 ], [ 103.7825311, 1.2898405 ], [ 103.7824585, 1.2900002 ], [ 103.7825863, 1.2904286 ], [ 103.7826967, 1.2905767 ], [ 103.7830471, 1.2908819 ], [ 103.783550770348938, 1.291442287042439 ] ] } }
]
}
