<?xml version="1.0" encoding="UTF-8"?>
<gpx xmlns="http://www.topografix.com/GPX/1/1" xmlns:xsi="http://www.w3.org/2001/XMLSchema-instance" xsi:schemaLocation="http://www.topografix.com/GPX/1/1 http://www.topografix.com/GPX/1/1/gpx.xsd" version="1.1" creator="gpx.py -- https://github.com/tkrajina/gpxpy">
  <trk>
    <name>point_to_point_10000m_009</name>
    <trkseg>
      <trkpt lat="1.3978597646022293" lon="103.92137282356288">
        <ele>0.6217295379266752</ele>
      </trkpt>
      <trkpt lat="1.3978865464347976" lon="103.92128699620702">
        <ele>0.7744201126539295</ele>
      </trkpt>
      <trkpt lat="1.3979133282643275" lon="103.92120116884901">
        <ele>1.0507486424708137</ele>
      </trkpt>
      <trkpt lat="1.3979662741695515" lon="103.92112915857385">
        <ele>1.2942297172754793</ele>
      </trkpt>
      <trkpt lat="1.3980226973929624" lon="103.92105893419091">
        <ele>1.5048633370679008</ele>
      </trkpt>
      <trkpt lat="1.398079120614446" lon="103.92098870980458">
        <ele>1.711702121485702</ele>
      </trkpt>
      <trkpt lat="1.3981355438340015" lon="103.92091848541484">
        <ele>1.9201538430493696</ele>
      </trkpt>
      <trkpt lat="1.398190847234609" lon="103.92084738882284">
        <ele>2.1304293403776513</ele>
      </trkpt>
      <trkpt lat="1.3982460042326745" lon="103.92077617822278">
        <ele>2.343367899106702</ele>
      </trkpt>
      <trkpt lat="1.3983005637213053" lon="103.92070451845352">
        <ele>2.558185518467006</ele>
      </trkpt>
      <trkpt lat="1.398354533079074" lon="103.92063241505036">
        <ele>2.77467135983993</ele>
      </trkpt>
      <trkpt lat="1.3984085024347976" lon="103.92056031164387">
        <ele>2.993289201637266</ele>
      </trkpt>
      <trkpt lat="1.3984615206803441" lon="103.92048751826431">
        <ele>3.213671872049661</ele>
      </trkpt>
      <trkpt lat="1.398514201881239" lon="103.92041448037804">
        <ele>3.4358193710769727</ele>
      </trkpt>
      <trkpt lat="1.398566883080029" lon="103.92034144248845">
        <ele>3.6595706820201115</ele>
      </trkpt>
      <trkpt lat="1.3986187123166298" lon="103.92026780568888">
        <ele>3.884843309808623</ele>
      </trkpt>
      <trkpt lat="1.3986702559401127" lon="103.9201939708374">
        <ele>4.1116454018784</ele>
      </trkpt>
      <trkpt lat="1.3987217934045055" lon="103.92012013173495">
        <ele>4.338834910880613</ele>
      </trkpt>
      <trkpt lat="1.3987733308667398" lon="103.9200462926292">
        <ele>4.566031923387722</ele>
      </trkpt>
      <trkpt lat="1.3988248688133262" lon="103.91997245385589">
        <ele>4.793228883927951</ele>
      </trkpt>
      <trkpt lat="1.3988764063105474" lon="103.91989861477064">
        <ele>5.020425792501364</ele>
      </trkpt>
      <trkpt lat="1.3989279438056093" lon="103.91982477568207">
        <ele>5.247623293038868</ele>
      </trkpt>
      <trkpt lat="1.3989794812985121" lon="103.91975093659022">
        <ele>5.474820793576371</ele>
      </trkpt>
      <trkpt lat="1.3990310187892556" lon="103.91967709749507">
        <ele>5.702018291638699</ele>
      </trkpt>
      <trkpt lat="1.3990825562797118" lon="103.9196032583979">
        <ele>5.929215784199104</ele>
      </trkpt>
      <trkpt lat="1.3991340937702967" lon="103.91952941929902">
        <ele>6.156413271257591</ele>
      </trkpt>
      <trkpt lat="1.3991856312587223" lon="103.91945558019684">
        <ele>6.383842294436447</ele>
      </trkpt>
      <trkpt lat="1.399235933134871" lon="103.91938195539525">
        <ele>6.611269339077324</ele>
      </trkpt>
      <trkpt lat="1.399287472115353" lon="103.91930811731764">
        <ele>6.838694405180221</ele>
      </trkpt>
      <trkpt lat="1.399339011093674" lon="103.91923427923675">
        <ele>7.065885953597945</ele>
      </trkpt>
      <trkpt lat="1.3993905500698347" lon="103.91916044115256">
        <ele>7.293077502015695</ele>
      </trkpt>
      <trkpt lat="1.3994420890438335" lon="103.91908660306505">
        <ele>7.520269050433446</ele>
      </trkpt>
      <trkpt lat="1.399493628015671" lon="103.91901276497427">
        <ele>7.7474605988511955</ele>
      </trkpt>
      <trkpt lat="1.399545166985346" lon="103.91893892688019">
        <ele>7.97465214726892</ele>
      </trkpt>
      <trkpt lat="1.399596705952859" lon="103.9188650887828">
        <ele>8.201843695686641</ele>
      </trkpt>
      <trkpt lat="1.3996482449182097" lon="103.9187912506821">
        <ele>8.429035244104364</ele>
      </trkpt>
      <trkpt lat="1.399699783881398" lon="103.91871741257813">
        <ele>8.6553861574899</ele>
      </trkpt>
      <trkpt lat="1.3997519488529224" lon="103.9186440156591">
        <ele>8.879644396426707</ele>
      </trkpt>
      <trkpt lat="1.3998050462005813" lon="103.91857127584127">
        <ele>9.045209530681907</ele>
      </trkpt>
      <trkpt lat="1.399859583878488" lon="103.91849961938472">
        <ele>9.139063064892044</ele>
      </trkpt>
      <trkpt lat="1.399915643071476" lon="103.918429107698">
        <ele>9.161160014146388</ele>
      </trkpt>
      <trkpt lat="1.399973513772269" lon="103.91836007743224">
        <ele>9.167392792985744</ele>
      </trkpt>
      <trkpt lat="1.4000323733326532" lon="103.91829185583845">
        <ele>9.169997816107239</ele>
      </trkpt>
      <trkpt lat="1.400093420622632" lon="103.91822557462123">
        <ele>9.169983435004955</ele>
      </trkpt>
      <trkpt lat="1.4001549849015622" lon="103.91815975193872">
        <ele>9.166181696407039</ele>
      </trkpt>
      <trkpt lat="1.4002190799750738" lon="103.91809636192633">
        <ele>9.159897539075649</ele>
      </trkpt>
      <trkpt lat="1.4002835742361575" lon="103.91803338107555">
        <ele>9.1497443259537</ele>
      </trkpt>
      <trkpt lat="1.4003501582399505" lon="103.91797257353822">
        <ele>9.13680279506386</ele>
      </trkpt>
      <trkpt lat="1.4004176974508984" lon="103.91791283795773">
        <ele>9.120329788164105</ele>
      </trkpt>
      <trkpt lat="1.4004865110253906" lon="103.91785453249972">
        <ele>9.113865081650877</ele>
      </trkpt>
      <trkpt lat="1.4005568697932718" lon="103.91779809679477">
        <ele>9.127629225873521</ele>
      </trkpt>
      <trkpt lat="1.4006278575000366" lon="103.91774242598143">
        <ele>9.159602339535889</ele>
      </trkpt>
      <trkpt lat="1.4007008399038825" lon="103.91768936056502">
        <ele>9.196923093734082</ele>
      </trkpt>
      <trkpt lat="1.4007744325969378" lon="103.91763715698262">
        <ele>9.228001312666992</ele>
      </trkpt>
      <trkpt lat="1.4008493506382111" lon="103.91758682502335">
        <ele>9.256045516841759</ele>
      </trkpt>
      <trkpt lat="1.4009241925922353" lon="103.91753638153288">
        <ele>9.282124004483698</ele>
      </trkpt>
      <trkpt lat="1.4009989919837085" lon="103.91748587565203">
        <ele>9.311857049945685</ele>
      </trkpt>
      <trkpt lat="1.4010716606969702" lon="103.91743239053912">
        <ele>9.346392326915582</ele>
      </trkpt>
      <trkpt lat="1.401143496281834" lon="103.9173778308019">
        <ele>9.388017076088286</ele>
      </trkpt>
      <trkpt lat="1.4012137836833458" lon="103.91732128762433">
        <ele>9.435706800727978</ele>
      </trkpt>
      <trkpt lat="1.4012823774692929" lon="103.91726275271373">
        <ele>9.489449322695021</ele>
      </trkpt>
      <trkpt lat="1.4013500834980432" lon="103.91720318693626">
        <ele>9.55016947350182</ele>
      </trkpt>
      <trkpt lat="1.401415367189618" lon="103.91714100298408">
        <ele>9.616860068220856</ele>
      </trkpt>
      <trkpt lat="1.4014795408732668" lon="103.91707771572393">
        <ele>9.690266862331661</ele>
      </trkpt>
      <trkpt lat="1.401542148287013" lon="103.91701287164871">
        <ele>9.770070010761895</ele>
      </trkpt>
      <trkpt lat="1.4016023096896242" lon="103.9169458033956">
        <ele>9.858894366314843</ele>
      </trkpt>
      <trkpt lat="1.4016589604431902" lon="103.91687578731432">
        <ele>9.958799102200288</ele>
      </trkpt>
      <trkpt lat="1.4017118578130925" lon="103.91680293002779">
        <ele>10.070786538513813</ele>
      </trkpt>
      <trkpt lat="1.401760858139816" lon="103.91672743020612">
        <ele>10.194900699549724</ele>
      </trkpt>
      <trkpt lat="1.401805565965151" lon="103.91664934853766">
        <ele>10.330618266656185</ele>
      </trkpt>
      <trkpt lat="1.4018463026021686" lon="103.91656916615085">
        <ele>10.477478857459138</ele>
      </trkpt>
      <trkpt lat="1.4018828803226424" lon="103.91648703026877">
        <ele>10.634764933457594</ele>
      </trkpt>
      <trkpt lat="1.4019152067916019" lon="103.91640314592749">
        <ele>10.802168539975106</ele>
      </trkpt>
      <trkpt lat="1.4019431992407414" lon="103.91631772221594">
        <ele>10.979307847893933</ele>
      </trkpt>
      <trkpt lat="1.4019667340375725" lon="103.91623096012634">
        <ele>11.16620901676933</ele>
      </trkpt>
      <trkpt lat="1.4019850101185702" lon="103.91614295761245">
        <ele>11.360461645037434</ele>
      </trkpt>
      <trkpt lat="1.4020019398067383" lon="103.91605469040496">
        <ele>11.558334323241935</ele>
      </trkpt>
      <trkpt lat="1.4020198562291453" lon="103.91596661950682">
        <ele>11.755467961818844</ele>
      </trkpt>
      <trkpt lat="1.4020393051967939" lon="103.91587887032188">
        <ele>11.949155405045838</ele>
      </trkpt>
      <trkpt lat="1.4020616693486783" lon="103.91579180306313">
        <ele>12.140004290812863</ele>
      </trkpt>
      <trkpt lat="1.402084033497399" lon="103.91570473580256">
        <ele>12.32720004737917</ele>
      </trkpt>
      <trkpt lat="1.4021090045032911" lon="103.91561838640445">
        <ele>12.511969261796622</ele>
      </trkpt>
      <trkpt lat="1.4021349375696075" lon="103.91553230193257">
        <ele>12.692290269810039</ele>
      </trkpt>
      <trkpt lat="1.4021637000074092" lon="103.91544711337353">
        <ele>12.869484173164182</ele>
      </trkpt>
      <trkpt lat="1.4021930758196661" lon="103.91536213459577">
        <ele>13.042252909973469</ele>
      </trkpt>
      <trkpt lat="1.4022250637257427" lon="103.91527808517942">
        <ele>13.211841088007779</ele>
      </trkpt>
      <trkpt lat="1.4022580465318033" lon="103.91519442968553">
        <ele>13.377157839934611</ele>
      </trkpt>
      <trkpt lat="1.4022930038783807" lon="103.91511155599582">
        <ele>13.538871651517285</ele>
      </trkpt>
      <trkpt lat="1.4023295350040108" lon="103.91502937041801">
        <ele>13.69665727718393</ele>
      </trkpt>
      <trkpt lat="1.4023674175287795" lon="103.91494777571937">
        <ele>13.850241258967458</ele>
      </trkpt>
      <trkpt lat="1.4024074325970701" lon="103.91486720427983">
        <ele>14.00027263945247</ele>
      </trkpt>
      <trkpt lat="1.4024481930804442" lon="103.91478699051198">
        <ele>14.145482269457583</ele>
      </trkpt>
      <trkpt lat="1.4024916229877198" lon="103.91470817528824">
        <ele>14.28722774349311</ele>
      </trkpt>
      <trkpt lat="1.4025355550594976" lon="103.91462963739241">
        <ele>14.42437343389038</ele>
      </trkpt>
      <trkpt lat="1.4025814048321805" lon="103.91455218364938">
        <ele>14.55929079188796</ele>
      </trkpt>
      <trkpt lat="1.4026272546024423" lon="103.91447472990322">
        <ele>14.691263530837587</ele>
      </trkpt>
      <trkpt lat="1.4026743363997183" lon="103.91439801681548">
        <ele>14.821402113385128</ele>
      </trkpt>
      <trkpt lat="1.4027221104203345" lon="103.91432171987128">
        <ele>14.949461904228473</ele>
      </trkpt>
      <trkpt lat="1.402770133577149" lon="103.91424558123776">
        <ele>15.0750020492171</ele>
      </trkpt>
      <trkpt lat="1.402819801660854" lon="103.91417048786353">
        <ele>15.198682362203874</ele>
      </trkpt>
      <trkpt lat="1.4028694697422974" lon="103.91409539448604">
        <ele>15.31957360546152</ele>
      </trkpt>
      <trkpt lat="1.4029202982392692" lon="103.9140210795356">
        <ele>15.43858000775433</ele>
      </trkpt>
      <trkpt lat="1.402971829552681" lon="103.91394723604597">
        <ele>15.55548373529559</ele>
      </trkpt>
      <trkpt lat="1.4030235698609355" lon="103.91387354039843">
        <ele>15.66976716764268</ele>
      </trkpt>
      <trkpt lat="1.403076933042484" lon="103.91380099277659">
        <ele>15.782141272730945</ele>
      </trkpt>
      <trkpt lat="1.4031302962219352" lon="103.91372844515139">
        <ele>15.891654017505516</ele>
      </trkpt>
      <trkpt lat="1.4031847485777058" lon="103.91365670930621">
        <ele>15.999234249557707</ele>
      </trkpt>
      <trkpt lat="1.4032399109758749" lon="103.91358550266595">
        <ele>16.104693203827004</ele>
      </trkpt>
      <trkpt lat="1.4032952438779516" lon="103.91351442981282">
        <ele>16.207436137325306</ele>
      </trkpt>
      <trkpt lat="1.4033521706981706" lon="103.91344460765407">
        <ele>16.308225695933313</ele>
      </trkpt>
      <trkpt lat="1.40340909751646" lon="103.9133747854919">
        <ele>16.406090045302314</ele>
      </trkpt>
      <trkpt lat="1.4034670411426995" lon="103.91330580279457">
        <ele>16.50198032164744</ele>
      </trkpt>
      <trkpt lat="1.4035256974574335" lon="103.91323740848397">
        <ele>16.595772083007166</ele>
      </trkpt>
      <trkpt lat="1.4035844599032423" lon="103.91316910572718">
        <ele>16.6872705317529</ele>
      </trkpt>
      <trkpt lat="1.4036443783258414" lon="103.91310180019049">
        <ele>16.77728914149928</ele>
      </trkpt>
      <trkpt lat="1.4037042967466584" lon="103.91303449465035">
        <ele>16.865952354207852</ele>
      </trkpt>
      <trkpt lat="1.4037642151656924" lon="103.91296718910674">
        <ele>16.954615566916456</ele>
      </trkpt>
      <trkpt lat="1.4038241335829427" lon="103.91289988355969">
        <ele>17.043278779624973</ele>
      </trkpt>
      <trkpt lat="1.40388405199841" lon="103.91283257800919">
        <ele>17.13194199233352</ele>
      </trkpt>
      <trkpt lat="1.4039439704120924" lon="103.91276527245523">
        <ele>17.220605205042038</ele>
      </trkpt>
      <trkpt lat="1.4040038888239914" lon="103.91269796689784">
        <ele>17.309268417750637</ele>
      </trkpt>
      <trkpt lat="1.4040638072341063" lon="103.91263066133699">
        <ele>17.397931630459208</ele>
      </trkpt>
      <trkpt lat="1.404123725642436" lon="103.91256335577268">
        <ele>17.486594843167754</ele>
      </trkpt>
      <trkpt lat="1.4041836440489814" lon="103.91249605020492">
        <ele>17.575258055876276</ele>
      </trkpt>
      <trkpt lat="1.4042435624537415" lon="103.91242874463371">
        <ele>17.662446255334217</ele>
      </trkpt>
      <trkpt lat="1.4043047065477963" lon="103.91236254157991">
        <ele>17.747133523555945</ele>
      </trkpt>
      <trkpt lat="1.4043666802772752" lon="103.9122971176009">
        <ele>17.826227342604266</ele>
      </trkpt>
      <trkpt lat="1.404431113698072" lon="103.91223406409381">
        <ele>17.89918685817323</ele>
      </trkpt>
      <trkpt lat="1.4044970573904947" lon="103.9121726056072">
        <ele>17.96527105928911</ele>
      </trkpt>
      <trkpt lat="1.4045643248516917" lon="103.91211254517228">
        <ele>18.024635350870458</ele>
      </trkpt>
      <trkpt lat="1.4046336703934208" lon="103.91205487418145">
        <ele>18.07697368351644</ele>
      </trkpt>
      <trkpt lat="1.4047045888189933" lon="103.91199912957919">
        <ele>18.1217604904667</ele>
      </trkpt>
      <trkpt lat="1.4047770013723182" lon="103.91194531844151">
        <ele>18.160155444274015</ele>
      </trkpt>
      <trkpt lat="1.4048505411595154" lon="103.91189302307949">
        <ele>18.193655287979862</ele>
      </trkpt>
      <trkpt lat="1.4049245911741455" lon="103.9118414384176">
        <ele>18.224552831077407</ele>
      </trkpt>
      <trkpt lat="1.404998640996168" lon="103.911789853481">
        <ele>18.254625160173486</ele>
      </trkpt>
      <trkpt lat="1.4050726910332583" lon="103.91173826884744">
        <ele>18.28469714484454</ele>
      </trkpt>
      <trkpt lat="1.4051467412551788" lon="103.91168668447408">
        <ele>18.315797485831464</ele>
      </trkpt>
      <trkpt lat="1.4052201551628785" lon="103.91163421385455">
        <ele>18.350427000793925</ele>
      </trkpt>
      <trkpt lat="1.4052919730364575" lon="103.91157961636088">
        <ele>18.39176708920039</ele>
      </trkpt>
      <trkpt lat="1.405361664697182" lon="103.91152236429474">
        <ele>18.441460540374866</ele>
      </trkpt>
      <trkpt lat="1.4054294731049866" lon="103.91146293480634">
        <ele>18.4997391742157</ele>
      </trkpt>
      <trkpt lat="1.4054952766637536" lon="103.91140132087183">
        <ele>18.566131392803097</ele>
      </trkpt>
      <trkpt lat="1.4055590087930059" lon="103.91133758529361">
        <ele>18.640651889114263</ele>
      </trkpt>
      <trkpt lat="1.4056206030766807" lon="103.9112717910411">
        <ele>18.72385254955543</ele>
      </trkpt>
      <trkpt lat="1.4056794451539956" lon="103.91120355437744">
        <ele>18.81565143450587</ele>
      </trkpt>
      <trkpt lat="1.4057359698668186" lon="103.91113342539214">
        <ele>18.91398728255508</ele>
      </trkpt>
      <trkpt lat="1.4057919430831243" lon="103.9110628461585">
        <ele>19.018759660851767</ele>
      </trkpt>
      <trkpt lat="1.4058449641858295" lon="103.91099005124862">
        <ele>19.127942891295657</ele>
      </trkpt>
      <trkpt lat="1.4058973989231556" lon="103.91091685259876">
        <ele>19.243432832671814</ele>
      </trkpt>
      <trkpt lat="1.4059473775569702" lon="103.91084196281297">
        <ele>19.363221793383804</ele>
      </trkpt>
      <trkpt lat="1.4059961528697722" lon="103.9107663149651">
        <ele>19.488586799010104</ele>
      </trkpt>
      <trkpt lat="1.4060430057023947" lon="103.91068945600418">
        <ele>19.6187282724375</ele>
      </trkpt>
      <trkpt lat="1.4060880088215602" lon="103.91061153462523">
        <ele>19.75373121455513</ele>
      </trkpt>
      <trkpt lat="1.4061316569869604" lon="103.9105328350026">
        <ele>19.88139562943493</ele>
      </trkpt>
      <trkpt lat="1.406172792227406" lon="103.91045282508824">
        <ele>19.963905573432097</ele>
      </trkpt>
      <trkpt lat="1.4062131739623205" lon="103.9103724222793">
        <ele>20.0</ele>
      </trkpt>
      <trkpt lat="1.406250320316952" lon="103.91029049604687">
        <ele>20.0</ele>
      </trkpt>
      <trkpt lat="1.4062867768811922" lon="103.91020827427711">
        <ele>20.0</ele>
      </trkpt>
      <trkpt lat="1.4063204521892914" lon="103.91012487797964">
        <ele>20.0</ele>
      </trkpt>
      <trkpt lat="1.406352812423452" lon="103.91004098801227">
        <ele>19.98395954679089</ele>
      </trkpt>
      <trkpt lat="1.4063830486964857" lon="103.90995630072526">
        <ele>19.93931256684779</ele>
      </trkpt>
      <trkpt lat="1.4064112376831117" lon="103.90987093802963">
        <ele>19.865606821819473</ele>
      </trkpt>
      <trkpt lat="1.4064379845200858" lon="103.9097850995624">
        <ele>19.778055095523538</ele>
      </trkpt>
      <trkpt lat="1.4064619358388495" lon="103.90969846263057">
        <ele>19.689004821286904</ele>
      </trkpt>
      <trkpt lat="1.4064851486808754" lon="103.90961161477205">
        <ele>19.597916629169422</ele>
      </trkpt>
      <trkpt lat="1.4065048068684114" lon="103.90952390537024">
        <ele>19.505468061316375</ele>
      </trkpt>
      <trkpt lat="1.4065238971514358" lon="103.9094360792937">
        <ele>19.411189961434967</ele>
      </trkpt>
      <trkpt lat="1.4065403675909827" lon="103.90934772703812">
        <ele>19.315641410535346</ele>
      </trkpt>
      <trkpt lat="1.406555125816503" lon="103.90925907383449">
        <ele>19.21925754215623</ele>
      </trkpt>
      <trkpt lat="1.406571021881038" lon="103.90917061448478">
        <ele>19.123655351770832</ele>
      </trkpt>
      <trkpt lat="1.406590441548707" lon="103.90908287327518">
        <ele>19.030113199888667</ele>
      </trkpt>
      <trkpt lat="1.4066129054099237" lon="103.90899586134574">
        <ele>18.93922002633839</ele>
      </trkpt>
      <trkpt lat="1.406638393076182" lon="103.9089096592008">
        <ele>18.851229029627348</ele>
      </trkpt>
      <trkpt lat="1.4066677354316413" lon="103.90882466203283">
        <ele>18.76644432778585</ele>
      </trkpt>
      <trkpt lat="1.4067005702811408" lon="103.90874095545392">
        <ele>18.684992294876963</ele>
      </trkpt>
      <trkpt lat="1.4067362981227216" lon="103.90865843867095">
        <ele>18.60671504708233</ele>
      </trkpt>
      <trkpt lat="1.4067748861480662" lon="103.90857718802852">
        <ele>18.531785604067903</ele>
      </trkpt>
      <trkpt lat="1.4068169823656094" lon="103.90849765809494">
        <ele>18.461192336593797</ele>
      </trkpt>
      <trkpt lat="1.4068639129419442" lon="103.90842091799021">
        <ele>18.39487899299255</ele>
      </trkpt>
      <trkpt lat="1.4069131620372897" lon="103.90834555252293">
        <ele>18.33245448539501</ele>
      </trkpt>
      <trkpt lat="1.406964484357702" lon="103.90827158325818">
        <ele>18.27232906105759</ele>
      </trkpt>
      <trkpt lat="1.4070166942224804" lon="103.90819821170446">
        <ele>18.214636569986286</ele>
      </trkpt>
      <trkpt lat="1.407071235057279" lon="103.90812654739224">
        <ele>18.158704605664088</ele>
      </trkpt>
      <trkpt lat="1.4071263246841517" lon="103.90805528502307">
        <ele>18.105410768702207</ele>
      </trkpt>
      <trkpt lat="1.4071839799981816" lon="103.90798606220439">
        <ele>18.05417953955176</ele>
      </trkpt>
      <trkpt lat="1.4072424802929726" lon="103.90791777950085">
        <ele>18.019218153292396</ele>
      </trkpt>
      <trkpt lat="1.4073225834676928" lon="103.90787606952637">
        <ele>17.99964088420531</ele>
      </trkpt>
      <trkpt lat="1.4074031015758326" lon="103.90783515546329">
        <ele>17.99523819830039</ele>
      </trkpt>
      <trkpt lat="1.4074838773599496" lon="103.90779492364683">
        <ele>18.000099183576683</ele>
      </trkpt>
      <trkpt lat="1.4075716065510089" lon="103.90777310226564">
        <ele>18.013832980214485</ele>
      </trkpt>
      <trkpt lat="1.4076593357152312" lon="103.90775128077718">
        <ele>18.042494524153827</ele>
      </trkpt>
      <trkpt lat="1.4077492721757514" lon="103.90774454580918">
        <ele>18.079885850545537</ele>
      </trkpt>
      <trkpt lat="1.4078396017538095" lon="103.90774358939878">
        <ele>18.12843467361169</ele>
      </trkpt>
      <trkpt lat="1.407929886440915" lon="103.90774879080475">
        <ele>18.18176899894127</ele>
      </trkpt>
      <trkpt lat="1.4080201711279174" lon="103.9077539922113">
        <ele>18.23753099176638</ele>
      </trkpt>
      <trkpt lat="1.4081104558148163" lon="103.90775919361842">
        <ele>18.293292984591492</ele>
      </trkpt>
      <trkpt lat="1.4082007405016121" lon="103.90776439502613">
        <ele>18.347714995565735</ele>
      </trkpt>
      <trkpt lat="1.4082908990136866" lon="103.90776626741483">
        <ele>18.395239837435465</ele>
      </trkpt>
      <trkpt lat="1.408380534252928" lon="103.9077543336571">
        <ele>18.43586751020068</ele>
      </trkpt>
      <trkpt lat="1.4084701694920878" lon="103.90774239989861">
        <ele>18.470937995712237</ele>
      </trkpt>
      <trkpt lat="1.4085598047311652" lon="103.9077304661394">
        <ele>18.506008481223827</ele>
      </trkpt>
      <trkpt lat="1.4086494399701612" lon="103.90771853237946">
        <ele>18.541091418597254</ele>
      </trkpt>
      <trkpt lat="1.4087390791998355" lon="103.90770662824951">
        <ele>18.57618690520734</ele>
      </trkpt>
      <trkpt lat="1.4088287184606358" lon="103.90769472435055">
        <ele>18.61129494105407</ele>
      </trkpt>
      <trkpt lat="1.4089183577213549" lon="103.90768282045086">
        <ele>18.643315185906115</ele>
      </trkpt>
      <trkpt lat="1.4090065495012178" lon="103.90766378043695">
        <ele>18.670306644810342</ele>
      </trkpt>
      <trkpt lat="1.4090938314643502" lon="103.90764025500513">
        <ele>18.692269317766712</ele>
      </trkpt>
      <trkpt lat="1.409181113427271" lon="103.90761672957174">
        <ele>18.71229109314474</ele>
      </trkpt>
      <trkpt lat="1.40926839538998" lon="103.90759320413675">
        <ele>18.729390046800855</ele>
      </trkpt>
      <trkpt lat="1.4093535711221932" lon="103.90756326475729">
        <ele>18.742558810955178</ele>
      </trkpt>
      <trkpt lat="1.409438020929329" lon="103.90753111477237">
        <ele>18.751797385607684</ele>
      </trkpt>
      <trkpt lat="1.4095224707360794" lon="103.90749896478528">
        <ele>18.76002859248026</ele>
      </trkpt>
      <trkpt lat="1.4096069205424455" lon="103.90746681479602">
        <ele>18.76825979935283</ele>
      </trkpt>
      <trkpt lat="1.4096913703484264" lon="103.90743466480457">
        <ele>18.776491006225395</ele>
      </trkpt>
      <trkpt lat="1.4097758201540231" lon="103.90740251481094">
        <ele>18.77450528485183</ele>
      </trkpt>
      <trkpt lat="1.4098488292214413" lon="103.90734983197207">
        <ele>18.761623035208174</ele>
      </trkpt>
      <trkpt lat="1.4099210772835156" lon="103.90729578334562">
        <ele>18.737844257294466</ele>
      </trkpt>
      <trkpt lat="1.4099933253444594" lon="103.90724173471587">
        <ele>18.713385879356803</ele>
      </trkpt>
      <trkpt lat="1.4100655734042724" lon="103.90718768608285">
        <ele>18.68542107645071</ele>
      </trkpt>
      <trkpt lat="1.4101322273539998" lon="103.90712736247727">
        <ele>18.651482213813704</ele>
      </trkpt>
      <trkpt lat="1.4101949444668382" lon="103.90706262287975">
        <ele>18.611569291445814</ele>
      </trkpt>
      <trkpt lat="1.4102576615780147" lon="103.90699788327876">
        <ele>18.56918873431545</ele>
      </trkpt>
      <trkpt lat="1.4103203786875282" lon="103.9069331436743">
        <ele>18.525086796997034</ele>
      </trkpt>
      <trkpt lat="1.4103796927643948" lon="103.90686562751763">
        <ele>18.475417230140195</ele>
      </trkpt>
      <trkpt lat="1.4104314031118412" lon="103.90679190744127">
        <ele>18.420180033744984</ele>
      </trkpt>
      <trkpt lat="1.4104831134570865" lon="103.9067181873616">
        <ele>18.36109658799943</ele>
      </trkpt>
      <trkpt lat="1.4105348238001303" lon="103.90664446727861">
        <ele>18.30188910699202</ele>
      </trkpt>
      <trkpt lat="1.4105862515302983" lon="103.90657056443737">
        <ele>18.24057102245079</ele>
      </trkpt>
      <trkpt lat="1.4106331529211225" lon="103.90649373456145">
        <ele>18.177142334375763</ele>
      </trkpt>
      <trkpt lat="1.410680054309537" lon="103.90641690468239">
        <ele>18.111727078028807</ele>
      </trkpt>
      <trkpt lat="1.4107269556955417" lon="103.90634007480014">
        <ele>18.046311821681865</ele>
      </trkpt>
      <trkpt lat="1.410773857079136" lon="103.90626324491474">
        <ele>17.98089656533489</ele>
      </trkpt>
      <trkpt lat="1.4108207584603192" lon="103.90618641502617">
        <ele>17.91204537496472</ele>
      </trkpt>
      <trkpt lat="1.410867659839092" lon="103.90610958513444">
        <ele>17.81433599508181</ele>
      </trkpt>
      <trkpt lat="1.4109134430829262" lon="103.90603211454254">
        <ele>17.755087982360298</ele>
      </trkpt>
      <trkpt lat="1.4109568784201163" lon="103.90595329858364">
        <ele>17.733573696563</ele>
      </trkpt>
      <trkpt lat="1.4110003137547555" lon="103.9058744826217">
        <ele>17.67803138239731</ele>
      </trkpt>
      <trkpt lat="1.411043749086844" lon="103.90579566665676">
        <ele>17.51970220093878</ele>
      </trkpt>
      <trkpt lat="1.4110871844163806" lon="103.90571685068878">
        <ele>17.25960395013744</ele>
      </trkpt>
      <trkpt lat="1.4111306197433664" lon="103.90563803471778">
        <ele>17.0304201507313</ele>
      </trkpt>
      <trkpt lat="1.4111740550678005" lon="103.90555921874376">
        <ele>16.89444667937828</ele>
      </trkpt>
      <trkpt lat="1.4112174903896826" lon="103.90548040276673">
        <ele>16.853979549708214</ele>
      </trkpt>
      <trkpt lat="1.4112602055246397" lon="103.90540123171485">
        <ele>16.866651745721672</ele>
      </trkpt>
      <trkpt lat="1.411297100360675" lon="103.90531919108494">
        <ele>16.87160667301109</ele>
      </trkpt>
      <trkpt lat="1.4113339951939208" lon="103.90523715045234">
        <ele>16.86969409425703</ele>
      </trkpt>
      <trkpt lat="1.4113708900243762" lon="103.90515510981702">
        <ele>16.86704490893216</ele>
      </trkpt>
      <trkpt lat="1.4114071383710503" lon="103.90507280987867">
        <ele>16.857411628612592</ele>
      </trkpt>
      <trkpt lat="1.411437903621599" lon="103.90498831069638">
        <ele>16.838702788059965</ele>
      </trkpt>
      <trkpt lat="1.4114686688691638" lon="103.90490381151173">
        <ele>16.809299698595495</ele>
      </trkpt>
      <trkpt lat="1.411499434113745" lon="103.90481931232472">
        <ele>16.772789253878646</ele>
      </trkpt>
      <trkpt lat="1.4115275769167732" lon="103.90473396799607">
        <ele>16.728081181690793</ele>
      </trkpt>
      <trkpt lat="1.411552583609269" lon="103.90464761298477">
        <ele>16.677530777281614</ele>
      </trkpt>
      <trkpt lat="1.4115775902986274" lon="103.90456125797151">
        <ele>16.623798635415515</ele>
      </trkpt>
      <trkpt lat="1.4116025969848478" lon="103.90447490295622">
        <ele>16.56151765232943</ele>
      </trkpt>
      <trkpt lat="1.4116187709037336" lon="103.90438660108056">
        <ele>16.488670169395373</ele>
      </trkpt>
      <trkpt lat="1.411632860150446" lon="103.90429783971493">
        <ele>16.40525618661329</ele>
      </trkpt>
      <trkpt lat="1.411646949393802" lon="103.90420907834805">
        <ele>16.319824545203197</ele>
      </trkpt>
      <trkpt lat="1.411661038633801" lon="103.90412031697994">
        <ele>16.234109012743406</ele>
      </trkpt>
      <trkpt lat="1.411674821644311" lon="103.90403151536371">
        <ele>16.144251614153113</ele>
      </trkpt>
      <trkpt lat="1.4116844431507778" lon="103.90394216680605">
        <ele>16.04814951784084</ele>
      </trkpt>
      <trkpt lat="1.4116917486354665" lon="103.90385261041502">
        <ele>15.944131830301146</ele>
      </trkpt>
      <trkpt lat="1.4116968758498218" lon="103.90376290867098">
        <ele>15.834139220503516</ele>
      </trkpt>
      <trkpt lat="1.411699843918912" lon="103.90367310716687">
        <ele>15.718175835013739</ele>
      </trkpt>
      <trkpt lat="1.411700417648912" lon="103.90358325496356">
        <ele>15.586061871522295</ele>
      </trkpt>
      <trkpt lat="1.4116862318576446" lon="103.90349484068004">
        <ele>15.421950095049084</ele>
      </trkpt>
      <trkpt lat="1.4116475195450684" lon="103.90341405126937">
        <ele>15.215566299053071</ele>
      </trkpt>
      <trkpt lat="1.4115867098006103" lon="103.90334805501884">
        <ele>14.974009584596628</ele>
      </trkpt>
      <trkpt lat="1.4115095600431202" lon="103.90330197124776">
        <ele>14.717187962695336</ele>
      </trkpt>
      <trkpt lat="1.4114223621412842" lon="103.90327956305116">
        <ele>14.467292836963898</ele>
      </trkpt>
      <trkpt lat="1.4113324221734969" lon="103.90328375794458">
        <ele>14.243322704599573</ele>
      </trkpt>
      <trkpt lat="1.4112464466697685" lon="103.90331091555761">
        <ele>14.045856203731256</ele>
      </trkpt>
      <trkpt lat="1.4111615768730115" lon="103.90334192044273">
        <ele>13.854713773876504</ele>
      </trkpt>
      <trkpt lat="1.41107578117132" lon="103.90337033540959">
        <ele>13.653298410521122</ele>
      </trkpt>
      <trkpt lat="1.4109890356247463" lon="103.90339565403661">
        <ele>13.4375831030016</ele>
      </trkpt>
      <trkpt lat="1.4109017578236407" lon="103.90341917427631">
        <ele>13.284624512317968</ele>
      </trkpt>
      <trkpt lat="1.4108139223518092" lon="103.90344056945504">
        <ele>13.2865179847303</ele>
      </trkpt>
      <trkpt lat="1.4107250871946122" lon="103.90345702476155">
        <ele>13.443269278860127</ele>
      </trkpt>
      <trkpt lat="1.4106357554768851" lon="103.90347102635029">
        <ele>13.683320455045203</ele>
      </trkpt>
      <trkpt lat="1.4105464237590581" lon="103.90348502793812">
        <ele>13.914986206092728</ele>
      </trkpt>
      <trkpt lat="1.410457105160178" lon="103.90349904805038">
        <ele>14.138500641163128</ele>
      </trkpt>
      <trkpt lat="1.410367579154707" lon="103.90351126975962">
        <ele>14.23339110587227</ele>
      </trkpt>
      <trkpt lat="1.4102775034987582" lon="103.90351928702579">
        <ele>14.25964543801697</ele>
      </trkpt>
      <trkpt lat="1.4101874278427426" lon="103.9035273042915">
        <ele>14.264077253602396</ele>
      </trkpt>
      <trkpt lat="1.4100973521866604" lon="103.90353532155679">
        <ele>14.3055950869002</ele>
      </trkpt>
      <trkpt lat="1.4100070300437935" lon="103.90353871206742">
        <ele>14.325659140144607</ele>
      </trkpt>
      <trkpt lat="1.4099166059190724" lon="103.90354018829774">
        <ele>14.278520832158966</ele>
      </trkpt>
      <trkpt lat="1.4098261817942859" lon="103.9035416645281">
        <ele>14.230248790558269</ele>
      </trkpt>
      <trkpt lat="1.409735775445474" lon="103.90354222797707">
        <ele>14.179457246754973</ele>
      </trkpt>
      <trkpt lat="1.4096454764863318" lon="103.9035372770726">
        <ele>14.126146200749124</ele>
      </trkpt>
      <trkpt lat="1.409555177527089" lon="103.90353232616869">
        <ele>14.070673472134862</ele>
      </trkpt>
      <trkpt lat="1.409464878567746" lon="103.90352737526533">
        <ele>14.013776508338056</ele>
      </trkpt>
      <trkpt lat="1.4093749272429112" lon="103.9035186630545">
        <ele>13.954409916333345</ele>
      </trkpt>
      <trkpt lat="1.409285231082798" lon="103.90350719003291">
        <ele>13.892573696120714</ele>
      </trkpt>
      <trkpt lat="1.409195534922514" lon="103.90349571701236">
        <ele>13.8296920828827</ele>
      </trkpt>
      <trkpt lat="1.4091058387620596" lon="103.90348424399285">
        <ele>13.764764954420833</ele>
      </trkpt>
      <trkpt lat="1.409017079330087" lon="103.90346716644284">
        <ele>13.69747402277961</ele>
      </trkpt>
      <trkpt lat="1.4089284656554737" lon="103.90344921681334">
        <ele>13.627819287959051</ele>
      </trkpt>
      <trkpt lat="1.408839851980586" lon="103.90343126718538">
        <ele>13.556937901389198</ele>
      </trkpt>
      <trkpt lat="1.4087518496126465" lon="103.90341073831769">
        <ele>13.484197804839363</ele>
      </trkpt>
      <trkpt lat="1.4086644868047242" lon="103.9033875110042">
        <ele>13.409488513115354</ele>
      </trkpt>
      <trkpt lat="1.408577220000051" lon="103.9033639599567">
        <ele>13.332352975704689</ele>
      </trkpt>
      <trkpt lat="1.4084911396411097" lon="103.90333640807098">
        <ele>13.253741538793584</ele>
      </trkpt>
      <trkpt lat="1.408405059281675" lon="103.90330885618744">
        <ele>13.171573765369317</ele>
      </trkpt>
      <trkpt lat="1.408321639513015" lon="103.90327453433125">
        <ele>13.086122463073442</ele>
      </trkpt>
      <trkpt lat="1.4082395465728896" lon="103.90323683631055">
        <ele>12.99738763190598</ele>
      </trkpt>
      <trkpt lat="1.4081574536319605" lon="103.90319913829262">
        <ele>12.907560194073824</ele>
      </trkpt>
      <trkpt lat="1.4080753606902274" lon="103.90316144027743">
        <ele>12.817732756241695</ele>
      </trkpt>
      <trkpt lat="1.40799326774769" lon="103.903123742265">
        <ele>12.728846015000022</ele>
      </trkpt>
      <trkpt lat="1.407909864270319" lon="103.9030890288576">
        <ele>12.639917980158858</ele>
      </trkpt>
      <trkpt lat="1.4078278478370154" lon="103.90305119105025">
        <ele>12.550100391553448</ele>
      </trkpt>
      <trkpt lat="1.4077471801035724" lon="103.90301058465424">
        <ele>12.457626460518552</ele>
      </trkpt>
      <trkpt lat="1.4076679852177985" lon="103.90296720824992">
        <ele>12.363293223298797</ele>
      </trkpt>
      <trkpt lat="1.4075891385716737" lon="103.90292320311507">
        <ele>12.26746499312808</ele>
      </trkpt>
      <trkpt lat="1.4075112566001498" lon="103.9028775281007">
        <ele>12.170967862081179</ele>
      </trkpt>
      <trkpt lat="1.4074333746275218" lon="103.90283185308944">
        <ele>12.074120962926854</ele>
      </trkpt>
      <trkpt lat="1.407355231554992" lon="103.90278663812524">
        <ele>11.978972193463996</ele>
      </trkpt>
      <trkpt lat="1.407274234468732" lon="103.90274669770133">
        <ele>11.88276635752454</ele>
      </trkpt>
      <trkpt lat="1.4071992540247509" lon="103.90269700755171">
        <ele>11.78088329695432</ele>
      </trkpt>
      <trkpt lat="1.4071427043066316" lon="103.90262744667105">
        <ele>11.670488039694446</ele>
      </trkpt>
      <trkpt lat="1.4071034797328286" lon="103.9025466540416">
        <ele>11.554764822058852</ele>
      </trkpt>
      <trkpt lat="1.4070781266651626" lon="103.90246052580765">
        <ele>11.439984005024272</ele>
      </trkpt>
      <trkpt lat="1.4070692152265623" lon="103.90237129867582">
        <ele>11.33188201316964</ele>
      </trkpt>
      <trkpt lat="1.407082932518013" lon="103.90228288655798">
        <ele>11.236166624934057</ele>
      </trkpt>
      <trkpt lat="1.407117867852463" lon="103.90220016763531">
        <ele>11.156126369348913</ele>
      </trkpt>
      <trkpt lat="1.4071660210167836" lon="103.90212415516059">
        <ele>11.090023078853383</ele>
      </trkpt>
      <trkpt lat="1.407220227574489" lon="103.90205223530708">
        <ele>11.031555612076176</ele>
      </trkpt>
      <trkpt lat="1.4072740886863024" lon="103.90198005993201">
        <ele>10.974725897583463</ele>
      </trkpt>
      <trkpt lat="1.4073259710904555" lon="103.90190646159684">
        <ele>10.917984476326142</ele>
      </trkpt>
      <trkpt lat="1.407380360660102" lon="103.9018346802279">
        <ele>10.862789705250629</ele>
      </trkpt>
      <trkpt lat="1.4074373864821577" lon="103.90176494997338">
        <ele>10.811450179669988</ele>
      </trkpt>
      <trkpt lat="1.4074970968917468" lon="103.90169747446276">
        <ele>10.764297371208428</ele>
      </trkpt>
      <trkpt lat="1.4075595855146499" lon="103.90163252841528">
        <ele>10.719987654571405</ele>
      </trkpt>
      <trkpt lat="1.4076219799437375" lon="103.90156750059526">
        <ele>10.676599273306858</ele>
      </trkpt>
      <trkpt lat="1.4076834131026446" lon="103.90150155682348">
        <ele>10.63262297901241</ele>
      </trkpt>
      <trkpt lat="1.4077448462598123" lon="103.90143561304824">
        <ele>10.589266724616685</ele>
      </trkpt>
      <trkpt lat="1.407808275420965" lon="103.9013716737422">
        <ele>10.548977443910887</ele>
      </trkpt>
      <trkpt lat="1.4078750071964101" lon="103.90131103076386">
        <ele>10.511102098516936</ele>
      </trkpt>
      <trkpt lat="1.407940661377069" lon="103.90124923567413">
        <ele>10.473831721231612</ele>
      </trkpt>
      <trkpt lat="1.4080052159086816" lon="103.90118630483086">
        <ele>10.434541342451437</ele>
      </trkpt>
      <trkpt lat="1.4080685269796245" lon="103.90112213857573">
        <ele>10.393341936539471</ele>
      </trkpt>
      <trkpt lat="1.4081308737769276" lon="103.90105704829895">
        <ele>10.3503730373402</ele>
      </trkpt>
      <trkpt lat="1.408192278510956" lon="103.90099110206845">
        <ele>10.304911480108869</ele>
      </trkpt>
      <trkpt lat="1.408250980988326" lon="103.90092276747504">
        <ele>10.255268786156568</ele>
      </trkpt>
      <trkpt lat="1.408305194656675" lon="103.90085087172866">
        <ele>10.200302640001357</ele>
      </trkpt>
      <trkpt lat="1.408355859804007" lon="103.9007764386585">
        <ele>10.140097263680273</ele>
      </trkpt>
      <trkpt lat="1.4084034158083205" lon="103.90070001845662">
        <ele>10.07616031703955</ele>
      </trkpt>
      <trkpt lat="1.4084492488360985" lon="103.90062256828412">
        <ele>10.009650101626503</ele>
      </trkpt>
      <trkpt lat="1.4084938878472424" lon="103.90054441918289">
        <ele>9.941458842289</ele>
      </trkpt>
      <trkpt lat="1.4085373726532215" lon="103.90046563364672">
        <ele>9.871615552788628</ele>
      </trkpt>
      <trkpt lat="1.4085790930174924" lon="103.90038591067727">
        <ele>9.79986940456271</ele>
      </trkpt>
      <trkpt lat="1.408618858052782" lon="103.9003052070563">
        <ele>9.725987849695558</ele>
      </trkpt>
      <trkpt lat="1.4086567414300908" lon="103.90022361581906">
        <ele>9.649988193805518</ele>
      </trkpt>
      <trkpt lat="1.408692738867855" lon="103.90014118713022">
        <ele>9.571943687467243</ele>
      </trkpt>
      <trkpt lat="1.4087268039572216" lon="103.9000579523286">
        <ele>9.491879858095063</ele>
      </trkpt>
      <trkpt lat="1.4087588836680802" lon="103.89997394244888">
        <ele>9.409468583251293</ele>
      </trkpt>
      <trkpt lat="1.4087878511610217" lon="103.89988883320183">
        <ele>9.32378781789571</ele>
      </trkpt>
      <trkpt lat="1.408811557481319" lon="103.89980212764506">
        <ele>9.23458950811449</ele>
      </trkpt>
      <trkpt lat="1.4088320209027283" lon="103.89971460196494">
        <ele>9.142608103637466</ele>
      </trkpt>
      <trkpt lat="1.4088514942058854" lon="103.8996268513966">
        <ele>9.049615011544551</ele>
      </trkpt>
      <trkpt lat="1.4088716102743606" lon="103.89953925001784">
        <ele>8.957277463861113</ele>
      </trkpt>
      <trkpt lat="1.4088943949249721" lon="103.89945230717244">
        <ele>8.833491869213182</ele>
      </trkpt>
      <trkpt lat="1.4089215633358911" lon="103.89936663241333">
        <ele>8.66998277125573</ele>
      </trkpt>
      <trkpt lat="1.4089538637607673" lon="103.8992827283338">
        <ele>8.465065466696268</ele>
      </trkpt>
      <trkpt lat="1.4089889651460312" lon="103.89919992880014">
        <ele>8.250067920267403</ele>
      </trkpt>
      <trkpt lat="1.4090277567628862" lon="103.89911888586282">
        <ele>8.03430078275039</ele>
      </trkpt>
      <trkpt lat="1.4090757071331772" lon="103.899042697973">
        <ele>7.900589247299943</ele>
      </trkpt>
      <trkpt lat="1.4091207827641878" lon="103.8989648093561">
        <ele>7.755137292484871</ele>
      </trkpt>
      <trkpt lat="1.4091634968873203" lon="103.89888562939238">
        <ele>7.597628544609738</ele>
      </trkpt>
      <trkpt lat="1.409203819845744" lon="103.89880521347958">
        <ele>7.34728676668421</ele>
      </trkpt>
      <trkpt lat="1.4092413566988335" lon="103.89872346093976">
        <ele>7.099037450152049</ele>
      </trkpt>
      <trkpt lat="1.4092789203635443" lon="103.89864186085673">
        <ele>6.861018326826386</ele>
      </trkpt>
      <trkpt lat="1.4092985389269714" lon="103.8985544078923">
        <ele>6.64285831283707</ele>
      </trkpt>
      <trkpt lat="1.409301137410035" lon="103.89846462217716">
        <ele>6.442027818036297</ele>
      </trkpt>
      <trkpt lat="1.4093072844306636" lon="103.898375017477">
        <ele>6.2444424908618315</ele>
      </trkpt>
      <trkpt lat="1.4093211695430476" lon="103.89828622591278">
        <ele>6.0389665814834395</ele>
      </trkpt>
      <trkpt lat="1.4093356936555015" lon="103.89819753644586">
        <ele>5.830436179282689</ele>
      </trkpt>
      <trkpt lat="1.40934641574343" lon="103.89810831175078">
        <ele>5.625913966275935</ele>
      </trkpt>
      <trkpt lat="1.4093540829594249" lon="103.8980187919318">
        <ele>5.427790006370902</ele>
      </trkpt>
      <trkpt lat="1.4093588102307741" lon="103.89792907786985">
        <ele>5.235341531465661</ele>
      </trkpt>
      <trkpt lat="1.4093611303754174" lon="103.89783925304428">
        <ele>5.047607818954248</ele>
      </trkpt>
      <trkpt lat="1.4093619707825444" lon="103.89774939845138">
        <ele>4.862592409534933</ele>
      </trkpt>
      <trkpt lat="1.4093628110387066" lon="103.89765954385689">
        <ele>4.678628191234712</ele>
      </trkpt>
      <trkpt lat="1.4093636509759302" lon="103.89756968925929">
        <ele>4.494664305098995</ele>
      </trkpt>
      <trkpt lat="1.4093644909096688" lon="103.89747983466144">
        <ele>4.310036769774116</ele>
      </trkpt>
      <trkpt lat="1.4093653308399223" lon="103.89738998006337">
        <ele>4.1239245142368235</ele>
      </trkpt>
      <trkpt lat="1.4093661707666902" lon="103.89730012546508">
        <ele>3.9363275384870207</ele>
      </trkpt>
      <trkpt lat="1.4093670106899732" lon="103.89721027086657">
        <ele>3.7479097180583345</ele>
      </trkpt>
      <trkpt lat="1.409367850609771" lon="103.89712041626784">
        <ele>3.559491897629649</ele>
      </trkpt>
      <trkpt lat="1.4093686905260836" lon="103.89703056166888">
        <ele>3.371074077201008</ele>
      </trkpt>
      <trkpt lat="1.4093695304389111" lon="103.8969407070697">
        <ele>3.1826562567724204</ele>
      </trkpt>
      <trkpt lat="1.4093703703482532" lon="103.89685085247031">
        <ele>2.994238436343734</ele>
      </trkpt>
      <trkpt lat="1.4093712102541098" lon="103.89676099787069">
        <ele>2.8113753626676488</ele>
      </trkpt>
      <trkpt lat="1.4093653944594964" lon="103.8966714699848">
        <ele>2.6719719121997674</ele>
      </trkpt>
      <trkpt lat="1.4093618995266461" lon="103.89663944561363">
        <ele>2.6050475603421495</ele>
      </trkpt>
      <trkpt lat="1.4093024680086417" lon="103.89660829924343">
        <ele>2.5652359570152616</ele>
      </trkpt>
      <trkpt lat="1.4093034063027199" lon="103.8965184456074">
        <ele>2.465504185644115</ele>
      </trkpt>
      <trkpt lat="1.4093043567202561" lon="103.8964285920967">
        <ele>2.2768327708267044</ele>
      </trkpt>
      <trkpt lat="1.4093053071343085" lon="103.89633873858577">
        <ele>2.088151733491608</ele>
      </trkpt>
      <trkpt lat="1.4093062575448756" lon="103.89624888507461">
        <ele>1.8994706961565113</ele>
      </trkpt>
      <trkpt lat="1.4093072079519589" lon="103.89615903156323">
        <ele>1.7109549123315235</ele>
      </trkpt>
      <trkpt lat="1.40930795029072" lon="103.89606917612562">
        <ele>1.514521696056262</ele>
      </trkpt>
      <trkpt lat="1.409319950115882" lon="103.89598066637126">
        <ele>1.29061439622395</ele>
      </trkpt>
      <trkpt lat="1.4093676801935247" lon="103.89590524498396">
        <ele>1.035726824024165</ele>
      </trkpt>
      <trkpt lat="1.4094434505882352" lon="103.89585745858314">
        <ele>0.7728596142880212</ele>
      </trkpt>
      <trkpt lat="1.4095324981507322" lon="103.89584661880369">
        <ele>0.5519869794272646</ele>
      </trkpt>
      <trkpt lat="1.4096172359772046" lon="103.89587477746797">
        <ele>0.41571058414320233</ele>
      </trkpt>
      <trkpt lat="1.409681891241318" lon="103.89593646058717">
        <ele>0.39003030022925245</ele>
      </trkpt>
      <trkpt lat="1.4097140510040571" lon="103.89601969224374">
        <ele>0.4799875340086949</ele>
      </trkpt>
      <trkpt lat="1.4097066616831293" lon="103.89610841109838">
        <ele>0.6615940427219663</ele>
      </trkpt>
      <trkpt lat="1.4096766588076606" lon="103.89619303320147">
        <ele>0.8825041782229252</ele>
      </trkpt>
      <trkpt lat="1.40966445056017" lon="103.89628173243257">
        <ele>1.0992703407604065</ele>
      </trkpt>
      <trkpt lat="1.4096632012707668" lon="103.8963715677135">
        <ele>1.2958612695939757</ele>
      </trkpt>
      <trkpt lat="1.409662919350953" lon="103.89646142576377">
        <ele>1.4841760598228475</ele>
      </trkpt>
      <trkpt lat="1.4096620453106872" lon="103.89655127975622">
        <ele>1.6717216161279893</ele>
      </trkpt>
      <trkpt lat="1.4096617584267195" lon="103.8966411169399">
        <ele>1.8333341355512307</ele>
      </trkpt>
      <trkpt lat="1.4096168395127175" lon="103.89664178881873">
        <ele>1.9138995315419045</ele>
      </trkpt>
      <trkpt lat="1.4096177444131746" lon="103.8965519348323">
        <ele>1.7799696919970913</ele>
      </trkpt>
      <trkpt lat="1.4096186493101464" lon="103.89646208084564">
        <ele>1.591397033518825</ele>
      </trkpt>
      <trkpt lat="1.409619554203632" lon="103.89637222685876">
        <ele>1.402862475372699</ele>
      </trkpt>
      <trkpt lat="1.4096204112076807" lon="103.89628237252579">
        <ele>1.2082795004304259</ele>
      </trkpt>
      <trkpt lat="1.4096294187433625" lon="103.89619315325507">
        <ele>0.9957965090079793</ele>
      </trkpt>
      <trkpt lat="1.4096564539143828" lon="103.89610766806035">
        <ele>0.7567755195079776</ele>
      </trkpt>
      <trkpt lat="1.409700477373317" lon="103.89602941601589">
        <ele>0.49245580646399284</ele>
      </trkpt>
      <trkpt lat="1.4097660950604425" lon="103.89596915700452">
        <ele>0.2641979070471021</ele>
      </trkpt>
      <trkpt lat="1.4098505251921933" lon="103.8959376116139">
        <ele>0.09843022402751826</ele>
      </trkpt>
      <trkpt lat="1.4099404732531071" lon="103.89593099889454">
        <ele>0.02686723417418276</ele>
      </trkpt>
      <trkpt lat="1.410028643142798" lon="103.89594982945754">
        <ele>0.0</ele>
      </trkpt>
      <trkpt lat="1.410106602341168" lon="103.89599450626895">
        <ele>0.0</ele>
      </trkpt>
      <trkpt lat="1.4101802854509484" lon="103.89604660720802">
        <ele>0.0030227317501346986</ele>
      </trkpt>
      <trkpt lat="1.4102254914426566" lon="103.89607857212893">
        <ele>0.004534097625202048</ele>
      </trkpt>
      <trkpt lat="1.4103012948003404" lon="103.89612757822033">
        <ele>0.05581375595706208</ele>
      </trkpt>
      <trkpt lat="1.4103770981567934" lon="103.89617658431497">
        <ele>0.1025593166636838</ele>
      </trkpt>
      <trkpt lat="1.410452901512015" lon="103.89622559041285">
        <ele>0.1493048773703056</ele>
      </trkpt>
      <trkpt lat="1.410528704866006" lon="103.89627459651396">
        <ele>0.19605043807692732</ele>
      </trkpt>
      <trkpt lat="1.4106045082187657" lon="103.8963236026183">
        <ele>0.24279599878358527</ele>
      </trkpt>
      <trkpt lat="1.4106803115702937" lon="103.89637260872587">
        <ele>0.2895415594902433</ele>
      </trkpt>
      <trkpt lat="1.41075611492059" lon="103.89642161483668">
        <ele>0.3362871201968651</ele>
      </trkpt>
      <trkpt lat="1.410831918269655" lon="103.89647062095074">
        <ele>0.3656160026926943</ele>
      </trkpt>
      <trkpt lat="1.4109152297202643" lon="103.8965054213666">
        <ele>0.37760173439314215</ele>
      </trkpt>
      <trkpt lat="1.4109985386192638" lon="103.89654029457667">
        <ele>0.3814927714198912</ele>
      </trkpt>
      <trkpt lat="1.411078187662221" lon="103.89658285502746">
        <ele>0.3947057919836327</ele>
      </trkpt>
      <trkpt lat="1.4111578367042081" lon="103.89662541548121">
        <ele>0.41716726866895554</ele>
      </trkpt>
      <trkpt lat="1.4112374857452257" lon="103.89666797593796">
        <ele>0.4396287453541845</ele>
      </trkpt>
      <trkpt lat="1.4113171347852729" lon="103.89671053639766">
        <ele>0.45851646922789263</ele>
      </trkpt>
      <trkpt lat="1.4113978856312213" lon="103.89675085004231">
        <ele>0.46856846543737</ele>
      </trkpt>
      <trkpt lat="1.411480704441675" lon="103.89678694666951">
        <ele>0.4697847339826426</ele>
      </trkpt>
      <trkpt lat="1.41156352325139" lon="103.89682304329936">
        <ele>0.4657390276751768</ele>
      </trkpt>
      <trkpt lat="1.411646342060366" lon="103.89685913993189">
        <ele>0.4616933213677092</ele>
      </trkpt>
      <trkpt lat="1.411729160868602" lon="103.89689523656708">
        <ele>0.45764761506024376</ele>
      </trkpt>
      <trkpt lat="1.4118119796760986" lon="103.89693133320492">
        <ele>0.45360190875280426</ele>
      </trkpt>
      <trkpt lat="1.4118947984828554" lon="103.89696742984542">
        <ele>0.4495944473984477</ele>
      </trkpt>
      <trkpt lat="1.4119776031765627" lon="103.8970035584313">
        <ele>0.4456406976780766</ele>
      </trkpt>
      <trkpt lat="1.412060402162355" lon="103.89703969993778">
        <ele>0.4419139957665412</ele>
      </trkpt>
      <trkpt lat="1.412143201147406" lon="103.89707584144696">
        <ele>0.4392602893793822</ele>
      </trkpt>
      <trkpt lat="1.4122260001317155" lon="103.89711198295879">
        <ele>0.4376641118356672</ele>
      </trkpt>
      <trkpt lat="1.4123087991152834" lon="103.89714812447329">
        <ele>0.43695212696057695</ele>
      </trkpt>
      <trkpt lat="1.4123915980981097" lon="103.89718426599045">
        <ele>0.43620180085726695</ele>
      </trkpt>
      <trkpt lat="1.4124744113091887" lon="103.89722037527523">
        <ele>0.4353349686645965</ele>
      </trkpt>
      <trkpt lat="1.4125572535276607" lon="103.89725641884624">
        <ele>0.43435163038263</ele>
      </trkpt>
      <trkpt lat="1.4126400957453942" lon="103.89729246241991">
        <ele>0.4332901272395599</ele>
      </trkpt>
      <trkpt lat="1.4127229379623887" lon="103.89732850599624">
        <ele>0.432228624096556</ele>
      </trkpt>
      <trkpt lat="1.4128057801786442" lon="103.89736454957524">
        <ele>0.43116712095352333</ele>
      </trkpt>
      <trkpt lat="1.4128886223941606" lon="103.8974005931569">
        <ele>0.4300233395950099</ele>
      </trkpt>
      <trkpt lat="1.4129714646089377" lon="103.89743663674122">
        <ele>0.4286723855695906</ele>
      </trkpt>
      <trkpt lat="1.4130543068229757" lon="103.89747268032819">
        <ele>0.42711425887733245</ele>
      </trkpt>
      <trkpt lat="1.4131371490362739" lon="103.89750872391784">
        <ele>0.42543123773371483</ele>
      </trkpt>
      <trkpt lat="1.4132199912488328" lon="103.89754476751014">
        <ele>0.4237482165901913</ele>
      </trkpt>
      <trkpt lat="1.4133028334606519" lon="103.8975808111051">
        <ele>0.4220651954466677</ele>
      </trkpt>
      <trkpt lat="1.4133856756717313" lon="103.89761685470273">
        <ele>0.4203821743030791</ele>
      </trkpt>
      <trkpt lat="1.4134685178820707" lon="103.89765289830302">
        <ele>0.4186991531594615</ele>
      </trkpt>
      <trkpt lat="1.4135513600916703" lon="103.89768894190597">
        <ele>0.41701613201584387</ele>
      </trkpt>
      <trkpt lat="1.41363420230053" lon="103.89772498551159">
        <ele>0.41533311087229136</ele>
      </trkpt>
      <trkpt lat="1.4137170445086493" lon="103.89776102911986">
        <ele>0.41761964477667446</ele>
      </trkpt>
      <trkpt lat="1.4137998867160289" lon="103.89779707273081">
        <ele>0.42621556010871114</ele>
      </trkpt>
      <trkpt lat="1.4138827289226672" lon="103.8978331163444">
        <ele>0.4411208568683356</ele>
      </trkpt>
      <trkpt lat="1.413965571128566" lon="103.89786915996068">
        <ele>0.4583659800077022</ele>
      </trkpt>
      <trkpt lat="1.4140484133337237" lon="103.89790520357961">
        <ele>0.4756113486564444</ele>
      </trkpt>
      <trkpt lat="1.4141312554454148" lon="103.89794124741161">
        <ele>0.5360717436824877</ele>
      </trkpt>
      <trkpt lat="1.4141554004957122" lon="103.89799881628694">
        <ele>0.6865406161131483</ele>
      </trkpt>
      <trkpt lat="1.4141159879961334" lon="103.89807969282332">
        <ele>0.9270177332344277</ele>
      </trkpt>
      <trkpt lat="1.4140765756044873" lon="103.89816056941011">
        <ele>1.214288314178466</ele>
      </trkpt>
      <trkpt lat="1.4140371632101183" lon="103.89824144599409">
        <ele>1.501558907917899</ele>
      </trkpt>
      <trkpt lat="1.4139977508130281" lon="103.89832232257523">
        <ele>1.7888295016573317</ele>
      </trkpt>
      <trkpt lat="1.4139583384132162" lon="103.89840319915353">
        <ele>2.0761000953967645</ele>
      </trkpt>
      <trkpt lat="1.4139189260106826" lon="103.89848407572902">
        <ele>2.3633706891361315</ele>
      </trkpt>
      <trkpt lat="1.4138795136054279" lon="103.89856495230168">
        <ele>2.6506412828755646</ele>
      </trkpt>
      <trkpt lat="1.4138401011974524" lon="103.89864582887151">
        <ele>2.937911876614997</ele>
      </trkpt>
      <trkpt lat="1.4138006887867558" lon="103.8987267054385">
        <ele>3.2251824703544543</ele>
      </trkpt>
      <trkpt lat="1.413761276373339" lon="103.89880758200268">
        <ele>3.512453064093821</ele>
      </trkpt>
      <trkpt lat="1.4137218639572016" lon="103.89888845856402">
        <ele>3.7997236578332543</ele>
      </trkpt>
      <trkpt lat="1.4136824515383446" lon="103.89896933512253">
        <ele>4.086994251572687</ele>
      </trkpt>
      <trkpt lat="1.4136430391167678" lon="103.89905021167823">
        <ele>4.37426484531212</ele>
      </trkpt>
      <trkpt lat="1.4136036266924707" lon="103.89913108823107">
        <ele>4.662581391578275</ele>
      </trkpt>
      <trkpt lat="1.4135642142654554" lon="103.8992119647811">
        <ele>4.953064143355881</ele>
      </trkpt>
      <trkpt lat="1.4135248018357205" lon="103.89929284132832">
        <ele>5.237545260044594</ele>
      </trkpt>
      <trkpt lat="1.4134964148025833" lon="103.89937039119867">
        <ele>5.430653436478074</ele>
      </trkpt>
      <trkpt lat="1.4135774144576476" lon="103.89941002949458">
        <ele>5.531634021434447</ele>
      </trkpt>
      <trkpt lat="1.4136602388359045" lon="103.89944611352556">
        <ele>5.548289012798096</ele>
      </trkpt>
      <trkpt lat="1.4137431999516392" lon="103.89948188350203">
        <ele>5.564363410793398</ele>
      </trkpt>
      <trkpt lat="1.4138263779805118" lon="103.89951715527839">
        <ele>5.579491613657564</ele>
      </trkpt>
      <trkpt lat="1.413909556008667" lon="103.89955242705739">
        <ele>5.594039464106579</ele>
      </trkpt>
      <trkpt lat="1.4139927340361034" lon="103.89958769883899">
        <ele>5.60858264661372</ele>
      </trkpt>
      <trkpt lat="1.4140759137829455" lon="103.89962296660705">
        <ele>5.622928056950971</ele>
      </trkpt>
      <trkpt lat="1.4141591646874343" lon="103.89965806823548">
        <ele>5.626882179219025</ele>
      </trkpt>
      <trkpt lat="1.4142424155912103" lon="103.89969316986652">
        <ele>5.617744256374389</ele>
      </trkpt>
      <trkpt lat="1.4143256664942736" lon="103.8997282715002">
        <ele>5.5957073926451395</ele>
      </trkpt>
      <trkpt lat="1.4144089173966239" lon="103.89976337313647">
        <ele>5.570965103930521</ele>
      </trkpt>
      <trkpt lat="1.4144921682982603" lon="103.89979847477537">
        <ele>5.5462228152159305</ele>
      </trkpt>
      <trkpt lat="1.4145754191991842" lon="103.89983357641688">
        <ele>5.5214805265012785</ele>
      </trkpt>
      <trkpt lat="1.4146586700993946" lon="103.89986867806101">
        <ele>5.49673823778669</ele>
      </trkpt>
      <trkpt lat="1.4147419209988916" lon="103.89990377970776">
        <ele>5.4883203438603525</ele>
      </trkpt>
      <trkpt lat="1.4148251718976748" lon="103.89993888135713">
        <ele>5.490812538569705</ele>
      </trkpt>
      <trkpt lat="1.4149084227957447" lon="103.8999739830091">
        <ele>5.495599626618379</ele>
      </trkpt>
      <trkpt lat="1.4149916736931005" lon="103.90000908466371">
        <ele>5.486357213218093</ele>
      </trkpt>
      <trkpt lat="1.415074924589743" lon="103.90004418632093">
        <ele>5.468499604521504</ele>
      </trkpt>
      <trkpt lat="1.4151581754856708" lon="103.90007928798074">
        <ele>5.450641995824818</ele>
      </trkpt>
      <trkpt lat="1.415241426380885" lon="103.9001143896432">
        <ele>5.432784387128197</ele>
      </trkpt>
      <trkpt lat="1.4153246772753851" lon="103.90014949130827">
        <ele>5.414926778431512</ele>
      </trkpt>
      <trkpt lat="1.415407928169171" lon="103.90018459297596">
        <ele>5.3948704456545125</ele>
      </trkpt>
      <trkpt lat="1.4154911790622422" lon="103.90021969464625">
        <ele>5.364546861293612</ele>
      </trkpt>
      <trkpt lat="1.4155744299545991" lon="103.90025479631919">
        <ele>5.323956025348937</ele>
      </trkpt>
      <trkpt lat="1.4156576808462418" lon="103.90028989799472">
        <ele>5.275296661900767</ele>
      </trkpt>
      <trkpt lat="1.4157409317371694" lon="103.9003249996729">
        <ele>5.226637298452658</ele>
      </trkpt>
      <trkpt lat="1.4158241826273827" lon="103.90036010135368">
        <ele>5.151935973204232</ele>
      </trkpt>
      <trkpt lat="1.4158995577631561" lon="103.9003624810999">
        <ele>4.994816625691245</ele>
      </trkpt>
      <trkpt lat="1.4159359451780493" lon="103.90028021686234">
        <ele>4.7549792103883</ele>
      </trkpt>
      <trkpt lat="1.4159741821854768" lon="103.90019879678297">
        <ele>4.458333605419611</ele>
      </trkpt>
      <trkpt lat="1.4160132287853533" lon="103.90011774540358">
        <ele>4.161218849959948</ele>
      </trkpt>
      <trkpt lat="1.4160527345474108" lon="103.90003694353028">
        <ele>3.8633217215636484</ele>
      </trkpt>
      <trkpt lat="1.4161002822485915" lon="103.89996054908029">
        <ele>3.564832744407718</ele>
      </trkpt>
      <trkpt lat="1.4161515802838978" lon="103.89988657724643">
        <ele>3.26572542299752</ele>
      </trkpt>
      <trkpt lat="1.4162016016799515" lon="103.89981173422517">
        <ele>2.9665777972200753</ele>
      </trkpt>
      <trkpt lat="1.416249335421027" lon="103.89973541388459">
        <ele>2.667348781611635</ele>
      </trkpt>
      <trkpt lat="1.4162985498139489" lon="103.89966004390861">
        <ele>2.3680791140475277</ele>
      </trkpt>
      <trkpt lat="1.416346878967093" lon="103.89958409251025">
        <ele>2.0688040729329664</ele>
      </trkpt>
      <trkpt lat="1.4163952698591098" lon="103.89950818001977">
        <ele>1.7695062337543173</ele>
      </trkpt>
      <trkpt lat="1.4164437586446488" lon="103.89943232906373">
        <ele>1.4702114031882958</ele>
      </trkpt>
      <trkpt lat="1.416492621745176" lon="103.89935671691288">
        <ele>1.1709322072054</ele>
      </trkpt>
      <trkpt lat="1.4165423281295726" lon="103.89928164900428">
        <ele>0.8732913982068599</ele>
      </trkpt>
      <trkpt lat="1.4165987529471218" lon="103.8992125394664">
        <ele>0.6236034916510438</ele>
      </trkpt>
      <trkpt lat="1.4166848046000489" lon="103.89921145840418">
        <ele>0.4772608795188345</ele>
      </trkpt>
      <trkpt lat="1.4167593952316286" lon="103.89926223566184">
        <ele>0.43304027837454645</ele>
      </trkpt>
      <trkpt lat="1.4168337898181012" lon="103.89931331536995">
        <ele>0.4423197542874322</ele>
      </trkpt>
      <trkpt lat="1.4169082960658912" lon="103.89936423503308">
        <ele>0.43707765959469347</ele>
      </trkpt>
      <trkpt lat="1.4169813434029528" lon="103.89941721258879">
        <ele>0.4246962698995449</ele>
      </trkpt>
      <trkpt lat="1.4170498931017905" lon="103.89947554940687">
        <ele>0.4072880188664696</ele>
      </trkpt>
      <trkpt lat="1.417118676901918" lon="103.89953386568675">
        <ele>0.3906158147031058</ele>
      </trkpt>
      <trkpt lat="1.417191310331978" lon="103.89958736061138">
        <ele>0.3624188321848343</ele>
      </trkpt>
      <trkpt lat="1.4172662873264392" lon="103.89963754834983">
        <ele>0.320995030787304</ele>
      </trkpt>
      <trkpt lat="1.4173421867780336" lon="103.89968627553752">
        <ele>0.29655671050376625</ele>
      </trkpt>
      <trkpt lat="1.4174046614956533" lon="103.89975115881872">
        <ele>0.31128893631917154</ele>
      </trkpt>
      <trkpt lat="1.417454144312892" lon="103.89982573542243">
        <ele>0.37474796258657966</ele>
      </trkpt>
      <trkpt lat="1.4174978757747352" lon="103.89990438978312">
        <ele>0.45692005496138993</ele>
      </trkpt>
      <trkpt lat="1.417543685694487" lon="103.89998169890372">
        <ele>0.5074011806442086</ele>
      </trkpt>
      <trkpt lat="1.4176012024658882" lon="103.90005088131505">
        <ele>0.5115844519634807</ele>
      </trkpt>
      <trkpt lat="1.417663432283922" lon="103.90011608373086">
        <ele>0.4761249744530833</ele>
      </trkpt>
      <trkpt lat="1.417725662099909" lon="103.90018128615016">
        <ele>0.4325551696152152</ele>
      </trkpt>
      <trkpt lat="1.4177886391677494" lon="103.90024575942905">
        <ele>0.3875353668931886</ele>
      </trkpt>
      <trkpt lat="1.4178518063339118" lon="103.90031006581653">
        <ele>0.3491410712854668</ele>
      </trkpt>
      <trkpt lat="1.4179096072489827" lon="103.90037915946326">
        <ele>0.31898482304334236</ele>
      </trkpt>
      <trkpt lat="1.4179671090625028" lon="103.90044851498942">
        <ele>0.2980739557099436</ele>
      </trkpt>
      <trkpt lat="1.4180241132625502" lon="103.90051827525842">
        <ele>0.27833296428686777</ele>
      </trkpt>
      <trkpt lat="1.4180811174602905" lon="103.9005880355308">
        <ele>0.2591372795231559</ele>
      </trkpt>
      <trkpt lat="1.4181390081996843" lon="103.90065706817737">
        <ele>0.24069815587262913</ele>
      </trkpt>
      <trkpt lat="1.4181965467386328" lon="103.90072639313495">
        <ele>0.22342883966318264</ele>
      </trkpt>
      <trkpt lat="1.4182538017375603" lon="103.90079595029523">
        <ele>0.2074536100847988</ele>
      </trkpt>
      <trkpt lat="1.4183110935003755" lon="103.90086547755679">
        <ele>0.19163937689098373</ele>
      </trkpt>
      <trkpt lat="1.418368520639769" lon="103.90093489173302">
        <ele>0.17739541242822518</ele>
      </trkpt>
      <trkpt lat="1.4184246840933301" lon="103.90100531214395">
        <ele>0.166803577765555</ele>
      </trkpt>
      <trkpt lat="1.4184794286727533" lon="103.9010768357026">
        <ele>0.16406581430186037</ele>
      </trkpt>
      <trkpt lat="1.4185312800086518" lon="103.90115041080527">
        <ele>0.1737872008228657</ele>
      </trkpt>
      <trkpt lat="1.4185783497691338" lon="103.90122709636422">
        <ele>0.20033220558395246</ele>
      </trkpt>
      <trkpt lat="1.4186204499296664" lon="103.90130658705952">
        <ele>0.24030945110654203</ele>
      </trkpt>
      <trkpt lat="1.4186583249282017" lon="103.90138816143745">
        <ele>0.2829056110622818</ele>
      </trkpt>
      <trkpt lat="1.4186989364562723" lon="103.90146834832571">
        <ele>0.3045941654896636</ele>
      </trkpt>
      <trkpt lat="1.4187525683538065" lon="103.90154054078626">
        <ele>0.2986721688951132</ele>
      </trkpt>
      <trkpt lat="1.4188105642257176" lon="103.9016094893454">
        <ele>0.2637583423706295</ele>
      </trkpt>
      <trkpt lat="1.4188724368789563" lon="103.90167497995351">
        <ele>0.2166173559678092</ele>
      </trkpt>
      <trkpt lat="1.4189345656492107" lon="103.90174026159495">
        <ele>0.16540485719863648</ele>
      </trkpt>
      <trkpt lat="1.4189953290456632" lon="103.90180681513627">
        <ele>0.12335302994787774</ele>
      </trkpt>
      <trkpt lat="1.4190508965900006" lon="103.9018775756438">
        <ele>0.10618863204691305</ele>
      </trkpt>
      <trkpt lat="1.4190950496913508" lon="103.90195589091655">
        <ele>0.12429869907613127</ele>
      </trkpt>
      <trkpt lat="1.419129101470072" lon="103.90203904666086">
        <ele>0.16768363235653802</ele>
      </trkpt>
      <trkpt lat="1.4191612149401414" lon="103.90212292906025">
        <ele>0.214791286170275</ele>
      </trkpt>
      <trkpt lat="1.4191990728691728" lon="103.90220448156427">
        <ele>0.2454550446401914</ele>
      </trkpt>
      <trkpt lat="1.4192432666452903" lon="103.90228281768778">
        <ele>0.25440344587228064</ele>
      </trkpt>
      <trkpt lat="1.419293532194939" lon="103.90235734031653">
        <ele>0.24241034504830847</ele>
      </trkpt>
      <trkpt lat="1.4193479123144914" lon="103.90242904676725">
        <ele>0.21868246928673205</ele>
      </trkpt>
      <trkpt lat="1.4194012234583717" lon="103.90250163267953">
        <ele>0.18867495517508334</ele>
      </trkpt>
      <trkpt lat="1.4194562693050718" lon="103.90257291520734">
        <ele>0.15711784786234997</ele>
      </trkpt>
      <trkpt lat="1.4195118230288872" lon="103.90264381221468">
        <ele>0.12788844096196025</ele>
      </trkpt>
      <trkpt lat="1.419563384294363" lon="103.90271763560635">
        <ele>0.11342457795444878</ele>
      </trkpt>
      <trkpt lat="1.4196069515917107" lon="103.90279614291899">
        <ele>0.12558005533740826</ele>
      </trkpt>
      <trkpt lat="1.4196381788281713" lon="103.90288037297987">
        <ele>0.16173485245084593</ele>
      </trkpt>
      <trkpt lat="1.4196652833962211" lon="103.902966098438">
        <ele>0.21285577729549798</ele>
      </trkpt>
      <trkpt lat="1.4196914256859248" lon="103.90305207538843">
        <ele>0.2587936704857459</ele>
      </trkpt>
      <trkpt lat="1.4197254561326376" lon="103.90313531067794">
        <ele>0.29157230317644295</ele>
      </trkpt>
      <trkpt lat="1.4197639041850922" lon="103.90321662783066">
        <ele>0.3054790519465536</ele>
      </trkpt>
      <trkpt lat="1.41980619433873" lon="103.90329605621106">
        <ele>0.3068348488355294</ele>
      </trkpt>
      <trkpt lat="1.4198506267921855" lon="103.90337429946197">
        <ele>0.2978024805597954</ele>
      </trkpt>
      <trkpt lat="1.4198975039827206" lon="103.90345114422767">
        <ele>0.2828742122701202</ele>
      </trkpt>
      <trkpt lat="1.4199445121563379" lon="103.90352790963256">
        <ele>0.26435687125229096</ele>
      </trkpt>
      <trkpt lat="1.4199918020887292" lon="103.9036045043222">
        <ele>0.23478899818584073</ele>
      </trkpt>
      <trkpt lat="1.4200359622246124" lon="103.90368290105626">
        <ele>0.1903781037440028</ele>
      </trkpt>
      <trkpt lat="1.4200784664781267" lon="103.90376220161608">
        <ele>0.1363466486641991</ele>
      </trkpt>
      <trkpt lat="1.4201168800968718" lon="103.90384350753487">
        <ele>0.08974836141122818</ele>
      </trkpt>
      <trkpt lat="1.4201497150429294" lon="103.90392718891506">
        <ele>0.06111378337697317</ele>
      </trkpt>
      <trkpt lat="1.4201768232850431" lon="103.9040128711686">
        <ele>0.05216317146262426</ele>
      </trkpt>
      <trkpt lat="1.4201980836562986" lon="103.90410017032683">
        <ele>0.06372356741242984</ele>
      </trkpt>
      <trkpt lat="1.4202126780722932" lon="103.90418880139632">
        <ele>0.09279835183673028</ele>
      </trkpt>
      <trkpt lat="1.420223990349653" lon="103.90427793157929">
        <ele>0.13594218364158636</ele>
      </trkpt>
      <trkpt lat="1.4202323926531757" lon="103.90436740178703">
        <ele>0.19013567057615324</ele>
      </trkpt>
      <trkpt lat="1.4202367225931825" lon="103.90445715170266">
        <ele>0.23798090020826282</ele>
      </trkpt>
      <trkpt lat="1.4202401701981824" lon="103.90454694355608">
        <ele>0.2708133616117357</ele>
      </trkpt>
      <trkpt lat="1.4202441259157266" lon="103.90463671037557">
        <ele>0.28272088645794313</ele>
      </trkpt>
      <trkpt lat="1.4202495189635325" lon="103.90472640836921">
        <ele>0.2856054057021027</ele>
      </trkpt>
      <trkpt lat="1.4202566599737794" lon="103.9048159786873">
        <ele>0.28244980560889915</ele>
      </trkpt>
      <trkpt lat="1.4202661101915628" lon="103.9049053224731">
        <ele>0.27087266760180045</ele>
      </trkpt>
      <trkpt lat="1.4202791506492245" lon="103.90499424226458">
        <ele>0.2520935678068974</ele>
      </trkpt>
      <trkpt lat="1.4202928253510538" lon="103.90508305921365">
        <ele>0.22862865054908657</ele>
      </trkpt>
      <trkpt lat="1.4203065227645995" lon="103.90517185909424">
        <ele>0.20505379459989795</ele>
      </trkpt>
      <trkpt lat="1.4203196612785338" lon="103.905260743887">
        <ele>0.18916906011986848</ele>
      </trkpt>
      <trkpt lat="1.4203263561788468" lon="103.9053503199159">
        <ele>0.1777371641639388</ele>
      </trkpt>
      <trkpt lat="1.4203265326139924" lon="103.90544013540544">
        <ele>0.1760198538495261</ele>
      </trkpt>
      <trkpt lat="1.4203205666250325" lon="103.90552976561685">
        <ele>0.1817593180223799</ele>
      </trkpt>
      <trkpt lat="1.4203102281898934" lon="103.90561900900053">
        <ele>0.2027784107106763</ele>
      </trkpt>
      <trkpt lat="1.420295780284911" lon="103.9057076868739">
        <ele>0.23883546013342336</ele>
      </trkpt>
      <trkpt lat="1.420276264091005" lon="103.90579536612366">
        <ele>0.29471999742268745</ele>
      </trkpt>
      <trkpt lat="1.4202481183026627" lon="103.90588069785457">
        <ele>0.37326807588791583</ele>
      </trkpt>
      <trkpt lat="1.4202133707635425" lon="103.9059636503296">
        <ele>0.4759641898060636</ele>
      </trkpt>
      <trkpt lat="1.4201723023642294" lon="103.9060434655">
        <ele>0.5801684361055948</ele>
      </trkpt>
      <trkpt lat="1.4201428111497107" lon="103.90612829245907">
        <ele>0.6554947931525482</ele>
      </trkpt>
      <trkpt lat="1.4201339794734043" lon="103.90621739424122">
        <ele>0.688516450100229</ele>
      </trkpt>
      <trkpt lat="1.4201352123080866" lon="103.90630721755844">
        <ele>0.7055698749798515</ele>
      </trkpt>
      <trkpt lat="1.4201249257169097" lon="103.9063959970351">
        <ele>0.7427331127359947</ele>
      </trkpt>
      <trkpt lat="1.420102800173496" lon="103.90648312515029">
        <ele>0.80789734057605</ele>
      </trkpt>
      <trkpt lat="1.4200792374015552" lon="103.9065698709927">
        <ele>0.8889250945253592</ele>
      </trkpt>
      <trkpt lat="1.420054597147706" lon="103.90665633024705">
        <ele>0.9727288886308711</ele>
      </trkpt>
      <trkpt lat="1.4200299568906933" lon="103.90674278949942">
        <ele>1.0573272662231112</ele>
      </trkpt>
      <trkpt lat="1.4200056743277034" lon="103.90682934388504">
        <ele>1.1398540638929917</ele>
      </trkpt>
      <trkpt lat="1.4199829099565966" lon="103.90691624127108">
        <ele>1.1533317141729171</ele>
      </trkpt>
      <trkpt lat="1.4200169464354004" lon="103.90699548607195">
        <ele>1.045245719159633</ele>
      </trkpt>
      <trkpt lat="1.4200844496679363" lon="103.90705520400007">
        <ele>0.8083808043462714</ele>
      </trkpt>
      <trkpt lat="1.4201572238237095" lon="103.90710853849141">
        <ele>0.5190678919271258</ele>
      </trkpt>
      <trkpt lat="1.4202244253141274" lon="103.90715490542999">
        <ele>0.24664362910040627</ele>
      </trkpt>
      <trkpt lat="1.4202909287960683" lon="103.90721580044055">
        <ele>0.07673878336690619</ele>
      </trkpt>
      <trkpt lat="1.4203574983322995" lon="103.9072766241548">
        <ele>0.0</ele>
      </trkpt>
      <trkpt lat="1.4204242278035233" lon="103.90733727393204">
        <ele>0.0</ele>
      </trkpt>
      <trkpt lat="1.4204910211257276" lon="103.90739785295693">
        <ele>0.0</ele>
      </trkpt>
      <trkpt lat="1.4205571604946337" lon="103.90745913823464">
        <ele>0.0</ele>
      </trkpt>
      <trkpt lat="1.4206237371834418" lon="103.90751995418469">
        <ele>0.0</ele>
      </trkpt>
      <trkpt lat="1.4206903366947885" lon="103.90758074549086">
        <ele>0.0</ele>
      </trkpt>
      <trkpt lat="1.4207569738473629" lon="103.90764149607233">
        <ele>0.0</ele>
      </trkpt>
      <trkpt lat="1.4208236109981067" lon="103.90770224665731">
        <ele>0.0</ele>
      </trkpt>
      <trkpt lat="1.4208901822057298" lon="103.90776306857705">
        <ele>0.0</ele>
      </trkpt>
      <trkpt lat="1.4209521471348596" lon="103.90782830031414">
        <ele>0.0</ele>
      </trkpt>
      <trkpt lat="1.421001350782636" lon="103.9079034522746">
        <ele>0.0</ele>
      </trkpt>
      <trkpt lat="1.4210328255035678" lon="103.9079875325433">
        <ele>0.0</ele>
      </trkpt>
      <trkpt lat="1.421050916936124" lon="103.90807541844823">
        <ele>0.0</ele>
      </trkpt>
      <trkpt lat="1.42106466006084" lon="103.9081642335601">
        <ele>0.0</ele>
      </trkpt>
      <trkpt lat="1.4210778826290233" lon="103.90825312682007">
        <ele>0.0</ele>
      </trkpt>
      <trkpt lat="1.4210890035950419" lon="103.90834222031397">
        <ele>0.0</ele>
      </trkpt>
      <trkpt lat="1.4210924940264043" lon="103.90842017765256">
        <ele>0.0</ele>
      </trkpt>
    </trkseg>
  </trk>
</gpx>