<?xml version="1.0" encoding="UTF-8"?>
<gpx xmlns="http://www.topografix.com/GPX/1/1" xmlns:xsi="http://www.w3.org/2001/XMLSchema-instance" xsi:schemaLocation="http://www.topografix.com/GPX/1/1 http://www.topografix.com/GPX/1/1/gpx.xsd" version="1.1" creator="gpx.py -- https://github.com/tkrajina/gpxpy">
  <trk>
    <name>point_to_point_05000m_028</name>
    <trkseg>
      <trkpt lat="1.2831118488716664" lon="103.84039232822882">
        <ele>22.468089009277772</ele>
      </trkpt>
      <trkpt lat="1.2831923340469975" lon="103.84043306891549">
        <ele>23.446331928543902</ele>
      </trkpt>
      <trkpt lat="1.2832783178597083" lon="103.84041442810533">
        <ele>25.068484620071075</ele>
      </trkpt>
      <trkpt lat="1.2833329823794166" lon="103.84034874201697">
        <ele>26.043918503999635</ele>
      </trkpt>
      <trkpt lat="1.2833617704474356" lon="103.84026356213933">
        <ele>26.679851960033606</ele>
      </trkpt>
      <trkpt lat="1.2833895200456338" lon="103.84017804341369">
        <ele>27.410418220768523</ele>
      </trkpt>
      <trkpt lat="1.2834182561218042" lon="103.84009285868783">
        <ele>28.50679724054022</ele>
      </trkpt>
      <trkpt lat="1.2834513113605708" lon="103.84000924733535">
        <ele>29.779334442490093</ele>
      </trkpt>
      <trkpt lat="1.2834901232410374" lon="103.83992812440121">
        <ele>31.196905553180176</ele>
      </trkpt>
      <trkpt lat="1.2835383182387006" lon="103.83985216930365">
        <ele>32.64592044156202</ele>
      </trkpt>
      <trkpt lat="1.283575850468402" lon="103.83977177744491">
        <ele>33.440814012886705</ele>
      </trkpt>
      <trkpt lat="1.283564417184306" lon="103.83968527812493">
        <ele>32.605480355450574</ele>
      </trkpt>
      <trkpt lat="1.2834905708974729" lon="103.83963876905742">
        <ele>31.830923706675723</ele>
      </trkpt>
      <trkpt lat="1.283546151872356" lon="103.83956854308913">
        <ele>31.92896947323521</ele>
      </trkpt>
      <trkpt lat="1.2836148667870184" lon="103.83951027695159">
        <ele>33.598581804785006</ele>
      </trkpt>
      <trkpt lat="1.283690008280372" lon="103.8394603723747">
        <ele>35.29412623206829</ele>
      </trkpt>
      <trkpt lat="1.2837682858914616" lon="103.83941537560342">
        <ele>36.65740957193203</ele>
      </trkpt>
      <trkpt lat="1.2838525694249623" lon="103.83938396614244">
        <ele>37.87580806529597</ele>
      </trkpt>
      <trkpt lat="1.283939453573403" lon="103.83936262781167">
        <ele>38.79899930144342</ele>
      </trkpt>
      <trkpt lat="1.2840248932787164" lon="103.83933321459244">
        <ele>39.50003337668628</ele>
      </trkpt>
      <trkpt lat="1.2841107078886267" lon="103.83930490241427">
        <ele>39.87186163202035</ele>
      </trkpt>
      <trkpt lat="1.2841957156773338" lon="103.83927423966686">
        <ele>40.0</ele>
      </trkpt>
      <trkpt lat="1.2842755934958705" lon="103.83923225040566">
        <ele>40.0</ele>
      </trkpt>
      <trkpt lat="1.2843534370116538" lon="103.83918655825865">
        <ele>40.0</ele>
      </trkpt>
      <trkpt lat="1.2844270313388406" lon="103.8391343403833">
        <ele>40.0</ele>
      </trkpt>
      <trkpt lat="1.2844996299326044" lon="103.8390807638029">
        <ele>40.0</ele>
      </trkpt>
      <trkpt lat="1.2845686277530701" lon="103.83902277997787">
        <ele>39.81743195256269</ele>
      </trkpt>
      <trkpt lat="1.2846317446116444" lon="103.83895849568667">
        <ele>39.54234670611829</ele>
      </trkpt>
      <trkpt lat="1.284704799072384" lon="103.83890601281206">
        <ele>39.41785681443315</ele>
      </trkpt>
      <trkpt lat="1.2847912175452743" lon="103.83888200714243">
        <ele>39.50101456641976</ele>
      </trkpt>
      <trkpt lat="1.2847998497292055" lon="103.83888107899426">
        <ele>39.66414971929625</ele>
      </trkpt>
      <trkpt lat="1.2848872218077039" lon="103.83888408649017">
        <ele>39.9005897045493</ele>
      </trkpt>
      <trkpt lat="1.2849313443368566" lon="103.83890381233266">
        <ele>39.9005897045493</ele>
      </trkpt>
      <trkpt lat="1.284972915414474" lon="103.83898135285688">
        <ele>39.20348028451482</ele>
      </trkpt>
      <trkpt lat="1.2850092201747239" lon="103.83906362391072">
        <ele>38.42156811460645</ele>
      </trkpt>
      <trkpt lat="1.2850443383719623" lon="103.83914642471393">
        <ele>37.62643290836878</ele>
      </trkpt>
      <trkpt lat="1.2850808455711784" lon="103.83922862504781">
        <ele>36.810760000318595</ele>
      </trkpt>
      <trkpt lat="1.2851181784070669" lon="103.8393104648502">
        <ele>35.9332219939256</ele>
      </trkpt>
      <trkpt lat="1.2851563786983908" lon="103.83939190939086">
        <ele>35.10407656057746</ele>
      </trkpt>
      <trkpt lat="1.2851937269409317" lon="103.83947374230763">
        <ele>34.48500295369207</ele>
      </trkpt>
      <trkpt lat="1.2852325394990252" lon="103.83955487417904">
        <ele>33.97998921089899</ele>
      </trkpt>
      <trkpt lat="1.285278178051778" lon="103.83963242714508">
        <ele>33.266127077759855</ele>
      </trkpt>
      <trkpt lat="1.28532384840919" lon="103.8397099818849">
        <ele>31.79437501162076</ele>
      </trkpt>
      <trkpt lat="1.285369795244823" lon="103.83978737463633">
        <ele>29.67956681011827</ele>
      </trkpt>
      <trkpt lat="1.2854156263481964" lon="103.83986483477038">
        <ele>27.57737114921994</ele>
      </trkpt>
      <trkpt lat="1.2854637382586152" lon="103.83994085773466">
        <ele>26.168350289199775</ele>
      </trkpt>
      <trkpt lat="1.2855171583342315" lon="103.84001335535301">
        <ele>25.441849292788266</ele>
      </trkpt>
      <trkpt lat="1.285571563790828" lon="103.84008510852644">
        <ele>24.95170802977209</ele>
      </trkpt>
      <trkpt lat="1.2856292208442568" lon="103.84015432387464">
        <ele>24.40884002238273</ele>
      </trkpt>
      <trkpt lat="1.2856881631604242" lon="103.84022247190403">
        <ele>23.67579939209743</ele>
      </trkpt>
      <trkpt lat="1.2857610814493683" lon="103.84027541296076">
        <ele>22.94034125974331</ele>
      </trkpt>
      <trkpt lat="1.2857983555235861" lon="103.84029852802298">
        <ele>22.499235234013533</ele>
      </trkpt>
      <trkpt lat="1.2857448719845772" lon="103.84022607126454">
        <ele>22.742034286011442</ele>
      </trkpt>
      <trkpt lat="1.2856826590395443" lon="103.84016096017493">
        <ele>23.282837961401714</ele>
      </trkpt>
      <trkpt lat="1.2856277218744367" lon="103.84008958585464">
        <ele>23.837247803624603</ele>
      </trkpt>
      <trkpt lat="1.2855727923744116" lon="103.84001820495384">
        <ele>24.320425164386815</ele>
      </trkpt>
      <trkpt lat="1.285517862872339" lon="103.83994682405609">
        <ele>24.803527592694635</ele>
      </trkpt>
      <trkpt lat="1.2854629333682184" lon="103.83987544316139">
        <ele>26.030854326939536</ele>
      </trkpt>
      <trkpt lat="1.2854079853662808" lon="103.83980407633416">
        <ele>27.95754077142683</ele>
      </trkpt>
      <trkpt lat="1.285360222404831" lon="103.83972800308753">
        <ele>30.277010987115602</ele>
      </trkpt>
      <trkpt lat="1.285315832432299" lon="103.83964971789722">
        <ele>31.889807431444552</ele>
      </trkpt>
      <trkpt lat="1.2852700168160933" lon="103.8395722610529">
        <ele>32.85925768714702</ele>
      </trkpt>
      <trkpt lat="1.285223111323611" lon="103.83949543746304">
        <ele>33.462432306183466</ele>
      </trkpt>
      <trkpt lat="1.2851805475152607" lon="103.83941626127589">
        <ele>34.20511337168096</ele>
      </trkpt>
      <trkpt lat="1.2851409427888336" lon="103.8393354816723">
        <ele>35.06883789660099</ele>
      </trkpt>
      <trkpt lat="1.2851013380598115" lon="103.83925470207119">
        <ele>36.08311126802436</ele>
      </trkpt>
      <trkpt lat="1.2850617333281948" lon="103.83917392247255">
        <ele>37.097384639447576</ele>
      </trkpt>
      <trkpt lat="1.2850221285939842" lon="103.8390931428764">
        <ele>38.099563872348746</ele>
      </trkpt>
      <trkpt lat="1.2849831211262022" lon="103.83901207777132">
        <ele>39.06710232586597</ele>
      </trkpt>
      <trkpt lat="1.2849443081450358" lon="103.83893091969735">
        <ele>39.69654965557575</ele>
      </trkpt>
      <trkpt lat="1.2849313443368566" lon="103.83890381233266">
        <ele>40.0</ele>
      </trkpt>
    </trkseg>
  </trk>
</gpx>