{
"type": "FeatureCollection",
"name": "point_to_point_10000m_002",
"crs": { "type": "name", "properties": { "name": "urn:ogc:def:crs:OGC:1.3:CRS84" } },
"features": [
{ "type": "Feature", "properties": { "route_id": "point_to_point_10000m_002", "budget_km": 10.0, "mode": "point_to_point", "rank": 2, "distance_m": 5072.7247348427409, "ascent_m": 123.38217625905369, "descent_m": 119.40588132290978, "gain_density_m_per_km": 24.322663402487709, "source_confidence": 0.8666666666666667 }, "geometry": { "type": "LineString", "coordinates": [ [ 103.776174592671779, 1.390427850893411 ], [ 103.776340066954205, 1.390302505591282 ], [ 103.776701670190391, 1.389986790131024 ], [ 103.777044259887404, 1.389651918826917 ], [ 103.777253692249715, 1.389307405583006 ], [ 103.777396568069776, 1.388914993821983 ], [ 103.777501545008278, 1.388235376033481 ], [ 103.777587389847895, 1.387766351533855 ], [ 103.777796900109905, 1.387268672474069 ], [ 103.777920718039383, 1.386943260002795 ], [ 103.777939922560165, 1.386589074538352 ], [ 103.777768836533923, 1.386349664623399 ], [ 103.777293302195758, 1.386263262192326 ], [ 103.777033425897073, 1.386225525030211 ], [ 103.776930486384543, 1.386167964336114 ], [ 103.776730328177578, 1.385995286652288 ], [ 103.776684579975552, 1.385839879689957 ], [ 103.776673147277876, 1.385655695794947 ], [ 103.776724623908294, 1.385356396954499 ], [ 103.776758946283394, 1.384999540374527 ], [ 103.776764670493364, 1.384798088969516 ], [ 103.776730362187266, 1.384562101664859 ], [ 103.776713212786547, 1.384262802075651 ], [ 103.776667465707249, 1.384061348528269 ], [ 103.776501625964841, 1.383704488032437 ], [ 103.776438722967598, 1.383480011679689 ], [ 103.776387256158017, 1.383330359943907 ], [ 103.776227133246351, 1.383048323910794 ], [ 103.776164230152247, 1.38282960292208 ], [ 103.776101328171549, 1.382564837156521 ], [ 103.776084174166883, 1.38246123283068 ], [ 103.7761184903068, 1.382328851090279 ], [ 103.776135651683859, 1.382161933995232 ], [ 103.776180321918176, 1.381886358262287 ], [ 103.776175696597974, 1.381638160946961 ], [ 103.776205943245941, 1.381461053796053 ], [ 103.77642193406173, 1.380834837757329 ], [ 103.776509028694434, 1.380593266207044 ], [ 103.776551719869033, 1.380331210651034 ], [ 103.776611062177921, 1.380158743576059 ], [ 103.776659046892064, 1.380121814128458 ], [ 103.776724748257294, 1.380107140592087 ], [ 103.776844845013002, 1.38015894542187 ], [ 103.776958237171911, 1.380187158852574 ], [ 103.777250887010126, 1.380164711366674 ], [ 103.777545332235547, 1.380101950062548 ], [ 103.777706220651737, 1.379999687493699 ], [ 103.77785864251841, 1.37986617532838 ], [ 103.77798566072704, 1.379735503164485 ], [ 103.77806868922832, 1.379566888286877 ], [ 103.778200185943589, 1.379278147893346 ], [ 103.778256641972561, 1.379102022550743 ], [ 103.778296161486651, 1.378934418632315 ], [ 103.778317436302814, 1.378730282512882 ], [ 103.778344021249978, 1.378623323119776 ], [ 103.778388957376393, 1.378532876931017 ], [ 103.778374581504792, 1.378437003181691 ], [ 103.778302691939714, 1.378207265069768 ], [ 103.778272138397966, 1.378140333298432 ], [ 103.778169690030225, 1.378073399852415 ], [ 103.778063648210193, 1.377970288148711 ], [ 103.778034891490179, 1.377917828046094 ], [ 103.777804834987663, 1.377657334234166 ], [ 103.777621507457539, 1.377532512349515 ], [ 103.777528045466212, 1.377478241990456 ], [ 103.777402233386923, 1.37737151143333 ], [ 103.777371679585102, 1.377317242553237 ], [ 103.777359099246922, 1.377253929555293 ], [ 103.777346521441956, 1.377082079336158 ], [ 103.777323157462135, 1.37701333899593 ], [ 103.777190124729557, 1.376857806978548 ], [ 103.777323157462135, 1.37701333899593 ], [ 103.777346521441956, 1.377082079336158 ], [ 103.777359099246922, 1.377253929555293 ], [ 103.777371679585102, 1.377317242553237 ], [ 103.777402233386923, 1.37737151143333 ], [ 103.777528045466212, 1.377478241990456 ], [ 103.777621507457539, 1.377532512349515 ], [ 103.777804834987663, 1.377657334234166 ], [ 103.778034891490179, 1.377917828046094 ], [ 103.778063648210193, 1.377970288148711 ], [ 103.778169690030225, 1.378073399852415 ], [ 103.778272138397966, 1.378140333298432 ], [ 103.778302691939714, 1.378207265069768 ], [ 103.778374581504792, 1.378437003181691 ], [ 103.778388957376393, 1.378532876931017 ], [ 103.778344021249978, 1.378623323119776 ], [ 103.778317436302814, 1.378730282512882 ], [ 103.778296161486651, 1.378934418632315 ], [ 103.778256641972561, 1.379102022550743 ], [ 103.778200185943589, 1.379278147893346 ], [ 103.77806868922832, 1.379566888286877 ], [ 103.77798566072704, 1.379735503164485 ], [ 103.77785864251841, 1.37986617532838 ], [ 103.777706220651737, 1.379999687493699 ], [ 103.777545332235547, 1.380101950062548 ], [ 103.777250887010126, 1.380164711366674 ], [ 103.776958237171911, 1.380187158852574 ], [ 103.776844845013002, 1.38015894542187 ], [ 103.776724748257294, 1.380107140592087 ], [ 103.776659046892064, 1.380121814128458 ], [ 103.776611062177921, 1.380158743576059 ], [ 103.776551719869033, 1.380331210651034 ], [ 103.776509028694434, 1.380593266207044 ], [ 103.77642193406173, 1.380834837757329 ], [ 103.776205943245941, 1.381461053796053 ], [ 103.776175696597974, 1.381638160946961 ], [ 103.776180321918176, 1.381886358262287 ], [ 103.776135651683859, 1.382161933995232 ], [ 103.7761184903068, 1.382328851090279 ], [ 103.776084174166883, 1.38246123283068 ], [ 103.776101328171549, 1.382564837156521 ], [ 103.776164230152247, 1.38282960292208 ], [ 103.776227133246351, 1.383048323910794 ], [ 103.776387256158017, 1.383330359943907 ], [ 103.776438722967598, 1.383480011679689 ], [ 103.776501625964841, 1.383704488032437 ], [ 103.776667465707249, 1.384061348528269 ], [ 103.776713212786547, 1.384262802075651 ], [ 103.776730362187266, 1.384562101664859 ], [ 103.776764670493364, 1.384798088969516 ], [ 103.776758946283394, 1.384999540374527 ], [ 103.776724623908294, 1.385356396954499 ], [ 103.776673147277876, 1.385655695794947 ], [ 103.776684579975552, 1.385839879689957 ], [ 103.776730328177578, 1.385995286652288 ], [ 103.776930486384543, 1.386167964336114 ], [ 103.777033425897073, 1.386225525030211 ], [ 103.777293302195758, 1.386263262192326 ], [ 103.777768836533923, 1.386349664623399 ], [ 103.777939922560165, 1.386589074538352 ], [ 103.777920718039383, 1.386943260002795 ], [ 103.777796900109905, 1.387268672474069 ], [ 103.777587389847895, 1.387766351533855 ], [ 103.777501545008278, 1.388235376033481 ], [ 103.777396568069776, 1.388914993821983 ], [ 103.777253692249715, 1.389307405583006 ], [ 103.777044259887404, 1.389651918826917 ], [ 103.776701670190391, 1.389986790131024 ], [ 103.776340066954205, 1.390302505591282 ], [ 103.776174592671779, 1.390427850893411 ], [ 103.776131, 1.3904714 ], [ 103.7760305, 1.3905103 ], [ 103.7759527, 1.3905425 ], [ 103.7758776, 1.3905499 ], [ 103.7756389, 1.3904936 ], [ 103.77545910000002, 1.3903783 ], [ 103.7753116, 1.3901477 ], [ 103.775207, 1.3900538 ], [ 103.7751936, 1.3899546 ], [ 103.7752902, 1.3898956 ], [ 103.7754484, 1.3898071 ], [ 103.775684500000011, 1.3897803 ], [ 103.7759285, 1.3897723 ], [ 103.7761458, 1.3897347 ], [ 103.7763738, 1.3896302 ], [ 103.776548100000014, 1.3895363 ], [ 103.77676, 1.38948 ], [ 103.7768888, 1.3893406 ], [ 103.777001400000017, 1.3891716 ], [ 103.7770604, 1.3889652 ], [ 103.777039, 1.3887855 ], [ 103.7769478, 1.3886353 ], [ 103.7768056, 1.3885469 ], [ 103.7765884, 1.3885335 ], [ 103.7763952, 1.3884906 ], [ 103.7762075, 1.3884906 ], [ 103.776127, 1.388445 ], [ 103.7761994, 1.3883458 ], [ 103.7763684, 1.3882841 ], [ 103.7765186, 1.388217 ], [ 103.776701, 1.38815 ], [ 103.7768351, 1.3881929 ], [ 103.7768566, 1.3883163 ], [ 103.7770282, 1.3883592 ], [ 103.777199900000014, 1.3883082 ], [ 103.7772696, 1.3881956 ], [ 103.7772991, 1.3879891 ], [ 103.7773447, 1.3878068 ], [ 103.7773742, 1.3876432 ], [ 103.7774172, 1.3874421 ], [ 103.777452, 1.387308 ], [ 103.7775379, 1.3870882 ], [ 103.777613, 1.3868804 ], [ 103.7775057, 1.3867262 ], [ 103.777326, 1.3866806 ], [ 103.7771463, 1.3866725 ], [ 103.7770577, 1.3867664 ], [ 103.7770577, 1.3868871 ], [ 103.7769639, 1.3870077 ], [ 103.7768351, 1.3870265 ], [ 103.7766688, 1.3870238 ], [ 103.7765347, 1.3870131 ], [ 103.7764382, 1.3869648 ], [ 103.776309400000017, 1.3868871 ], [ 103.7761753, 1.3868334 ], [ 103.7760492, 1.3867154 ], [ 103.7759446, 1.3866162 ], [ 103.7758668, 1.3864956 ], [ 103.7757435, 1.3862971 ], [ 103.7757113, 1.3861872 ], [ 103.7758829, 1.3861711 ], [ 103.7760439, 1.3861711 ], [ 103.7761592, 1.386147 ], [ 103.7762263, 1.3860558 ], [ 103.7762477, 1.3858869 ], [ 103.7762289, 1.3857555 ], [ 103.7762343, 1.3855866 ], [ 103.7762826, 1.3854391 ], [ 103.7761833, 1.3854498 ], [ 103.7760626, 1.3854686 ], [ 103.7759446, 1.3853774 ], [ 103.7759044, 1.3852728 ], [ 103.7759473, 1.3851495 ], [ 103.776031397614787, 1.385106028796945 ] ] } }
]
}
