<?xml version="1.0" encoding="UTF-8"?>
<gpx xmlns="http://www.topografix.com/GPX/1/1" xmlns:xsi="http://www.w3.org/2001/XMLSchema-instance" xsi:schemaLocation="http://www.topografix.com/GPX/1/1 http://www.topografix.com/GPX/1/1/gpx.xsd" version="1.1" creator="gpx.py -- https://github.com/tkrajina/gpxpy">
  <trk>
    <name>point_to_point_10000m_003</name>
    <trkseg>
      <trkpt lat="1.345619464370859" lon="103.83659149908173">
        <ele>20.0</ele>
      </trkpt>
      <trkpt lat="1.3457084048396577" lon="103.83657868513377">
        <ele>20.0</ele>
      </trkpt>
      <trkpt lat="1.3457679248070358" lon="103.83651103294704">
        <ele>20.0</ele>
      </trkpt>
      <trkpt lat="1.3458241633241426" lon="103.83644071359548">
        <ele>20.0</ele>
      </trkpt>
      <trkpt lat="1.3458755723328946" lon="103.8363670649704">
        <ele>20.0</ele>
      </trkpt>
      <trkpt lat="1.3459187216754533" lon="103.83628809611967">
        <ele>20.0</ele>
      </trkpt>
      <trkpt lat="1.3459503428625936" lon="103.83620452832356">
        <ele>20.0</ele>
      </trkpt>
      <trkpt lat="1.3459741365530415" lon="103.83611783789222">
        <ele>20.0</ele>
      </trkpt>
      <trkpt lat="1.346006367152514" lon="103.83603398176086">
        <ele>20.0</ele>
      </trkpt>
      <trkpt lat="1.3460404030060609" lon="103.83595073208645">
        <ele>20.0</ele>
      </trkpt>
      <trkpt lat="1.3460740322888154" lon="103.83586732636181">
        <ele>20.0</ele>
      </trkpt>
      <trkpt lat="1.3461051633486185" lon="103.83578296177413">
        <ele>20.0</ele>
      </trkpt>
      <trkpt lat="1.3461362944054809" lon="103.8356985971843">
        <ele>20.0</ele>
      </trkpt>
      <trkpt lat="1.3461807344131689" lon="103.83562108075687">
        <ele>20.0</ele>
      </trkpt>
      <trkpt lat="1.3462321170795115" lon="103.83554713669483">
        <ele>20.0</ele>
      </trkpt>
      <trkpt lat="1.3462834997435809" lon="103.83547319262968">
        <ele>20.0</ele>
      </trkpt>
      <trkpt lat="1.3463348824053767" lon="103.83539924856143">
        <ele>20.0</ele>
      </trkpt>
      <trkpt lat="1.3463902346712746" lon="103.8353282655024">
        <ele>20.0</ele>
      </trkpt>
      <trkpt lat="1.346447358477658" lon="103.8352586038707">
        <ele>20.0</ele>
      </trkpt>
      <trkpt lat="1.3465044822820158" lon="103.83518894223576">
        <ele>20.0</ele>
      </trkpt>
      <trkpt lat="1.3465616060843486" lon="103.83511928059758">
        <ele>20.0</ele>
      </trkpt>
      <trkpt lat="1.3466187298846555" lon="103.83504961895616">
        <ele>20.0</ele>
      </trkpt>
      <trkpt lat="1.3466765310580733" lon="103.83498052561707">
        <ele>20.0</ele>
      </trkpt>
      <trkpt lat="1.346736081400215" lon="103.83491289979749">
        <ele>20.0</ele>
      </trkpt>
      <trkpt lat="1.346795631740443" lon="103.83484527397464">
        <ele>20.0</ele>
      </trkpt>
      <trkpt lat="1.3468551820787578" lon="103.8347776481485">
        <ele>20.0</ele>
      </trkpt>
      <trkpt lat="1.3469265632173777" lon="103.83472254295812">
        <ele>20.0</ele>
      </trkpt>
      <trkpt lat="1.347008406397194" lon="103.83468706031583">
        <ele>20.0</ele>
      </trkpt>
      <trkpt lat="1.3470945848714553" lon="103.83465981325826">
        <ele>20.0</ele>
      </trkpt>
      <trkpt lat="1.3471703675942457" lon="103.83461136065846">
        <ele>20.0</ele>
      </trkpt>
      <trkpt lat="1.3472450867609975" lon="103.83456073858682">
        <ele>20.0</ele>
      </trkpt>
      <trkpt lat="1.3473021388598871" lon="103.83449190938511">
        <ele>20.0</ele>
      </trkpt>
      <trkpt lat="1.347355729886059" lon="103.83441953527755">
        <ele>20.0</ele>
      </trkpt>
      <trkpt lat="1.34739756006271" lon="103.83433986875329">
        <ele>20.0</ele>
      </trkpt>
      <trkpt lat="1.3474393902367263" lon="103.83426020222632">
        <ele>20.0</ele>
      </trkpt>
      <trkpt lat="1.347501836635722" lon="103.83419526185091">
        <ele>20.0</ele>
      </trkpt>
      <trkpt lat="1.34756451663135" lon="103.83413048833133">
        <ele>20.0</ele>
      </trkpt>
      <trkpt lat="1.3476280418858753" lon="103.83406658274768">
        <ele>20.0</ele>
      </trkpt>
      <trkpt lat="1.3476952606328463" lon="103.83400646975224">
        <ele>20.0</ele>
      </trkpt>
      <trkpt lat="1.347762479378288" lon="103.83394635675353">
        <ele>20.0</ele>
      </trkpt>
      <trkpt lat="1.3478286954658605" lon="103.83388541500962">
        <ele>20.0</ele>
      </trkpt>
      <trkpt lat="1.3478759514196865" lon="103.83380880183556">
        <ele>20.0</ele>
      </trkpt>
      <trkpt lat="1.3479232073710696" lon="103.83373218865854">
        <ele>20.0</ele>
      </trkpt>
      <trkpt lat="1.3479734087772375" lon="103.83365775509235">
        <ele>20.0</ele>
      </trkpt>
      <trkpt lat="1.3480337499508623" lon="103.83359082486781">
        <ele>20.0</ele>
      </trkpt>
      <trkpt lat="1.348094091122607" lon="103.83352389463998">
        <ele>20.0</ele>
      </trkpt>
      <trkpt lat="1.3481544322924708" lon="103.83345696440887">
        <ele>20.0</ele>
      </trkpt>
      <trkpt lat="1.348214773460453" lon="103.83339003417444">
        <ele>20.0</ele>
      </trkpt>
      <trkpt lat="1.3482780928279834" lon="103.83332643551107">
        <ele>20.0</ele>
      </trkpt>
      <trkpt lat="1.3483521053583178" lon="103.83327479878609">
        <ele>20.0</ele>
      </trkpt>
      <trkpt lat="1.3484261178875045" lon="103.83322316205799">
        <ele>20.0</ele>
      </trkpt>
      <trkpt lat="1.3485001304155442" lon="103.83317152532678">
        <ele>20.0</ele>
      </trkpt>
      <trkpt lat="1.3485741429424356" lon="103.83311988859244">
        <ele>20.0</ele>
      </trkpt>
      <trkpt lat="1.3486525940688152" lon="103.83307544449812">
        <ele>20.0</ele>
      </trkpt>
      <trkpt lat="1.3487324796629725" lon="103.8330333249221">
        <ele>20.0</ele>
      </trkpt>
      <trkpt lat="1.3488123652563426" lon="103.83299120534333">
        <ele>20.0</ele>
      </trkpt>
      <trkpt lat="1.3488922508489258" lon="103.83294908576183">
        <ele>20.0</ele>
      </trkpt>
      <trkpt lat="1.3489697118631947" lon="103.83290299989733">
        <ele>20.0</ele>
      </trkpt>
      <trkpt lat="1.3490441586082205" lon="103.83285198309558">
        <ele>20.0</ele>
      </trkpt>
      <trkpt lat="1.3491186053521227" lon="103.8328009662907">
        <ele>20.0</ele>
      </trkpt>
      <trkpt lat="1.3491740911467918" lon="103.8327319992413">
        <ele>20.0</ele>
      </trkpt>
      <trkpt lat="1.3492217813086989" lon="103.83265565210172">
        <ele>20.0</ele>
      </trkpt>
      <trkpt lat="1.3492684470450658" lon="103.83257882036747">
        <ele>20.0</ele>
      </trkpt>
      <trkpt lat="1.3492980276991975" lon="103.83249390672827">
        <ele>20.0</ele>
      </trkpt>
      <trkpt lat="1.3493276083503385" lon="103.83240899308703">
        <ele>20.0</ele>
      </trkpt>
      <trkpt lat="1.3493501621358042" lon="103.8323220029154">
        <ele>20.0</ele>
      </trkpt>
      <trkpt lat="1.3493720943639038" lon="103.83223482906492">
        <ele>20.0</ele>
      </trkpt>
      <trkpt lat="1.349394026588855" lon="103.83214765521288">
        <ele>20.0</ele>
      </trkpt>
      <trkpt lat="1.3494384277676608" lon="103.83207093693932">
        <ele>20.0</ele>
      </trkpt>
      <trkpt lat="1.349491783985078" lon="103.831998385752">
        <ele>20.0</ele>
      </trkpt>
      <trkpt lat="1.3495479079316945" lon="103.83192828282702">
        <ele>20.0</ele>
      </trkpt>
      <trkpt lat="1.3496142643412252" lon="103.83186723127938">
        <ele>20.0</ele>
      </trkpt>
      <trkpt lat="1.3496806207491734" lon="103.83180617972842">
        <ele>20.0</ele>
      </trkpt>
      <trkpt lat="1.3497503172829588" lon="103.83174938683366">
        <ele>20.0</ele>
      </trkpt>
      <trkpt lat="1.3498261139335883" lon="103.83170037158092">
        <ele>20.0</ele>
      </trkpt>
      <trkpt lat="1.3499019105831729" lon="103.83165135632512">
        <ele>20.0</ele>
      </trkpt>
      <trkpt lat="1.349977707231712" lon="103.83160234106631">
        <ele>20.0</ele>
      </trkpt>
      <trkpt lat="1.3500535038792056" lon="103.83155332580446">
        <ele>20.0</ele>
      </trkpt>
      <trkpt lat="1.3501293005256532" lon="103.83150431053956">
        <ele>20.0</ele>
      </trkpt>
      <trkpt lat="1.3502040882362816" lon="103.83145381831658">
        <ele>20.0</ele>
      </trkpt>
      <trkpt lat="1.3502779200751813" lon="103.83140192681479">
        <ele>20.0</ele>
      </trkpt>
      <trkpt lat="1.3503517519129171" lon="103.83135003530988">
        <ele>20.0</ele>
      </trkpt>
      <trkpt lat="1.350425583749489" lon="103.83129814380183">
        <ele>20.0</ele>
      </trkpt>
      <trkpt lat="1.3505001358493993" lon="103.83124728898979">
        <ele>20.0</ele>
      </trkpt>
      <trkpt lat="1.3505751455083619" lon="103.83119709275527">
        <ele>20.0</ele>
      </trkpt>
      <trkpt lat="1.35065015516623" lon="103.83114689651767">
        <ele>20.0</ele>
      </trkpt>
      <trkpt lat="1.350725164823003" lon="103.83109670027697">
        <ele>20.0</ele>
      </trkpt>
      <trkpt lat="1.3508000933460067" lon="103.8310463931007">
        <ele>20.0</ele>
      </trkpt>
      <trkpt lat="1.3508713103625714" lon="103.83099101119016">
        <ele>20.0</ele>
      </trkpt>
      <trkpt lat="1.3509425273778182" lon="103.83093562927638">
        <ele>20.0</ele>
      </trkpt>
      <trkpt lat="1.3510137443917474" lon="103.83088024735937">
        <ele>20.0</ele>
      </trkpt>
      <trkpt lat="1.351084961404358" lon="103.83082486543914">
        <ele>20.000000000000004</ele>
      </trkpt>
      <trkpt lat="1.3511498514522498" lon="103.83076298110932">
        <ele>20.0</ele>
      </trkpt>
      <trkpt lat="1.3512079644062795" lon="103.83069413175947">
        <ele>20.0</ele>
      </trkpt>
      <trkpt lat="1.3512660773583116" lon="103.83062528240633">
        <ele>20.0</ele>
      </trkpt>
      <trkpt lat="1.3513223815996562" lon="103.83055503682579">
        <ele>20.0</ele>
      </trkpt>
      <trkpt lat="1.3513751608899252" lon="103.83048207017433">
        <ele>20.0</ele>
      </trkpt>
      <trkpt lat="1.351427940177958" lon="103.83040910351971">
        <ele>20.0</ele>
      </trkpt>
      <trkpt lat="1.351479994332328" lon="103.83033563804611">
        <ele>20.0</ele>
      </trkpt>
      <trkpt lat="1.3515301568053704" lon="103.83026087128876">
        <ele>20.0</ele>
      </trkpt>
      <trkpt lat="1.351580319276069" lon="103.83018610452834">
        <ele>20.0</ele>
      </trkpt>
      <trkpt lat="1.3516304817444231" lon="103.83011133776485">
        <ele>20.0</ele>
      </trkpt>
      <trkpt lat="1.351665471342013" lon="103.83002864137707">
        <ele>20.0</ele>
      </trkpt>
      <trkpt lat="1.351681642382737" lon="103.82994572461655">
        <ele>20.0</ele>
      </trkpt>
      <trkpt lat="1.3516431356826821" lon="103.82986442049173">
        <ele>20.0</ele>
      </trkpt>
      <trkpt lat="1.3515707651713775" lon="103.82981676205931">
        <ele>20.0</ele>
      </trkpt>
      <trkpt lat="1.351486187908219" lon="103.82979192753234">
        <ele>20.0</ele>
      </trkpt>
      <trkpt lat="1.3513958183272885" lon="103.82979538214768">
        <ele>20.0</ele>
      </trkpt>
      <trkpt lat="1.3513054356751142" lon="103.8297971867169">
        <ele>20.0</ele>
      </trkpt>
      <trkpt lat="1.351215022560832" lon="103.82979514589547">
        <ele>20.0</ele>
      </trkpt>
      <trkpt lat="1.3511246094464802" lon="103.82979310507416">
        <ele>20.0</ele>
      </trkpt>
      <trkpt lat="1.3510341963320602" lon="103.82979106425302">
        <ele>20.0</ele>
      </trkpt>
      <trkpt lat="1.3509469211751453" lon="103.82976875604025">
        <ele>20.0</ele>
      </trkpt>
      <trkpt lat="1.3508600710656822" lon="103.82974370253733">
        <ele>20.0</ele>
      </trkpt>
      <trkpt lat="1.3507775446296988" lon="103.82970941126578">
        <ele>20.0</ele>
      </trkpt>
      <trkpt lat="1.3507022978290952" lon="103.82965956664785">
        <ele>20.0</ele>
      </trkpt>
      <trkpt lat="1.3506270510274245" lon="103.82960972203297">
        <ele>20.0</ele>
      </trkpt>
      <trkpt lat="1.3505634787263687" lon="103.82954752249995">
        <ele>20.0</ele>
      </trkpt>
      <trkpt lat="1.3505086714824512" lon="103.82947604706122">
        <ele>20.0</ele>
      </trkpt>
      <trkpt lat="1.3504787490806232" lon="103.82939515419768">
        <ele>20.0</ele>
      </trkpt>
      <trkpt lat="1.3504718124671578" lon="103.8293055625854">
        <ele>20.0</ele>
      </trkpt>
      <trkpt lat="1.3504774958132857" lon="103.82921679156938">
        <ele>20.0</ele>
      </trkpt>
      <trkpt lat="1.350496125006438" lon="103.8291288623386">
        <ele>20.0</ele>
      </trkpt>
      <trkpt lat="1.3505670063228432" lon="103.82907357450853">
        <ele>20.0</ele>
      </trkpt>
      <trkpt lat="1.350644725079736" lon="103.8290281808405">
        <ele>20.0</ele>
      </trkpt>
      <trkpt lat="1.3507249032650195" lon="103.82898661370223">
        <ele>20.0</ele>
      </trkpt>
      <trkpt lat="1.3508098624796703" lon="103.82895702477533">
        <ele>20.0</ele>
      </trkpt>
      <trkpt lat="1.3508969205403296" lon="103.8289326942178">
        <ele>20.0</ele>
      </trkpt>
      <trkpt lat="1.3509841979199377" lon="103.82890931181495">
        <ele>20.0</ele>
      </trkpt>
      <trkpt lat="1.3510732116140363" lon="103.82889343581017">
        <ele>20.0</ele>
      </trkpt>
      <trkpt lat="1.3511622253079614" lon="103.82887755980421">
        <ele>20.0</ele>
      </trkpt>
      <trkpt lat="1.351251244058748" lon="103.82886171259067">
        <ele>20.0</ele>
      </trkpt>
      <trkpt lat="1.351340408548437" lon="103.82884669517922">
        <ele>20.0</ele>
      </trkpt>
      <trkpt lat="1.3514295730379624" lon="103.8288316777667">
        <ele>20.0</ele>
      </trkpt>
      <trkpt lat="1.3515187375273254" lon="103.82881666035306">
        <ele>20.0</ele>
      </trkpt>
      <trkpt lat="1.3516079020165255" lon="103.82880164293832">
        <ele>20.0</ele>
      </trkpt>
      <trkpt lat="1.3516966315550476" lon="103.82878448828495">
        <ele>20.0</ele>
      </trkpt>
      <trkpt lat="1.3517846634294735" lon="103.82876390548533">
        <ele>20.0</ele>
      </trkpt>
      <trkpt lat="1.351872695303655" lon="103.82874332268419">
        <ele>20.0</ele>
      </trkpt>
      <trkpt lat="1.3519547107078562" lon="103.82870728733229">
        <ele>20.0</ele>
      </trkpt>
      <trkpt lat="1.352032208213832" lon="103.82866180556788">
        <ele>20.0</ele>
      </trkpt>
      <trkpt lat="1.3520891076514663" lon="103.82859196273672">
        <ele>20.0</ele>
      </trkpt>
      <trkpt lat="1.3521460070870406" lon="103.8285221199023">
        <ele>20.0</ele>
      </trkpt>
      <trkpt lat="1.3521889797800684" lon="103.82844310799335">
        <ele>20.0</ele>
      </trkpt>
      <trkpt lat="1.352231535586308" lon="103.8283638216139">
        <ele>20.0</ele>
      </trkpt>
      <trkpt lat="1.3522740913899163" lon="103.8282845352317">
        <ele>20.0</ele>
      </trkpt>
      <trkpt lat="1.3523167679209684" lon="103.82820532878372">
        <ele>20.0</ele>
      </trkpt>
      <trkpt lat="1.352374033106581" lon="103.828135781673">
        <ele>20.0</ele>
      </trkpt>
      <trkpt lat="1.3524312982901487" lon="103.82806623455902">
        <ele>20.0</ele>
      </trkpt>
      <trkpt lat="1.3524885634716706" lon="103.82799668744177">
        <ele>20.0</ele>
      </trkpt>
      <trkpt lat="1.3525470410869096" lon="103.82792815145584">
        <ele>20.0</ele>
      </trkpt>
      <trkpt lat="1.352606050146236" lon="103.82786005867649">
        <ele>20.0</ele>
      </trkpt>
      <trkpt lat="1.3526650592035976" lon="103.82779196589385">
        <ele>20.0</ele>
      </trkpt>
      <trkpt lat="1.352724057437225" lon="103.82772386421577">
        <ele>20.0</ele>
      </trkpt>
      <trkpt lat="1.352780295522399" lon="103.8276534945432">
        <ele>20.0</ele>
      </trkpt>
      <trkpt lat="1.3528365336054795" lon="103.82758312486739">
        <ele>20.0</ele>
      </trkpt>
      <trkpt lat="1.3528927716864665" lon="103.82751275518834">
        <ele>20.0</ele>
      </trkpt>
      <trkpt lat="1.352948557041631" lon="103.82744203201297">
        <ele>20.0</ele>
      </trkpt>
      <trkpt lat="1.353004077015395" lon="103.8273711016225">
        <ele>20.0</ele>
      </trkpt>
      <trkpt lat="1.3530595969870318" lon="103.82730017122881">
        <ele>20.0</ele>
      </trkpt>
      <trkpt lat="1.3531123855916525" lon="103.82722787907143">
        <ele>20.0</ele>
      </trkpt>
      <trkpt lat="1.3531364327492237" lon="103.82714125745935">
        <ele>20.0</ele>
      </trkpt>
      <trkpt lat="1.3531604799036698" lon="103.82705463584558">
        <ele>20.0</ele>
      </trkpt>
      <trkpt lat="1.3531553688306512" lon="103.82696650651054">
        <ele>20.0</ele>
      </trkpt>
      <trkpt lat="1.353140501194243" lon="103.82687787268198">
        <ele>20.0</ele>
      </trkpt>
      <trkpt lat="1.3531256335545792" lon="103.82678923885452">
        <ele>20.0</ele>
      </trkpt>
      <trkpt lat="1.3531097121295619" lon="103.82670078650543">
        <ele>20.0</ele>
      </trkpt>
      <trkpt lat="1.3530936908557059" lon="103.82661235135245">
        <ele>20.0</ele>
      </trkpt>
      <trkpt lat="1.3530776695786093" lon="103.82652391620064">
        <ele>20.0</ele>
      </trkpt>
      <trkpt lat="1.3530616482982727" lon="103.82643548105001">
        <ele>20.0</ele>
      </trkpt>
      <trkpt lat="1.3530151233183227" lon="103.82635866874682">
        <ele>20.0</ele>
      </trkpt>
      <trkpt lat="1.3529675731831283" lon="103.82628223577198">
        <ele>20.0</ele>
      </trkpt>
      <trkpt lat="1.3529210449658486" lon="103.8262051839708">
        <ele>20.0</ele>
      </trkpt>
      <trkpt lat="1.3528794733119578" lon="103.82612597666807">
        <ele>20.0</ele>
      </trkpt>
      <trkpt lat="1.3528540702608214" lon="103.82603973798676">
        <ele>20.0</ele>
      </trkpt>
      <trkpt lat="1.3528286672066052" lon="103.82595349930729">
        <ele>20.0</ele>
      </trkpt>
      <trkpt lat="1.3528032641493093" lon="103.8258672606296">
        <ele>20.0</ele>
      </trkpt>
      <trkpt lat="1.3527776855623819" lon="103.82578107320626">
        <ele>20.0</ele>
      </trkpt>
      <trkpt lat="1.3527520907144643" lon="103.82569489053193">
        <ele>20.0</ele>
      </trkpt>
      <trkpt lat="1.3527264958634715" lon="103.82560870785943">
        <ele>20.0</ele>
      </trkpt>
      <trkpt lat="1.3527009010094042" lon="103.82552252518876">
        <ele>20.0</ele>
      </trkpt>
      <trkpt lat="1.3526753061522616" lon="103.8254363425199">
        <ele>20.0</ele>
      </trkpt>
      <trkpt lat="1.3526573615739903" lon="103.82534828226729">
        <ele>20.203377602975493</ele>
      </trkpt>
      <trkpt lat="1.3526396258938433" lon="103.82526017074595">
        <ele>20.90430839344454</ele>
      </trkpt>
      <trkpt lat="1.3526062792912952" lon="103.82517776049578">
        <ele>22.075796297959005</ele>
      </trkpt>
      <trkpt lat="1.352562360422011" lon="103.82509921134881">
        <ele>23.514158253542774</ele>
      </trkpt>
      <trkpt lat="1.3525183595531765" lon="103.82502070774763">
        <ele>24.92396791059217</ele>
      </trkpt>
      <trkpt lat="1.3524740229292356" lon="103.82494239063372">
        <ele>26.33222134255533</ele>
      </trkpt>
      <trkpt lat="1.3524296863027538" lon="103.82486407352269">
        <ele>27.75960626447294</ele>
      </trkpt>
      <trkpt lat="1.3523926738649101" lon="103.82478280882069">
        <ele>28.725579191389187</ele>
      </trkpt>
      <trkpt lat="1.3523696590785401" lon="103.82469591081623">
        <ele>29.250946350474205</ele>
      </trkpt>
      <trkpt lat="1.3523595534275825" lon="103.82460682987477">
        <ele>29.329004765507324</ele>
      </trkpt>
      <trkpt lat="1.352352340895794" lon="103.82451725970621">
        <ele>29.68534108858596</ele>
      </trkpt>
      <trkpt lat="1.3523451283606829" lon="103.8244276895382">
        <ele>30.308237077652237</ele>
      </trkpt>
      <trkpt lat="1.3523379158222482" lon="103.82433811937072">
        <ele>31.175049236901305</ele>
      </trkpt>
      <trkpt lat="1.3523283704561087" lon="103.82424876755785">
        <ele>32.04119966511625</ele>
      </trkpt>
      <trkpt lat="1.352318620670417" lon="103.82415943487922">
        <ele>32.89760037718494</ele>
      </trkpt>
      <trkpt lat="1.352308870881421" lon="103.82407010220132">
        <ele>33.890663563703946</ele>
      </trkpt>
      <trkpt lat="1.3522991210891209" lon="103.82398076952414">
        <ele>35.037914885434326</ele>
      </trkpt>
      <trkpt lat="1.3522893712935167" lon="103.8238914368477">
        <ele>36.33935434237597</ele>
      </trkpt>
      <trkpt lat="1.3522796214946082" lon="103.823802104172">
        <ele>37.63569245564366</ele>
      </trkpt>
      <trkpt lat="1.3522620235322111" lon="103.82371444020804">
        <ele>38.855907674851665</ele>
      </trkpt>
      <trkpt lat="1.3522341238328501" lon="103.82362896664654">
        <ele>39.63672968787909</ele>
      </trkpt>
      <trkpt lat="1.3522062241304686" lon="103.823543493087">
        <ele>40.0</ele>
      </trkpt>
      <trkpt lat="1.3521797967717042" lon="103.82345757838833">
        <ele>40.0</ele>
      </trkpt>
      <trkpt lat="1.3521554877733282" lon="103.82337102899234">
        <ele>40.0</ele>
      </trkpt>
      <trkpt lat="1.3521311787718548" lon="103.82328447959809">
        <ele>40.0</ele>
      </trkpt>
      <trkpt lat="1.3521068697672853" lon="103.82319793020558">
        <ele>40.0</ele>
      </trkpt>
      <trkpt lat="1.3520985615301186" lon="103.82310854484815">
        <ele>40.0</ele>
      </trkpt>
      <trkpt lat="1.3520912522894124" lon="103.82301898242922">
        <ele>40.0</ele>
      </trkpt>
      <trkpt lat="1.3520834182674784" lon="103.8229294894673">
        <ele>40.0</ele>
      </trkpt>
      <trkpt lat="1.3520668763739312" lon="103.8228411490275">
        <ele>40.0</ele>
      </trkpt>
      <trkpt lat="1.3520503344771557" lon="103.8227528085889">
        <ele>40.0</ele>
      </trkpt>
      <trkpt lat="1.352033792577153" lon="103.82266446815153">
        <ele>40.0</ele>
      </trkpt>
      <trkpt lat="1.3520133135155918" lon="103.82257699353558">
        <ele>40.0</ele>
      </trkpt>
      <trkpt lat="1.3519907912414761" lon="103.82248996824319">
        <ele>40.0</ele>
      </trkpt>
      <trkpt lat="1.3519682689642305" lon="103.82240294295245">
        <ele>40.0</ele>
      </trkpt>
      <trkpt lat="1.351945746683855" lon="103.82231591766335">
        <ele>40.0</ele>
      </trkpt>
      <trkpt lat="1.3519232244003492" lon="103.82222889237585">
        <ele>40.0</ele>
      </trkpt>
      <trkpt lat="1.3519015641315457" lon="103.82214174835491">
        <ele>40.0</ele>
      </trkpt>
      <trkpt lat="1.3518994105637983" lon="103.82205191746456">
        <ele>40.0</ele>
      </trkpt>
      <trkpt lat="1.3518972569927075" lon="103.82196208657442">
        <ele>40.0</ele>
      </trkpt>
      <trkpt lat="1.3518951034182742" lon="103.82187225568447">
        <ele>40.0</ele>
      </trkpt>
      <trkpt lat="1.3518929498404977" lon="103.82178242479469">
        <ele>40.0</ele>
      </trkpt>
      <trkpt lat="1.3518907962593787" lon="103.82169259390511">
        <ele>40.0</ele>
      </trkpt>
      <trkpt lat="1.3518886426749164" lon="103.8216027630157">
        <ele>40.0</ele>
      </trkpt>
      <trkpt lat="1.351896419049307" lon="103.82151375958983">
        <ele>40.0</ele>
      </trkpt>
      <trkpt lat="1.351913601755319" lon="103.82142553999256">
        <ele>40.0</ele>
      </trkpt>
      <trkpt lat="1.3519324481593222" lon="103.82133793343446">
        <ele>40.0</ele>
      </trkpt>
      <trkpt lat="1.3519773143738685" lon="103.82125991465128">
        <ele>40.0</ele>
      </trkpt>
      <trkpt lat="1.3520202594363764" lon="103.82118096507557">
        <ele>40.0</ele>
      </trkpt>
      <trkpt lat="1.3520544988584562" lon="103.82109779764876">
        <ele>40.0</ele>
      </trkpt>
      <trkpt lat="1.3520838563154098" lon="103.82101311129944">
        <ele>40.0</ele>
      </trkpt>
      <trkpt lat="1.3521034726801708" lon="103.82092539421285">
        <ele>40.0</ele>
      </trkpt>
      <trkpt lat="1.352099161561612" lon="103.82083598793882">
        <ele>40.0</ele>
      </trkpt>
      <trkpt lat="1.352092224630368" lon="103.82074639629343">
        <ele>40.0</ele>
      </trkpt>
      <trkpt lat="1.352121480088545" lon="103.82066249333985">
        <ele>40.0</ele>
      </trkpt>
      <trkpt lat="1.3521801270421903" lon="103.82060862694688">
        <ele>40.0</ele>
      </trkpt>
      <trkpt lat="1.3522688068231326" lon="103.82059100245368">
        <ele>40.0</ele>
      </trkpt>
      <trkpt lat="1.352357624053897" lon="103.82060305158464">
        <ele>40.570250799099234</ele>
      </trkpt>
      <trkpt lat="1.3524467744458948" lon="103.820617071472">
        <ele>41.825921887360856</ele>
      </trkpt>
      <trkpt lat="1.3525371638922832" lon="103.82061996783563">
        <ele>43.76701326478544</ele>
      </trkpt>
      <trkpt lat="1.3526275533386023" lon="103.82062286419942">
        <ele>45.80554033232723</ele>
      </trkpt>
      <trkpt lat="1.3527023057482606" lon="103.82057907587097">
        <ele>47.77464431197114</ele>
      </trkpt>
      <trkpt lat="1.3527648577502347" lon="103.82051619898128">
        <ele>49.05117892378686</ele>
      </trkpt>
      <trkpt lat="1.3528084379189242" lon="103.82043746381568">
        <ele>49.45457447539527</ele>
      </trkpt>
      <trkpt lat="1.352831935668229" lon="103.8203529742422">
        <ele>48.87979267744182</ele>
      </trkpt>
      <trkpt lat="1.3528351816395752" lon="103.82026326844476">
        <ele>47.94918090941081</ele>
      </trkpt>
      <trkpt lat="1.3528302552473304" lon="103.82017354545756">
        <ele>46.905078925139485</ele>
      </trkpt>
      <trkpt lat="1.3528253288517502" lon="103.82008382247076">
        <ele>45.90421430193379</ele>
      </trkpt>
      <trkpt lat="1.3528204024528347" lon="103.81999409948438">
        <ele>44.8049200796948</ele>
      </trkpt>
      <trkpt lat="1.3528154760505844" lon="103.81990437649837">
        <ele>43.62327015871802</ele>
      </trkpt>
      <trkpt lat="1.3528206326167285" lon="103.81981471388211">
        <ele>42.82754537246566</ele>
      </trkpt>
      <trkpt lat="1.3528718256716594" lon="103.81974630329056">
        <ele>42.71510784966938</ele>
      </trkpt>
      <trkpt lat="1.3529380861173357" lon="103.81968517927544">
        <ele>43.30113754886265</ele>
      </trkpt>
      <trkpt lat="1.3530098548571399" lon="103.81963050495901">
        <ele>44.11735363658395</ele>
      </trkpt>
      <trkpt lat="1.353081623595628" lon="103.81957583063937">
        <ele>44.860770749841414</ele>
      </trkpt>
      <trkpt lat="1.3531540191890927" lon="103.8195220679706">
        <ele>45.48085977606761</ele>
      </trkpt>
      <trkpt lat="1.3532313730118997" lon="103.81947551618781">
        <ele>45.97762071526194</ele>
      </trkpt>
      <trkpt lat="1.3533087268337276" lon="103.81942896440205">
        <ele>46.49914266222933</ele>
      </trkpt>
      <trkpt lat="1.3533860806545766" lon="103.81938241261334">
        <ele>47.02066460919673</ele>
      </trkpt>
      <trkpt lat="1.353463434474446" lon="103.81933586082165">
        <ele>47.54233934669199</ele>
      </trkpt>
      <trkpt lat="1.3535407882933355" lon="103.819289309027">
        <ele>48.077660072067964</ele>
      </trkpt>
      <trkpt lat="1.3536181421112454" lon="103.81924275722939">
        <ele>48.47605944388295</ele>
      </trkpt>
      <trkpt lat="1.3536854480633909" lon="103.81918382250922">
        <ele>48.66078951140408</ele>
      </trkpt>
      <trkpt lat="1.3537476425613533" lon="103.81911858846682">
        <ele>47.57830899913336</ele>
      </trkpt>
      <trkpt lat="1.3537921708905987" lon="103.819042039364">
        <ele>44.95347274771843</ele>
      </trkpt>
      <trkpt lat="1.353826289372734" lon="103.81895882282569">
        <ele>42.08068705529241</ele>
      </trkpt>
      <trkpt lat="1.353859321043126" lon="103.8188751885305">
        <ele>40.28762530578824</ele>
      </trkpt>
      <trkpt lat="1.353890452747987" lon="103.81879082391319">
        <ele>40.0</ele>
      </trkpt>
      <trkpt lat="1.3539215844498624" lon="103.81870645929376">
        <ele>40.0</ele>
      </trkpt>
      <trkpt lat="1.3539527161487523" lon="103.81862209467221">
        <ele>40.0</ele>
      </trkpt>
      <trkpt lat="1.3539838478446564" lon="103.81853773004853">
        <ele>40.0</ele>
      </trkpt>
      <trkpt lat="1.354014979537574" lon="103.81845336542274">
        <ele>40.0</ele>
      </trkpt>
      <trkpt lat="1.3540474123365904" lon="103.81837023007867">
        <ele>40.0</ele>
      </trkpt>
      <trkpt lat="1.354130647786128" lon="103.81833509292206">
        <ele>40.0</ele>
      </trkpt>
      <trkpt lat="1.3542174216541012" lon="103.81830997006206">
        <ele>40.0</ele>
      </trkpt>
      <trkpt lat="1.3543047594100628" lon="103.8182882664164">
        <ele>40.0</ele>
      </trkpt>
      <trkpt lat="1.3543949691232515" lon="103.81829462512641">
        <ele>40.00000000000001</ele>
      </trkpt>
      <trkpt lat="1.3544852007593415" lon="103.81830036471516">
        <ele>40.0</ele>
      </trkpt>
      <trkpt lat="1.3545756371856916" lon="103.81830032086874">
        <ele>40.0</ele>
      </trkpt>
      <trkpt lat="1.354666073611974" lon="103.81830027702229">
        <ele>40.0</ele>
      </trkpt>
      <trkpt lat="1.3547559229005175" lon="103.81830615415521">
        <ele>40.0</ele>
      </trkpt>
      <trkpt lat="1.3548446117828319" lon="103.81832373338354">
        <ele>40.0</ele>
      </trkpt>
      <trkpt lat="1.3549329703248048" lon="103.81833399392725">
        <ele>40.0</ele>
      </trkpt>
      <trkpt lat="1.355019719423789" lon="103.81830859726938">
        <ele>40.0</ele>
      </trkpt>
      <trkpt lat="1.355109845878316" lon="103.8183064223839">
        <ele>40.0</ele>
      </trkpt>
      <trkpt lat="1.355200282304243" lon="103.81830637862431">
        <ele>40.0</ele>
      </trkpt>
      <trkpt lat="1.355290718729916" lon="103.81830633448486">
        <ele>40.0</ele>
      </trkpt>
      <trkpt lat="1.355380912150276" lon="103.81830895586091">
        <ele>40.0</ele>
      </trkpt>
      <trkpt lat="1.355469868601125" lon="103.81832514550902">
        <ele>40.0</ele>
      </trkpt>
      <trkpt lat="1.355558825051813" lon="103.8183413351583">
        <ele>40.0</ele>
      </trkpt>
      <trkpt lat="1.3556477815023393" lon="103.81835752480872">
        <ele>40.0</ele>
      </trkpt>
      <trkpt lat="1.355737442212291" lon="103.81835817765139">
        <ele>40.0</ele>
      </trkpt>
      <trkpt lat="1.3558275032469553" lon="103.81834999884923">
        <ele>40.0</ele>
      </trkpt>
      <trkpt lat="1.3559175642815178" lon="103.81834182004643">
        <ele>40.0</ele>
      </trkpt>
      <trkpt lat="1.356007625315978" lon="103.818333641243">
        <ele>40.0</ele>
      </trkpt>
      <trkpt lat="1.3560979597111127" lon="103.81833138624852">
        <ele>40.0</ele>
      </trkpt>
      <trkpt lat="1.356188396136204" lon="103.8183313422751">
        <ele>40.0</ele>
      </trkpt>
      <trkpt lat="1.356278832561228" lon="103.81833129830164">
        <ele>40.0</ele>
      </trkpt>
      <trkpt lat="1.3563692689861844" lon="103.81833125432817">
        <ele>40.0</ele>
      </trkpt>
      <trkpt lat="1.3564597054110723" lon="103.81833121035463">
        <ele>40.0</ele>
      </trkpt>
      <trkpt lat="1.356550141837439" lon="103.818331169667">
        <ele>40.0</ele>
      </trkpt>
      <trkpt lat="1.3566405782640247" lon="103.81833112958732">
        <ele>40.0</ele>
      </trkpt>
      <trkpt lat="1.356731014690542" lon="103.81833108950761">
        <ele>40.0</ele>
      </trkpt>
      <trkpt lat="1.3568214511169916" lon="103.81833104942785">
        <ele>40.0</ele>
      </trkpt>
      <trkpt lat="1.3569118875433734" lon="103.81833100934806">
        <ele>40.0</ele>
      </trkpt>
      <trkpt lat="1.3570023239696871" lon="103.8183309692682">
        <ele>40.0</ele>
      </trkpt>
      <trkpt lat="1.3570372015012844" lon="103.81833095381108">
        <ele>40.0</ele>
      </trkpt>
      <trkpt lat="1.3569469424305936" lon="103.81833657869392">
        <ele>40.0</ele>
      </trkpt>
      <trkpt lat="1.3568566833598177" lon="103.81834220357628">
        <ele>40.0</ele>
      </trkpt>
      <trkpt lat="1.356766424288956" lon="103.8183478284582">
        <ele>40.0</ele>
      </trkpt>
      <trkpt lat="1.3566761173999713" lon="103.81835105530001">
        <ele>40.0</ele>
      </trkpt>
      <trkpt lat="1.3565857873991314" lon="103.8183467134472">
        <ele>40.0</ele>
      </trkpt>
      <trkpt lat="1.3564954596639722" lon="103.81834230913452">
        <ele>40.0</ele>
      </trkpt>
      <trkpt lat="1.3564050851548757" lon="103.81833980000003">
        <ele>40.0</ele>
      </trkpt>
      <trkpt lat="1.3563146487191136" lon="103.81833980000005">
        <ele>40.0</ele>
      </trkpt>
      <trkpt lat="1.3562242122832842" lon="103.81833980000003">
        <ele>40.0</ele>
      </trkpt>
      <trkpt lat="1.3561338414699282" lon="103.81833757551152">
        <ele>40.0</ele>
      </trkpt>
      <trkpt lat="1.3560435602936138" lon="103.8183323124831">
        <ele>40.0</ele>
      </trkpt>
      <trkpt lat="1.3559532791172253" lon="103.81832704945504">
        <ele>40.0</ele>
      </trkpt>
      <trkpt lat="1.3558629377870857" lon="103.81832324896664">
        <ele>40.0</ele>
      </trkpt>
      <trkpt lat="1.355772525439669" lon="103.81832117514688">
        <ele>40.0</ele>
      </trkpt>
      <trkpt lat="1.3556821130921848" lon="103.81831910132725">
        <ele>40.0</ele>
      </trkpt>
      <trkpt lat="1.3555917412683978" lon="103.81831886740754">
        <ele>40.0</ele>
      </trkpt>
      <trkpt lat="1.3555015067839289" lon="103.81832486910601">
        <ele>40.0</ele>
      </trkpt>
      <trkpt lat="1.3554112722993732" lon="103.81833087080399">
        <ele>40.0</ele>
      </trkpt>
      <trkpt lat="1.3553210378147293" lon="103.8183368725015">
        <ele>40.0</ele>
      </trkpt>
      <trkpt lat="1.3552306258578422" lon="103.81833760000004">
        <ele>40.0</ele>
      </trkpt>
      <trkpt lat="1.3551401894212007" lon="103.81833760000004">
        <ele>40.0</ele>
      </trkpt>
      <trkpt lat="1.3550497744643242" lon="103.81833670858884">
        <ele>40.0</ele>
      </trkpt>
      <trkpt lat="1.3549594416472137" lon="103.81833240838193">
        <ele>40.0</ele>
      </trkpt>
      <trkpt lat="1.3548691088300318" lon="103.8183281081753">
        <ele>40.0</ele>
      </trkpt>
      <trkpt lat="1.3547787760127776" lon="103.81832380796894">
        <ele>40.0</ele>
      </trkpt>
      <trkpt lat="1.3546883710931958" lon="103.81832250000004">
        <ele>40.0</ele>
      </trkpt>
      <trkpt lat="1.3545979346561543" lon="103.81832250000005">
        <ele>40.0</ele>
      </trkpt>
      <trkpt lat="1.3545074982190448" lon="103.81832250000002">
        <ele>40.0</ele>
      </trkpt>
      <trkpt lat="1.3544178932144673" lon="103.81833127657318">
        <ele>40.0</ele>
      </trkpt>
      <trkpt lat="1.354329045172401" lon="103.81834804361668">
        <ele>40.0</ele>
      </trkpt>
      <trkpt lat="1.3542401971301394" lon="103.81836481065892">
        <ele>40.0</ele>
      </trkpt>
      <trkpt lat="1.3541686593743696" lon="103.8184126146321">
        <ele>40.0</ele>
      </trkpt>
      <trkpt lat="1.3541072504035692" lon="103.8184785792756">
        <ele>40.0</ele>
      </trkpt>
      <trkpt lat="1.3540458414308933" lon="103.81854454391579">
        <ele>40.0</ele>
      </trkpt>
      <trkpt lat="1.3540127279757186" lon="103.81862767746702">
        <ele>40.0</ele>
      </trkpt>
      <trkpt lat="1.3539817138467618" lon="103.81871208482916">
        <ele>40.0</ele>
      </trkpt>
      <trkpt lat="1.3539496646826776" lon="103.81879606838783">
        <ele>40.0</ele>
      </trkpt>
      <trkpt lat="1.3539118210421153" lon="103.81887767935525">
        <ele>40.12094798269919</ele>
      </trkpt>
      <trkpt lat="1.3538739773987494" lon="103.81895929032015">
        <ele>41.72673727410021</ele>
      </trkpt>
      <trkpt lat="1.3538343973904625" lon="103.81904006140375">
        <ele>44.80982032219611</ele>
      </trkpt>
      <trkpt lat="1.3537930891513772" lon="103.81911999654034">
        <ele>48.145812268902084</ele>
      </trkpt>
      <trkpt lat="1.353751780909597" lon="103.81919993167423">
        <ele>49.934679544566876</ele>
      </trkpt>
      <trkpt lat="1.3536826110684845" lon="103.81925694408662">
        <ele>50.15757745204331</ele>
      </trkpt>
      <trkpt lat="1.3536112742894126" lon="103.8193121736806">
        <ele>49.91262345109701</ele>
      </trkpt>
      <trkpt lat="1.3535396171130807" lon="103.8193669327383">
        <ele>49.54171499673355</ele>
      </trkpt>
      <trkpt lat="1.353461482985926" lon="103.81941217975296">
        <ele>49.07174924290768</ele>
      </trkpt>
      <trkpt lat="1.3533833488578404" lon="103.81945742676473">
        <ele>48.508045605239126</ele>
      </trkpt>
      <trkpt lat="1.3533052147288254" lon="103.81950267377356">
        <ele>47.99022114591227</ele>
      </trkpt>
      <trkpt lat="1.3532298666727156" lon="103.81955196146204">
        <ele>47.59372974826218</ele>
      </trkpt>
      <trkpt lat="1.353159182641383" lon="103.81960801345066">
        <ele>47.104330706601424</ele>
      </trkpt>
      <trkpt lat="1.3530884986086724" lon="103.81966406543603">
        <ele>46.53725317423545</ele>
      </trkpt>
      <trkpt lat="1.3530224264587607" lon="103.81972526140049">
        <ele>45.84194453131399</ele>
      </trkpt>
      <trkpt lat="1.3529582510345621" lon="103.81978857292478">
        <ele>45.30720180414743</ele>
      </trkpt>
      <trkpt lat="1.352900585123443" lon="103.81985658160453">
        <ele>45.066299862734695</ele>
      </trkpt>
      <trkpt lat="1.3528598467304531" lon="103.81993680490166">
        <ele>45.17856852068589</ele>
      </trkpt>
      <trkpt lat="1.3528357988575432" lon="103.82002259939173">
        <ele>45.60915331668837</ele>
      </trkpt>
      <trkpt lat="1.3528253302907407" lon="103.82011147045066">
        <ele>46.257485865369375</ele>
      </trkpt>
      <trkpt lat="1.3528266332807048" lon="103.82020131752813">
        <ele>47.13914595466432</ele>
      </trkpt>
      <trkpt lat="1.352830545929328" lon="103.82029106886799">
        <ele>48.24189070377688</ele>
      </trkpt>
      <trkpt lat="1.3528359150204377" lon="103.82038076677722">
        <ele>49.415296319671775</ele>
      </trkpt>
      <trkpt lat="1.352833168622239" lon="103.82046970493175">
        <ele>50.153385761539916</ele>
      </trkpt>
      <trkpt lat="1.3528091024457771" lon="103.82055610920317">
        <ele>49.97637937828903</ele>
      </trkpt>
      <trkpt lat="1.3527669338386852" lon="103.82063536597232">
        <ele>48.78230128672147</ele>
      </trkpt>
      <trkpt lat="1.3526973958226216" lon="103.82069155573228">
        <ele>46.920099566504774</ele>
      </trkpt>
      <trkpt lat="1.352610911011918" lon="103.82071432210772">
        <ele>44.851270732647</ele>
      </trkpt>
      <trkpt lat="1.3525206294617254" lon="103.8207195788534">
        <ele>42.742265744728904</ele>
      </trkpt>
      <trkpt lat="1.35243025835735" lon="103.82072115041626">
        <ele>41.12823411465643</ele>
      </trkpt>
      <trkpt lat="1.3523398266720108" lon="103.8207202290542">
        <ele>40.216599264687034</ele>
      </trkpt>
      <trkpt lat="1.3522509151850117" lon="103.82073035110406">
        <ele>40.0</ele>
      </trkpt>
      <trkpt lat="1.3521759669989923" lon="103.82077785852798">
        <ele>40.0</ele>
      </trkpt>
      <trkpt lat="1.3521329164129816" lon="103.82085559007461">
        <ele>40.0</ele>
      </trkpt>
      <trkpt lat="1.3521271095765943" lon="103.82094452274539">
        <ele>40.00000000000001</ele>
      </trkpt>
      <trkpt lat="1.352126752691548" lon="103.82103437842468">
        <ele>40.0</ele>
      </trkpt>
      <trkpt lat="1.3521204545606837" lon="103.82112353740234">
        <ele>40.0</ele>
      </trkpt>
      <trkpt lat="1.3520886215820886" lon="103.82120679018915">
        <ele>40.0</ele>
      </trkpt>
      <trkpt lat="1.3520438569100368" lon="103.82128485750684">
        <ele>40.0</ele>
      </trkpt>
      <trkpt lat="1.3519984077060083" lon="103.82136254245513">
        <ele>40.0</ele>
      </trkpt>
      <trkpt lat="1.3519529584994356" lon="103.82144022740056">
        <ele>40.0</ele>
      </trkpt>
      <trkpt lat="1.3519295798461453" lon="103.82152466486858">
        <ele>40.0</ele>
      </trkpt>
      <trkpt lat="1.3519231754610321" lon="103.82161429564384">
        <ele>40.0</ele>
      </trkpt>
      <trkpt lat="1.3519167710725848" lon="103.82170392641866">
        <ele>40.0</ele>
      </trkpt>
      <trkpt lat="1.3519153036467906" lon="103.82179346062121">
        <ele>40.0</ele>
      </trkpt>
      <trkpt lat="1.351925253648943" lon="103.82188277148803">
        <ele>40.0</ele>
      </trkpt>
      <trkpt lat="1.3519352036477947" lon="103.8219720823556">
        <ele>40.0</ele>
      </trkpt>
      <trkpt lat="1.3519451536433467" lon="103.82206139322395">
        <ele>40.0</ele>
      </trkpt>
      <trkpt lat="1.3519551036355977" lon="103.82215070409303">
        <ele>40.0</ele>
      </trkpt>
      <trkpt lat="1.3519650536245482" lon="103.82224001496287">
        <ele>40.0</ele>
      </trkpt>
      <trkpt lat="1.3519841232067935" lon="103.82232777568606">
        <ele>40.0</ele>
      </trkpt>
      <trkpt lat="1.3520046199075795" lon="103.82241529382881">
        <ele>40.0</ele>
      </trkpt>
      <trkpt lat="1.3520251166051993" lon="103.82250281197304">
        <ele>40.0</ele>
      </trkpt>
      <trkpt lat="1.3520448699725036" lon="103.82259049661555">
        <ele>40.0</ele>
      </trkpt>
      <trkpt lat="1.3520641490993093" lon="103.82267828748317">
        <ele>40.0</ele>
      </trkpt>
      <trkpt lat="1.3520834282229286" lon="103.82276607835222">
        <ele>40.0</ele>
      </trkpt>
      <trkpt lat="1.3521027073433614" lon="103.82285386922267">
        <ele>40.0</ele>
      </trkpt>
      <trkpt lat="1.3521219864606067" lon="103.82294166009453">
        <ele>40.0</ele>
      </trkpt>
      <trkpt lat="1.3521412655746656" lon="103.82302945096781">
        <ele>40.0</ele>
      </trkpt>
      <trkpt lat="1.3521605446855376" lon="103.82311724184248">
        <ele>40.0</ele>
      </trkpt>
      <trkpt lat="1.3521759920117666" lon="103.8232057103141">
        <ele>40.0</ele>
      </trkpt>
      <trkpt lat="1.3521883823853988" lon="103.82329471936434">
        <ele>40.0</ele>
      </trkpt>
      <trkpt lat="1.3522007727557528" lon="103.82338372841552">
        <ele>40.0</ele>
      </trkpt>
      <trkpt lat="1.3522171773281997" lon="103.82347199368833">
        <ele>40.0</ele>
      </trkpt>
      <trkpt lat="1.3522379085356453" lon="103.82355945729353">
        <ele>39.975597500332846</ele>
      </trkpt>
      <trkpt lat="1.3522586397399265" lon="103.82364692090025">
        <ele>39.53269628670105</ele>
      </trkpt>
      <trkpt lat="1.3522764574815904" lon="103.82373484351768">
        <ele>38.645525899461184</ele>
      </trkpt>
      <trkpt lat="1.352283974877366" lon="103.82382438893274">
        <ele>37.338488838280426</ele>
      </trkpt>
      <trkpt lat="1.352291492269821" lon="103.82391393434838">
        <ele>36.00711368320612</ele>
      </trkpt>
      <trkpt lat="1.3522995987918256" lon="103.82400339509624">
        <ele>34.76768847311871</ele>
      </trkpt>
      <trkpt lat="1.3523179269754384" lon="103.82409138681884">
        <ele>33.72221473062344</ele>
      </trkpt>
      <trkpt lat="1.3523362551558473" lon="103.82417937854275">
        <ele>32.86926008997022</ele>
      </trkpt>
      <trkpt lat="1.3523545833330528" lon="103.82426737026802">
        <ele>32.14565108788892</ele>
      </trkpt>
      <trkpt lat="1.3523789049172856" lon="103.82435359457712">
        <ele>31.488762077659278</ele>
      </trkpt>
      <trkpt lat="1.3524118570857346" lon="103.82443727378444">
        <ele>31.017500243675666</ele>
      </trkpt>
      <trkpt lat="1.352444809251287" lon="103.82452095299405">
        <ele>30.79119807929233</ele>
      </trkpt>
      <trkpt lat="1.3524655377319597" lon="103.82460805372865">
        <ele>30.746991266458224</ele>
      </trkpt>
      <trkpt lat="1.352481394281081" lon="103.82469651816278">
        <ele>30.266304777149855</ele>
      </trkpt>
      <trkpt lat="1.3524972508269628" lon="103.82478498259812">
        <ele>29.249170847847353</ele>
      </trkpt>
      <trkpt lat="1.3525237767265508" lon="103.82486980130979">
        <ele>27.75697676656098</ele>
      </trkpt>
      <trkpt lat="1.3525660370972155" lon="103.82494924354589">
        <ele>26.2893903769203</ele>
      </trkpt>
      <trkpt lat="1.3526082974652656" lon="103.82502868578474">
        <ele>24.858761398898555</ele>
      </trkpt>
      <trkpt lat="1.3526502809561711" lon="103.82510826719997">
        <ele>23.418327834088597</ele>
      </trkpt>
      <trkpt lat="1.3526896578032517" lon="103.82518915887076">
        <ele>21.968089682490216</ele>
      </trkpt>
      <trkpt lat="1.352729034647622" lon="103.82527005054418">
        <ele>20.825692686939693</ele>
      </trkpt>
      <trkpt lat="1.3527684114892815" lon="103.82535094222021">
        <ele>20.169662792776286</ele>
      </trkpt>
      <trkpt lat="1.3527994090271307" lon="103.82543466825821">
        <ele>20.0</ele>
      </trkpt>
      <trkpt lat="1.3528178874893475" lon="103.82552262896503">
        <ele>20.0</ele>
      </trkpt>
      <trkpt lat="1.3528363659483595" lon="103.82561058967319">
        <ele>20.0</ele>
      </trkpt>
      <trkpt lat="1.352854844404169" lon="103.8256985503827">
        <ele>20.0</ele>
      </trkpt>
      <trkpt lat="1.3528733228567735" lon="103.82578651109355">
        <ele>20.0</ele>
      </trkpt>
      <trkpt lat="1.3528919278713558" lon="103.82587444536254">
        <ele>20.0</ele>
      </trkpt>
      <trkpt lat="1.352910669057444" lon="103.82596235118196">
        <ele>20.0</ele>
      </trkpt>
      <trkpt lat="1.3529294102403318" lon="103.82605025700273">
        <ele>20.0</ele>
      </trkpt>
      <trkpt lat="1.3529534006284425" lon="103.82613643323378">
        <ele>20.0</ele>
      </trkpt>
      <trkpt lat="1.352991238743884" lon="103.82621804670079">
        <ele>20.0</ele>
      </trkpt>
      <trkpt lat="1.3530308028881957" lon="103.82629871640826">
        <ele>20.0</ele>
      </trkpt>
      <trkpt lat="1.3530799464161982" lon="103.82637414828812">
        <ele>20.0</ele>
      </trkpt>
      <trkpt lat="1.3531267208143005" lon="103.82645070702044">
        <ele>20.0</ele>
      </trkpt>
      <trkpt lat="1.3531550363427993" lon="103.82653604551186">
        <ele>20.0</ele>
      </trkpt>
      <trkpt lat="1.3531820948559126" lon="103.82662166332233">
        <ele>20.0</ele>
      </trkpt>
      <trkpt lat="1.3531930637657201" lon="103.82671085635742">
        <ele>20.0</ele>
      </trkpt>
      <trkpt lat="1.3532040326722306" lon="103.82680004939336">
        <ele>20.0</ele>
      </trkpt>
      <trkpt lat="1.3532150015754432" lon="103.82688924243008">
        <ele>20.0</ele>
      </trkpt>
      <trkpt lat="1.353225980492893" lon="103.82697843425038">
        <ele>20.0</ele>
      </trkpt>
      <trkpt lat="1.3532369681071312" lon="103.82706762501434">
        <ele>20.0</ele>
      </trkpt>
      <trkpt lat="1.3532383245228115" lon="103.82715682545587">
        <ele>20.0</ele>
      </trkpt>
      <trkpt lat="1.3532209896561582" lon="103.82724423344635">
        <ele>20.0</ele>
      </trkpt>
      <trkpt lat="1.3531826215218017" lon="103.82732536822753">
        <ele>20.0</ele>
      </trkpt>
      <trkpt lat="1.353122571731669" lon="103.82739255680411">
        <ele>20.0</ele>
      </trkpt>
      <trkpt lat="1.3530612418685999" lon="103.82745859051933">
        <ele>20.0</ele>
      </trkpt>
      <trkpt lat="1.352999710369368" lon="103.82752444232023">
        <ele>20.0</ele>
      </trkpt>
      <trkpt lat="1.352938178868292" lon="103.8275902941178">
        <ele>20.0</ele>
      </trkpt>
      <trkpt lat="1.3528766473653722" lon="103.82765614591207">
        <ele>20.0</ele>
      </trkpt>
      <trkpt lat="1.3528163618627307" lon="103.8277230743138">
        <ele>20.0</ele>
      </trkpt>
      <trkpt lat="1.3527592661213226" lon="103.82779275883398">
        <ele>20.0</ele>
      </trkpt>
      <trkpt lat="1.3527021703778606" lon="103.8278624433509">
        <ele>20.0</ele>
      </trkpt>
      <trkpt lat="1.3526450746323448" lon="103.82793212786457">
        <ele>20.0</ele>
      </trkpt>
      <trkpt lat="1.3525879788847748" lon="103.82800181237498">
        <ele>20.0</ele>
      </trkpt>
      <trkpt lat="1.352530883135152" lon="103.82807149688215">
        <ele>20.0</ele>
      </trkpt>
      <trkpt lat="1.352473787383476" lon="103.82814118138604">
        <ele>20.0</ele>
      </trkpt>
      <trkpt lat="1.352428429393621" lon="103.82821857001626">
        <ele>20.0</ele>
      </trkpt>
      <trkpt lat="1.3523863235927542" lon="103.82829809323299">
        <ele>20.0</ele>
      </trkpt>
      <trkpt lat="1.3523442177892404" lon="103.82837761644697">
        <ele>20.0</ele>
      </trkpt>
      <trkpt lat="1.35230211198308" lon="103.82845713965824">
        <ele>20.0</ele>
      </trkpt>
      <trkpt lat="1.3522581758480352" lon="103.82853562122605">
        <ele>20.0</ele>
      </trkpt>
      <trkpt lat="1.3522104421450052" lon="103.8286119415922">
        <ele>20.0</ele>
      </trkpt>
      <trkpt lat="1.3521453017351919" lon="103.82867342274237">
        <ele>20.0</ele>
      </trkpt>
      <trkpt lat="1.3520716770345762" lon="103.82872395553798">
        <ele>20.0</ele>
      </trkpt>
      <trkpt lat="1.3519884407742044" lon="103.8287590907792">
        <ele>20.0</ele>
      </trkpt>
      <trkpt lat="1.3519005554091539" lon="103.82877924847838">
        <ele>20.0</ele>
      </trkpt>
      <trkpt lat="1.3518118607745324" lon="103.82879679903655">
        <ele>20.0</ele>
      </trkpt>
      <trkpt lat="1.3517231661397138" lon="103.82881434959343">
        <ele>20.0</ele>
      </trkpt>
      <trkpt lat="1.3516344715046986" lon="103.82883190014903">
        <ele>20.0</ele>
      </trkpt>
      <trkpt lat="1.3515453453094564" lon="103.82884692166914">
        <ele>20.0</ele>
      </trkpt>
      <trkpt lat="1.3514557851302258" lon="103.82885939995003">
        <ele>20.0</ele>
      </trkpt>
      <trkpt lat="1.3513662249508618" lon="103.82887187823002">
        <ele>20.0</ele>
      </trkpt>
      <trkpt lat="1.351278326949945" lon="103.82889204352412">
        <ele>19.999999999999996</ele>
      </trkpt>
      <trkpt lat="1.351191522355527" lon="103.8289172502188">
        <ele>20.0</ele>
      </trkpt>
      <trkpt lat="1.3511055670134224" lon="103.82894518445445">
        <ele>20.0</ele>
      </trkpt>
      <trkpt lat="1.3510196467200568" lon="103.82897321307095">
        <ele>20.0</ele>
      </trkpt>
      <trkpt lat="1.350936029801371" lon="103.82900744437819">
        <ele>20.0</ele>
      </trkpt>
      <trkpt lat="1.3508524128821344" lon="103.82904167568309">
        <ele>20.0</ele>
      </trkpt>
      <trkpt lat="1.3507687997017324" lon="103.82907591596042">
        <ele>20.0</ele>
      </trkpt>
      <trkpt lat="1.3506888771818053" lon="103.82911618670875">
        <ele>20.0</ele>
      </trkpt>
      <trkpt lat="1.350630074623597" lon="103.82918297912653">
        <ele>20.0</ele>
      </trkpt>
      <trkpt lat="1.350600633746656" lon="103.82926684632005">
        <ele>20.0</ele>
      </trkpt>
      <trkpt lat="1.3505996791708117" lon="103.82935633621166">
        <ele>20.0</ele>
      </trkpt>
      <trkpt lat="1.3506023056761751" lon="103.82944614006692">
        <ele>20.0</ele>
      </trkpt>
      <trkpt lat="1.3506197964644548" lon="103.82953429198085">
        <ele>20.0</ele>
      </trkpt>
      <trkpt lat="1.3506601920557735" lon="103.8296146861552">
        <ele>20.0</ele>
      </trkpt>
      <trkpt lat="1.3507204445598986" lon="103.82968167329291">
        <ele>20.0</ele>
      </trkpt>
      <trkpt lat="1.3507964040548863" lon="103.82973037460543">
        <ele>20.0</ele>
      </trkpt>
      <trkpt lat="1.3508730894371157" lon="103.82977800317471">
        <ele>20.0</ele>
      </trkpt>
      <trkpt lat="1.350957076707613" lon="103.829808507005">
        <ele>20.0</ele>
      </trkpt>
      <trkpt lat="1.3510460665214863" lon="103.82981952617477">
        <ele>20.0</ele>
      </trkpt>
      <trkpt lat="1.351136480203861" lon="103.82981862261792">
        <ele>20.0</ele>
      </trkpt>
      <trkpt lat="1.3512268631127147" lon="103.82982171392031">
        <ele>20.0</ele>
      </trkpt>
      <trkpt lat="1.3513172460214973" lon="103.82982480522293">
        <ele>20.0</ele>
      </trkpt>
      <trkpt lat="1.351407628930209" lon="103.82982789652576">
        <ele>20.0</ele>
      </trkpt>
      <trkpt lat="1.3514980118388502" lon="103.8298309878288">
        <ele>20.0</ele>
      </trkpt>
      <trkpt lat="1.3515883947474203" lon="103.82983407913207">
        <ele>20.0</ele>
      </trkpt>
      <trkpt lat="1.3516706458750785" lon="103.82986785468455">
        <ele>20.0</ele>
      </trkpt>
      <trkpt lat="1.351723651837157" lon="103.82993744955576">
        <ele>20.0</ele>
      </trkpt>
      <trkpt lat="1.3517278162551163" lon="103.83002512061083">
        <ele>20.0</ele>
      </trkpt>
      <trkpt lat="1.3516895638652602" lon="103.83010618385086">
        <ele>20.0</ele>
      </trkpt>
      <trkpt lat="1.351645408450016" lon="103.83018460194074">
        <ele>20.0</ele>
      </trkpt>
      <trkpt lat="1.3516012530322017" lon="103.83026302002779">
        <ele>20.0</ele>
      </trkpt>
      <trkpt lat="1.351552002957536" lon="103.83033827391775">
        <ele>20.0</ele>
      </trkpt>
      <trkpt lat="1.3515003488395803" lon="103.83041203119521">
        <ele>20.000000000000004</ele>
      </trkpt>
      <trkpt lat="1.3514485633129552" lon="103.83048569637846">
        <ele>20.0</ele>
      </trkpt>
      <trkpt lat="1.3513959671478435" lon="103.83055879345555">
        <ele>20.0</ele>
      </trkpt>
      <trkpt lat="1.3513400814061585" lon="103.83062901879575">
        <ele>20.0</ele>
      </trkpt>
      <trkpt lat="1.351273892752117" lon="103.8306902498942">
        <ele>20.0</ele>
      </trkpt>
      <trkpt lat="1.3512063711477342" lon="103.83074996272312">
        <ele>20.0</ele>
      </trkpt>
      <trkpt lat="1.3511363291338134" lon="103.83080680473282">
        <ele>20.0</ele>
      </trkpt>
      <trkpt lat="1.3510662871185075" lon="103.83086364673925">
        <ele>20.0</ele>
      </trkpt>
      <trkpt lat="1.3509962451018165" lon="103.83092048874244">
        <ele>20.0</ele>
      </trkpt>
      <trkpt lat="1.3509234102758871" lon="103.8309737065839">
        <ele>20.0</ele>
      </trkpt>
      <trkpt lat="1.3508499119923532" lon="103.8310260634711">
        <ele>20.0</ele>
      </trkpt>
      <trkpt lat="1.3507764137076341" lon="103.83107842035514">
        <ele>20.0</ele>
      </trkpt>
      <trkpt lat="1.3507026729590843" lon="103.83113043534196">
        <ele>20.0</ele>
      </trkpt>
      <trkpt lat="1.3506283213826429" lon="103.8311815890052">
        <ele>20.0</ele>
      </trkpt>
      <trkpt lat="1.3505539698050677" lon="103.8312327426653">
        <ele>20.0</ele>
      </trkpt>
      <trkpt lat="1.350479618226358" lon="103.83128389632232">
        <ele>20.0</ele>
      </trkpt>
      <trkpt lat="1.3504089549027447" lon="103.83133985476184">
        <ele>20.0</ele>
      </trkpt>
      <trkpt lat="1.3503396411826902" lon="103.83139757136294">
        <ele>20.0</ele>
      </trkpt>
      <trkpt lat="1.350270327461213" lon="103.8314552879608">
        <ele>20.0</ele>
      </trkpt>
      <trkpt lat="1.3501991073371002" lon="103.83151052626224">
        <ele>20.0</ele>
      </trkpt>
      <trkpt lat="1.3501248604958513" lon="103.83156182987501">
        <ele>20.0</ele>
      </trkpt>
      <trkpt lat="1.3500506136534627" lon="103.83161313348467">
        <ele>20.0</ele>
      </trkpt>
      <trkpt lat="1.3499756988698066" lon="103.83166346744486">
        <ele>20.0</ele>
      </trkpt>
      <trkpt lat="1.3499006894538528" lon="103.83171366402617">
        <ele>20.0</ele>
      </trkpt>
      <trkpt lat="1.349826125311403" lon="103.83176450726373">
        <ele>20.0</ele>
      </trkpt>
      <trkpt lat="1.3497518594331968" lon="103.83181578366029">
        <ele>20.0</ele>
      </trkpt>
      <trkpt lat="1.3496775935538536" lon="103.83186706005372">
        <ele>20.0</ele>
      </trkpt>
      <trkpt lat="1.3496027653430491" lon="103.83191751776506">
        <ele>20.0</ele>
      </trkpt>
      <trkpt lat="1.3495436972023667" lon="103.83198235349418">
        <ele>20.0</ele>
      </trkpt>
      <trkpt lat="1.3495018788142097" lon="103.83206193731887">
        <ele>20.0</ele>
      </trkpt>
      <trkpt lat="1.3494640961399549" lon="103.8321435760234">
        <ele>20.0</ele>
      </trkpt>
      <trkpt lat="1.349434049382271" lon="103.83222825488566">
        <ele>20.0</ele>
      </trkpt>
      <trkpt lat="1.3494054044136252" lon="103.83231348464004">
        <ele>20.0</ele>
      </trkpt>
      <trkpt lat="1.3493767594419666" lon="103.83239871439241">
        <ele>20.0</ele>
      </trkpt>
      <trkpt lat="1.3493481144672945" lon="103.83248394414278">
        <ele>19.999999999999996</ele>
      </trkpt>
      <trkpt lat="1.3493194694896098" lon="103.83256917389117">
        <ele>20.0</ele>
      </trkpt>
      <trkpt lat="1.3492858126912304" lon="103.83265246122089">
        <ele>20.0</ele>
      </trkpt>
      <trkpt lat="1.3492399413072331" lon="103.8327293143753">
        <ele>20.0</ele>
      </trkpt>
      <trkpt lat="1.3491788694678448" lon="103.83279469691527">
        <ele>20.0</ele>
      </trkpt>
      <trkpt lat="1.3491093905361338" lon="103.83285221705">
        <ele>20.0</ele>
      </trkpt>
      <trkpt lat="1.3490390604590952" lon="103.83290852495504">
        <ele>20.0</ele>
      </trkpt>
      <trkpt lat="1.348960739858902" lon="103.83295345249971">
        <ele>20.0</ele>
      </trkpt>
      <trkpt lat="1.3488817825772832" lon="103.83299725762882">
        <ele>20.0</ele>
      </trkpt>
      <trkpt lat="1.3488025416261684" lon="103.83304056267183">
        <ele>20.0</ele>
      </trkpt>
      <trkpt lat="1.348724316217085" lon="103.83308560756115">
        <ele>20.0</ele>
      </trkpt>
      <trkpt lat="1.3486471334220385" lon="103.83313243867717">
        <ele>20.0</ele>
      </trkpt>
      <trkpt lat="1.3485718034986898" lon="103.83318202937849">
        <ele>20.000000000000004</ele>
      </trkpt>
      <trkpt lat="1.3484986435541846" lon="103.83323485195092">
        <ele>20.0</ele>
      </trkpt>
      <trkpt lat="1.3484262928291477" lon="103.83328871840057">
        <ele>20.0</ele>
      </trkpt>
      <trkpt lat="1.3483536783364227" lon="103.8333417026072">
        <ele>20.0</ele>
      </trkpt>
      <trkpt lat="1.3482781853978403" lon="103.83339048547988">
        <ele>20.0</ele>
      </trkpt>
      <trkpt lat="1.3482025899454235" lon="103.8334372747032">
        <ele>20.0</ele>
      </trkpt>
      <trkpt lat="1.3481387039980288" lon="103.83349916248025">
        <ele>20.0</ele>
      </trkpt>
      <trkpt lat="1.3480789418010892" lon="103.83356660351363">
        <ele>20.0</ele>
      </trkpt>
      <trkpt lat="1.3480239077649723" lon="103.83363783695907">
        <ele>20.0</ele>
      </trkpt>
      <trkpt lat="1.3479728864286937" lon="103.83371196403509">
        <ele>20.0</ele>
      </trkpt>
      <trkpt lat="1.3479247493197792" lon="103.83378803303755">
        <ele>20.0</ele>
      </trkpt>
      <trkpt lat="1.3478861722432074" lon="103.83386921167349">
        <ele>20.0</ele>
      </trkpt>
      <trkpt lat="1.3478480339656977" lon="103.83395053392665">
        <ele>20.0</ele>
      </trkpt>
      <trkpt lat="1.3477881279974164" lon="103.8340178489854">
        <ele>20.0</ele>
      </trkpt>
      <trkpt lat="1.3477264688590873" lon="103.83408353114119">
        <ele>20.0</ele>
      </trkpt>
      <trkpt lat="1.3476659653713343" lon="103.83415027245596">
        <ele>20.0</ele>
      </trkpt>
      <trkpt lat="1.3476006849005402" lon="103.83421163319248">
        <ele>20.0</ele>
      </trkpt>
      <trkpt lat="1.347523817102752" lon="103.83425897298932">
        <ele>20.0</ele>
      </trkpt>
      <trkpt lat="1.347456730917798" lon="103.8343175169864">
        <ele>20.0</ele>
      </trkpt>
      <trkpt lat="1.3474088633137609" lon="103.83439374845163">
        <ele>20.0</ele>
      </trkpt>
      <trkpt lat="1.3473632987066388" lon="103.8344713347372">
        <ele>20.0</ele>
      </trkpt>
      <trkpt lat="1.3473111102544089" lon="103.83454454017155">
        <ele>20.0</ele>
      </trkpt>
      <trkpt lat="1.3472549133613243" lon="103.8346145561182">
        <ele>20.0</ele>
      </trkpt>
      <trkpt lat="1.3472036162698917" lon="103.83468820639703">
        <ele>20.0</ele>
      </trkpt>
      <trkpt lat="1.3471435296307361" lon="103.83475527837372">
        <ele>20.0</ele>
      </trkpt>
      <trkpt lat="1.347064899344274" lon="103.83479723789345">
        <ele>20.0</ele>
      </trkpt>
      <trkpt lat="1.3469823981715159" lon="103.8348340340631">
        <ele>20.0</ele>
      </trkpt>
      <trkpt lat="1.3469005995054706" lon="103.83487235767456">
        <ele>20.0</ele>
      </trkpt>
      <trkpt lat="1.3468265574683305" lon="103.83492380623991">
        <ele>20.0</ele>
      </trkpt>
      <trkpt lat="1.3467546048303753" lon="103.83497793607191">
        <ele>20.0</ele>
      </trkpt>
      <trkpt lat="1.3466916797801125" lon="103.83504247458549">
        <ele>20.0</ele>
      </trkpt>
      <trkpt lat="1.346629809891384" lon="103.83510800435185">
        <ele>20.0</ele>
      </trkpt>
      <trkpt lat="1.34656847916512" lon="103.83517404062408">
        <ele>20.0</ele>
      </trkpt>
      <trkpt lat="1.3465064917558527" lon="103.83523946696654">
        <ele>20.0</ele>
      </trkpt>
      <trkpt lat="1.3464455818599586" lon="103.83530583642971">
        <ele>20.0</ele>
      </trkpt>
      <trkpt lat="1.346387634453841" lon="103.83537482325885">
        <ele>20.0</ele>
      </trkpt>
      <trkpt lat="1.3463296870457366" lon="103.83544381008473">
        <ele>20.0</ele>
      </trkpt>
      <trkpt lat="1.346270324640109" lon="103.83551158702105">
        <ele>20.0</ele>
      </trkpt>
      <trkpt lat="1.3462196180770147" lon="103.83558555102508">
        <ele>20.0</ele>
      </trkpt>
      <trkpt lat="1.3461741502314508" lon="103.83566321605286">
        <ele>20.0</ele>
      </trkpt>
      <trkpt lat="1.3461304240488075" lon="103.83574187104911">
        <ele>20.0</ele>
      </trkpt>
      <trkpt lat="1.346094627118811" lon="103.83582421423465">
        <ele>20.0</ele>
      </trkpt>
      <trkpt lat="1.3460618376096027" lon="103.8359079562827">
        <ele>20.0</ele>
      </trkpt>
      <trkpt lat="1.3460306347899498" lon="103.83599227297887">
        <ele>20.0</ele>
      </trkpt>
      <trkpt lat="1.3460014957961142" lon="103.83607733712716">
        <ele>20.0</ele>
      </trkpt>
      <trkpt lat="1.3459723567992907" lon="103.83616240127344">
        <ele>20.0</ele>
      </trkpt>
      <trkpt lat="1.3459396840830917" lon="103.83624614739948">
        <ele>20.0</ele>
      </trkpt>
      <trkpt lat="1.3459052867866415" lon="103.8363292502842">
        <ele>20.0</ele>
      </trkpt>
      <trkpt lat="1.345866976581471" lon="103.83641024944154">
        <ele>20.0</ele>
      </trkpt>
      <trkpt lat="1.3458035704228857" lon="103.83647250254363">
        <ele>20.0</ele>
      </trkpt>
      <trkpt lat="1.345735765824768" lon="103.83645204249673">
        <ele>20.0</ele>
      </trkpt>
      <trkpt lat="1.3457906980869965" lon="103.836380662004">
        <ele>20.0</ele>
      </trkpt>
      <trkpt lat="1.3458378505634263" lon="103.83630427123788">
        <ele>20.0</ele>
      </trkpt>
      <trkpt lat="1.3458792188585949" lon="103.83622459185122">
        <ele>20.0</ele>
      </trkpt>
      <trkpt lat="1.3459030125085802" lon="103.8361379014114">
        <ele>20.0</ele>
      </trkpt>
      <trkpt lat="1.3459304881390255" lon="103.83605244789689">
        <ele>20.0</ele>
      </trkpt>
      <trkpt lat="1.345964523993263" lon="103.8359691982253">
        <ele>20.0</ele>
      </trkpt>
      <trkpt lat="1.3459985598446365" lon="103.83588594855142">
        <ele>20.0</ele>
      </trkpt>
      <trkpt lat="1.3460307196726777" lon="103.83580197882507">
        <ele>20.0</ele>
      </trkpt>
      <trkpt lat="1.3460618507753892" lon="103.8357176142545">
        <ele>20.0</ele>
      </trkpt>
      <trkpt lat="1.3460947263520338" lon="103.8356341473063">
        <ele>20.0</ele>
      </trkpt>
      <trkpt lat="1.3461461088703517" lon="103.83556020314528">
        <ele>20.0</ele>
      </trkpt>
      <trkpt lat="1.346197491386397" lon="103.83548625898116">
        <ele>20.0</ele>
      </trkpt>
      <trkpt lat="1.3462488739001688" lon="103.83541231481394">
        <ele>20.0</ele>
      </trkpt>
      <trkpt lat="1.3463002771815062" lon="103.83533838613627">
        <ele>20.0</ele>
      </trkpt>
      <trkpt lat="1.3463574010620343" lon="103.83526872456711">
        <ele>20.0</ele>
      </trkpt>
      <trkpt lat="1.3464145249405373" lon="103.83519906299473">
        <ele>20.0</ele>
      </trkpt>
      <trkpt lat="1.3464716488170145" lon="103.8351294014191">
        <ele>20.0</ele>
      </trkpt>
      <trkpt lat="1.3465287726914665" lon="103.83505973984022">
        <ele>20.0</ele>
      </trkpt>
      <trkpt lat="1.3465858965638926" lon="103.8349900782581">
        <ele>20.0</ele>
      </trkpt>
      <trkpt lat="1.3466443580466143" lon="103.83492153890758">
        <ele>20.0</ele>
      </trkpt>
      <trkpt lat="1.3467039084475747" lon="103.83485391314001">
        <ele>20.0</ele>
      </trkpt>
      <trkpt lat="1.3467634588466224" lon="103.83478628736916">
        <ele>20.0</ele>
      </trkpt>
      <trkpt lat="1.3468250252915217" lon="103.83472079518491">
        <ele>20.0</ele>
      </trkpt>
      <trkpt lat="1.3468967053551089" lon="103.83466600627449">
        <ele>20.0</ele>
      </trkpt>
      <trkpt lat="1.3469785345253453" lon="103.8346304971635">
        <ele>20.0</ele>
      </trkpt>
      <trkpt lat="1.3470647130992792" lon="103.83460325041742">
        <ele>20.0</ele>
      </trkpt>
      <trkpt lat="1.3471407426212745" lon="103.83455530122298">
        <ele>20.0</ele>
      </trkpt>
      <trkpt lat="1.3472146539462957" lon="103.83450384664145">
        <ele>20.0</ele>
      </trkpt>
      <trkpt lat="1.347268298674856" lon="103.83443150585603">
        <ele>20.0</ele>
      </trkpt>
      <trkpt lat="1.3473174796601397" lon="103.83435639728066">
        <ele>20.0</ele>
      </trkpt>
      <trkpt lat="1.3473593097900949" lon="103.83427673073342">
        <ele>20.0</ele>
      </trkpt>
      <trkpt lat="1.3474077231893384" lon="103.83420176659504">
        <ele>20.0</ele>
      </trkpt>
      <trkpt lat="1.3474704030376665" lon="103.83413699293719">
        <ele>20.0</ele>
      </trkpt>
      <trkpt lat="1.347533082884231" lon="103.83407221927602">
        <ele>20.0</ele>
      </trkpt>
      <trkpt lat="1.3475975215594633" lon="103.83400925162564">
        <ele>20.0</ele>
      </trkpt>
      <trkpt lat="1.347664740236712" lon="103.83394913855398">
        <ele>20.0</ele>
      </trkpt>
      <trkpt lat="1.347731958912432" lon="103.83388902547902">
        <ele>20.0</ele>
      </trkpt>
      <trkpt lat="1.347792634464427" lon="103.83382350420342">
        <ele>20.0</ele>
      </trkpt>
      <trkpt lat="1.3478398905617357" lon="103.83374689111784">
        <ele>20.0</ele>
      </trkpt>
      <trkpt lat="1.3478871466566007" lon="103.83367027802932">
        <ele>20.0</ele>
      </trkpt>
      <trkpt lat="1.3479414790340802" lon="103.83359890133853">
        <ele>20.0</ele>
      </trkpt>
      <trkpt lat="1.348001820191846" lon="103.83353197110073">
        <ele>20.0</ele>
      </trkpt>
      <trkpt lat="1.348062161347731" lon="103.83346504085965">
        <ele>20.0</ele>
      </trkpt>
      <trkpt lat="1.3481225025017358" lon="103.83339811061526">
        <ele>20.0</ele>
      </trkpt>
      <trkpt lat="1.3481828436538588" lon="103.8333311803676">
        <ele>20.0</ele>
      </trkpt>
      <trkpt lat="1.3482485157914093" lon="103.8332702136372">
        <ele>20.0</ele>
      </trkpt>
      <trkpt lat="1.3483225282911033" lon="103.83321857686946">
        <ele>20.0</ele>
      </trkpt>
      <trkpt lat="1.34839654078965" lon="103.83316694009861">
        <ele>20.0</ele>
      </trkpt>
      <trkpt lat="1.3484705532870491" lon="103.83311530332463">
        <ele>20.0</ele>
      </trkpt>
      <trkpt lat="1.3485445657832997" lon="103.83306366654755">
        <ele>20.0</ele>
      </trkpt>
      <trkpt lat="1.3486233008404196" lon="103.83301968256634">
        <ele>20.0</ele>
      </trkpt>
      <trkpt lat="1.3487031864770738" lon="103.83297756307036">
        <ele>20.0</ele>
      </trkpt>
      <trkpt lat="1.348783072112941" lon="103.83293544357163">
        <ele>20.0</ele>
      </trkpt>
      <trkpt lat="1.3488629577480213" lon="103.83289332407016">
        <ele>20.0</ele>
      </trkpt>
      <trkpt lat="1.348940171893241" lon="103.83284683437401">
        <ele>20.0</ele>
      </trkpt>
      <trkpt lat="1.3490146185653338" lon="103.83279581746777">
        <ele>20.0</ele>
      </trkpt>
      <trkpt lat="1.3490890652363037" lon="103.83274480055843">
        <ele>20.000000000000004</ele>
      </trkpt>
      <trkpt lat="1.3491383405509896" lon="103.83266995408825">
        <ele>20.0</ele>
      </trkpt>
      <trkpt lat="1.3491860306711378" lon="103.83259360692402">
        <ele>20.0</ele>
      </trkpt>
      <trkpt lat="1.3492244324526355" lon="103.83251286602358">
        <ele>20.0</ele>
      </trkpt>
      <trkpt lat="1.3492540130257813" lon="103.83242795235805">
        <ele>20.0</ele>
      </trkpt>
      <trkpt lat="1.3492798912116153" lon="103.8323419445888">
        <ele>20.0</ele>
      </trkpt>
      <trkpt lat="1.3493018234978449" lon="103.83225477075526">
        <ele>20.0</ele>
      </trkpt>
      <trkpt lat="1.3493237557809257" lon="103.83216759692016">
        <ele>20.0</ele>
      </trkpt>
      <trkpt lat="1.349351169959396" lon="103.83208297400678">
        <ele>20.0</ele>
      </trkpt>
      <trkpt lat="1.3494045262841579" lon="103.83201042289997">
        <ele>20.0</ele>
      </trkpt>
      <trkpt lat="1.3494578826067163" lon="103.83193787178999">
        <ele>20.0</ele>
      </trkpt>
      <trkpt lat="1.3495173205400224" lon="103.83187070032128">
        <ele>20.0</ele>
      </trkpt>
      <trkpt lat="1.349583676893505" lon="103.83180964871424">
        <ele>20.0</ele>
      </trkpt>
      <trkpt lat="1.349650033245406" lon="103.8317485971039">
        <ele>20.0</ele>
      </trkpt>
      <trkpt lat="1.3497209342703067" lon="103.83169333994495">
        <ele>20.0</ele>
      </trkpt>
      <trkpt lat="1.3497967309552419" lon="103.83164432474513">
        <ele>20.0</ele>
      </trkpt>
      <trkpt lat="1.349872527639131" lon="103.8315953095423">
        <ele>20.0</ele>
      </trkpt>
      <trkpt lat="1.3499483243219752" lon="103.8315462943364">
        <ele>20.0</ele>
      </trkpt>
      <trkpt lat="1.3500241210037736" lon="103.83149727912749">
        <ele>20.0</ele>
      </trkpt>
      <trkpt lat="1.3500999176845259" lon="103.83144826391552">
        <ele>20.0</ele>
      </trkpt>
      <trkpt lat="1.3501745452951879" lon="103.83139753732881">
        <ele>20.0</ele>
      </trkpt>
      <trkpt lat="1.3502483770982558" lon="103.8313456457773">
        <ele>20.0</ele>
      </trkpt>
      <trkpt lat="1.35032220890016" lon="103.83129375422267">
        <ele>20.0</ele>
      </trkpt>
      <trkpt lat="1.350396040700899" lon="103.8312418626649">
        <ele>20.0</ele>
      </trkpt>
      <trkpt lat="1.3504706949849081" lon="103.83119115492119">
        <ele>20.0</ele>
      </trkpt>
      <trkpt lat="1.3505457045690081" lon="103.83114095857681">
        <ele>20.0</ele>
      </trkpt>
      <trkpt lat="1.350620714152013" lon="103.83109076222935">
        <ele>20.0</ele>
      </trkpt>
      <trkpt lat="1.3506957237339232" lon="103.8310405658788">
        <ele>20.0</ele>
      </trkpt>
      <trkpt lat="1.3507702579260172" lon="103.83098971952727">
        <ele>20.0</ele>
      </trkpt>
      <trkpt lat="1.3508414750413344" lon="103.83093433774273">
        <ele>20.0</ele>
      </trkpt>
      <trkpt lat="1.3509126921553336" lon="103.83087895595497">
        <ele>20.0</ele>
      </trkpt>
      <trkpt lat="1.3509839092680154" lon="103.83082357416399">
        <ele>20.0</ele>
      </trkpt>
      <trkpt lat="1.3510551263793786" lon="103.83076819236977">
        <ele>20.0</ele>
      </trkpt>
      <trkpt lat="1.3511173654204847" lon="103.83070358353815">
        <ele>20.0</ele>
      </trkpt>
      <trkpt lat="1.351175478317974" lon="103.8306347341421">
        <ele>20.0</ele>
      </trkpt>
      <trkpt lat="1.3512335912134652" lon="103.83056588474277">
        <ele>20.0</ele>
      </trkpt>
      <trkpt lat="1.3512882857412385" lon="103.8304943965444">
        <ele>20.0</ele>
      </trkpt>
      <trkpt lat="1.3513410652124125" lon="103.83042143002314">
        <ele>20.0</ele>
      </trkpt>
      <trkpt lat="1.3513938446813505" lon="103.83034846349872">
        <ele>20.0</ele>
      </trkpt>
      <trkpt lat="1.3514450082469838" lon="103.83027438539857">
        <ele>20.0</ele>
      </trkpt>
      <trkpt lat="1.351495170460869" lon="103.83019961847064">
        <ele>20.0</ele>
      </trkpt>
      <trkpt lat="1.3515453326724105" lon="103.83012485153964">
        <ele>20.0</ele>
      </trkpt>
      <trkpt lat="1.351589845658769" lon="103.83004713223346">
        <ele>20.0</ele>
      </trkpt>
      <trkpt lat="1.351620236530637" lon="103.8299637960418">
        <ele>20.0</ele>
      </trkpt>
      <trkpt lat="1.351575629613526" lon="103.82988855303965">
        <ele>20.0</ele>
      </trkpt>
      <trkpt lat="1.3514929157826987" lon="103.82985461684837">
        <ele>20.0</ele>
      </trkpt>
      <trkpt lat="1.3514025461984156" lon="103.82985807137715">
        <ele>20.0</ele>
      </trkpt>
      <trkpt lat="1.3513121665453867" lon="103.82986025466185">
        <ele>20.0</ele>
      </trkpt>
      <trkpt lat="1.3512217534347142" lon="103.82985821368247">
        <ele>20.0</ele>
      </trkpt>
      <trkpt lat="1.3511313403239722" lon="103.82985617270324">
        <ele>20.0</ele>
      </trkpt>
      <trkpt lat="1.3510409272131616" lon="103.82985413172418">
        <ele>20.0</ele>
      </trkpt>
      <trkpt lat="1.3509530042371112" lon="103.82983600753087">
        <ele>20.0</ele>
      </trkpt>
      <trkpt lat="1.350866154097419" lon="103.82981095413132">
        <ele>20.0</ele>
      </trkpt>
      <trkpt lat="1.3507793039574088" lon="103.82978590073355">
        <ele>20.0</ele>
      </trkpt>
      <trkpt lat="1.3507039596973276" lon="103.82973626432903">
        <ele>20.0</ele>
      </trkpt>
      <trkpt lat="1.3506287128730716" lon="103.82968641974776">
        <ele>20.0</ele>
      </trkpt>
      <trkpt lat="1.3505534660477485" lon="103.82963657516956">
        <ele>20.0</ele>
      </trkpt>
      <trkpt lat="1.3504979481949693" lon="103.82956585182725">
        <ele>20.0</ele>
      </trkpt>
      <trkpt lat="1.3504431411924864" lon="103.82949437620766">
        <ele>20.0</ele>
      </trkpt>
      <trkpt lat="1.3504165774677743" lon="103.82941221222566">
        <ele>20.0</ele>
      </trkpt>
      <trkpt lat="1.3504096407174928" lon="103.82932262062612">
        <ele>20.0</ele>
      </trkpt>
      <trkpt lat="1.3504092723293672" lon="103.82923345610287">
        <ele>20.0</ele>
      </trkpt>
      <trkpt lat="1.350427901032263" lon="103.82914552677201">
        <ele>20.0</ele>
      </trkpt>
      <trkpt lat="1.350467195275376" lon="103.8290705069517">
        <ele>20.0</ele>
      </trkpt>
      <trkpt lat="1.350538875627364" lon="103.82901571833548">
        <ele>20.0</ele>
      </trkpt>
      <trkpt lat="1.3506173142676636" lon="103.82897144468508">
        <ele>20.0</ele>
      </trkpt>
      <trkpt lat="1.3506974923917088" lon="103.82892987743064">
        <ele>20.0</ele>
      </trkpt>
      <trkpt lat="1.3507821128347104" lon="103.82889943978542">
        <ele>20.0</ele>
      </trkpt>
      <trkpt lat="1.350869170916678" lon="103.82887510930337">
        <ele>20.0</ele>
      </trkpt>
      <trkpt lat="1.350956228998332" lon="103.8288507788196">
        <ele>20.0</ele>
      </trkpt>
      <trkpt lat="1.35104515752537" lon="103.82883453459344">
        <ele>20.0</ele>
      </trkpt>
      <trkpt lat="1.3511341711948868" lon="103.8288186584525">
        <ele>20.0</ele>
      </trkpt>
      <trkpt lat="1.3512231848642293" lon="103.8288027823104">
        <ele>20.0</ele>
      </trkpt>
      <trkpt lat="1.3513123253202546" lon="103.82878762805812">
        <ele>20.0</ele>
      </trkpt>
      <trkpt lat="1.3514014898122015" lon="103.82877261065987">
        <ele>20.0</ele>
      </trkpt>
      <trkpt lat="1.3514906543039855" lon="103.8287575932605">
        <ele>20.0</ele>
      </trkpt>
      <trkpt lat="1.3515798187956065" lon="103.82874257586005">
        <ele>20.0</ele>
      </trkpt>
      <trkpt lat="1.3516687456140493" lon="103.82872639059181">
        <ele>20.0</ele>
      </trkpt>
      <trkpt lat="1.3517567774937103" lon="103.82870580781446">
        <ele>20.0</ele>
      </trkpt>
      <trkpt lat="1.3518448093731263" lon="103.82868522503561">
        <ele>20.0</ele>
      </trkpt>
      <trkpt lat="1.3519273169145098" lon="103.82865045372543">
        <ele>20.0</ele>
      </trkpt>
      <trkpt lat="1.3520008669026349" lon="103.82860030320944">
        <ele>20.0</ele>
      </trkpt>
      <trkpt lat="1.3520577666759634" lon="103.82853046064916">
        <ele>20.0</ele>
      </trkpt>
      <trkpt lat="1.3521096202494178" lon="103.82845729577399">
        <ele>20.0</ele>
      </trkpt>
      <trkpt lat="1.352152175713901" lon="103.82837800921601">
        <ele>20.0</ele>
      </trkpt>
      <trkpt lat="1.3521947311757532" lon="103.82829872265529">
        <ele>20.0</ele>
      </trkpt>
      <trkpt lat="1.3522372866349743" lon="103.82821943609181">
        <ele>20.0</ele>
      </trkpt>
      <trkpt lat="1.3522855380987413" lon="103.82814392091434">
        <ele>20.0</ele>
      </trkpt>
      <trkpt lat="1.352342803381934" lon="103.82807437388384">
        <ele>20.0</ele>
      </trkpt>
      <trkpt lat="1.3524000686630815" lon="103.82800482685005">
        <ele>20.0</ele>
      </trkpt>
      <trkpt lat="1.3524573339421837" lon="103.82793527981302">
        <ele>20.0</ele>
      </trkpt>
      <trkpt lat="1.352516337307946" lon="103.82786718228854">
        <ele>20.0</ele>
      </trkpt>
      <trkpt lat="1.3525753463971033" lon="103.82779908953559">
        <ele>20.0</ele>
      </trkpt>
      <trkpt lat="1.3526343554842952" lon="103.82773099677932">
        <ele>20.0</ele>
      </trkpt>
      <trkpt lat="1.3526925042636495" lon="103.82766219711192">
        <ele>20.0</ele>
      </trkpt>
      <trkpt lat="1.3527487424260896" lon="103.82759182750121">
        <ele>20.0</ele>
      </trkpt>
      <trkpt lat="1.352804980586436" lon="103.82752145788727">
        <ele>20.0</ele>
      </trkpt>
      <trkpt lat="1.3528612187446887" lon="103.8274510882701">
        <ele>20.0</ele>
      </trkpt>
      <trkpt lat="1.3529167714265011" lon="103.827380183421">
        <ele>20.0</ele>
      </trkpt>
      <trkpt lat="1.3529722914060258" lon="103.82730925303589">
        <ele>20.0</ele>
      </trkpt>
      <trkpt lat="1.3530278113834242" lon="103.82723832264759">
        <ele>20.0</ele>
      </trkpt>
      <trkpt lat="1.3530659180080322" lon="103.82715871054052">
        <ele>20.0</ele>
      </trkpt>
      <trkpt lat="1.3530899655144628" lon="103.82707208902572">
        <ele>20.0</ele>
      </trkpt>
      <trkpt lat="1.3530941990680663" lon="103.82698444293588">
        <ele>20.0</ele>
      </trkpt>
      <trkpt lat="1.3530793313380969" lon="103.82689580912502">
        <ele>20.0</ele>
      </trkpt>
      <trkpt lat="1.3530644636048716" lon="103.82680717531527">
        <ele>20.0</ele>
      </trkpt>
      <trkpt lat="1.353048635838883" lon="103.8267187068385">
        <ele>20.0</ele>
      </trkpt>
      <trkpt lat="1.3530326146137612" lon="103.82663027167902">
        <ele>20.0</ele>
      </trkpt>
      <trkpt lat="1.3530165933853997" lon="103.8265418365207">
        <ele>20.0</ele>
      </trkpt>
      <trkpt lat="1.3529998597449782" lon="103.82645367281344">
        <ele>20.0</ele>
      </trkpt>
      <trkpt lat="1.3529522592440155" lon="103.82637727033912">
        <ele>20.0</ele>
      </trkpt>
      <trkpt lat="1.3529049074453892" lon="103.82630071726359">
        <ele>20.0</ele>
      </trkpt>
      <trkpt lat="1.3528583794492304" lon="103.82622366533255">
        <ele>20.0</ele>
      </trkpt>
      <trkpt lat="1.3528187124130417" lon="103.82614362972555">
        <ele>20.0</ele>
      </trkpt>
      <trkpt lat="1.3527933092609885" lon="103.82605739107574">
        <ele>20.0</ele>
      </trkpt>
      <trkpt lat="1.3527679061058555" lon="103.82597115242774">
        <ele>20.0</ele>
      </trkpt>
      <trkpt lat="1.352742502947643" lon="103.82588491378154">
        <ele>20.0</ele>
      </trkpt>
      <trkpt lat="1.3527169242856945" lon="103.82579872638209">
        <ele>20.0</ele>
      </trkpt>
      <trkpt lat="1.3526913295641423" lon="103.82571254367286">
        <ele>20.0</ele>
      </trkpt>
      <trkpt lat="1.3526657348395146" lon="103.82562636096544">
        <ele>20.0</ele>
      </trkpt>
      <trkpt lat="1.3526401401118127" lon="103.82554017825986">
        <ele>20.0</ele>
      </trkpt>
      <trkpt lat="1.3526145453810356" lon="103.82545399555609">
        <ele>20.0</ele>
      </trkpt>
      <trkpt lat="1.3525963676170767" lon="103.82536599252305">
        <ele>20.075754683344638</ele>
      </trkpt>
      <trkpt lat="1.3525786316573305" lon="103.82527788105946">
        <ele>20.645835973000874</ele>
      </trkpt>
      <trkpt lat="1.3525440213678817" lon="103.82519593228707">
        <ele>21.68647496816706</ele>
      </trkpt>
      <trkpt lat="1.3525001026588583" lon="103.82511738305362">
        <ele>23.12136318571784</ele>
      </trkpt>
      <trkpt lat="1.352456035286318" lon="103.8250389163925">
        <ele>24.530925450071674</ele>
      </trkpt>
      <trkpt lat="1.3524116986000068" lon="103.82496059931543">
        <ele>25.938930662030415</ele>
      </trkpt>
      <trkpt lat="1.3523673619111538" lon="103.82488228224122">
        <ele>27.24402865632609</ele>
      </trkpt>
      <trkpt lat="1.3523318732959808" lon="103.82480040426171">
        <ele>28.047481710151402</ele>
      </trkpt>
      <trkpt lat="1.352308858022664" lon="103.82471350638673">
        <ele>28.404309555395784</ele>
      </trkpt>
      <trkpt lat="1.3522974792327231" lon="103.82462464074779">
        <ele>28.44522625111104</ele>
      </trkpt>
      <trkpt lat="1.3522902667060088" lon="103.82453507058109">
        <ele>28.813742037990966</ele>
      </trkpt>
      <trkpt lat="1.3522830541759716" lon="103.82444550041495">
        <ele>29.454837184146044</ele>
      </trkpt>
      <trkpt lat="1.3522758416426117" lon="103.82435593024934">
        <ele>30.332034338399467</ele>
      </trkpt>
      <trkpt lat="1.352266633797254" lon="103.82426654684477">
        <ele>31.199482389652378</ele>
      </trkpt>
      <trkpt lat="1.3522568841740097" lon="103.82417721415086">
        <ele>32.1250208980127</ele>
      </trkpt>
      <trkpt lat="1.3522471345474605" lon="103.82408788145771">
        <ele>33.20266542954965</ele>
      </trkpt>
      <trkpt lat="1.3522373849176075" lon="103.8239985487653">
        <ele>34.43449783009036</ele>
      </trkpt>
      <trkpt lat="1.352227635284451" lon="103.8239092160736">
        <ele>35.752678539526606</ele>
      </trkpt>
      <trkpt lat="1.3522178856479905" lon="103.82381988338265">
        <ele>37.051588502459474</ele>
      </trkpt>
      <trkpt lat="1.3522012115661468" lon="103.82373202298997">
        <ele>38.29998691798799</ele>
      </trkpt>
      <trkpt lat="1.3521733119110646" lon="103.8236465494163">
        <ele>39.27636716833371</ele>
      </trkpt>
      <trkpt lat="1.352145412252961" lon="103.82356107584461">
        <ele>39.83262459537078</ele>
      </trkpt>
      <trkpt lat="1.352119009313464" lon="103.82347515383069">
        <ele>40.0</ele>
      </trkpt>
      <trkpt lat="1.3520947002749149" lon="103.82338860444797">
        <ele>40.0</ele>
      </trkpt>
      <trkpt lat="1.3520703912332688" lon="103.823302055067">
        <ele>40.0</ele>
      </trkpt>
      <trkpt lat="1.3520460821885265" lon="103.82321550568778">
        <ele>40.0</ele>
      </trkpt>
      <trkpt lat="1.352036501086796" lon="103.82312634590572">
        <ele>40.0</ele>
      </trkpt>
      <trkpt lat="1.3520291914986553" lon="103.82303678351707">
        <ele>40.0</ele>
      </trkpt>
      <trkpt lat="1.3520218819071936" lon="103.82294722112894">
        <ele>40.0</ele>
      </trkpt>
      <trkpt lat="1.3520057931696987" lon="103.82285882070214">
        <ele>40.0</ele>
      </trkpt>
      <trkpt lat="1.3519892514993916" lon="103.8227704802239">
        <ele>40.0</ele>
      </trkpt>
      <trkpt lat="1.3519727098258574" lon="103.82268213974686">
        <ele>40.0</ele>
      </trkpt>
      <trkpt lat="1.35195250646655" lon="103.8225946045049">
        <ele>40.0</ele>
      </trkpt>
      <trkpt lat="1.351929984265006" lon="103.82250757919616">
        <ele>40.0</ele>
      </trkpt>
      <trkpt lat="1.3519074620603324" lon="103.82242055388902">
        <ele>40.0</ele>
      </trkpt>
      <trkpt lat="1.3518849398525281" lon="103.82233352858351">
        <ele>40.0</ele>
      </trkpt>
      <trkpt lat="1.3518624176415948" lon="103.82224650327964">
        <ele>40.0</ele>
      </trkpt>
      <trkpt lat="1.3518398954275324" lon="103.8221594779774">
        <ele>40.0</ele>
      </trkpt>
      <trkpt lat="1.3518365165419235" lon="103.82206981585826">
        <ele>40.0</ele>
      </trkpt>
      <trkpt lat="1.351834362906147" lon="103.82197998497195">
        <ele>40.0</ele>
      </trkpt>
      <trkpt lat="1.3518322092670283" lon="103.82189015408582">
        <ele>40.0</ele>
      </trkpt>
      <trkpt lat="1.3518300556245662" lon="103.82180032319988">
        <ele>40.0</ele>
      </trkpt>
      <trkpt lat="1.3518279019787618" lon="103.82171049231414">
        <ele>40.0</ele>
      </trkpt>
      <trkpt lat="1.3518257483296139" lon="103.82162066142857">
        <ele>40.0</ele>
      </trkpt>
      <trkpt lat="1.3518285339942464" lon="103.8215312421363">
        <ele>40.0</ele>
      </trkpt>
      <trkpt lat="1.3518457167648361" lon="103.8214430225539">
        <ele>40.0</ele>
      </trkpt>
      <trkpt lat="1.3518628995321873" lon="103.82135480297028">
        <ele>40.0</ele>
      </trkpt>
      <trkpt lat="1.3518969868153767" lon="103.82127281233446">
        <ele>40.0</ele>
      </trkpt>
      <trkpt lat="1.351941852765513" lon="103.8211947934023">
        <ele>40.0</ele>
      </trkpt>
      <trkpt lat="1.3519796909874404" lon="103.82111336956302">
        <ele>40.0</ele>
      </trkpt>
      <trkpt lat="1.3520139306483494" lon="103.82103020223467">
        <ele>40.0</ele>
      </trkpt>
      <trkpt lat="1.3520347194683187" lon="103.82094284997318">
        <ele>40.0</ele>
      </trkpt>
      <trkpt lat="1.3520370566377038" lon="103.82085391301783">
        <ele>40.0</ele>
      </trkpt>
      <trkpt lat="1.3520301197494378" lon="103.82076432137143">
        <ele>40.0</ele>
      </trkpt>
      <trkpt lat="1.3520464338396452" lon="103.82067838433365">
        <ele>40.0</ele>
      </trkpt>
      <trkpt lat="1.3520808644498465" lon="103.82059529486389">
        <ele>40.0</ele>
      </trkpt>
      <trkpt lat="1.3521474266677487" lon="103.82055098020415">
        <ele>40.0</ele>
      </trkpt>
      <trkpt lat="1.352236106500763" lon="103.82053335596981">
        <ele>40.0</ele>
      </trkpt>
      <trkpt lat="1.3523248654473148" lon="103.82053282173875">
        <ele>40.46441751330267</ele>
      </trkpt>
      <trkpt lat="1.352413704698035" lon="103.82054963470496">
        <ele>41.603833833333546</ele>
      </trkpt>
      <trkpt lat="1.3525037117551513" lon="103.82055596368629">
        <ele>43.42867140727689</ele>
      </trkpt>
      <trkpt lat="1.3525941012144247" lon="103.82055885965097">
        <ele>45.45979195326408</ele>
      </trkpt>
      <trkpt lat="1.3526715104955975" lon="103.82052300307171">
        <ele>47.0685751813916</ele>
      </trkpt>
      <trkpt lat="1.352726941612386" lon="103.82045417404301">
        <ele>47.91863663493579</ele>
      </trkpt>
      <trkpt lat="1.3527672464979534" lon="103.82037450027657">
        <ele>47.74953005908188</ele>
      </trkpt>
      <trkpt lat="1.3527725556827424" lon="103.82028479884951">
        <ele>46.91398311000841</ele>
      </trkpt>
      <trkpt lat="1.3527680379830274" lon="103.82019507672594">
        <ele>45.79761679934728</ele>
      </trkpt>
      <trkpt lat="1.3527631115769927" lon="103.82010535374198">
        <ele>44.710775160972396</ele>
      </trkpt>
      <trkpt lat="1.3527581851676227" lon="103.82001563075843">
        <ele>43.600706581803685</ele>
      </trkpt>
      <trkpt lat="1.3527532587549176" lon="103.81992590777527">
        <ele>42.422281803908184</ele>
      </trkpt>
      <trkpt lat="1.3527557433183712" lon="103.81983622915187">
        <ele>41.28521848806604</ele>
      </trkpt>
      <trkpt lat="1.3527732038346607" lon="103.8197519547471">
        <ele>40.80312612569137</ele>
      </trkpt>
      <trkpt lat="1.3528391779668176" lon="103.81969049548609">
        <ele>40.97542703462069</ele>
      </trkpt>
      <trkpt lat="1.3529061728440555" lon="103.81963023141896">
        <ele>41.72247646283048</ele>
      </trkpt>
      <trkpt lat="1.3529779414687617" lon="103.8195755569541">
        <ele>42.548715364596426</ele>
      </trkpt>
      <trkpt lat="1.3530497100921532" lon="103.81952088248603">
        <ele>43.240879728312414</ele>
      </trkpt>
      <trkpt lat="1.3531224053275255" lon="103.81946755561133">
        <ele>43.809718101549095</ele>
      </trkpt>
      <trkpt lat="1.3531997591760188" lon="103.81942100387128">
        <ele>44.25524299199583</ele>
      </trkpt>
      <trkpt lat="1.3532771130235333" lon="103.81937445212827">
        <ele>44.77676634926243</ele>
      </trkpt>
      <trkpt lat="1.353354466870068" lon="103.8193279003823">
        <ele>45.29828970652903</ele>
      </trkpt>
      <trkpt lat="1.3534318207156235" lon="103.81928134863337">
        <ele>45.819813063795635</ele>
      </trkpt>
      <trkpt lat="1.3535091745601993" lon="103.81923479688146">
        <ele>46.349024066190815</ele>
      </trkpt>
      <trkpt lat="1.3535865284037951" lon="103.8191882451266">
        <ele>46.716413503974856</ele>
      </trkpt>
      <trkpt lat="1.3536521726805562" lon="103.8191272626371">
        <ele>46.8702822337288</ele>
      </trkpt>
      <trkpt lat="1.3537143668903233" lon="103.81906202832435">
        <ele>45.485734401398105</ele>
      </trkpt>
      <trkpt lat="1.3537494766922897" lon="103.81897944669447">
        <ele>43.17840727568204</ele>
      </trkpt>
      <trkpt lat="1.3537835952796313" lon="103.81889623020024">
        <ele>40.910759738907274</ele>
      </trkpt>
      <trkpt lat="1.3538151950726174" lon="103.81881204551303">
        <ele>40.0</ele>
      </trkpt>
      <trkpt lat="1.3538463267488938" lon="103.81872768088687">
        <ele>40.0</ele>
      </trkpt>
      <trkpt lat="1.3538774584221844" lon="103.81864331625857">
        <ele>40.0</ele>
      </trkpt>
      <trkpt lat="1.3539085900924894" lon="103.81855895162816">
        <ele>40.0</ele>
      </trkpt>
      <trkpt lat="1.3539397217598088" lon="103.81847458699562">
        <ele>40.0</ele>
      </trkpt>
      <trkpt lat="1.3539708534241421" lon="103.81839022236095">
        <ele>40.0</ele>
      </trkpt>
      <trkpt lat="1.3540131107839586" lon="103.81831636923842">
        <ele>40.0</ele>
      </trkpt>
      <trkpt lat="1.3540963462074656" lon="103.81828123202142">
        <ele>40.0</ele>
      </trkpt>
      <trkpt lat="1.3541825070683173" lon="103.81825437424364">
        <ele>40.0</ele>
      </trkpt>
      <trkpt lat="1.3542695821140727" lon="103.81823010374967">
        <ele>40.0</ele>
      </trkpt>
      <trkpt lat="1.3543590315974903" lon="103.81822903434961">
        <ele>40.0</ele>
      </trkpt>
      <trkpt lat="1.3544492413003748" lon="103.81823539320315">
        <ele>40.0</ele>
      </trkpt>
      <trkpt lat="1.3545396037317496" lon="103.81823743879333">
        <ele>40.0</ele>
      </trkpt>
      <trkpt lat="1.3546300401578955" lon="103.81823739466799">
        <ele>40.0</ele>
      </trkpt>
      <trkpt lat="1.354720476583973" lon="103.8182373505426">
        <ele>40.0</ele>
      </trkpt>
      <trkpt lat="1.3548093951199356" lon="103.81825261360535">
        <ele>40.0</ele>
      </trkpt>
      <trkpt lat="1.3548980839591318" lon="103.8182701930485">
        <ele>40.0</ele>
      </trkpt>
      <trkpt lat="1.354985209176251" lon="103.8182531273887">
        <ele>40.0</ele>
      </trkpt>
      <trkpt lat="1.3550742576100627" lon="103.81824354008658">
        <ele>40.0</ele>
      </trkpt>
      <trkpt lat="1.3551646940360216" lon="103.81824349638967">
        <ele>40.0</ele>
      </trkpt>
      <trkpt lat="1.3552551304617326" lon="103.81824345232857">
        <ele>40.0</ele>
      </trkpt>
      <trkpt lat="1.3553455668873555" lon="103.81824340822456">
        <ele>40.0</ele>
      </trkpt>
      <trkpt lat="1.3554349565694637" lon="103.81825484571765">
        <ele>40.0</ele>
      </trkpt>
      <trkpt lat="1.355523913002898" lon="103.81827103546024">
        <ele>40.0</ele>
      </trkpt>
      <trkpt lat="1.3556128694361707" lon="103.818287225204">
        <ele>40.0</ele>
      </trkpt>
      <trkpt lat="1.3557020609266535" lon="103.81829822923875">
        <ele>40.0</ele>
      </trkpt>
      <trkpt lat="1.3557921219435511" lon="103.81829005024358">
        <ele>40.0</ele>
      </trkpt>
      <trkpt lat="1.3558821829603467" lon="103.81828187124775">
        <ele>40.0</ele>
      </trkpt>
      <trkpt lat="1.3559722439770407" lon="103.81827369225128">
        <ele>40.0</ele>
      </trkpt>
      <trkpt lat="1.356062442983184" lon="103.81826850349302">
        <ele>40.0</ele>
      </trkpt>
      <trkpt lat="1.3561528794083233" lon="103.81826845961491">
        <ele>40.0</ele>
      </trkpt>
      <trkpt lat="1.3562433158333942" lon="103.81826841573675">
        <ele>40.0</ele>
      </trkpt>
      <trkpt lat="1.3563337522583978" lon="103.81826837185857">
        <ele>40.0</ele>
      </trkpt>
      <trkpt lat="1.3564241886833337" lon="103.81826832798033">
        <ele>40.0</ele>
      </trkpt>
      <trkpt lat="1.356514625108225" lon="103.81826828415085">
        <ele>40.0</ele>
      </trkpt>
      <trkpt lat="1.3566050615330774" lon="103.81826824038058">
        <ele>40.0</ele>
      </trkpt>
      <trkpt lat="1.3566954979578627" lon="103.81826819661026">
        <ele>40.0</ele>
      </trkpt>
      <trkpt lat="1.3567859343825794" lon="103.81826815283992">
        <ele>40.0</ele>
      </trkpt>
      <trkpt lat="1.3568763708072284" lon="103.81826810906954">
        <ele>40.0</ele>
      </trkpt>
      <trkpt lat="1.3569401552066027" lon="103.81824800810504">
        <ele>40.0</ele>
      </trkpt>
      <trkpt lat="1.3569156975668861" lon="103.8181614998931">
        <ele>40.0</ele>
      </trkpt>
      <trkpt lat="1.3568911668949286" lon="103.81807501247486">
        <ele>40.0</ele>
      </trkpt>
      <trkpt lat="1.3568658020944637" lon="103.81798876254032">
        <ele>40.0</ele>
      </trkpt>
      <trkpt lat="1.3568456301323286" lon="103.81790177295665">
        <ele>40.0</ele>
      </trkpt>
      <trkpt lat="1.356845586117646" lon="103.81781191641572">
        <ele>40.0</ele>
      </trkpt>
      <trkpt lat="1.3568455420447918" lon="103.81772205987488">
        <ele>40.0</ele>
      </trkpt>
      <trkpt lat="1.3568454975778719" lon="103.81763220333427">
        <ele>40.0</ele>
      </trkpt>
      <trkpt lat="1.3568454532993166" lon="103.81754234679359">
        <ele>40.0</ele>
      </trkpt>
      <trkpt lat="1.3568460199762853" lon="103.81745260379131">
        <ele>40.0</ele>
      </trkpt>
      <trkpt lat="1.3568787570938552" lon="103.8173688411455">
        <ele>40.0</ele>
      </trkpt>
      <trkpt lat="1.3569114942084712" lon="103.81728507849745">
        <ele>40.0</ele>
      </trkpt>
      <trkpt lat="1.356945260090226" lon="103.81720177811839">
        <ele>40.0</ele>
      </trkpt>
      <trkpt lat="1.3569869442246603" lon="103.81712203575394">
        <ele>40.0</ele>
      </trkpt>
      <trkpt lat="1.3570290021661284" lon="103.81704251263928">
        <ele>40.0</ele>
      </trkpt>
      <trkpt lat="1.3570791301515286" lon="103.8169677228864">
        <ele>40.0</ele>
      </trkpt>
      <trkpt lat="1.3571273124254308" lon="103.8168917790025">
        <ele>40.0</ele>
      </trkpt>
      <trkpt lat="1.357169786565766" lon="103.81681244924802">
        <ele>40.0</ele>
      </trkpt>
      <trkpt lat="1.3571839696955739" lon="103.81678595914676">
        <ele>40.0</ele>
      </trkpt>
    </trkseg>
  </trk>
</gpx>