<?xml version="1.0" encoding="UTF-8"?>
<gpx xmlns="http://www.topografix.com/GPX/1/1" xmlns:xsi="http://www.w3.org/2001/XMLSchema-instance" xsi:schemaLocation="http://www.topografix.com/GPX/1/1 http://www.topografix.com/GPX/1/1/gpx.xsd" version="1.1" creator="gpx.py -- https://github.com/tkrajina/gpxpy">
  <trk>
    <name>point_to_point_05000m_016</name>
    <trkseg>
      <trkpt lat="1.4092684515623988" lon="103.99033348609765">
        <ele>3.802857231094719</ele>
      </trkpt>
      <trkpt lat="1.4093489546189912" lon="103.99037113612602">
        <ele>3.421334884280474</ele>
      </trkpt>
      <trkpt lat="1.4094388872977697" lon="103.99037090216075">
        <ele>2.41652275673747</ele>
      </trkpt>
      <trkpt lat="1.4095246117870368" lon="103.99034371240408">
        <ele>1.1407856210680356</ele>
      </trkpt>
      <trkpt lat="1.4095942188912047" lon="103.9902874696789">
        <ele>0.2897520704193695</ele>
      </trkpt>
      <trkpt lat="1.4096286626830383" lon="103.99020669158548">
        <ele>0.22583353784761992</ele>
      </trkpt>
      <trkpt lat="1.4096213386114358" lon="103.99011726033834">
        <ele>0.5770653194447459</ele>
      </trkpt>
      <trkpt lat="1.4096167711064864" lon="103.99002777422388">
        <ele>1.0970623158558088</ele>
      </trkpt>
      <trkpt lat="1.4096415629893617" lon="103.9899415717557">
        <ele>1.6786310587910407</ele>
      </trkpt>
      <trkpt lat="1.4096797049012926" lon="103.98986019821885">
        <ele>2.32463739551901</ele>
      </trkpt>
      <trkpt lat="1.4097299336546312" lon="103.98978562197418">
        <ele>2.991819069563222</ele>
      </trkpt>
      <trkpt lat="1.4097969433122821" lon="103.98972605666869">
        <ele>3.653764625083563</ele>
      </trkpt>
      <trkpt lat="1.4098775151776468" lon="103.98968556493496">
        <ele>4.297630653518846</ele>
      </trkpt>
      <trkpt lat="1.4099606220402832" lon="103.98965012868187">
        <ele>4.93409865544401</ele>
      </trkpt>
      <trkpt lat="1.410037476347643" lon="103.98960333900474">
        <ele>5.573662436886778</ele>
      </trkpt>
      <trkpt lat="1.4101051611008388" lon="103.98954381858864">
        <ele>6.202169293435973</ele>
      </trkpt>
      <trkpt lat="1.4101733597334838" lon="103.9894849390317">
        <ele>6.787295620422667</ele>
      </trkpt>
      <trkpt lat="1.4102537868681708" lon="103.98944443331993">
        <ele>7.307736116389269</ele>
      </trkpt>
      <trkpt lat="1.4103406800623188" lon="103.98941996897426">
        <ele>7.707235540970085</ele>
      </trkpt>
      <trkpt lat="1.4104303679125572" lon="103.98940907351255">
        <ele>7.9884924734931495</ele>
      </trkpt>
      <trkpt lat="1.410520729137828" lon="103.98940687181268">
        <ele>8.161360412429811</ele>
      </trkpt>
      <trkpt lat="1.4106110468268536" lon="103.98941102024287">
        <ele>8.291409936075931</ele>
      </trkpt>
      <trkpt lat="1.4107010558086086" lon="103.98941968684174">
        <ele>8.369915591974623</ele>
      </trkpt>
      <trkpt lat="1.410788528218738" lon="103.98944029477144">
        <ele>8.333380585604443</ele>
      </trkpt>
      <trkpt lat="1.410861309320898" lon="103.98949248228578">
        <ele>8.125621495288032</ele>
      </trkpt>
      <trkpt lat="1.4109138271744595" lon="103.98956553567778">
        <ele>7.767848214751232</ele>
      </trkpt>
      <trkpt lat="1.4109640068421312" lon="103.98964026148371">
        <ele>7.326845759029273</ele>
      </trkpt>
      <trkpt lat="1.4110079246107523" lon="103.9897187542977">
        <ele>6.857578942819885</ele>
      </trkpt>
      <trkpt lat="1.411044127896795" lon="103.98980106169607">
        <ele>6.3578130780967905</ele>
      </trkpt>
      <trkpt lat="1.4110733014516366" lon="103.9898860771885">
        <ele>5.833156375083697</ele>
      </trkpt>
      <trkpt lat="1.4110977051433347" lon="103.98997256402897">
        <ele>5.283775080727321</ele>
      </trkpt>
      <trkpt lat="1.4111070563527572" lon="103.99006154062867">
        <ele>4.711305688385589</ele>
      </trkpt>
      <trkpt lat="1.4110869442592264" lon="103.99014866216243">
        <ele>4.126683518233533</ele>
      </trkpt>
      <trkpt lat="1.411051160917183" lon="103.99023042761954">
        <ele>3.62265461046819</ele>
      </trkpt>
      <trkpt lat="1.4109714139216671" lon="103.99026759567464">
        <ele>3.292492888595488</ele>
      </trkpt>
      <trkpt lat="1.4108811479117247" lon="103.99026372856866">
        <ele>3.0938510053376205</ele>
      </trkpt>
      <trkpt lat="1.4107920818490223" lon="103.99027388162044">
        <ele>2.854900820002945</ele>
      </trkpt>
      <trkpt lat="1.4107175585524898" lon="103.99032403065821">
        <ele>2.4751969155309794</ele>
      </trkpt>
      <trkpt lat="1.4106485040036942" lon="103.99038205007957">
        <ele>1.9947115137746623</ele>
      </trkpt>
      <trkpt lat="1.4105778367924047" lon="103.9904380353184">
        <ele>1.5244365832581621</ele>
      </trkpt>
      <trkpt lat="1.4104993423464698" lon="103.99048249015395">
        <ele>1.0967414160792877</ele>
      </trkpt>
      <trkpt lat="1.4104160630773328" lon="103.99051736807988">
        <ele>0.7460550735447894</ele>
      </trkpt>
      <trkpt lat="1.4103282430533184" lon="103.99053371888353">
        <ele>0.5108096581832396</ele>
      </trkpt>
      <trkpt lat="1.4102386328472962" lon="103.99052253688383">
        <ele>0.36077948589940795</ele>
      </trkpt>
      <trkpt lat="1.4101483899783924" lon="103.99051666661207">
        <ele>0.2483092364061553</ele>
      </trkpt>
      <trkpt lat="1.4100579802309932" lon="103.99051518113698">
        <ele>0.12405592472989484</ele>
      </trkpt>
      <trkpt lat="1.4099676070389042" lon="103.9905182730016">
        <ele>0.21651579825970046</ele>
      </trkpt>
      <trkpt lat="1.4098775158990868" lon="103.99052602250894">
        <ele>1.0255998486136257</ele>
      </trkpt>
      <trkpt lat="1.4097879331493224" lon="103.99053823826307">
        <ele>2.4686474027422016</ele>
      </trkpt>
      <trkpt lat="1.4096990840167156" lon="103.99055490138986">
        <ele>4.305708800662916</ele>
      </trkpt>
      <trkpt lat="1.409610528833626" lon="103.99057295961038">
        <ele>5.221192341300376</ele>
      </trkpt>
      <trkpt lat="1.409546352092708" lon="103.99063116832427">
        <ele>4.579760207553576</ele>
      </trkpt>
      <trkpt lat="1.4095157901043602" lon="103.99071568638847">
        <ele>2.662547787596841</ele>
      </trkpt>
      <trkpt lat="1.4094705778692875" lon="103.99079217836208">
        <ele>0.8999235358241143</ele>
      </trkpt>
      <trkpt lat="1.4093982466586554" lon="103.99084594505806">
        <ele>0.24596161618314663</ele>
      </trkpt>
      <trkpt lat="1.4093312927236537" lon="103.99090542418848">
        <ele>0.1476535007408095</ele>
      </trkpt>
      <trkpt lat="1.4093333341269019" lon="103.99099100761585">
        <ele>0.1476535007408095</ele>
      </trkpt>
      <trkpt lat="1.4093483173045407" lon="103.99107883650265">
        <ele>0.0</ele>
      </trkpt>
      <trkpt lat="1.4093387183787174" lon="103.99116812567402">
        <ele>0.0</ele>
      </trkpt>
      <trkpt lat="1.4093331188448777" lon="103.99125757516151">
        <ele>0.0</ele>
      </trkpt>
      <trkpt lat="1.4093557062404842" lon="103.99134422172129">
        <ele>0.0</ele>
      </trkpt>
      <trkpt lat="1.4093874904277137" lon="103.99142834739047">
        <ele>0.0</ele>
      </trkpt>
      <trkpt lat="1.4094066798849647" lon="103.99151576028251">
        <ele>0.0</ele>
      </trkpt>
      <trkpt lat="1.4093806359640357" lon="103.99160055342504">
        <ele>0.0</ele>
      </trkpt>
      <trkpt lat="1.4093299758732964" lon="103.99167491309991">
        <ele>0.0</ele>
      </trkpt>
      <trkpt lat="1.4092739970444925" lon="103.99174540227251">
        <ele>0.0</ele>
      </trkpt>
      <trkpt lat="1.4092113300926192" lon="103.99181014622117">
        <ele>0.0</ele>
      </trkpt>
      <trkpt lat="1.4091457224418955" lon="103.99187199153874">
        <ele>0.0</ele>
      </trkpt>
      <trkpt lat="1.4090814504328784" lon="103.99193517772932">
        <ele>0.0</ele>
      </trkpt>
      <trkpt lat="1.4090209238635034" lon="103.99200191977002">
        <ele>0.0</ele>
      </trkpt>
      <trkpt lat="1.4089611288703232" lon="103.99206933339644">
        <ele>0.0</ele>
      </trkpt>
      <trkpt lat="1.4089028533613277" lon="103.99213803732628">
        <ele>0.0</ele>
      </trkpt>
      <trkpt lat="1.4088451509110507" lon="103.9922072278803">
        <ele>0.0</ele>
      </trkpt>
      <trkpt lat="1.4087902656231486" lon="103.99227861846522">
        <ele>0.0</ele>
      </trkpt>
      <trkpt lat="1.408734330949664" lon="103.99234916847026">
        <ele>0.0</ele>
      </trkpt>
      <trkpt lat="1.4086685139805242" lon="103.99241043944733">
        <ele>0.0</ele>
      </trkpt>
      <trkpt lat="1.4086006096874466" lon="103.99246953217593">
        <ele>0.0</ele>
      </trkpt>
      <trkpt lat="1.4085228916588668" lon="103.99251520640479">
        <ele>0.0</ele>
      </trkpt>
      <trkpt lat="1.408439558890151" lon="103.99254984119004">
        <ele>0.0</ele>
      </trkpt>
      <trkpt lat="1.4083522996515194" lon="103.99257312684702">
        <ele>0.0</ele>
      </trkpt>
      <trkpt lat="1.4082624286822671" lon="103.99258214696694">
        <ele>0.0</ele>
      </trkpt>
      <trkpt lat="1.4081721031582273" lon="103.99258012185051">
        <ele>0.0</ele>
      </trkpt>
      <trkpt lat="1.408082485980364" lon="103.99256843197985">
        <ele>0.0</ele>
      </trkpt>
      <trkpt lat="1.4079941958877962" lon="103.99254906709501">
        <ele>0.0</ele>
      </trkpt>
      <trkpt lat="1.4079082095379556" lon="103.99252139733751">
        <ele>0.0</ele>
      </trkpt>
      <trkpt lat="1.4078278037085343" lon="103.99248062100068">
        <ele>0.0</ele>
      </trkpt>
      <trkpt lat="1.4077594078024354" lon="103.99242234810475">
        <ele>0.0</ele>
      </trkpt>
      <trkpt lat="1.4077064437554412" lon="103.99234967997342">
        <ele>0.0</ele>
      </trkpt>
      <trkpt lat="1.407662063389957" lon="103.99227143824426">
        <ele>0.0</ele>
      </trkpt>
      <trkpt lat="1.4076270753566087" lon="103.99218866175588">
        <ele>0.0</ele>
      </trkpt>
      <trkpt lat="1.4076034881758892" lon="103.99210198316192">
        <ele>0.0</ele>
      </trkpt>
      <trkpt lat="1.4075877356520943" lon="103.99201353244149">
        <ele>0.0</ele>
      </trkpt>
      <trkpt lat="1.4075789557704779" lon="103.9919241128282">
        <ele>0.0</ele>
      </trkpt>
      <trkpt lat="1.40757405934984" lon="103.99183439657031">
        <ele>0.0</ele>
      </trkpt>
      <trkpt lat="1.4075696060224536" lon="103.9917446559346">
        <ele>0.0</ele>
      </trkpt>
      <trkpt lat="1.4075682278715098" lon="103.99165496348303">
        <ele>0.0</ele>
      </trkpt>
      <trkpt lat="1.4075968329840398" lon="103.99157050393232">
        <ele>0.0</ele>
      </trkpt>
      <trkpt lat="1.4076473071057207" lon="103.99149612375966">
        <ele>0.0</ele>
      </trkpt>
      <trkpt lat="1.4077075742020908" lon="103.99142914074538">
        <ele>0.0</ele>
      </trkpt>
      <trkpt lat="1.4077688168330418" lon="103.9913630227594">
        <ele>0.0</ele>
      </trkpt>
      <trkpt lat="1.407832631501112" lon="103.99129936495036">
        <ele>0.0</ele>
      </trkpt>
      <trkpt lat="1.4078825932521692" lon="103.99122548204099">
        <ele>0.0</ele>
      </trkpt>
      <trkpt lat="1.4079034595323672" lon="103.99113831102105">
        <ele>0.0</ele>
      </trkpt>
      <trkpt lat="1.40790687711216" lon="103.99104872237568">
        <ele>0.0</ele>
      </trkpt>
      <trkpt lat="1.4078959385868752" lon="103.99095952978833">
        <ele>0.0</ele>
      </trkpt>
      <trkpt lat="1.4078805691960954" lon="103.9908710529152">
        <ele>0.0</ele>
      </trkpt>
      <trkpt lat="1.407861478940448" lon="103.9907832421755">
        <ele>0.0</ele>
      </trkpt>
      <trkpt lat="1.4078621859951177" lon="103.9906938218186">
        <ele>0.0</ele>
      </trkpt>
      <trkpt lat="1.4078896104722989" lon="103.99060864533556">
        <ele>0.0</ele>
      </trkpt>
      <trkpt lat="1.407890730172692" lon="103.9906061133258">
        <ele>0.0</ele>
      </trkpt>
      <trkpt lat="1.407916171372555" lon="103.99051988412208">
        <ele>1.6666225702937776</ele>
      </trkpt>
      <trkpt lat="1.4079439744642968" lon="103.99043441169081">
        <ele>2.879181729090815</ele>
      </trkpt>
      <trkpt lat="1.4079755174953723" lon="103.99035141499232">
        <ele>4.441820623981014</ele>
      </trkpt>
      <trkpt lat="1.408060252533824" lon="103.99032479960871">
        <ele>5.781379891609518</ele>
      </trkpt>
      <trkpt lat="1.4081333366137812" lon="103.99027269780358">
        <ele>7.530716960506896</ele>
      </trkpt>
      <trkpt lat="1.4081960969833154" lon="103.99020800002602">
        <ele>8.38372932321297</ele>
      </trkpt>
      <trkpt lat="1.408245163768577" lon="103.99013280801275">
        <ele>8.133311540572853</ele>
      </trkpt>
      <trkpt lat="1.4082758031922256" lon="103.99004890002743">
        <ele>6.920875699868332</ele>
      </trkpt>
      <trkpt lat="1.4082973301181094" lon="103.9899616312434">
        <ele>4.979278518558114</ele>
      </trkpt>
      <trkpt lat="1.4083241681703214" lon="103.98987594952845">
        <ele>2.6664500931837067</ele>
      </trkpt>
      <trkpt lat="1.4083776266333028" lon="103.9898050007705">
        <ele>0.9169897061938137</ele>
      </trkpt>
      <trkpt lat="1.4084502428811336" lon="103.9897523489832">
        <ele>0.0013325449422406327</ele>
      </trkpt>
      <trkpt lat="1.4085328883619976" lon="103.9897191883511">
        <ele>0.0</ele>
      </trkpt>
      <trkpt lat="1.4086233184032284" lon="103.9897190802155">
        <ele>0.0</ele>
      </trkpt>
      <trkpt lat="1.4086940429067618" lon="103.98967288727572">
        <ele>0.0</ele>
      </trkpt>
      <trkpt lat="1.4087301582243852" lon="103.98959068170458">
        <ele>0.0</ele>
      </trkpt>
      <trkpt lat="1.4087700140679338" lon="103.98951009491819">
        <ele>0.0</ele>
      </trkpt>
      <trkpt lat="1.4087701141444553" lon="103.9895099026062">
        <ele>0.0</ele>
      </trkpt>
      <trkpt lat="1.4088261697789528" lon="103.98943949601534">
        <ele>0.4731648231736792</ele>
      </trkpt>
      <trkpt lat="1.4088861522416622" lon="103.98937224700052">
        <ele>1.051127116012182</ele>
      </trkpt>
      <trkpt lat="1.4089461347027736" lon="103.98930499798223">
        <ele>1.7338868785156194</ele>
      </trkpt>
      <trkpt lat="1.4090061171622863" lon="103.98923774896045">
        <ele>2.416646641019057</ele>
      </trkpt>
      <trkpt lat="1.4090660996202" lon="103.98917049993517">
        <ele>3.099406403522495</ele>
      </trkpt>
      <trkpt lat="1.4091260820765148" lon="103.98910325090642">
        <ele>3.7821661660259323</ele>
      </trkpt>
      <trkpt lat="1.4091860645312302" lon="103.98903600187418">
        <ele>4.463351295439684</ele>
      </trkpt>
      <trkpt lat="1.409252235238393" lon="103.98897514682805">
        <ele>5.141993813207805</ele>
      </trkpt>
      <trkpt lat="1.4093222100669236" lon="103.98891822237347">
        <ele>5.818093719330187</ele>
      </trkpt>
      <trkpt lat="1.409392184894392" lon="103.98886129791558">
        <ele>6.493225646896639</ele>
      </trkpt>
      <trkpt lat="1.4094621597207977" lon="103.98880437345437">
        <ele>7.168357574463088</ele>
      </trkpt>
      <trkpt lat="1.409532134546141" lon="103.98874744898983">
        <ele>7.8434895020295405</ele>
      </trkpt>
      <trkpt lat="1.4096021093704212" lon="103.98869052452196">
        <ele>8.367396760926388</ele>
      </trkpt>
      <trkpt lat="1.409625062630899" lon="103.9886718520606">
        <ele>8.629350390374812</ele>
      </trkpt>
      <trkpt lat="1.4096062219620045" lon="103.98858396549454">
        <ele>9.140197097339385</ele>
      </trkpt>
      <trkpt lat="1.4095873812896118" lon="103.98849607892953">
        <ele>9.537747289019949</ele>
      </trkpt>
      <trkpt lat="1.4095674017731197" lon="103.98840853611755">
        <ele>9.90215035090288</ele>
      </trkpt>
      <trkpt lat="1.409533858661171" lon="103.98832508739339">
        <ele>10.233406282988275</ele>
      </trkpt>
      <trkpt lat="1.4095003155459382" lon="103.98824163867134">
        <ele>10.509906913882963</ele>
      </trkpt>
      <trkpt lat="1.4094576001805477" lon="103.98816281915035">
        <ele>10.748205849760133</ele>
      </trkpt>
      <trkpt lat="1.4094095633731787" lon="103.98808668534267">
        <ele>10.907794191945563</ele>
      </trkpt>
      <trkpt lat="1.409363582412663" lon="103.98800935719571">
        <ele>11.00498400911114</ele>
      </trkpt>
      <trkpt lat="1.4093203692382092" lon="103.9879304211094">
        <ele>11.053801270376079</ele>
      </trkpt>
      <trkpt lat="1.4092771560607242" lon="103.9878514850258">
        <ele>11.094754874414406</ele>
      </trkpt>
      <trkpt lat="1.409233942880208" lon="103.9877725489449">
        <ele>11.135708478452683</ele>
      </trkpt>
      <trkpt lat="1.4091907296966615" lon="103.98769361286669">
        <ele>11.194812411869163</ele>
      </trkpt>
      <trkpt lat="1.4091475165100842" lon="103.9876146767912">
        <ele>11.274196380807219</ele>
      </trkpt>
      <trkpt lat="1.4091043033204769" lon="103.9875357407184">
        <ele>11.367203442218404</ele>
      </trkpt>
      <trkpt lat="1.409058659463299" lon="103.98745822096839">
        <ele>11.448582700147028</ele>
      </trkpt>
      <trkpt lat="1.4090104229574225" lon="103.98738221192596">
        <ele>11.516204448449903</ele>
      </trkpt>
      <trkpt lat="1.4089621864486845" lon="103.98730620288649">
        <ele>11.491230124236415</ele>
      </trkpt>
      <trkpt lat="1.4089196567768678" lon="103.98722699160268">
        <ele>11.331411308546436</ele>
      </trkpt>
      <trkpt lat="1.4088790562556752" lon="103.98714669782619">
        <ele>11.036748001379872</ele>
      </trkpt>
      <trkpt lat="1.4088384557313771" lon="103.98706640405226">
        <ele>10.6927357086757</ele>
      </trkpt>
      <trkpt lat="1.4087978552039728" lon="103.98698611028087">
        <ele>10.49239288018257</ele>
      </trkpt>
      <trkpt lat="1.4087532112286953" lon="103.9869082399522">
        <ele>10.51799360078593</ele>
      </trkpt>
      <trkpt lat="1.4087006672899813" lon="103.98683510447087">
        <ele>10.716099562593707</ele>
      </trkpt>
      <trkpt lat="1.4086367644175848" lon="103.9867716509753">
        <ele>10.939031743243277</ele>
      </trkpt>
      <trkpt lat="1.408572009265048" lon="103.98670892393717">
        <ele>11.042296201106764</ele>
      </trkpt>
      <trkpt lat="1.4085072541103936" lon="103.98664619690253">
        <ele>10.81864542217938</ele>
      </trkpt>
      <trkpt lat="1.4084424989536233" lon="103.98658346987136">
        <ele>10.272088964612685</ele>
      </trkpt>
      <trkpt lat="1.408377743794736" lon="103.98652074284367">
        <ele>9.464846685149128</ele>
      </trkpt>
      <trkpt lat="1.4083129886337324" lon="103.98645801581942">
        <ele>8.659556744236482</ele>
      </trkpt>
      <trkpt lat="1.4082487714579448" lon="103.9863948742077">
        <ele>7.925833121030702</ele>
      </trkpt>
      <trkpt lat="1.4082037371405114" lon="103.98631694964695">
        <ele>7.438543437281349</ele>
      </trkpt>
      <trkpt lat="1.4081587028201106" lon="103.98623902508898">
        <ele>7.217321408249276</ele>
      </trkpt>
      <trkpt lat="1.4081136684967421" lon="103.98616110053382">
        <ele>7.200804668519673</ele>
      </trkpt>
      <trkpt lat="1.408070441655" lon="103.98608246500402">
        <ele>7.261461487240214</ele>
      </trkpt>
      <trkpt lat="1.4080495912156845" lon="103.98599502767517">
        <ele>7.353465874397943</ele>
      </trkpt>
      <trkpt lat="1.4080385614424347" lon="103.9859062225847">
        <ele>7.5005152283441285</ele>
      </trkpt>
      <trkpt lat="1.408034413950875" lon="103.98581645897183">
        <ele>7.655273658181866</ele>
      </trkpt>
      <trkpt lat="1.4080302664558022" lon="103.98572669535888">
        <ele>7.831571235554641</ele>
      </trkpt>
      <trkpt lat="1.4080238613572191" lon="103.98563716813644">
        <ele>7.958864481068161</ele>
      </trkpt>
      <trkpt lat="1.4080090862260202" lon="103.98554851733005">
        <ele>8.009118647060808</ele>
      </trkpt>
      <trkpt lat="1.4079943110913051" lon="103.98545986652442">
        <ele>7.900096953253036</ele>
      </trkpt>
      <trkpt lat="1.4079792782407026" lon="103.98537127043703">
        <ele>7.733539103453151</ele>
      </trkpt>
      <trkpt lat="1.4079562976005213" lon="103.98528436182457">
        <ele>7.612132170851244</ele>
      </trkpt>
      <trkpt lat="1.4079333169568886" lon="103.98519745321349">
        <ele>7.655332715491241</ele>
      </trkpt>
      <trkpt lat="1.407916513593416" lon="103.98510928594689">
        <ele>7.815201559011785</ele>
      </trkpt>
      <trkpt lat="1.4079032138605576" lon="103.9850204047956">
        <ele>8.017086375884046</ele>
      </trkpt>
      <trkpt lat="1.4078899141241785" lon="103.98493152364496">
        <ele>8.297554164346442</ele>
      </trkpt>
      <trkpt lat="1.4078927358793523" lon="103.98484286068398">
        <ele>8.498697673421455</ele>
      </trkpt>
      <trkpt lat="1.407908150794214" lon="103.98475433597156">
        <ele>8.583578770213133</ele>
      </trkpt>
      <trkpt lat="1.4079132290829866" lon="103.98466461959472">
        <ele>8.488820541276626</ele>
      </trkpt>
      <trkpt lat="1.4079183073683283" lon="103.98457490321711">
        <ele>8.360566989843106</ele>
      </trkpt>
      <trkpt lat="1.407924346969617" lon="103.98448530860368">
        <ele>8.277648704987138</ele>
      </trkpt>
      <trkpt lat="1.4079420839965338" lon="103.98439719563649">
        <ele>8.273014329661704</ele>
      </trkpt>
      <trkpt lat="1.4079686114899046" lon="103.98431233116699">
        <ele>8.45613772124367</ele>
      </trkpt>
      <trkpt lat="1.4080243836702329" lon="103.9842430783417">
        <ele>8.831118682386949</ele>
      </trkpt>
      <trkpt lat="1.4080915354286418" lon="103.9841828904694">
        <ele>9.329062952716262</ele>
      </trkpt>
      <trkpt lat="1.4081632531254142" lon="103.98412869628484">
        <ele>9.739602956972584</ele>
      </trkpt>
      <trkpt lat="1.4082397850366302" lon="103.9840808216989">
        <ele>10.016746436323393</ele>
      </trkpt>
      <trkpt lat="1.4083163169471447" lon="103.98403294710998">
        <ele>10.219754374856915</ele>
      </trkpt>
      <trkpt lat="1.408396901441614" lon="103.98399307965562">
        <ele>10.467540750496328</ele>
      </trkpt>
      <trkpt lat="1.4084812165615799" lon="103.98396058320708">
        <ele>10.80791974469746</ele>
      </trkpt>
      <trkpt lat="1.4085655316812815" lon="103.98392808675648">
        <ele>11.477311567495997</ele>
      </trkpt>
      <trkpt lat="1.408649846800719" lon="103.98389559030383">
        <ele>12.454253148452215</ele>
      </trkpt>
      <trkpt lat="1.4087341619198916" lon="103.9838630938491">
        <ele>13.690930306110559</ele>
      </trkpt>
      <trkpt lat="1.4088184770388006" lon="103.98383059739231">
        <ele>14.92116462141378</ele>
      </trkpt>
      <trkpt lat="1.4088955745024359" lon="103.98378417395463">
        <ele>16.14361541150004</ele>
      </trkpt>
      <trkpt lat="1.4089711700527168" lon="103.98373485246671">
        <ele>17.362844616598093</ele>
      </trkpt>
      <trkpt lat="1.4090505557901516" lon="103.98369216168085">
        <ele>18.587890899294482</ele>
      </trkpt>
      <trkpt lat="1.4091326150384695" lon="103.98365450837805">
        <ele>19.468463340504798</ele>
      </trkpt>
      <trkpt lat="1.4092167160462477" lon="103.98362146869623">
        <ele>19.94003164748369</ele>
      </trkpt>
      <trkpt lat="1.4093043058117154" lon="103.9835993399909">
        <ele>19.999999999999996</ele>
      </trkpt>
      <trkpt lat="1.4093921773044535" lon="103.98357809237758">
        <ele>20.0</ele>
      </trkpt>
      <trkpt lat="1.4094800487971024" lon="103.98355684476302">
        <ele>20.0</ele>
      </trkpt>
      <trkpt lat="1.4095679202896618" lon="103.98353559714718">
        <ele>20.0</ele>
      </trkpt>
      <trkpt lat="1.4096557917821306" lon="103.98351434953008">
        <ele>20.0</ele>
      </trkpt>
      <trkpt lat="1.4097409477481375" lon="103.98348582647458">
        <ele>20.0</ele>
      </trkpt>
      <trkpt lat="1.4098144652804323" lon="103.98343526930952">
        <ele>20.0</ele>
      </trkpt>
      <trkpt lat="1.409879041100012" lon="103.98337235996395">
        <ele>20.0</ele>
      </trkpt>
      <trkpt lat="1.4099427722488536" lon="103.98330881259766">
        <ele>20.0</ele>
      </trkpt>
      <trkpt lat="1.4099865047638958" lon="103.98323015935034">
        <ele>20.0</ele>
      </trkpt>
      <trkpt lat="1.410030237276564" lon="103.98315150609989">
        <ele>20.0</ele>
      </trkpt>
      <trkpt lat="1.4100739697868576" lon="103.98307285284629">
        <ele>20.0</ele>
      </trkpt>
      <trkpt lat="1.410073975852898" lon="103.98298326445624">
        <ele>20.0</ele>
      </trkpt>
      <trkpt lat="1.4100729269943046" lon="103.98289341225059">
        <ele>20.0</ele>
      </trkpt>
      <trkpt lat="1.4100769023838537" lon="103.98280476527734">
        <ele>20.0</ele>
      </trkpt>
      <trkpt lat="1.4101202332941427" lon="103.98272599831267">
        <ele>20.0</ele>
      </trkpt>
      <trkpt lat="1.4101741795290013" lon="103.98265387773212">
        <ele>20.0</ele>
      </trkpt>
      <trkpt lat="1.4102281301658466" lon="103.98258176361887">
        <ele>20.0</ele>
      </trkpt>
      <trkpt lat="1.4102715388506495" lon="103.98250293345424">
        <ele>20.0</ele>
      </trkpt>
      <trkpt lat="1.410314947533063" lon="103.9824241032865">
        <ele>20.0</ele>
      </trkpt>
      <trkpt lat="1.4103566785695223" lon="103.98234453212751">
        <ele>20.0</ele>
      </trkpt>
      <trkpt lat="1.4103864910195167" lon="103.98225969671935">
        <ele>20.0</ele>
      </trkpt>
      <trkpt lat="1.4104163034666226" lon="103.98217486130874">
        <ele>20.0</ele>
      </trkpt>
      <trkpt lat="1.4104461159108403" lon="103.98209002589569">
        <ele>20.0</ele>
      </trkpt>
      <trkpt lat="1.410475928352169" lon="103.98200519048018">
        <ele>20.0</ele>
      </trkpt>
      <trkpt lat="1.4105035141440392" lon="103.98191982563024">
        <ele>20.0</ele>
      </trkpt>
      <trkpt lat="1.4105155811966352" lon="103.98183077087309">
        <ele>20.0</ele>
      </trkpt>
      <trkpt lat="1.410527648245899" lon="103.98174171611466">
        <ele>20.0</ele>
      </trkpt>
      <trkpt lat="1.4105397152918304" lon="103.98165266135494">
        <ele>20.0</ele>
      </trkpt>
      <trkpt lat="1.4105517823344287" lon="103.98156360659398">
        <ele>20.0</ele>
      </trkpt>
      <trkpt lat="1.4105638493736943" lon="103.98147455183172">
        <ele>20.0</ele>
      </trkpt>
      <trkpt lat="1.4105759164096265" lon="103.98138549706822">
        <ele>20.0</ele>
      </trkpt>
      <trkpt lat="1.4105879834422264" lon="103.98129644230343">
        <ele>20.0</ele>
      </trkpt>
      <trkpt lat="1.4106000504714924" lon="103.98120738753737">
        <ele>20.0</ele>
      </trkpt>
      <trkpt lat="1.4106180214662174" lon="103.98111936008326">
        <ele>20.0</ele>
      </trkpt>
      <trkpt lat="1.4106371300862897" lon="103.98103153057916">
        <ele>20.0</ele>
      </trkpt>
      <trkpt lat="1.4106562387031745" lon="103.98094370107327">
        <ele>20.0</ele>
      </trkpt>
      <trkpt lat="1.4106753473168725" lon="103.98085587156564">
        <ele>20.0</ele>
      </trkpt>
      <trkpt lat="1.410694455927383" lon="103.98076804205624">
        <ele>20.0</ele>
      </trkpt>
      <trkpt lat="1.4107114670855576" lon="103.98067994920048">
        <ele>20.0</ele>
      </trkpt>
      <trkpt lat="1.4107149473850478" lon="103.98059015748119">
        <ele>20.0</ele>
      </trkpt>
      <trkpt lat="1.4107047086003714" lon="103.98050133157467">
        <ele>20.0</ele>
      </trkpt>
      <trkpt lat="1.4106885213775184" lon="103.98041292443433">
        <ele>20.0</ele>
      </trkpt>
      <trkpt lat="1.4106660343538269" lon="103.98032650218423">
        <ele>20.0</ele>
      </trkpt>
      <trkpt lat="1.410627991239717" lon="103.98024498122253">
        <ele>20.0</ele>
      </trkpt>
      <trkpt lat="1.4105918430529252" lon="103.9801628836808">
        <ele>20.0</ele>
      </trkpt>
      <trkpt lat="1.4105774211503745" lon="103.98007417534639">
        <ele>20.0</ele>
      </trkpt>
      <trkpt lat="1.410562999244305" lon="103.97998546701272">
        <ele>20.0</ele>
      </trkpt>
      <trkpt lat="1.410548577334715" lon="103.97989675867981">
        <ele>20.0</ele>
      </trkpt>
      <trkpt lat="1.4105365290642278" lon="103.9798077479993">
        <ele>20.0</ele>
      </trkpt>
      <trkpt lat="1.410536236936158" lon="103.97971857838705">
        <ele>20.0</ele>
      </trkpt>
      <trkpt lat="1.4105510120894704" lon="103.97962992746413">
        <ele>20.0</ele>
      </trkpt>
      <trkpt lat="1.4105512377580292" lon="103.97954015333094">
        <ele>20.0</ele>
      </trkpt>
      <trkpt lat="1.4105284996626128" lon="103.97945434794026">
        <ele>19.741759871229068</ele>
      </trkpt>
      <trkpt lat="1.4104876947905145" lon="103.9793753954082">
        <ele>19.21202287824941</ele>
      </trkpt>
      <trkpt lat="1.410430351598097" lon="103.97930591049317">
        <ele>18.410789021060875</ele>
      </trkpt>
      <trkpt lat="1.4103730084032073" lon="103.97923642558149">
        <ele>17.716812749166</ele>
      </trkpt>
      <trkpt lat="1.4103411191888287" lon="103.97919778422062">
        <ele>17.369824613218498</ele>
      </trkpt>
      <trkpt lat="1.4102564440361856" lon="103.97922833408562">
        <ele>16.85982444164262</ele>
      </trkpt>
      <trkpt lat="1.4101729393005384" lon="103.9792619906259">
        <ele>16.54638104596125</ele>
      </trkpt>
      <trkpt lat="1.4100850257111675" lon="103.97928221282893">
        <ele>16.17395837511329</ele>
      </trkpt>
      <trkpt lat="1.4099951137204851" lon="103.97929140748997">
        <ele>15.719520165966165</ele>
      </trkpt>
      <trkpt lat="1.4099047557417619" lon="103.97929499588096">
        <ele>15.21674558703135</ele>
      </trkpt>
      <trkpt lat="1.409814338853938" lon="103.97929616566796">
        <ele>14.67936250496087</ele>
      </trkpt>
      <trkpt lat="1.4097241873403528" lon="103.97929037252563">
        <ele>14.11494288887119</ele>
      </trkpt>
      <trkpt lat="1.40963417028788" lon="103.97928179443278">
        <ele>13.547922706513411</ele>
      </trkpt>
      <trkpt lat="1.4095439495829776" lon="103.9792816522909">
        <ele>13.018385752251447</ele>
      </trkpt>
      <trkpt lat="1.409454135098556" lon="103.97929202460645">
        <ele>12.53070857884695</ele>
      </trkpt>
      <trkpt lat="1.4093642281194956" lon="103.97930173036171">
        <ele>12.061907154826509</ele>
      </trkpt>
      <trkpt lat="1.409274166223529" lon="103.97930973825738">
        <ele>11.582866069383217</ele>
      </trkpt>
      <trkpt lat="1.4091839475212962" lon="103.9793159651509">
        <ele>11.089778636625384</ele>
      </trkpt>
      <trkpt lat="1.409093614438796" lon="103.97931987306737">
        <ele>10.594214781695856</ele>
      </trkpt>
      <trkpt lat="1.4090034536555376" lon="103.97932687938739">
        <ele>10.115790874546919</ele>
      </trkpt>
      <trkpt lat="1.4089140761371997" lon="103.97933990251369">
        <ele>9.695842239160053</ele>
      </trkpt>
      <trkpt lat="1.4088278791198974" lon="103.97936589877494">
        <ele>9.354641633662027</ele>
      </trkpt>
      <trkpt lat="1.4087447815108856" lon="103.97940135653923">
        <ele>8.933033041507533</ele>
      </trkpt>
      <trkpt lat="1.4086690294045239" lon="103.97944827129841">
        <ele>8.37430650153503</ele>
      </trkpt>
      <trkpt lat="1.4086015659230715" lon="103.97950811406822">
        <ele>7.607217616711638</ele>
      </trkpt>
      <trkpt lat="1.408524053617664" lon="103.97955364146338">
        <ele>6.790929395491632</ele>
      </trkpt>
      <trkpt lat="1.4084500086650553" lon="103.97960488771886">
        <ele>5.980242762478305</ele>
      </trkpt>
      <trkpt lat="1.4083838661409749" lon="103.97966616814145">
        <ele>5.206371038654449</ele>
      </trkpt>
      <trkpt lat="1.408304370542358" lon="103.97970823855412">
        <ele>4.7511881131607545</ele>
      </trkpt>
      <trkpt lat="1.40822328971639" lon="103.97974803988986">
        <ele>4.419878334447788</ele>
      </trkpt>
      <trkpt lat="1.408142478531227" lon="103.97978830711745">
        <ele>4.144363216692459</ele>
      </trkpt>
      <trkpt lat="1.4080748447302116" lon="103.97984690331013">
        <ele>3.736874399626368</ele>
      </trkpt>
      <trkpt lat="1.4080236770430525" lon="103.97992099578316">
        <ele>3.356177968592253</ele>
      </trkpt>
      <trkpt lat="1.407972169024897" lon="103.97999483132088">
        <ele>3.0799638549435215</ele>
      </trkpt>
      <trkpt lat="1.407920217703644" lon="103.98006834469749">
        <ele>2.818604399282934</ele>
      </trkpt>
      <trkpt lat="1.407871499965185" lon="103.98014405012192">
        <ele>2.576935418629654</ele>
      </trkpt>
      <trkpt lat="1.4078232384384766" lon="103.9802200260509">
        <ele>2.426841660869133</ele>
      </trkpt>
      <trkpt lat="1.4077801548025108" lon="103.98029897680217">
        <ele>2.6468749921519374</ele>
      </trkpt>
      <trkpt lat="1.4077518595046132" lon="103.98038386073162">
        <ele>3.2180372273679687</ele>
      </trkpt>
      <trkpt lat="1.4077417188635786" lon="103.98047315221089">
        <ele>4.007088328503224</ele>
      </trkpt>
      <trkpt lat="1.4077217334891738" lon="103.98056059622715">
        <ele>4.675035695784445</ele>
      </trkpt>
      <trkpt lat="1.4076953623482724" lon="103.9806465224881">
        <ele>5.233099974523477</ele>
      </trkpt>
      <trkpt lat="1.4076685618130313" lon="103.98073171759049">
        <ele>5.629914916774699</ele>
      </trkpt>
      <trkpt lat="1.407625085756619" lon="103.98081047778884">
        <ele>6.0294149520131795</ele>
      </trkpt>
      <trkpt lat="1.407599479151965" lon="103.98089599623636">
        <ele>6.58134892777057</ele>
      </trkpt>
      <trkpt lat="1.4075986101139457" lon="103.98098564607933">
        <ele>7.42948729494632</ele>
      </trkpt>
      <trkpt lat="1.4076065875519888" lon="103.98107512780737">
        <ele>8.310827749520605</ele>
      </trkpt>
      <trkpt lat="1.40761651513918" lon="103.98116442422732">
        <ele>8.930519456341719</ele>
      </trkpt>
      <trkpt lat="1.4076217125755386" lon="103.98125410797734">
        <ele>9.215925777737375</ele>
      </trkpt>
      <trkpt lat="1.4076205895188507" lon="103.98134371576246">
        <ele>9.217133124069319</ele>
      </trkpt>
      <trkpt lat="1.4076067072278642" lon="103.98143247191008">
        <ele>9.082968445897293</ele>
      </trkpt>
      <trkpt lat="1.4075926400762306" lon="103.98152103142836">
        <ele>8.797904342799749</ele>
      </trkpt>
      <trkpt lat="1.4075988411047864" lon="103.98161055700207">
        <ele>8.401800682808856</ele>
      </trkpt>
      <trkpt lat="1.4076100936530012" lon="103.98169971375252">
        <ele>7.909846477205131</ele>
      </trkpt>
      <trkpt lat="1.4076235382298952" lon="103.98178856600188">
        <ele>7.3685221634480245</ele>
      </trkpt>
      <trkpt lat="1.4076348600298287" lon="103.98187770617821">
        <ele>6.830518405495016</ele>
      </trkpt>
      <trkpt lat="1.4076466284546276" lon="103.98196676896191">
        <ele>6.332208867932589</ele>
      </trkpt>
      <trkpt lat="1.4076662220419185" lon="103.98205446029617">
        <ele>5.9162516253701165</ele>
      </trkpt>
      <trkpt lat="1.4076902182660775" lon="103.98214101850118">
        <ele>5.618970836284377</ele>
      </trkpt>
      <trkpt lat="1.4077212311296066" lon="103.9822253946791">
        <ele>5.392773654513856</ele>
      </trkpt>
      <trkpt lat="1.4077547470199823" lon="103.98230885416152">
        <ele>5.312627531013824</ele>
      </trkpt>
      <trkpt lat="1.4077950363708371" lon="103.98238928304468">
        <ele>5.79956380168121</ele>
      </trkpt>
      <trkpt lat="1.4078378552049562" lon="103.98246841106017">
        <ele>6.352897200149168</ele>
      </trkpt>
      <trkpt lat="1.4078304929393486" lon="103.98250333048178">
        <ele>6.8596734365120575</ele>
      </trkpt>
    </trkseg>
  </trk>
</gpx>