{
"type": "FeatureCollection",
"name": "point_to_point_05000m_038",
"crs": { "type": "name", "properties": { "name": "urn:ogc:def:crs:OGC:1.3:CRS84" } },
"features": [
{ "type": "Feature", "properties": { "route_id": "point_to_point_05000m_038", "budget_km": 5.0, "mode": "point_to_point", "rank": 38, "distance_m": 413.95393978935329, "ascent_m": 31.891267507403132, "descent_m": 23.852055789030771, "gain_density_m_per_km": 77.040618392547458, "source_confidence": 0.65 }, "geometry": { "type": "LineString", "coordinates": [ [ 103.759384060304555, 1.392760910530341 ], [ 103.7594644, 1.3927847 ], [ 103.7595563, 1.3927779 ], [ 103.7597155, 1.3927806 ], [ 103.7598459, 1.3927194 ], [ 103.759929, 1.3926475 ], [ 103.7600508, 1.3926364 ], [ 103.7601172, 1.3927084 ], [ 103.7600951, 1.3928246 ], [ 103.7600331, 1.3929817 ], [ 103.7600331, 1.3931684 ], [ 103.76015360000001, 1.3934966 ], [ 103.7603169, 1.3937521 ], [ 103.7605444, 1.393994 ], [ 103.7606536, 1.3942573 ], [ 103.7608815, 1.3945495 ], [ 103.7611444, 1.3948445 ], [ 103.7611916, 1.3950554 ], [ 103.761121295879121, 1.395242356977743 ] ] } }
]
}
