<?xml version="1.0" encoding="UTF-8"?>
<gpx xmlns="http://www.topografix.com/GPX/1/1" xmlns:xsi="http://www.w3.org/2001/XMLSchema-instance" xsi:schemaLocation="http://www.topografix.com/GPX/1/1 http://www.topografix.com/GPX/1/1/gpx.xsd" version="1.1" creator="gpx.py -- https://github.com/tkrajina/gpxpy">
  <trk>
    <name>point_to_point_05000m_034</name>
    <trkseg>
      <trkpt lat="1.4243907103700693" lon="103.6749402142842">
        <ele>17.8859540991605</ele>
      </trkpt>
      <trkpt lat="1.424420382624478" lon="103.67502509867116">
        <ele>17.37775651402697</ele>
      </trkpt>
      <trkpt lat="1.4244337807883005" lon="103.67511313575969">
        <ele>16.415635056914525</ele>
      </trkpt>
      <trkpt lat="1.4244365278021516" lon="103.67520293219293">
        <ele>15.60068340354465</ele>
      </trkpt>
      <trkpt lat="1.4244372203345856" lon="103.6752927883251">
        <ele>15.140786434638315</ele>
      </trkpt>
      <trkpt lat="1.4244453649444786" lon="103.67538217413662">
        <ele>14.994396870233253</ele>
      </trkpt>
      <trkpt lat="1.4244561201438815" lon="103.67547139518761">
        <ele>15.097761366770998</ele>
      </trkpt>
      <trkpt lat="1.42446977411516" lon="103.67556001999323">
        <ele>15.075206414383336</ele>
      </trkpt>
      <trkpt lat="1.424495551855485" lon="103.6756461510723">
        <ele>14.914005579877903</ele>
      </trkpt>
      <trkpt lat="1.424521329592779" lon="103.67573228215362">
        <ele>14.750437619211082</ele>
      </trkpt>
      <trkpt lat="1.4245261371334046" lon="103.67582179676391">
        <ele>14.677931619864616</ele>
      </trkpt>
      <trkpt lat="1.4245291133026505" lon="103.67591160686487">
        <ele>14.696487581838504</ele>
      </trkpt>
      <trkpt lat="1.4245320894684004" lon="103.67600141696646">
        <ele>14.722357426799993</ele>
      </trkpt>
      <trkpt lat="1.4245350656306532" lon="103.67609122706867">
        <ele>14.780822859856597</ele>
      </trkpt>
      <trkpt lat="1.4245380417894098" lon="103.67618103717149">
        <ele>15.040677599755618</ele>
      </trkpt>
      <trkpt lat="1.4245410179446696" lon="103.67627084727494">
        <ele>15.336110011357192</ele>
      </trkpt>
      <trkpt lat="1.4245507484217603" lon="103.67636003905326">
        <ele>15.355445381601953</ele>
      </trkpt>
      <trkpt lat="1.4245781655348126" lon="103.67644420708494">
        <ele>14.889399781364746</ele>
      </trkpt>
      <trkpt lat="1.4246218805389583" lon="103.67652287039948">
        <ele>14.073355049681865</ele>
      </trkpt>
      <trkpt lat="1.424683729326127" lon="103.67658721731813">
        <ele>13.172126217330993</ele>
      </trkpt>
      <trkpt lat="1.424762899135427" lon="103.67662959686642">
        <ele>12.225164387155997</ele>
      </trkpt>
      <trkpt lat="1.4248444454949225" lon="103.67666844804691">
        <ele>11.262899355260439</ele>
      </trkpt>
      <trkpt lat="1.4249259918540054" lon="103.67670729922988">
        <ele>10.299595215830692</ele>
      </trkpt>
      <trkpt lat="1.425007538212675" lon="103.67674615041535">
        <ele>9.336291076400942</ele>
      </trkpt>
      <trkpt lat="1.4250890845709314" lon="103.6767850016033">
        <ele>8.372986936970989</ele>
      </trkpt>
      <trkpt lat="1.4251706309287742" lon="103.67682385279375">
        <ele>7.409682797541239</ele>
      </trkpt>
      <trkpt lat="1.4252521772862046" lon="103.67686270398669">
        <ele>6.495314577169278</ele>
      </trkpt>
      <trkpt lat="1.4253337236432202" lon="103.6769015551821">
        <ele>5.941829070867731</ele>
      </trkpt>
      <trkpt lat="1.4254152699998233" lon="103.67694040638001">
        <ele>5.749226278636439</ele>
      </trkpt>
      <trkpt lat="1.4254968163560118" lon="103.67697925758043">
        <ele>5.868570281417573</ele>
      </trkpt>
      <trkpt lat="1.4255783627117862" lon="103.67701810878332">
        <ele>5.987914284198749</ele>
      </trkpt>
      <trkpt lat="1.4256599090671471" lon="103.67705695998872">
        <ele>6.1072582869798815</ele>
      </trkpt>
      <trkpt lat="1.425741455422094" lon="103.6770958111966">
        <ele>6.2266022897610585</ele>
      </trkpt>
      <trkpt lat="1.4258230017766262" lon="103.67713466240697">
        <ele>6.3459462925422345</ele>
      </trkpt>
      <trkpt lat="1.4259045481307442" lon="103.67717351361983">
        <ele>6.465290295323412</ele>
      </trkpt>
      <trkpt lat="1.4259860944844485" lon="103.67721236483519">
        <ele>6.584634298104587</ele>
      </trkpt>
      <trkpt lat="1.426067640837737" lon="103.67725121605304">
        <ele>6.70397830088572</ele>
      </trkpt>
      <trkpt lat="1.4261491871906113" lon="103.67729006727339">
        <ele>6.823322303666937</ele>
      </trkpt>
      <trkpt lat="1.426230733543071" lon="103.67732891849623">
        <ele>6.991329020022195</ele>
      </trkpt>
      <trkpt lat="1.4262970167467883" lon="103.67738378036499">
        <ele>7.317063297928929</ele>
      </trkpt>
      <trkpt lat="1.4263085811606542" lon="103.67746890605973">
        <ele>7.826812281704426</ele>
      </trkpt>
      <trkpt lat="1.4262847141170303" lon="103.67755523142824">
        <ele>8.472519596066432</ele>
      </trkpt>
      <trkpt lat="1.4262567354489448" lon="103.67764068180695">
        <ele>9.145120393037514</ele>
      </trkpt>
      <trkpt lat="1.4262287567774323" lon="103.6777261321839">
        <ele>9.818327528300342</ele>
      </trkpt>
      <trkpt lat="1.4262007781024921" lon="103.67781158255912">
        <ele>10.49153466356317</ele>
      </trkpt>
      <trkpt lat="1.4261727994241251" lon="103.67789703293258">
        <ele>11.161392025314571</ele>
      </trkpt>
      <trkpt lat="1.4261556578432357" lon="103.67798406268798">
        <ele>11.818911350445058</ele>
      </trkpt>
      <trkpt lat="1.4261603353094678" lon="103.67807334118847">
        <ele>12.427543307983788</ele>
      </trkpt>
      <trkpt lat="1.4261959620202433" lon="103.6781559335619">
        <ele>12.94065456724966</ele>
      </trkpt>
      <trkpt lat="1.4262524681485413" lon="103.6782235062663">
        <ele>13.247633700408011</ele>
      </trkpt>
      <trkpt lat="1.4263356645134448" lon="103.67824876381897">
        <ele>13.302995425262703</ele>
      </trkpt>
      <trkpt lat="1.426425004027644" lon="103.6782416640427">
        <ele>13.12386995015997</ele>
      </trkpt>
      <trkpt lat="1.4265126170361107" lon="103.6782204587692">
        <ele>12.813311646661196</ele>
      </trkpt>
      <trkpt lat="1.4265983554639305" lon="103.67819187431363">
        <ele>12.45335512793338</ele>
      </trkpt>
      <trkpt lat="1.4266840938910965" lon="103.67816328985566">
        <ele>12.074565907892671</ele>
      </trkpt>
      <trkpt lat="1.4267698323176075" lon="103.67813470539525">
        <ele>11.693099674898994</ele>
      </trkpt>
      <trkpt lat="1.4268555707434636" lon="103.67810612093241">
        <ele>11.308956428952433</ele>
      </trkpt>
      <trkpt lat="1.426941309168665" lon="103.67807753646717">
        <ele>10.924423551983073</ele>
      </trkpt>
      <trkpt lat="1.427027047593212" lon="103.6780489519995">
        <ele>10.622758042214748</ele>
      </trkpt>
      <trkpt lat="1.4271150626119276" lon="103.67805529679539">
        <ele>10.430087034105862</ele>
      </trkpt>
      <trkpt lat="1.4272037954148644" lon="103.67807265439049">
        <ele>10.498198568973118</ele>
      </trkpt>
      <trkpt lat="1.4272845690731495" lon="103.67811047563805">
        <ele>10.862510029030403</ele>
      </trkpt>
      <trkpt lat="1.42736198908721" lon="103.67815691939711">
        <ele>11.506021521521646</ele>
      </trkpt>
      <trkpt lat="1.4274344564341197" lon="103.67820924538908">
        <ele>12.300518391989783</ele>
      </trkpt>
      <trkpt lat="1.4274941322785306" lon="103.67827676371597">
        <ele>13.127715891019788</ele>
      </trkpt>
      <trkpt lat="1.4275538081212986" lon="103.67834428204638">
        <ele>13.973983820702315</ele>
      </trkpt>
      <trkpt lat="1.4276038591667477" lon="103.67841834862841">
        <ele>14.678905403956719</ele>
      </trkpt>
      <trkpt lat="1.4276456329844338" lon="103.67849804663976">
        <ele>15.242480640783151</ele>
      </trkpt>
      <trkpt lat="1.4276874067996417" lon="103.6785777446542">
        <ele>15.669212487388394</ele>
      </trkpt>
      <trkpt lat="1.42772918061237" lon="103.67865744267175">
        <ele>16.115304135348197</ele>
      </trkpt>
      <trkpt lat="1.4277709544226187" lon="103.67873714069239">
        <ele>16.58954990857623</ele>
      </trkpt>
      <trkpt lat="1.4278127282303874" lon="103.67881683871613">
        <ele>16.84326075889516</ele>
      </trkpt>
      <trkpt lat="1.4278545020356765" lon="103.67889653674295">
        <ele>16.65447564684798</ele>
      </trkpt>
      <trkpt lat="1.4278962758384854" lon="103.67897623477289">
        <ele>15.902707196062721</ele>
      </trkpt>
      <trkpt lat="1.4279380496388134" lon="103.67905593280591">
        <ele>14.907060417265313</ele>
      </trkpt>
      <trkpt lat="1.4279798234366612" lon="103.67913563084203">
        <ele>14.212068167940197</ele>
      </trkpt>
      <trkpt lat="1.4280215972320276" lon="103.67921532888126">
        <ele>13.929423500545127</ele>
      </trkpt>
      <trkpt lat="1.428063371024913" lon="103.67929502692355">
        <ele>13.98871045253216</ele>
      </trkpt>
      <trkpt lat="1.4281051448153168" lon="103.67937472496898">
        <ele>14.047997404518634</ele>
      </trkpt>
      <trkpt lat="1.428146918603239" lon="103.67945442301748">
        <ele>14.1072843565056</ele>
      </trkpt>
      <trkpt lat="1.4281886923886788" lon="103.6795341210691">
        <ele>14.166571308492566</ele>
      </trkpt>
      <trkpt lat="1.428230466171637" lon="103.67961381912379">
        <ele>14.092393891130866</ele>
      </trkpt>
      <trkpt lat="1.4282722399521128" lon="103.67969351718158">
        <ele>13.80016789022524</ele>
      </trkpt>
      <trkpt lat="1.4283009659718306" lon="103.67977861128105">
        <ele>13.353333691441684</ele>
      </trkpt>
      <trkpt lat="1.4283231137934125" lon="103.6798652394487">
        <ele>13.030052046640565</ele>
      </trkpt>
      <trkpt lat="1.4283295031425427" lon="103.67995487384101">
        <ele>12.70425528004535</ele>
      </trkpt>
      <trkpt lat="1.4283358924882086" lon="103.6800445082342">
        <ele>12.31250300599052</ele>
      </trkpt>
      <trkpt lat="1.42834228183041" lon="103.68013414262826">
        <ele>11.710098841964461</ele>
      </trkpt>
      <trkpt lat="1.4283486711691467" lon="103.68022377702317">
        <ele>11.107694677938404</ele>
      </trkpt>
      <trkpt lat="1.428355060504419" lon="103.68031341141898">
        <ele>10.48626491735756</ele>
      </trkpt>
      <trkpt lat="1.4283639538786266" lon="103.68040282641687">
        <ele>10.076493047678037</ele>
      </trkpt>
      <trkpt lat="1.4283815592374516" lon="103.68049037113491">
        <ele>9.969959333547905</ele>
      </trkpt>
      <trkpt lat="1.4284115906670742" lon="103.68057513089497">
        <ele>10.083251641976682</ele>
      </trkpt>
      <trkpt lat="1.428455314295696" lon="103.6806535879842">
        <ele>10.171332204377697</ele>
      </trkpt>
      <trkpt lat="1.4285009571202205" lon="103.68073116289396">
        <ele>10.142620756102817</ele>
      </trkpt>
      <trkpt lat="1.4285465999424225" lon="103.680808737807">
        <ele>9.738537412368098</ele>
      </trkpt>
      <trkpt lat="1.4285922427623026" lon="103.68088631272327">
        <ele>8.946637581440585</ele>
      </trkpt>
      <trkpt lat="1.42863788557986" lon="103.68096388764279">
        <ele>7.76692126332011</ele>
      </trkpt>
      <trkpt lat="1.4286835283950945" lon="103.68104146256556">
        <ele>6.639973984161474</ele>
      </trkpt>
      <trkpt lat="1.4287291712080052" lon="103.68111903749157">
        <ele>5.899860974891542</ele>
      </trkpt>
      <trkpt lat="1.4287748140185925" lon="103.68119661242083">
        <ele>5.5465822355105106</ele>
      </trkpt>
      <trkpt lat="1.4288204568268565" lon="103.68127418735335">
        <ele>5.500569854192341</ele>
      </trkpt>
      <trkpt lat="1.428866099632796" lon="103.6813517622891">
        <ele>5.454557472874174</ele>
      </trkpt>
      <trkpt lat="1.4289117424364117" lon="103.6814293372281">
        <ele>5.408545091555783</ele>
      </trkpt>
      <trkpt lat="1.428957385237703" lon="103.68150691217035">
        <ele>5.362532710237391</ele>
      </trkpt>
      <trkpt lat="1.4290030280366688" lon="103.68158448711584">
        <ele>5.316520328919</ele>
      </trkpt>
      <trkpt lat="1.4290486708333103" lon="103.68166206206459">
        <ele>4.990965081025641</ele>
      </trkpt>
      <trkpt lat="1.4290943136276266" lon="103.68173963701658">
        <ele>4.472475112728702</ele>
      </trkpt>
      <trkpt lat="1.4291399564196172" lon="103.68181721197182">
        <ele>3.9300670491346685</ele>
      </trkpt>
      <trkpt lat="1.4291855992092817" lon="103.68189478693029">
        <ele>3.6432837568189047</ele>
      </trkpt>
      <trkpt lat="1.4292312419966202" lon="103.68197236189202">
        <ele>3.5255170896097883</ele>
      </trkpt>
      <trkpt lat="1.4292768847816328" lon="103.682049936857">
        <ele>3.407750422400833</ele>
      </trkpt>
      <trkpt lat="1.429322527564319" lon="103.68212751182521">
        <ele>3.2899837551918782</ele>
      </trkpt>
      <trkpt lat="1.4293681703446786" lon="103.6822050867967">
        <ele>3.1722170879829235</ele>
      </trkpt>
      <trkpt lat="1.4294138131227103" lon="103.68228266177141">
        <ele>3.0544504207738066</ele>
      </trkpt>
      <trkpt lat="1.4294594558984153" lon="103.68236023674937">
        <ele>2.93668375356469</ele>
      </trkpt>
      <trkpt lat="1.429505098671793" lon="103.6824378117306">
        <ele>2.8189170863555746</ele>
      </trkpt>
      <trkpt lat="1.4295507414428423" lon="103.68251538671504">
        <ele>2.70115041914662</ele>
      </trkpt>
      <trkpt lat="1.429596384211564" lon="103.68259296170275">
        <ele>2.583383751937665</ele>
      </trkpt>
      <trkpt lat="1.429642026977957" lon="103.68267053669369">
        <ele>2.465617084728548</ele>
      </trkpt>
      <trkpt lat="1.4296876697420222" lon="103.68274811168789">
        <ele>2.3478504175194317</ele>
      </trkpt>
      <trkpt lat="1.4297333125037581" lon="103.68282568668533">
        <ele>2.2300837503103152</ele>
      </trkpt>
      <trkpt lat="1.429778955263165" lon="103.68290326168604">
        <ele>2.11231708310136</ele>
      </trkpt>
      <trkpt lat="1.4298245980202424" lon="103.68298083668998">
        <ele>1.9945504158924052</ele>
      </trkpt>
      <trkpt lat="1.4298702407749906" lon="103.68305841169715">
        <ele>1.8767837486834502</ele>
      </trkpt>
      <trkpt lat="1.4299158835274086" lon="103.68313598670758">
        <ele>1.7748568388318657</ele>
      </trkpt>
      <trkpt lat="1.4299558032470023" lon="103.68321549463688">
        <ele>1.7677297931911518</ele>
      </trkpt>
      <trkpt lat="1.4299671940481338" lon="103.68330463802039">
        <ele>1.8554026117613232</ele>
      </trkpt>
      <trkpt lat="1.4299785848458748" lon="103.68339378140512">
        <ele>2.074523425548598</ele>
      </trkpt>
      <trkpt lat="1.429968628354923" lon="103.68348309082677">
        <ele>2.3573086329032744</ele>
      </trkpt>
      <trkpt lat="1.429953857300527" lon="103.68357173138095">
        <ele>2.7599649960521746</ele>
      </trkpt>
      <trkpt lat="1.4299125270569797" lon="103.68365086414977">
        <ele>3.2627464015505834</ele>
      </trkpt>
      <trkpt lat="1.4298526808339687" lon="103.68371648713799">
        <ele>3.870485063252593</ele>
      </trkpt>
      <trkpt lat="1.4297832167117832" lon="103.68377402614756">
        <ele>4.551103973364075</ele>
      </trkpt>
      <trkpt lat="1.4297142759820647" lon="103.6838321835063">
        <ele>5.288179719982144</ele>
      </trkpt>
      <trkpt lat="1.4296453352504546" lon="103.68389034086151">
        <ele>6.065703584048908</ele>
      </trkpt>
      <trkpt lat="1.4295763945169537" lon="103.68394849821318">
        <ele>6.859545811131855</ele>
      </trkpt>
      <trkpt lat="1.4295074537815615" lon="103.68400665556133">
        <ele>7.6533880382148</ele>
      </trkpt>
      <trkpt lat="1.4294385130442786" lon="103.68406481290594">
        <ele>8.429412920647499</ele>
      </trkpt>
      <trkpt lat="1.4293814389804045" lon="103.684134105329">
        <ele>9.183746280661774</ele>
      </trkpt>
      <trkpt lat="1.4293269451867519" lon="103.68420581894493">
        <ele>9.860172248389217</ele>
      </trkpt>
      <trkpt lat="1.429299586185607" lon="103.68429119480302">
        <ele>10.473640174928018</ele>
      </trkpt>
      <trkpt lat="1.4292736115306355" lon="103.68437726767314">
        <ele>10.962817905515232</ele>
      </trkpt>
      <trkpt lat="1.4292733000009337" lon="103.68446708125708">
        <ele>11.355396100261856</ele>
      </trkpt>
      <trkpt lat="1.4292829202242483" lon="103.6845558337113">
        <ele>11.62241370710092</ele>
      </trkpt>
      <trkpt lat="1.4293035812756745" lon="103.68464331622634">
        <ele>11.829077058563163</ele>
      </trkpt>
      <trkpt lat="1.4293242423239088" lon="103.68473079874327">
        <ele>12.003911364406187</ele>
      </trkpt>
      <trkpt lat="1.429344903368951" lon="103.68481828126211">
        <ele>12.178745670249013</ele>
      </trkpt>
      <trkpt lat="1.4293655644108003" lon="103.68490576378282">
        <ele>12.353579976092037</ele>
      </trkpt>
      <trkpt lat="1.4293862254494571" lon="103.68499324630544">
        <ele>12.528414281935063</ele>
      </trkpt>
      <trkpt lat="1.4294068864849214" lon="103.68508072882994">
        <ele>12.687566705536184</ele>
      </trkpt>
      <trkpt lat="1.429432594558672" lon="103.68516676761331">
        <ele>12.81982530035391</ele>
      </trkpt>
      <trkpt lat="1.4294619110712161" lon="103.68525177417791">
        <ele>12.925190066388593</ele>
      </trkpt>
      <trkpt lat="1.4294912275808125" lon="103.68533678074496">
        <ele>12.982001111443005</ele>
      </trkpt>
      <trkpt lat="1.429531900613574" lon="103.68541697134577">
        <ele>12.99877679688006</ele>
      </trkpt>
      <trkpt lat="1.4295733928274448" lon="103.68549681455795">
        <ele>13.04246341121764</ele>
      </trkpt>
      <trkpt lat="1.4295937441342788" lon="103.68558366492044">
        <ele>13.167161315710763</ele>
      </trkpt>
      <trkpt lat="1.4296088032597438" lon="103.68567226937563">
        <ele>13.375564095537806</ele>
      </trkpt>
      <trkpt lat="1.4296238623818873" lon="103.68576087383232">
        <ele>13.63860399181105</ele>
      </trkpt>
      <trkpt lat="1.4296255105767608" lon="103.68585042366443">
        <ele>13.950726814499268</ele>
      </trkpt>
      <trkpt lat="1.4296231918423927" lon="103.68594025313668">
        <ele>14.349958806906267</ele>
      </trkpt>
      <trkpt lat="1.4296052266203716" lon="103.68602648331107">
        <ele>14.811188315174762</ele>
      </trkpt>
      <trkpt lat="1.4295637726841182" lon="103.68610568006791">
        <ele>15.447092791175159</ele>
      </trkpt>
      <trkpt lat="1.429500116800875" lon="103.68616875968978">
        <ele>16.193666281785404</ele>
      </trkpt>
      <trkpt lat="1.4294219195951414" lon="103.68621389976862">
        <ele>17.038488177821588</ele>
      </trkpt>
      <trkpt lat="1.429342125662251" lon="103.68625597745243">
        <ele>17.858201636916124</ele>
      </trkpt>
      <trkpt lat="1.4292599107868822" lon="103.68629341196232">
        <ele>18.678786368887433</ele>
      </trkpt>
      <trkpt lat="1.4291776959105635" lon="103.68633084646933">
        <ele>19.39289415867788</ele>
      </trkpt>
      <trkpt lat="1.4290954810332945" lon="103.68636828097345">
        <ele>19.833298702382127</ele>
      </trkpt>
      <trkpt lat="1.4290248739887872" lon="103.68642440465284">
        <ele>20.0</ele>
      </trkpt>
      <trkpt lat="1.4289743233430896" lon="103.68649759579621">
        <ele>20.000000000000004</ele>
      </trkpt>
      <trkpt lat="1.4289304230099382" lon="103.6865761391705">
        <ele>20.0</ele>
      </trkpt>
      <trkpt lat="1.4288888972142684" lon="103.68665596512757">
        <ele>20.0</ele>
      </trkpt>
      <trkpt lat="1.4288473714154946" lon="103.68673579108199">
        <ele>20.0</ele>
      </trkpt>
      <trkpt lat="1.4288058456136172" lon="103.68681561703374">
        <ele>20.0</ele>
      </trkpt>
      <trkpt lat="1.4287643198086355" lon="103.68689544298284">
        <ele>20.0</ele>
      </trkpt>
      <trkpt lat="1.4287227940005505" lon="103.68697526892929">
        <ele>20.0</ele>
      </trkpt>
      <trkpt lat="1.4286812681893624" lon="103.68705509487307">
        <ele>20.0</ele>
      </trkpt>
      <trkpt lat="1.4286397423750707" lon="103.6871349208142">
        <ele>20.0</ele>
      </trkpt>
      <trkpt lat="1.428598216557677" lon="103.68721474675267">
        <ele>20.0</ele>
      </trkpt>
      <trkpt lat="1.4285566907371807" lon="103.6872945726885">
        <ele>20.0</ele>
      </trkpt>
      <trkpt lat="1.428515164913582" lon="103.68737439862166">
        <ele>20.0</ele>
      </trkpt>
      <trkpt lat="1.4284826441739182" lon="103.68745805126186">
        <ele>20.0</ele>
      </trkpt>
      <trkpt lat="1.4284532354087678" lon="103.68754302633438">
        <ele>20.0</ele>
      </trkpt>
      <trkpt lat="1.4284355429109816" lon="103.68763082091432">
        <ele>20.0</ele>
      </trkpt>
      <trkpt lat="1.4284299752375071" lon="103.68771966576342">
        <ele>20.0</ele>
      </trkpt>
      <trkpt lat="1.4284449866946798" lon="103.68780827816838">
        <ele>20.0</ele>
      </trkpt>
      <trkpt lat="1.4284727836053663" lon="103.6878926405436">
        <ele>20.0</ele>
      </trkpt>
      <trkpt lat="1.4285144586191352" lon="103.68797238968136">
        <ele>20.0</ele>
      </trkpt>
      <trkpt lat="1.4285561336304" lon="103.68805213882221">
        <ele>20.0</ele>
      </trkpt>
      <trkpt lat="1.4285978086391606" lon="103.68813188796614">
        <ele>20.0</ele>
      </trkpt>
      <trkpt lat="1.4286394836454164" lon="103.68821163711314">
        <ele>20.0</ele>
      </trkpt>
      <trkpt lat="1.4286811586491681" lon="103.68829138626323">
        <ele>20.0</ele>
      </trkpt>
      <trkpt lat="1.4287228336504139" lon="103.68837113541639">
        <ele>20.0</ele>
      </trkpt>
      <trkpt lat="1.4287645086491547" lon="103.68845088457265">
        <ele>20.0</ele>
      </trkpt>
      <trkpt lat="1.4288061836453898" lon="103.68853063373197">
        <ele>20.0</ele>
      </trkpt>
      <trkpt lat="1.4288478586391193" lon="103.68861038289437">
        <ele>20.0</ele>
      </trkpt>
      <trkpt lat="1.4288895336303433" lon="103.68869013205986">
        <ele>20.0</ele>
      </trkpt>
      <trkpt lat="1.4289358710066766" lon="103.68876723185521">
        <ele>20.0</ele>
      </trkpt>
      <trkpt lat="1.4289839148474242" lon="103.6888433619646">
        <ele>20.0</ele>
      </trkpt>
      <trkpt lat="1.4290319586859368" lon="103.68891949207729">
        <ele>20.0</ele>
      </trkpt>
      <trkpt lat="1.4290800025222141" lon="103.68899562219332">
        <ele>20.0</ele>
      </trkpt>
      <trkpt lat="1.4291280463562557" lon="103.68907175231266">
        <ele>20.0</ele>
      </trkpt>
      <trkpt lat="1.4291760901880615" lon="103.68914788243532">
        <ele>20.0</ele>
      </trkpt>
      <trkpt lat="1.4292241340176313" lon="103.68922401256131">
        <ele>20.0</ele>
      </trkpt>
      <trkpt lat="1.4292721778449649" lon="103.6893001426906">
        <ele>20.0</ele>
      </trkpt>
      <trkpt lat="1.4293202216700613" lon="103.68937627282322">
        <ele>20.0</ele>
      </trkpt>
      <trkpt lat="1.4293682654929212" lon="103.68945240295916">
        <ele>20.0</ele>
      </trkpt>
      <trkpt lat="1.4294163093135446" lon="103.68952853309843">
        <ele>20.0</ele>
      </trkpt>
      <trkpt lat="1.4294643531319298" lon="103.68960466324098">
        <ele>20.0</ele>
      </trkpt>
      <trkpt lat="1.4295123969480779" lon="103.6896807933869">
        <ele>20.0</ele>
      </trkpt>
      <trkpt lat="1.4295604407619877" lon="103.68975692353611">
        <ele>20.0</ele>
      </trkpt>
      <trkpt lat="1.4296084845736599" lon="103.68983305368866">
        <ele>20.0</ele>
      </trkpt>
      <trkpt lat="1.429656528383093" lon="103.6899091838445">
        <ele>20.0</ele>
      </trkpt>
      <trkpt lat="1.4297045721902877" lon="103.68998531400369">
        <ele>20.0</ele>
      </trkpt>
      <trkpt lat="1.4297526159952436" lon="103.69006144416618">
        <ele>20.0</ele>
      </trkpt>
      <trkpt lat="1.4298006597979604" lon="103.69013757433198">
        <ele>20.0</ele>
      </trkpt>
      <trkpt lat="1.4298337970775552" lon="103.69019008363892">
        <ele>20.0</ele>
      </trkpt>
    </trkseg>
  </trk>
</gpx>