<?xml version="1.0" encoding="UTF-8"?>
<gpx xmlns="http://www.topografix.com/GPX/1/1" xmlns:xsi="http://www.w3.org/2001/XMLSchema-instance" xsi:schemaLocation="http://www.topografix.com/GPX/1/1 http://www.topografix.com/GPX/1/1/gpx.xsd" version="1.1" creator="gpx.py -- https://github.com/tkrajina/gpxpy">
  <trk>
    <name>point_to_point_05000m_014</name>
    <trkseg>
      <trkpt lat="1.3508002250400926" lon="103.6537681310458">
        <ele>20.0</ele>
      </trkpt>
      <trkpt lat="1.3508823633536091" lon="103.65373053244338">
        <ele>20.0</ele>
      </trkpt>
      <trkpt lat="1.350964501666145" lon="103.65369293383816">
        <ele>20.0</ele>
      </trkpt>
      <trkpt lat="1.351046639977699" lon="103.65365533523011">
        <ele>20.0</ele>
      </trkpt>
      <trkpt lat="1.3511190073423773" lon="103.65360180374728">
        <ele>20.0</ele>
      </trkpt>
      <trkpt lat="1.3511902969413507" lon="103.6535465148186">
        <ele>20.0</ele>
      </trkpt>
      <trkpt lat="1.351261586538581" lon="103.65349122588661">
        <ele>20.0</ele>
      </trkpt>
      <trkpt lat="1.351332876134069" lon="103.65343593695128">
        <ele>20.0</ele>
      </trkpt>
      <trkpt lat="1.3514081531348945" lon="103.65338614959981">
        <ele>20.0</ele>
      </trkpt>
      <trkpt lat="1.3514850077068843" lon="103.6533395215896">
        <ele>20.0</ele>
      </trkpt>
      <trkpt lat="1.3515708702544904" lon="103.65331130844632">
        <ele>20.0</ele>
      </trkpt>
      <trkpt lat="1.351656732801438" lon="103.65328309530067">
        <ele>20.0</ele>
      </trkpt>
      <trkpt lat="1.3517456660401332" lon="103.65327122464878">
        <ele>20.0</ele>
      </trkpt>
      <trkpt lat="1.3518359901467074" lon="103.65326675631857">
        <ele>20.0</ele>
      </trkpt>
      <trkpt lat="1.351926314253161" lon="103.65326228798763">
        <ele>20.0</ele>
      </trkpt>
      <trkpt lat="1.3520162467398944" lon="103.65327039230031">
        <ele>20.0</ele>
      </trkpt>
      <trkpt lat="1.3521061198845818" lon="103.65328040174319">
        <ele>20.0</ele>
      </trkpt>
      <trkpt lat="1.3521853792025065" lon="103.65332339186006">
        <ele>20.49095213522102</ele>
      </trkpt>
      <trkpt lat="1.352257754194768" lon="103.6533759563358">
        <ele>21.58535470185376</ele>
      </trkpt>
      <trkpt lat="1.352322142827831" lon="103.65343890706949">
        <ele>23.427565036325685</ele>
      </trkpt>
      <trkpt lat="1.3523555439560269" lon="103.65352240988693">
        <ele>25.5333227321367</ele>
      </trkpt>
      <trkpt lat="1.352386930107982" lon="103.65360662358962">
        <ele>27.804434434326737</ele>
      </trkpt>
      <trkpt lat="1.352414008838181" lon="103.65369235695196">
        <ele>30.09492977692423</ele>
      </trkpt>
      <trkpt lat="1.3524416107313106" lon="103.6537779195479">
        <ele>32.392670937904946</ele>
      </trkpt>
      <trkpt lat="1.3524709789931564" lon="103.65386290557757">
        <ele>34.653785380249076</ele>
      </trkpt>
      <trkpt lat="1.3525067819782832" lon="103.65394471178733">
        <ele>36.812401722718135</ele>
      </trkpt>
      <trkpt lat="1.352557271434079" lon="103.65401926044566">
        <ele>38.58461739737206</ele>
      </trkpt>
      <trkpt lat="1.3526223251844538" lon="103.65408124157342">
        <ele>39.62465535287182</ele>
      </trkpt>
      <trkpt lat="1.352691070801406" lon="103.6541387510851">
        <ele>40.82681458656284</ele>
      </trkpt>
      <trkpt lat="1.3527768319188702" lon="103.65416726718689">
        <ele>42.335554466864615</ele>
      </trkpt>
      <trkpt lat="1.3528625930362048" lon="103.65419578329032">
        <ele>43.36595836498589</ele>
      </trkpt>
      <trkpt lat="1.3529483541534097" lon="103.6542242993954">
        <ele>43.32901335248445</ele>
      </trkpt>
      <trkpt lat="1.3530298830922964" lon="103.65426279022918">
        <ele>42.46462028257776</ele>
      </trkpt>
      <trkpt lat="1.3531093064408295" lon="103.65430500560613">
        <ele>42.87921945025197</ele>
      </trkpt>
      <trkpt lat="1.3531599893942563" lon="103.65437942454984">
        <ele>44.639582696622405</ele>
      </trkpt>
      <trkpt lat="1.3531949440459952" lon="103.65446013660099">
        <ele>48.14972541123458</ele>
      </trkpt>
      <trkpt lat="1.3532103113631762" lon="103.65454868580889">
        <ele>50.85801511830004</ele>
      </trkpt>
      <trkpt lat="1.3532223613882728" lon="103.65463744994405">
        <ele>52.56973357063949</ele>
      </trkpt>
      <trkpt lat="1.35321869773246" lon="103.65472723216226">
        <ele>52.78585381831516</ele>
      </trkpt>
      <trkpt lat="1.3532150340732676" lon="103.65481701438063">
        <ele>52.46707252918045</ele>
      </trkpt>
      <trkpt lat="1.353198147806408" lon="103.65490525241354">
        <ele>51.243850948944754</ele>
      </trkpt>
      <trkpt lat="1.3531807592684897" lon="103.65499343178888">
        <ele>49.11618907760663</ele>
      </trkpt>
      <trkpt lat="1.3531633707271753" lon="103.6550816111634">
        <ele>46.728843704034546</ele>
      </trkpt>
      <trkpt lat="1.3531459821824658" lon="103.65516979053706">
        <ele>44.3414983304624</ele>
      </trkpt>
      <trkpt lat="1.3531285936343604" lon="103.65525796990988">
        <ele>42.479115441251956</ele>
      </trkpt>
      <trkpt lat="1.3531112050828598" lon="103.65534614928185">
        <ele>43.52150611461008</ele>
      </trkpt>
      <trkpt lat="1.3530957781832544" lon="103.65543464407584">
        <ele>47.492104752857735</ele>
      </trkpt>
      <trkpt lat="1.3530842875272382" lon="103.6555237717951">
        <ele>53.47036862964188</ele>
      </trkpt>
      <trkpt lat="1.3530727968678138" lon="103.65561289951395">
        <ele>57.647478512796276</ele>
      </trkpt>
      <trkpt lat="1.3530613062049823" lon="103.6557020272324">
        <ele>59.69216222225183</ele>
      </trkpt>
      <trkpt lat="1.3530498155387423" lon="103.65579115495042">
        <ele>60.0</ele>
      </trkpt>
      <trkpt lat="1.3530383248690956" lon="103.65588028266802">
        <ele>60.0</ele>
      </trkpt>
      <trkpt lat="1.3530268341960405" lon="103.65596941038524">
        <ele>60.0</ele>
      </trkpt>
      <trkpt lat="1.3530153435195793" lon="103.65605853810202">
        <ele>60.0</ele>
      </trkpt>
      <trkpt lat="1.3530038528397095" lon="103.6561476658184">
        <ele>60.0</ele>
      </trkpt>
      <trkpt lat="1.3529923144801241" lon="103.65623678347153">
        <ele>60.0</ele>
      </trkpt>
      <trkpt lat="1.3529663475296334" lon="103.65632285574499">
        <ele>60.0</ele>
      </trkpt>
      <trkpt lat="1.3529337864603241" lon="103.65640612399207">
        <ele>59.88749298387421</ele>
      </trkpt>
      <trkpt lat="1.3528890431973783" lon="103.65648421198696">
        <ele>58.519057493208116</ele>
      </trkpt>
      <trkpt lat="1.352844299931508" lon="103.65656229997921">
        <ele>55.894693528001646</ele>
      </trkpt>
      <trkpt lat="1.3527995566627133" lon="103.65664038796884">
        <ele>53.665089053011975</ele>
      </trkpt>
      <trkpt lat="1.352754813390995" lon="103.6567184759558">
        <ele>53.37383696879122</ele>
      </trkpt>
      <trkpt lat="1.3527100701163535" lon="103.65679656394013">
        <ele>55.02093727533873</ele>
      </trkpt>
      <trkpt lat="1.352665326838788" lon="103.65687465192184">
        <ele>57.068209024023844</ele>
      </trkpt>
      <trkpt lat="1.3526205835583" lon="103.6569527399009">
        <ele>58.7278965989107</ele>
      </trkpt>
      <trkpt lat="1.3525758402748893" lon="103.65703082787734">
        <ele>59.70516025756965</ele>
      </trkpt>
      <trkpt lat="1.3525441703211023" lon="103.65711342965518">
        <ele>60.0</ele>
      </trkpt>
      <trkpt lat="1.35253053608413" lon="103.6572022585898">
        <ele>60.0</ele>
      </trkpt>
      <trkpt lat="1.3525169018437537" lon="103.65729108752384">
        <ele>60.0</ele>
      </trkpt>
      <trkpt lat="1.3525032675999735" lon="103.6573799164573">
        <ele>60.0</ele>
      </trkpt>
      <trkpt lat="1.3524896333527896" lon="103.65746874539019">
        <ele>60.0</ele>
      </trkpt>
      <trkpt lat="1.3524774581628614" lon="103.65754806835187">
        <ele>60.0</ele>
      </trkpt>
    </trkseg>
  </trk>
</gpx>