{
"type": "FeatureCollection",
"name": "point_to_point_05000m_005",
"crs": { "type": "name", "properties": { "name": "urn:ogc:def:crs:OGC:1.3:CRS84" } },
"features": [
{ "type": "Feature", "properties": { "route_id": "point_to_point_05000m_005", "budget_km": 5.0, "mode": "point_to_point", "rank": 5, "distance_m": 4700.9517183523412, "ascent_m": 97.897737231808492, "descent_m": 92.752656887287586, "gain_density_m_per_km": 20.825088853735586, "source_confidence": 0.9875 }, "geometry": { "type": "LineString", "coordinates": [ [ 103.776174592671779, 1.390427850893411 ], [ 103.776340066954205, 1.390302505591282 ], [ 103.776701670190391, 1.389986790131024 ], [ 103.777044259887404, 1.389651918826917 ], [ 103.777253692249715, 1.389307405583006 ], [ 103.777396568069776, 1.388914993821983 ], [ 103.777501545008278, 1.388235376033481 ], [ 103.777587389847895, 1.387766351533855 ], [ 103.777796900109905, 1.387268672474069 ], [ 103.777920718039383, 1.386943260002795 ], [ 103.777939922560165, 1.386589074538352 ], [ 103.777768836533923, 1.386349664623399 ], [ 103.777293302195758, 1.386263262192326 ], [ 103.777033425897073, 1.386225525030211 ], [ 103.776930486384543, 1.386167964336114 ], [ 103.776730328177578, 1.385995286652288 ], [ 103.776684579975552, 1.385839879689957 ], [ 103.776673147277876, 1.385655695794947 ], [ 103.776724623908294, 1.385356396954499 ], [ 103.776758946283394, 1.384999540374527 ], [ 103.776764670493364, 1.384798088969516 ], [ 103.776730362187266, 1.384562101664859 ], [ 103.776713212786547, 1.384262802075651 ], [ 103.776667465707249, 1.384061348528269 ], [ 103.776501625964841, 1.383704488032437 ], [ 103.776438722967598, 1.383480011679689 ], [ 103.776387256158017, 1.383330359943907 ], [ 103.776227133246351, 1.383048323910794 ], [ 103.776164230152247, 1.38282960292208 ], [ 103.776101328171549, 1.382564837156521 ], [ 103.776084174166883, 1.38246123283068 ], [ 103.7761184903068, 1.382328851090279 ], [ 103.776135651683859, 1.382161933995232 ], [ 103.776180321918176, 1.381886358262287 ], [ 103.776175696597974, 1.381638160946961 ], [ 103.776205943245941, 1.381461053796053 ], [ 103.77642193406173, 1.380834837757329 ], [ 103.776509028694434, 1.380593266207044 ], [ 103.776551719869033, 1.380331210651034 ], [ 103.776611062177921, 1.380158743576059 ], [ 103.776659046892064, 1.380121814128458 ], [ 103.776724748257294, 1.380107140592087 ], [ 103.776844845013002, 1.38015894542187 ], [ 103.776958237171911, 1.380187158852574 ], [ 103.777250887010126, 1.380164711366674 ], [ 103.777545332235547, 1.380101950062548 ], [ 103.777706220651737, 1.379999687493699 ], [ 103.77785864251841, 1.37986617532838 ], [ 103.77798566072704, 1.379735503164485 ], [ 103.77806868922832, 1.379566888286877 ], [ 103.778200185943589, 1.379278147893346 ], [ 103.778256641972561, 1.379102022550743 ], [ 103.778296161486651, 1.378934418632315 ], [ 103.778317436302814, 1.378730282512882 ], [ 103.778344021249978, 1.378623323119776 ], [ 103.778388957376393, 1.378532876931017 ], [ 103.778374581504792, 1.378437003181691 ], [ 103.778302691939714, 1.378207265069768 ], [ 103.778272138397966, 1.378140333298432 ], [ 103.778169690030225, 1.378073399852415 ], [ 103.778063648210193, 1.377970288148711 ], [ 103.778034891490179, 1.377917828046094 ], [ 103.777804834987663, 1.377657334234166 ], [ 103.777621507457539, 1.377532512349515 ], [ 103.777528045466212, 1.377478241990456 ], [ 103.777402233386923, 1.37737151143333 ], [ 103.777371679585102, 1.377317242553237 ], [ 103.777359099246922, 1.377253929555293 ], [ 103.777346521441956, 1.377082079336158 ], [ 103.777323157462135, 1.37701333899593 ], [ 103.777190124729557, 1.376857806978548 ], [ 103.777323157462135, 1.37701333899593 ], [ 103.777346521441956, 1.377082079336158 ], [ 103.777359099246922, 1.377253929555293 ], [ 103.777371679585102, 1.377317242553237 ], [ 103.777402233386923, 1.37737151143333 ], [ 103.777528045466212, 1.377478241990456 ], [ 103.777621507457539, 1.377532512349515 ], [ 103.777804834987663, 1.377657334234166 ], [ 103.778034891490179, 1.377917828046094 ], [ 103.778063648210193, 1.377970288148711 ], [ 103.778169690030225, 1.378073399852415 ], [ 103.778272138397966, 1.378140333298432 ], [ 103.778302691939714, 1.378207265069768 ], [ 103.778374581504792, 1.378437003181691 ], [ 103.778388957376393, 1.378532876931017 ], [ 103.778344021249978, 1.378623323119776 ], [ 103.778317436302814, 1.378730282512882 ], [ 103.778296161486651, 1.378934418632315 ], [ 103.778256641972561, 1.379102022550743 ], [ 103.778200185943589, 1.379278147893346 ], [ 103.77806868922832, 1.379566888286877 ], [ 103.77798566072704, 1.379735503164485 ], [ 103.77785864251841, 1.37986617532838 ], [ 103.777706220651737, 1.379999687493699 ], [ 103.777545332235547, 1.380101950062548 ], [ 103.777250887010126, 1.380164711366674 ], [ 103.776958237171911, 1.380187158852574 ], [ 103.776844845013002, 1.38015894542187 ], [ 103.776724748257294, 1.380107140592087 ], [ 103.776659046892064, 1.380121814128458 ], [ 103.776611062177921, 1.380158743576059 ], [ 103.776551719869033, 1.380331210651034 ], [ 103.776509028694434, 1.380593266207044 ], [ 103.77642193406173, 1.380834837757329 ], [ 103.776205943245941, 1.381461053796053 ], [ 103.776175696597974, 1.381638160946961 ], [ 103.776180321918176, 1.381886358262287 ], [ 103.776135651683859, 1.382161933995232 ], [ 103.7761184903068, 1.382328851090279 ], [ 103.776084174166883, 1.38246123283068 ], [ 103.776101328171549, 1.382564837156521 ], [ 103.776164230152247, 1.38282960292208 ], [ 103.776227133246351, 1.383048323910794 ], [ 103.776387256158017, 1.383330359943907 ], [ 103.776438722967598, 1.383480011679689 ], [ 103.776501625964841, 1.383704488032437 ], [ 103.776667465707249, 1.384061348528269 ], [ 103.776713212786547, 1.384262802075651 ], [ 103.776730362187266, 1.384562101664859 ], [ 103.776764670493364, 1.384798088969516 ], [ 103.776758946283394, 1.384999540374527 ], [ 103.776724623908294, 1.385356396954499 ], [ 103.776673147277876, 1.385655695794947 ], [ 103.776684579975552, 1.385839879689957 ], [ 103.776730328177578, 1.385995286652288 ], [ 103.776930486384543, 1.386167964336114 ], [ 103.777033425897073, 1.386225525030211 ], [ 103.777293302195758, 1.386263262192326 ], [ 103.777768836533923, 1.386349664623399 ], [ 103.777939922560165, 1.386589074538352 ], [ 103.777920718039383, 1.386943260002795 ], [ 103.777796900109905, 1.387268672474069 ], [ 103.777587389847895, 1.387766351533855 ], [ 103.777501545008278, 1.388235376033481 ], [ 103.777396568069776, 1.388914993821983 ], [ 103.777253692249715, 1.389307405583006 ], [ 103.777044259887404, 1.389651918826917 ], [ 103.776701670190391, 1.389986790131024 ], [ 103.776340066954205, 1.390302505591282 ], [ 103.776174592671779, 1.390427850893411 ], [ 103.775968498138127, 1.390591668629858 ], [ 103.775974031344361, 1.390675860501267 ], [ 103.776035331184943, 1.390760080866476 ], [ 103.776135616090542, 1.390945347638836 ], [ 103.776247016463458, 1.391203585069579 ], [ 103.776324924475901, 1.39152354269312 ], [ 103.776324765204336, 1.391832233662639 ], [ 103.776274413010441, 1.392146512377127 ], [ 103.776173897081847, 1.392410250406823 ], [ 103.776006446239393, 1.392702017545054 ], [ 103.775811147341543, 1.392926417936539 ], [ 103.775621456140982, 1.393089083872275 ], [ 103.775442924637289, 1.393240529627552 ], [ 103.775247671871654, 1.393375129371729 ], [ 103.775219689175486, 1.393487380100675 ], [ 103.775175084907218, 1.393549081011136 ], [ 103.775013274580274, 1.393717373631565 ], [ 103.774873808295908, 1.393812714496886 ], [ 103.774678540379782, 1.393975376592519 ], [ 103.774589226444832, 1.394143707171029 ], [ 103.774516628965486, 1.394340109612431 ], [ 103.774455131807102, 1.394637543311737 ], [ 103.774415923053965, 1.394968665114281 ], [ 103.77440461601779, 1.395266125395847 ], [ 103.774398827055776, 1.39567583994857 ], [ 103.77435400482301, 1.396079922042689 ], [ 103.774314790351951, 1.396422267894335 ], [ 103.774275553180601, 1.396809515395916 ], [ 103.774286488275152, 1.397230463465055 ], [ 103.77436998978807, 1.397516749106269 ], [ 103.77454276855417, 1.397707667332482 ], [ 103.774782417341029, 1.397994033759596 ], [ 103.774893752054155, 1.398042832392574 ] ] } }
]
}
