{
"type": "FeatureCollection",
"name": "point_to_point_05000m_029",
"crs": { "type": "name", "properties": { "name": "urn:ogc:def:crs:OGC:1.3:CRS84" } },
"features": [
{ "type": "Feature", "properties": { "route_id": "point_to_point_05000m_029", "budget_km": 5.0, "mode": "point_to_point", "rank": 29, "distance_m": 4091.2927698341568, "ascent_m": 36.130061854447376, "descent_m": 34.825897807632984, "gain_density_m_per_km": 8.8309646576360592, "source_confidence": 0.84 }, "geometry": { "type": "LineString", "coordinates": [ [ 103.771450569958276, 1.448659598172051 ], [ 103.771346466310163, 1.448822505477194 ], [ 103.77160787513732, 1.448930800196931 ], [ 103.7718094852126, 1.449158600321715 ], [ 103.772006342429862, 1.449327058703643 ], [ 103.77222112903074, 1.449511155803823 ], [ 103.772430349887443, 1.449655925598087 ], [ 103.772668695232852, 1.449803687792545 ], [ 103.772894559571341, 1.449931708284297 ], [ 103.773077628115743, 1.450024433931825 ], [ 103.77357872109306, 1.450263307696294 ], [ 103.773673821248806, 1.450318822744848 ], [ 103.773725175179095, 1.450360937585952 ], [ 103.773784138614801, 1.450362852780248 ], [ 103.774082755388179, 1.45049877198134 ], [ 103.774419918705092, 1.450699399339482 ], [ 103.774451748029975, 1.45066532015119 ], [ 103.774689501328055, 1.450747638787459 ], [ 103.774775092327744, 1.450776354549005 ], [ 103.774963392731323, 1.450831872874497 ], [ 103.775296248702745, 1.450910364841115 ], [ 103.775507373840739, 1.450956311931009 ], [ 103.77565763448014, 1.450985030226374 ], [ 103.776041845552825, 1.451063523401293 ], [ 103.776357582974342, 1.451117130319247 ], [ 103.776427958477171, 1.451126702977543 ], [ 103.776489255061193, 1.451150395226834 ], [ 103.776739892235199, 1.451176481576729 ], [ 103.776808365070636, 1.451199454125023 ], [ 103.776869229689026, 1.451212854699987 ], [ 103.776916781155322, 1.451205199554942 ], [ 103.777132077005305, 1.451241496139322 ], [ 103.777132529791174, 1.451245915773677 ], [ 103.777133985340512, 1.451253392180765 ], [ 103.777136534495, 1.451260564749146 ], [ 103.777140120646635, 1.451267273405131 ], [ 103.777144662925139, 1.451273368022372 ], [ 103.777150058893341, 1.45127871023076 ], [ 103.777158045514426, 1.451284632200694 ], [ 103.777170605962525, 1.45129270395625 ], [ 103.777181449238654, 1.451298553648426 ], [ 103.777191092020942, 1.45130289211964 ], [ 103.777200335856094, 1.451305942767616 ], [ 103.777214575001011, 1.451309570524018 ], [ 103.777223696628155, 1.451312552437258 ], [ 103.777233296291172, 1.451316345576185 ], [ 103.777241854437449, 1.451321680628373 ], [ 103.777245393058138, 1.451324553878615 ], [ 103.777251699307456, 1.451329987450167 ], [ 103.777256618128618, 1.451334931726594 ], [ 103.777265423295177, 1.45134413112887 ], [ 103.777275184608754, 1.451351898043632 ], [ 103.777285501289867, 1.451358368115364 ], [ 103.777296064216756, 1.451363661616639 ], [ 103.777311800378413, 1.45136945988147 ], [ 103.777318110311541, 1.451371271478259 ], [ 103.777327649807958, 1.451373468414235 ], [ 103.777379143056336, 1.451637327613085 ], [ 103.777402990952339, 1.451713898831468 ], [ 103.777457043074378, 1.451809353904818 ], [ 103.777481673341583, 1.451862138580589 ], [ 103.77755176399576, 1.45190922961003 ], [ 103.777697716008888, 1.452008429212651 ], [ 103.77784566469731, 1.45210886512004 ], [ 103.778015635948705, 1.452224814102832 ], [ 103.778242095102627, 1.452378256645619 ], [ 103.778518287750131, 1.452554372766963 ], [ 103.778636652599388, 1.452660865327115 ], [ 103.778732019521641, 1.452730870787869 ], [ 103.778826011231459, 1.452778302400821 ], [ 103.778914628891727, 1.452843068714109 ], [ 103.779105690037326, 1.452975898972958 ], [ 103.779205289442885, 1.453044209739991 ], [ 103.779335360066213, 1.453128510377863 ], [ 103.779476829482789, 1.453212075130329 ], [ 103.779722440964562, 1.45335606920228 ], [ 103.779885939346144, 1.453452122807879 ], [ 103.780041855454982, 1.453543153388544 ], [ 103.78023823685227, 1.453658853232646 ], [ 103.780363520048368, 1.453732408055872 ], [ 103.78051441667219, 1.453820518297475 ], [ 103.780680411398848, 1.453918310092206 ], [ 103.780887869796501, 1.454039930103215 ], [ 103.781021039959654, 1.454118204947183 ], [ 103.781134630748525, 1.454185002054019 ], [ 103.781269419298738, 1.454263854809534 ], [ 103.781390877267313, 1.454335004786764 ], [ 103.781569041701601, 1.454439057706641 ], [ 103.781727445236243, 1.454532021760347 ], [ 103.781855038816673, 1.454606509859274 ], [ 103.781945362445654, 1.454659740943431 ], [ 103.782061369550775, 1.45473014827847 ], [ 103.782156180120666, 1.454774146812465 ], [ 103.782263261005724, 1.454782973126072 ], [ 103.782345917722012, 1.454758457718937 ], [ 103.782402264584505, 1.45471905317886 ], [ 103.782439291582861, 1.454675474562441 ], [ 103.782459025041206, 1.454628859605627 ], [ 103.7824791607257, 1.454517464212515 ], [ 103.782457946465215, 1.454439532035535 ], [ 103.782402325569876, 1.454363669164889 ], [ 103.78235854648797, 1.454326661625532 ], [ 103.782234266039168, 1.454252768701536 ], [ 103.782074409045265, 1.454178257278175 ], [ 103.781975740515762, 1.454146903460267 ], [ 103.781849777014727, 1.454112356609568 ], [ 103.781674603551508, 1.454069276856377 ], [ 103.781520219029105, 1.454036328247144 ], [ 103.781492486973292, 1.454009625376981 ], [ 103.781390742075061, 1.453920170645322 ], [ 103.781290877722626, 1.453841055537998 ], [ 103.78116600523478, 1.453763805546582 ], [ 103.781044875776175, 1.453710729265466 ], [ 103.780884141326979, 1.453657850108272 ], [ 103.78077653221473, 1.453606251858555 ], [ 103.780671990328671, 1.453580834991874 ], [ 103.780581246103608, 1.453532944113679 ], [ 103.780483968497492, 1.453431308579025 ], [ 103.780449742142139, 1.453332596524378 ], [ 103.780410379916518, 1.453210861972955 ], [ 103.780331628276485, 1.453054916238328 ], [ 103.780237918866646, 1.45292263100313 ], [ 103.780167275112561, 1.452852953569429 ], [ 103.780050800437067, 1.452763540031843 ], [ 103.779891031052017, 1.452677778181723 ], [ 103.779809262214201, 1.452625635171474 ], [ 103.779734472108018, 1.452565562868 ], [ 103.779638224749121, 1.452448221246907 ], [ 103.779538691955949, 1.452299497234365 ], [ 103.779432376505923, 1.452151836586145 ], [ 103.779286714046393, 1.451964640747941 ], [ 103.779184500667199, 1.451857953268447 ], [ 103.779096891983357, 1.451800832477572 ], [ 103.779013702387203, 1.451791351836994 ], [ 103.778888837971735, 1.451760309258975 ], [ 103.7788942, 1.4517302 ], [ 103.778942, 1.4517387 ], [ 103.7790245, 1.4517542 ], [ 103.7790823, 1.4517646 ], [ 103.7791057, 1.4517701 ], [ 103.7792226, 1.4518572 ], [ 103.7793344, 1.451973 ], [ 103.7794922, 1.4521839 ], [ 103.7795267, 1.4522414 ], [ 103.7797294, 1.4525121 ], [ 103.7798154, 1.4525886 ], [ 103.7799239, 1.4526741 ], [ 103.780083, 1.4527357 ], [ 103.780224700000019, 1.4528523 ], [ 103.7803452, 1.452996 ], [ 103.7804308, 1.4531654 ], [ 103.7804448, 1.4531931 ], [ 103.7804977, 1.4533658 ], [ 103.7805729, 1.4534613 ], [ 103.7806725, 1.4535223 ], [ 103.7806887, 1.4535448 ], [ 103.7808061, 1.4535702 ], [ 103.7809327, 1.4536077 ], [ 103.7811096, 1.4536721 ], [ 103.7812475, 1.45375 ], [ 103.7813866, 1.4538673 ], [ 103.7814517, 1.4539401 ], [ 103.7814985, 1.4539804 ], [ 103.7819687, 1.4541197 ], [ 103.782214, 1.4542023 ], [ 103.7822766, 1.4542321 ], [ 103.7824043, 1.4543227 ], [ 103.7824726, 1.4544032 ], [ 103.7824918, 1.4545241 ], [ 103.7824816, 1.4546095 ], [ 103.7824207, 1.454707 ], [ 103.782315, 1.4547558 ], [ 103.7822785, 1.454759 ], [ 103.782223500000015, 1.4547639 ], [ 103.7820792, 1.4547253 ], [ 103.7819112, 1.4546236 ], [ 103.7814917, 1.4543697 ], [ 103.7814509, 1.4543457 ], [ 103.7808128, 1.4539694 ], [ 103.7805299, 1.4538031 ], [ 103.779993600000012, 1.4534878 ], [ 103.7797899, 1.4533675 ], [ 103.7792537, 1.4530509 ], [ 103.7792008, 1.4530119 ], [ 103.778795718165867, 1.452790828903636 ], [ 103.778803124179234, 1.452764315867816 ], [ 103.778810405796264, 1.452754020773643 ], [ 103.778825625509015, 1.452750081736911 ], [ 103.77884214441282, 1.452753950099351 ], [ 103.778866283058605, 1.452774571975316 ], [ 103.778914243168202, 1.452814848050189 ], [ 103.778925258007817, 1.452824099048585 ], [ 103.779009587695938, 1.45288253923357 ], [ 103.779105304311472, 1.452947678309013 ], [ 103.779194609488925, 1.453009422246402 ], [ 103.779201374959783, 1.453013738030871 ], [ 103.779204903715808, 1.453015989076034 ], [ 103.779284729716281, 1.453070616347155 ], [ 103.779301577367107, 1.453080566556973 ], [ 103.779334974337573, 1.453100289713888 ], [ 103.779401457367797, 1.453139574137785 ], [ 103.779401489712299, 1.453139792090102 ], [ 103.77956494493057, 1.45323587917859 ], [ 103.77964976010459, 1.453285484627677 ], [ 103.779785476787808, 1.45336501305065 ], [ 103.779794453700433, 1.453370181700689 ], [ 103.779804871052619, 1.453376180590502 ], [ 103.779927963444308, 1.453448986572127 ], [ 103.780036054816037, 1.453511750141638 ], [ 103.780041469717659, 1.453514932724464 ], [ 103.780141688533135, 1.453573825427447 ], [ 103.780237851112531, 1.453630632568537 ], [ 103.780363134307095, 1.453704187391746 ], [ 103.780382284157611, 1.453715369390839 ], [ 103.780514030929055, 1.453792297633326 ], [ 103.780522154182876, 1.453797041209754 ], [ 103.780604109178569, 1.453845356934773 ], [ 103.780647352023365, 1.453870837480634 ], [ 103.780680025653695, 1.453890089428034 ], [ 103.780825744617928, 1.453975449359249 ], [ 103.780939541172771, 1.454042283559291 ], [ 103.780966434179021, 1.454058078891321 ], [ 103.781120903627794, 1.454148976424463 ], [ 103.781134244997816, 1.454156781389786 ], [ 103.781269033546366, 1.454235634145282 ], [ 103.781355397964418, 1.454286226228479 ], [ 103.781448767797372, 1.454340921566607 ], [ 103.781452946242851, 1.454343368870223 ], [ 103.781456592726016, 1.454345363979896 ], [ 103.781469353619997, 1.454352345959309 ], [ 103.781529422589841, 1.454387728751038 ], [ 103.781646889025922, 1.454456916154399 ], [ 103.78175250486774, 1.454518682074411 ], [ 103.781841301787608, 1.454570916519174 ], [ 103.78185465305711, 1.454578289194944 ], [ 103.781884148418172, 1.45459457654969 ], [ 103.781892987849915, 1.454599945052768 ], [ 103.781944976684983, 1.45463152027909 ], [ 103.782060983788696, 1.454701927614115 ], [ 103.782088504919159, 1.454718384037054 ], [ 103.782098749769531, 1.454723611490784 ], [ 103.782108588456239, 1.45472863183602 ], [ 103.782132502737639, 1.454738827269196 ], [ 103.782155794357408, 1.454745926148112 ], [ 103.78218133254839, 1.454750160959585 ], [ 103.782225547300996, 1.454754187288573 ], [ 103.782245093678284, 1.454755384206568 ], [ 103.782262875241145, 1.454754752461675 ], [ 103.78226376845285, 1.454754720829305 ], [ 103.782281124121127, 1.454752173633179 ], [ 103.782318183617363, 1.454742130618163 ], [ 103.782345531956395, 1.454730237054512 ], [ 103.7823752455582, 1.454712059123934 ], [ 103.782401878818177, 1.45469083251441 ], [ 103.782425074078674, 1.454667173993688 ], [ 103.782438905816051, 1.45464725389797 ], [ 103.782449738984894, 1.454624275177563 ], [ 103.78245863927414, 1.45460063894114 ], [ 103.782465704655323, 1.454575281659764 ], [ 103.782472923768466, 1.454546748258052 ], [ 103.782477294334981, 1.454517162112856 ], [ 103.782478774958321, 1.454489243547995 ], [ 103.782477869647906, 1.454467761282391 ], [ 103.782470127005411, 1.454440278411476 ], [ 103.782457560698134, 1.454411311371001 ], [ 103.782438791342742, 1.454382145229804 ], [ 103.782424913749182, 1.454363264522931 ], [ 103.782401939803464, 1.454335448500369 ], [ 103.782385997162066, 1.454319242852913 ], [ 103.782358160722083, 1.454298440960998 ], [ 103.782334994203225, 1.454282817558975 ], [ 103.782325965187979, 1.454276491332628 ], [ 103.782309250514402, 1.454266238186136 ], [ 103.782281681738041, 1.454250833539371 ], [ 103.782253797554034, 1.454235365579658 ], [ 103.782233880274788, 1.454224548037017 ], [ 103.782224705656262, 1.454219564786422 ], [ 103.782188255160435, 1.454201249695178 ], [ 103.782161468116115, 1.454188228966367 ], [ 103.782130943799871, 1.454174538018764 ], [ 103.782097345383136, 1.454160054778346 ], [ 103.782076472839634, 1.45415151439924 ], [ 103.782074023282874, 1.454150036613697 ], [ 103.782050789211226, 1.454141553155273 ], [ 103.782023244560321, 1.454132355151067 ], [ 103.781975354754593, 1.454118682795792 ], [ 103.781926778382868, 1.45410653065844 ], [ 103.781878512062178, 1.45409293606775 ], [ 103.781849391255093, 1.454084135945119 ], [ 103.781811145159097, 1.454074556955815 ], [ 103.781737885207065, 1.454056881301011 ], [ 103.781674217794048, 1.454041056191965 ], [ 103.781633452983229, 1.454028578657443 ], [ 103.781592255067693, 1.454015173235496 ], [ 103.781555845674134, 1.454007484403488 ], [ 103.781519801822895, 1.454008075928236 ], [ 103.7814113, 1.454042 ], [ 103.7813201, 1.4540943 ], [ 103.7812825, 1.4540943 ], [ 103.7812396, 1.4540862 ], [ 103.781202, 1.4540701 ], [ 103.7811471, 1.4540406 ], [ 103.781117600000016, 1.4540098 ], [ 103.7810867, 1.4539535 ], [ 103.7810652, 1.4539294 ], [ 103.78103440000001, 1.4539012 ], [ 103.7809365, 1.4538623 ], [ 103.7808708, 1.4538369 ], [ 103.7808212, 1.4538033 ], [ 103.7807742, 1.4537671 ], [ 103.7807501, 1.4537309 ], [ 103.7807313, 1.4536907 ], [ 103.7807192, 1.4536358 ], [ 103.7807072, 1.4535996 ], [ 103.7806887, 1.4535448 ], [ 103.7806348, 1.4535513 ], [ 103.7805932, 1.4535687 ], [ 103.7805382, 1.4535754 ], [ 103.7805051, 1.4535725 ], [ 103.7804778, 1.4535701 ], [ 103.7804041, 1.4535486 ], [ 103.780337, 1.4535178 ], [ 103.7802794, 1.4534695 ], [ 103.7802364, 1.4534212 ], [ 103.7802029, 1.4533917 ], [ 103.7801613, 1.4533649 ], [ 103.7800514, 1.4533488 ], [ 103.7799347, 1.4533234 ], [ 103.779869, 1.4533019 ], [ 103.7798479, 1.4532949 ], [ 103.7798288, 1.4532885 ], [ 103.7797724, 1.453255 ], [ 103.7796745, 1.4531705 ], [ 103.7795994, 1.4530955 ], [ 103.779535, 1.453003 ], [ 103.779521515149696, 1.452946758636388 ], [ 103.779526205127993, 1.452977347027638 ], [ 103.77952870456275, 1.452997451986671 ], [ 103.779531012901586, 1.453004611885736 ], [ 103.779534480424786, 1.453012284586536 ], [ 103.779544177747937, 1.453028707150906 ], [ 103.779575888261817, 1.453077231519903 ], [ 103.7795974136571, 1.453103200825587 ], [ 103.779626528523622, 1.453134302574017 ], [ 103.779656994896456, 1.453165057983301 ], [ 103.779680237587812, 1.453188231038148 ], [ 103.779713846398664, 1.453217907616457 ], [ 103.77972619655894, 1.453227463413397 ], [ 103.779744896134105, 1.453241551126025 ], [ 103.779774915251181, 1.453261906345869 ], [ 103.779797849946803, 1.453275627892021 ], [ 103.779826335289883, 1.453290089339384 ], [ 103.779839172589362, 1.453295562851672 ], [ 103.779850380739802, 1.453300341774106 ], [ 103.779889162276362, 1.453314339527644 ], [ 103.779938894166222, 1.453328824992834 ], [ 103.779976548928474, 1.453339774109616 ], [ 103.780024446796276, 1.453353256590519 ], [ 103.780066893915574, 1.453359446155881 ], [ 103.780099713465532, 1.453363386340753 ], [ 103.78013906668987, 1.4533699420985 ], [ 103.780159140450365, 1.453374667872071 ], [ 103.78017534118672, 1.453381507050661 ], [ 103.780192189752768, 1.453391019542212 ], [ 103.780204365579451, 1.453400909042531 ], [ 103.780225359118063, 1.453422365557308 ], [ 103.780241369919167, 1.453443367963705 ], [ 103.780258182304806, 1.45346303464445 ], [ 103.780280460772133, 1.4534876338514 ], [ 103.780302261353697, 1.453504942070393 ], [ 103.780331387258698, 1.453525736782486 ], [ 103.780360308411957, 1.453540994977587 ], [ 103.780385343169471, 1.453553761559923 ], [ 103.78042029758376, 1.453567061045822 ], [ 103.780445518489458, 1.453573942940245 ], [ 103.780463860645909, 1.453578681331446 ], [ 103.780484637166055, 1.453581248403687 ], [ 103.780499879234085, 1.453582165786899 ], [ 103.780513776995235, 1.453583001745664 ], [ 103.780543531505373, 1.453583159804953 ], [ 103.780576748402865, 1.45358015900441 ], [ 103.780605985415221, 1.453576133466316 ], [ 103.780629773295672, 1.453572474066997 ], [ 103.780655131107608, 1.453565638580546 ], [ 103.780671621656552, 1.453552618848755 ] ] } }
]
}
