{
"type": "FeatureCollection",
"name": "point_to_point_05000m_004",
"crs": { "type": "name", "properties": { "name": "urn:ogc:def:crs:OGC:1.3:CRS84" } },
"features": [
{ "type": "Feature", "properties": { "route_id": "point_to_point_05000m_004", "budget_km": 5.0, "mode": "point_to_point", "rank": 4, "distance_m": 2178.7929132608583, "ascent_m": 105.88157106627885, "descent_m": 84.636957816325491, "gain_density_m_per_km": 48.59643632116132, "source_confidence": 0.85 }, "geometry": { "type": "LineString", "coordinates": [ [ 103.807885254661954, 1.353621872244915 ], [ 103.807844099871502, 1.353674269773941 ], [ 103.807808402340527, 1.353699843010291 ], [ 103.807805981398161, 1.35371993705543 ], [ 103.807879794725267, 1.353819190011469 ], [ 103.807825502964235, 1.353953329274695 ], [ 103.807718618790972, 1.354204307325394 ], [ 103.807580559275081, 1.354589740496797 ], [ 103.807406871002144, 1.355033435136472 ], [ 103.807179740868833, 1.355611583734152 ], [ 103.80699269195047, 1.356113542766092 ], [ 103.806988236599807, 1.356221105997708 ], [ 103.807055033541303, 1.356360043310487 ], [ 103.80722870542364, 1.356790299227211 ], [ 103.807455815246016, 1.357287784339553 ], [ 103.80757159778463, 1.357489467863529 ], [ 103.807598316728559, 1.35756565812803 ], [ 103.807620582713724, 1.35761047685177 ], [ 103.807682926908527, 1.3577045965183 ], [ 103.807705191384329, 1.357807678006087 ], [ 103.807959022193273, 1.358291717267153 ], [ 103.808150506691291, 1.358717492179251 ], [ 103.808261834996785, 1.359022257777193 ], [ 103.808341992015599, 1.359156713163972 ], [ 103.808426603098908, 1.359304613778083 ], [ 103.808471133866163, 1.35943010563614 ], [ 103.808515664637923, 1.359555596588961 ], [ 103.808765039332712, 1.360174090268241 ], [ 103.808814025006569, 1.360232354438088 ], [ 103.808840744244208, 1.360286137254628 ], [ 103.80884074289375, 1.360330954835048 ], [ 103.808894181057781, 1.360469891959571 ], [ 103.8090767596033, 1.360864293404404 ], [ 103.809156916146435, 1.361057012432086 ], [ 103.80926824508083, 1.361321441526444 ], [ 103.809312777579564, 1.361370742487158 ], [ 103.809370670374875, 1.361379707125469 ], [ 103.809446344105311, 1.361379706072526 ], [ 103.80950872353543, 1.361379709406453 ], [ 103.80960669705091, 1.361375229253614 ], [ 103.809704670653375, 1.361361785942442 ], [ 103.80978483016132, 1.361348341547881 ], [ 103.809913977837823, 1.361325935379948 ], [ 103.810007497411846, 1.361294563895377 ], [ 103.810163365003561, 1.361258712790132 ], [ 103.810279151750251, 1.361249750752489 ], [ 103.810354858809262, 1.361240788325258 ], [ 103.810417204904354, 1.361249752981006 ], [ 103.81048400511267, 1.361267681736354 ], [ 103.810519631627841, 1.361254236892039 ], [ 103.810657685201065, 1.361209421526032 ], [ 103.810920433211948, 1.361133235828776 ], [ 103.812550359420598, 1.360698528027337 ], [ 103.812581532580509, 1.360689565142835 ], [ 103.812559266667606, 1.360622338125641 ], [ 103.812505827559065, 1.360568555117256 ], [ 103.812496922285831, 1.36051925542894 ], [ 103.812505829264751, 1.360474437020477 ], [ 103.812553418099299, 1.360388461328472 ], [ 103.812505829264751, 1.360474437020477 ], [ 103.812496922285831, 1.36051925542894 ], [ 103.812505827559065, 1.360568555117256 ], [ 103.812559266667606, 1.360622338125641 ], [ 103.812581532580509, 1.360689565142835 ], [ 103.812550359420598, 1.360698528027337 ], [ 103.810920433211948, 1.361133235828776 ], [ 103.810657685201065, 1.361209421526032 ], [ 103.810519631627841, 1.361254236892039 ], [ 103.81048400511267, 1.361267681736354 ], [ 103.810417204904354, 1.361249752981006 ], [ 103.810354858809262, 1.361240788325258 ], [ 103.810279151750251, 1.361249750752489 ], [ 103.810163365003561, 1.361258712790132 ], [ 103.810007497411846, 1.361294563895377 ], [ 103.809913977837823, 1.361325935379948 ], [ 103.80978483016132, 1.361348341547881 ], [ 103.809704670653375, 1.361361785942442 ], [ 103.80960669705091, 1.361375229253614 ], [ 103.80950872353543, 1.361379709406453 ], [ 103.809446344105311, 1.361379706072526 ], [ 103.8093042, 1.3611996 ], [ 103.8091479, 1.3608504 ], [ 103.8090809, 1.3606747 ], [ 103.808943066697168, 1.360379293244403 ], [ 103.8090063, 1.3603514 ], [ 103.8087054, 1.3598649 ], [ 103.8085377, 1.3594828 ], [ 103.8083597, 1.3590861 ], [ 103.8082708, 1.3588768 ], [ 103.8081877, 1.3586341 ], [ 103.8080697, 1.358425 ], [ 103.8079004, 1.3580992 ], [ 103.807842437814884, 1.357942291377586 ] ] } }
]
}
